{"type":"FeatureCollection","metadata":{"population_source":"WorldPop Global 2 R2025A","population_source_url":"https://hub.worldpop.org/project/categories?id=3","population_license":"CC BY 4.0","population_year":2025,"raster_resolution":"1km","h3_resolution":1,"population_method":"official_country_rasters","occupied_cells":34,"mapped_players":147},"features":[{"type":"Feature","properties":{"hex_id":"81183ffffffffff","population":6292474,"population_year":2025,"area_km2":595741.2,"population_density":10.6,"all_players":1,"players_per_million":0.16,"player_ids":["motogp:caseyogorman"],"label":"Portlaoise","country":"Ireland"},"geometry":{"type":"Polygon","coordinates":[[[-13.791647,56.736324],[-18.841172,53.740207],[-16.382341,49.609269],[-9.724736,48.430094],[-4.88976,51.223728],[-6.436337,55.37739],[-13.791647,56.736324]]]}},{"type":"Feature","properties":{"hex_id":"81187ffffffffff","population":21776966,"population_year":2025,"area_km2":595741.2,"population_density":36.6,"all_players":3,"players_per_million":0.14,"player_ids":["motogp:brianuriarte","motogp:lucieboudesseul","motogp:xabizurutuza"],"label":"Santa Cruz de Bezana","country":"Spain"},"geometry":{"type":"Polygon","coordinates":[[[-4.88976,51.223728],[-9.724736,48.430094],[-8.101589,44.050631],[-2.417796,42.54048],[2.026569,45.184249],[1.18851,49.470279],[-4.88976,51.223728]]]}},{"type":"Feature","properties":{"hex_id":"81197ffffffffff","population":88036357,"population_year":2025,"area_km2":523941.7,"population_density":168.0,"all_players":7,"players_per_million":0.08,"player_ids":["motogp:eddieoshea","motogp:evanbelford","motogp:jakedixon","motogp:jamiehankselliott","motogp:maxcook","motogp:scottogden","motogp:zontavdgoorbergh"],"label":"Leicester","country":"United Kingdom"},"geometry":{"type":"Polygon","coordinates":[[[-0.931587,57.689497],[-6.436337,55.37739],[-4.88976,51.223728],[1.18851,49.470279],[3.630009,50.610463],[6.259687,51.96477],[5.523647,55.706768],[-0.931587,57.689497]]]}},{"type":"Feature","properties":{"hex_id":"811e3ffffffffff","population":71057199,"population_year":2025,"area_km2":595741.2,"population_density":119.3,"all_players":4,"players_per_million":0.06,"player_ids":["motogp:adelaourednickova","motogp:filipsalac","motogp:jakobrosenthaler","motogp:tiborvarga"],"label":"Prague","country":"Czechia"},"geometry":{"type":"Polygon","coordinates":[[[12.345747,50.554275],[12.677318,46.406957],[18.31474,44.47068],[24.013384,46.595885],[24.329,50.776322],[18.289963,52.819052],[12.345747,50.554275]]]}},{"type":"Feature","properties":{"hex_id":"811e7ffffffffff","population":33092235,"population_year":2025,"area_km2":595741.2,"population_density":55.5,"all_players":1,"players_per_million":0.03,"player_ids":["motogp:irynanadieieva"],"label":"Kyiv","country":"Ukraine"},"geometry":{"type":"Polygon","coordinates":[[[24.329,50.776322],[24.013384,46.595885],[29.387082,44.107766],[35.197789,45.672385],[36.116724,49.779343],[30.654128,52.413789],[24.329,50.776322]]]}},{"type":"Feature","properties":{"hex_id":"811ebffffffffff","population":42059136,"population_year":2025,"area_km2":647632.6,"population_density":64.9,"all_players":27,"players_per_million":0.64,"player_ids":["motogp:alessandrozaccone","motogp:andreamantovani","motogp:beatricebarbera","motogp:dennisfoggia","motogp:eneabastianini","motogp:fabiodigiannantonio","motogp:francomorbidelli","motogp:jacopohosciuc","motogp:kevinzannoni","motogp:lorenzobaldassarri","motogp:lorenzosavadori","motogp:lucabernardi","motogp:lucalunetta","motogp:lucamarini","motogp:marcobezzecchi","motogp:matteobertelle","motogp:matteoferrari","motogp:mattiacasadei","motogp:mattiapasini","motogp:michelepirro","motogp:nicolacarraro","motogp:nicolobulega","motogp:raffaelefusco","motogp:riccardorossi","motogp:robertaponziani","motogp:stefanonepa","motogp:tommasoocchi"],"label":"Rimini","country":"Italy"},"geometry":{"type":"Polygon","coordinates":[[[7.509948,43.786609],[8.045142,39.402136],[13.244313,37.523712],[18.32526,39.988178],[18.31474,44.47068],[12.677318,46.406957],[7.509948,43.786609]]]}},{"type":"Feature","properties":{"hex_id":"811f3ffffffffff","population":49754999,"population_year":2025,"area_km2":510516.1,"population_density":97.5,"all_players":2,"players_per_million":0.04,"player_ids":["motogp:collinveijer","motogp:milanpawelec"],"label":"Staphorst","country":"Netherlands"},"geometry":{"type":"Polygon","coordinates":[[[5.523647,55.706768],[6.259687,51.96477],[12.345747,50.554275],[18.289963,52.819052],[18.275236,56.632953],[11.555978,58.130531],[5.523647,55.706768]]]}},{"type":"Feature","properties":{"hex_id":"811fbffffffffff","population":119418410,"population_year":2025,"area_km2":565620.1,"population_density":211.1,"all_players":13,"players_per_million":0.11,"player_ids":["motogp:albertosurra","motogp:alessandromorosi","motogp:alessiofinello","motogp:barrybaltus","motogp:celestinovietti","motogp:emilybondi","motogp:francescobagnaia","motogp:lenoxxphommara","motogp:leonardoabruzzo","motogp:linevieillard","motogp:lucymichel","motogp:noahdettwiler","motogp:tonyarbolino"],"label":"Turin","country":"Italy"},"geometry":{"type":"Polygon","coordinates":[[[1.18851,49.470279],[2.026569,45.184249],[7.509948,43.786609],[12.677318,46.406957],[12.345747,50.554275],[6.259687,51.96477],[3.630009,50.610463],[1.18851,49.470279]]]}},{"type":"Feature","properties":{"hex_id":"8129bffffffffff","population":31485482,"population_year":2025,"area_km2":666617.1,"population_density":47.2,"all_players":1,"players_per_million":0.03,"player_ids":["motogp:joeroberts"],"label":"Malibu","country":"United States"},"geometry":{"type":"Polygon","coordinates":[[[-113.268008,32.856905],[-110.257485,36.800197],[-113.046271,40.72062],[-119.002282,40.570572],[-121.707157,36.574218],[-118.804528,32.779438],[-113.268008,32.856905]]]}},{"type":"Feature","properties":{"hex_id":"812a3ffffffffff","population":39671228,"population_year":2025,"area_km2":595741.2,"population_density":66.6,"all_players":1,"players_per_million":0.03,"player_ids":["motogp:elisagendron"],"label":"New York","country":"United States"},"geometry":{"type":"Polygon","coordinates":[[[-69.955068,44.277849],[-75.333452,42.029564],[-75.063317,37.849069],[-70.311412,35.933887],[-65.448142,37.822091],[-64.835193,41.948534],[-69.955068,44.277849]]]}},{"type":"Feature","properties":{"hex_id":"812abffffffffff","population":54889027,"population_year":2025,"area_km2":595741.2,"population_density":92.1,"all_players":2,"players_per_million":0.04,"player_ids":["motogp:mallorydobbs","motogp:sonyalloyd"],"label":"Washington","country":"United States"},"geometry":{"type":"Polygon","coordinates":[[[-80.982253,43.86012],[-85.703199,41.161269],[-84.585167,37.099589],[-79.557618,35.583567],[-75.063317,37.849069],[-75.333452,42.029564],[-80.982253,43.86012]]]}},{"type":"Feature","properties":{"hex_id":"812e7ffffffffff","population":52072688,"population_year":2025,"area_km2":510516.1,"population_density":102.0,"all_players":2,"players_per_million":0.04,"player_ids":["motogp:taigahada","motogp:zenmitani"],"label":"Fujiyoshida","country":"Japan"},"geometry":{"type":"Polygon","coordinates":[[[139.948213,36.441778],[138.515018,40.617501],[133.570126,41.410447],[130.657533,38.194564],[132.308377,34.331159],[136.697641,33.378798],[139.948213,36.441778]]]}},{"type":"Feature","properties":{"hex_id":"812f7ffffffffff","population":38419612,"population_year":2025,"area_km2":565620.1,"population_density":67.9,"all_players":5,"players_per_million":0.13,"player_ids":["motogp:aiogura","motogp:ayumusasaki","motogp:ryuseiyamanaka","motogp:takaakinakagami","motogp:yukikunii"],"label":"Kiyose","country":"Japan"},"geometry":{"type":"Polygon","coordinates":[[[145.91104,30.789834],[144.831325,35.18743],[139.948213,36.441778],[136.697641,33.378798],[137.3956,31.331749],[137.800087,29.424814],[142.433222,27.949606],[145.91104,30.789834]]]}},{"type":"Feature","properties":{"hex_id":"81383ffffffffff","population":31514301,"population_year":2025,"area_km2":614937.0,"population_density":51.2,"all_players":4,"players_per_million":0.13,"player_ids":["motogp:alvarocarpe","motogp:ferminaldeguer","motogp:maximoquiles","motogp:pedroacosta"],"label":"Murcia","country":"Spain"},"geometry":{"type":"Polygon","coordinates":[[[-5.442348,35.124424],[-4.341769,30.698974],[-1.240802,29.828776],[0.260947,29.300375],[4.204174,32.110107],[3.543589,36.597898],[0.238716,37.588846],[-1.416234,38.115997],[-5.442348,35.124424]]]}},{"type":"Feature","properties":{"hex_id":"81393ffffffffff","population":34532782,"population_year":2025,"area_km2":647632.6,"population_density":53.3,"all_players":19,"players_per_million":0.55,"player_ids":["motogp:adrianfernandez","motogp:adrianhuertas","motogp:alonsolopez","motogp:augustofernandez","motogp:beatrizneila","motogp:danielmunoz","motogp:davidalmansa","motogp:davidalonso","motogp:davidmunoz","motogp:jesusrios","motogp:jorgemartin","motogp:joseantoniorueda","motogp:madalenasimoes","motogp:manuelgonzalez","motogp:marcosramirez","motogp:mariaherrera","motogp:migueloliveira","motogp:nataliarivera","motogp:raulfernandez"],"label":"Madrid","country":"Spain"},"geometry":{"type":"Polygon","coordinates":[[[-8.101589,44.050631],[-12.384127,40.869133],[-10.744488,36.38323],[-5.442348,35.124424],[-1.416234,38.115997],[-2.417796,42.54048],[-8.101589,44.050631]]]}},{"type":"Feature","properties":{"hex_id":"81397ffffffffff","population":31465600,"population_year":2025,"area_km2":602082.0,"population_density":52.3,"all_players":29,"players_per_million":0.92,"player_ids":["motogp:albertarenas","motogp:albertoferrandez","motogp:aleixespargaro","motogp:alexescrig","motogp:alexmarquez","motogp:alexrins","motogp:angelpiqueras","motogp:aroncanet","motogp:danielholgado","motogp:diegoperez","motogp:fabioquartararo","motogp:hectorgarzo","motogp:izanguevara","motogp:joanmir","motogp:joelesteban","motogp:johannzarco","motogp:jorditorres","motogp:jorgenavarro","motogp:justinepedemonte","motogp:marcmarquez","motogp:marcosruda","motogp:maverickvinales","motogp:ornellaongaro","motogp:pakitaruiz","motogp:paolaramos","motogp:polespargaro","motogp:sergiogarcia","motogp:valentinperrone","motogp:vicenteperez"],"label":"Palma","country":"Spain"},"geometry":{"type":"Polygon","coordinates":[[[-2.417796,42.54048],[-1.416234,38.115997],[0.238716,37.588846],[3.543589,36.597898],[8.045142,39.402136],[7.509948,43.786609],[2.026569,45.184249],[-2.417796,42.54048]]]}},{"type":"Feature","properties":{"hex_id":"813f7ffffffffff","population":23244108,"population_year":2025,"area_km2":707475.0,"population_density":32.9,"all_players":1,"players_per_million":0.04,"player_ids":["motogp:denizoncu"],"label":"Alanya","country":"Turkey"},"geometry":{"type":"Polygon","coordinates":[[[23.474781,37.630343],[23.243175,32.934452],[27.91173,30.313709],[32.928331,32.240102],[33.614584,36.858664],[28.846869,39.643311],[23.474781,37.630343]]]}},{"type":"Feature","properties":{"hex_id":"8148fffffffffff","population":14949273,"population_year":2025,"area_km2":707475.0,"population_density":21.1,"all_players":1,"players_per_million":0.07,"player_ids":["motogp:astridmadrigal"],"label":"Chihuahua","country":"Mexico"},"geometry":{"type":"Polygon","coordinates":[[[-105.250678,28.43866],[-102.093235,32.268747],[-104.454816,36.494369],[-110.257485,36.800197],[-113.268008,32.856905],[-110.662618,28.72381],[-105.250678,28.43866]]]}},{"type":"Feature","properties":{"hex_id":"814b7ffffffffff","population":8198106,"population_year":2025,"area_km2":523941.7,"population_density":15.6,"all_players":1,"players_per_million":0.12,"player_ids":["motogp:taiyofurusato"],"label":"Kanoya","country":"Japan"},"geometry":{"type":"Polygon","coordinates":[[[128.534469,31.786712],[129.381002,28.043997],[133.976139,26.829336],[137.800087,29.424814],[137.3956,31.331749],[136.697641,33.378798],[132.308377,34.331159],[128.534469,31.786712]]]}},{"type":"Feature","properties":{"hex_id":"814bbffffffffff","population":23165697,"population_year":2025,"area_km2":565620.1,"population_density":41.0,"all_players":1,"players_per_million":0.04,"player_ids":["motogp:chunmeiliu"],"label":"New Taipei City","country":"Taiwan"},"geometry":{"type":"Polygon","coordinates":[[[117.990477,23.508952],[118.803002,19.252195],[123.023555,18.12707],[126.560782,21.137466],[125.719882,25.218062],[121.347514,26.200276],[119.641465,24.728661],[117.990477,23.508952]]]}},{"type":"Feature","properties":{"hex_id":"8164bffffffffff","population":56913507,"population_year":2025,"area_km2":707475.0,"population_density":80.4,"all_players":1,"players_per_million":0.02,"player_ids":["motogp:nakarinatiratphuvapat"],"label":"Khon Kaen","country":"Thailand"},"geometry":{"type":"Polygon","coordinates":[[[103.137733,16.48245],[101.970677,21.002365],[97.148502,22.297036],[93.60132,19.035204],[94.893577,14.501203],[99.621042,13.236333],[103.137733,16.48245]]]}},{"type":"Feature","properties":{"hex_id":"81653ffffffffff","population":56430944,"population_year":2025,"area_km2":707475.0,"population_density":79.8,"all_players":3,"players_per_million":0.05,"player_ids":["motogp:azroyanuar","motogp:hakimdanish","motogp:helmiazman"],"label":"Kuala Lumpur","country":"Malaysia"},"geometry":{"type":"Polygon","coordinates":[[[106.411683,2.770303],[105.357168,7.303219],[100.801361,8.618891],[97.373041,5.289412],[98.560859,0.741795],[103.053645,-0.468955],[106.411683,2.770303]]]}},{"type":"Feature","properties":{"hex_id":"8165bffffffffff","population":97524895,"population_year":2025,"area_km2":707475.0,"population_density":137.8,"all_players":2,"players_per_million":0.02,"player_ids":["motogp:somkiatchantra","motogp:tatchakornbuasri"],"label":"Pattaya","country":"Thailand"},"geometry":{"type":"Polygon","coordinates":[[[108.772478,10.507688],[107.742624,15.063301],[103.137733,16.48245],[99.621042,13.236333],[100.801361,8.618891],[105.357168,7.303219],[108.772478,10.507688]]]}},{"type":"Feature","properties":{"hex_id":"8166fffffffffff","population":32644277,"population_year":2025,"area_km2":666617.1,"population_density":49.0,"all_players":1,"players_per_million":0.03,"player_ids":["motogp:saravaron"],"label":"Ibague","country":"Colombia"},"geometry":{"type":"Polygon","coordinates":[[[-77.440699,5.563142],[-80.134859,1.975922],[-78.218164,-2.264143],[-73.588317,-2.770303],[-71.016075,0.901274],[-72.936618,4.995193],[-77.440699,5.563142]]]}},{"type":"Feature","properties":{"hex_id":"818dbffffffffff","population":90532320,"population_year":2025,"area_km2":565620.1,"population_density":160.1,"all_players":1,"players_per_million":0.01,"player_ids":["motogp:arbiaditama"],"label":"Purworejo","country":"Indonesia"},"geometry":{"type":"Polygon","coordinates":[[[116.456435,-8.076966],[115.671728,-3.824532],[111.648325,-2.768743],[108.415879,-5.894708],[109.36783,-9.939436],[113.400655,-10.803502],[114.941529,-9.308112],[116.456435,-8.076966]]]}},{"type":"Feature","properties":{"hex_id":"819d3ffffffffff","population":666690,"population_year":2025,"area_km2":666617.1,"population_density":1.0,"all_players":1,"players_per_million":1.5,"player_ids":["motogp:jackmiller"],"label":"Townsville","country":"Australia"},"geometry":{"type":"Polygon","coordinates":[[[155.419957,-21.999746],[154.220719,-17.66142],[149.681051,-16.397259],[146.041409,-19.302203],[146.846074,-23.721804],[151.703594,-25.170738],[155.419957,-21.999746]]]}},{"type":"Feature","properties":{"hex_id":"81a83ffffffffff","population":63293155,"population_year":2025,"area_km2":595741.2,"population_density":106.2,"all_players":2,"players_per_million":0.03,"player_ids":["motogp:diogomoreira","motogp:ericgranado"],"label":"São Paulo","country":"Brazil"},"geometry":{"type":"Polygon","coordinates":[[[-47.461171,-27.760044],[-44.896021,-24.304788],[-47.235943,-20.470042],[-52.046783,-20.176039],[-54.552341,-23.657242],[-52.323074,-27.407025],[-47.461171,-27.760044]]]}},{"type":"Feature","properties":{"hex_id":"81ad3ffffffffff","population":1212407,"population_year":2025,"area_km2":602082.0,"population_density":2.0,"all_players":1,"players_per_million":0.82,"player_ids":["motogp:jessicahowden"],"label":"Cape Town","country":"South Africa"},"geometry":{"type":"Polygon","coordinates":[[[10.25427,-29.673903],[9.551546,-34.155187],[13.78958,-36.8927],[18.352922,-34.994007],[18.839987,-30.861032],[14.745412,-28.129236],[13.242963,-28.616915],[10.25427,-29.673903]]]}},{"type":"Feature","properties":{"hex_id":"81b2fffffffffff","population":17138003,"population_year":2025,"area_km2":523941.7,"population_density":32.7,"all_players":1,"players_per_million":0.06,"player_ids":["motogp:isiscarreno"],"label":"Santiago de Chile","country":"Chile"},"geometry":{"type":"Polygon","coordinates":[[[-73.644747,-30.428475],[-76.580606,-33.882664],[-75.495684,-35.604157],[-74.031951,-37.379975],[-69.305389,-37.163896],[-66.569458,-33.770896],[-68.710054,-30.4154],[-73.644747,-30.428475]]]}},{"type":"Feature","properties":{"hex_id":"81bb7ffffffffff","population":2835946,"population_year":2025,"area_km2":666617.1,"population_density":4.3,"all_players":1,"players_per_million":0.35,"player_ids":["motogp:avalonlewis"],"label":"Auckland","country":"New Zealand"},"geometry":{"type":"Polygon","coordinates":[[[176.688659,-37.499409],[174.332728,-33.405709],[169.018604,-32.862675],[165.511402,-36.515279],[167.615873,-40.869133],[173.535818,-41.30856],[176.688659,-37.499409]]]}},{"type":"Feature","properties":{"hex_id":"81bcfffffffffff","population":54771011,"population_year":2025,"area_km2":666617.1,"population_density":82.2,"all_players":2,"players_per_million":0.04,"player_ids":["motogp:bradbinder","motogp:darrynbinder"],"label":"Potchefstroom","country":"South Africa"},"geometry":{"type":"Polygon","coordinates":[[[32.620327,-29.624454],[32.812319,-25.145186],[28.491882,-22.684204],[23.910011,-24.696711],[23.533518,-29.166646],[27.918941,-31.644147],[32.620327,-29.624454]]]}},{"type":"Feature","properties":{"hex_id":"81be3ffffffffff","population":7422285,"population_year":2025,"area_km2":729486.9,"population_density":10.2,"all_players":1,"players_per_million":0.13,"player_ids":["motogp:sennaagius"],"label":"Liverpool","country":"Australia"},"geometry":{"type":"Polygon","coordinates":[[[159.810679,-35.59178],[158.196039,-31.026208],[152.877292,-29.753699],[148.729494,-32.935272],[149.839959,-37.608844],[155.640338,-39.007712],[159.810679,-35.59178]]]}},{"type":"Feature","properties":{"hex_id":"81bebffffffffff","population":4369258,"population_year":2025,"area_km2":707475.0,"population_density":6.2,"all_players":4,"players_per_million":0.92,"player_ids":["motogp:harrisonvoight","motogp:jacobroulstone","motogp:joelkelso","motogp:taylarelph"],"label":"Gold Coast","country":"Australia"},"geometry":{"type":"Polygon","coordinates":[[[161.882144,-27.596488],[160.312535,-23.16469],[155.419957,-21.999746],[151.703594,-25.170738],[152.877292,-29.753699],[158.196039,-31.026208],[161.882144,-27.596488]]]}},{"type":"Feature","properties":{"hex_id":"81dabffffffffff","population":1120976,"population_year":2025,"area_km2":647632.6,"population_density":1.7,"all_players":1,"players_per_million":0.89,"player_ids":["motogp:cormacbuchanan"],"label":"Invercargill","country":"New Zealand"},"geometry":{"type":"Polygon","coordinates":[[[176.129353,-45.286766],[173.535818,-41.30856],[167.615873,-40.869133],[163.614305,-44.491235],[165.865034,-48.699061],[172.539491,-49.056818],[176.129353,-45.286766]]]}}]}