{"type":"FeatureCollection","metadata":{"population_source":"WorldPop Global 2 R2025A","population_source_url":"https://hub.worldpop.org/project/categories?id=3","population_license":"CC BY 4.0","population_year":2025,"raster_resolution":"1km","h3_resolution":3,"population_method":"official_country_rasters","occupied_cells":82,"mapped_players":147},"features":[{"type":"Feature","properties":{"hex_id":"83182efffffffff","population":649153,"population_year":2025,"area_km2":11792.7,"population_density":55.0,"all_players":1,"players_per_million":1.54,"player_ids":["motogp:caseyogorman"],"label":"Portlaoise","country":"Ireland"},"geometry":{"type":"Polygon","coordinates":[[[-8.435871,53.677083],[-9.166993,53.289084],[-8.906839,52.6944],[-7.935083,52.487974],[-7.210985,52.872185],[-7.451495,53.466543],[-8.435871,53.677083]]]}},{"type":"Feature","properties":{"hex_id":"83184bfffffffff","population":2215141,"population_year":2025,"area_km2":12395.2,"population_density":178.7,"all_players":1,"players_per_million":0.45,"player_ids":["motogp:xabizurutuza"],"label":"Legazpi","country":"Spain"},"geometry":{"type":"Polygon","coordinates":[[[-2.729364,43.8003],[-3.362059,43.400471],[-3.199092,42.769427],[-2.417796,42.54048],[-1.792726,42.937258],[-1.941313,43.565989],[-2.729364,43.8003]]]}},{"type":"Feature","properties":{"hex_id":"831865fffffffff","population":1601186,"population_year":2025,"area_km2":11308.9,"population_density":141.6,"all_players":1,"players_per_million":0.62,"player_ids":["motogp:lucieboudesseul"],"label":"Bernay","country":"France"},"geometry":{"type":"Polygon","coordinates":[[[0.360856,49.735742],[-0.333038,49.389078],[-0.188757,48.779293],[0.632478,48.518882],[1.315872,48.863254],[1.18851,49.470279],[0.360856,49.735742]]]}},{"type":"Feature","properties":{"hex_id":"831942fffffffff","population":7293042,"population_year":2025,"area_km2":10924.8,"population_density":667.6,"all_players":1,"players_per_million":0.14,"player_ids":["motogp:scottogden"],"label":"Doncaster","country":"United Kingdom"},"geometry":{"type":"Polygon","coordinates":[[[-1.609057,54.177066],[-2.359345,53.842543],[-2.178886,53.251551],[-1.268165,52.996914],[-0.529171,53.3287],[-0.689598,53.917795],[-1.609057,54.177066]]]}},{"type":"Feature","properties":{"hex_id":"831943fffffffff","population":3138363,"population_year":2025,"area_km2":10924.8,"population_density":287.3,"all_players":1,"players_per_million":0.32,"player_ids":["motogp:eddieoshea"],"label":"Leicester","country":"United Kingdom"},"geometry":{"type":"Polygon","coordinates":[[[-0.529171,53.3287],[-1.268165,52.996914],[-1.103494,52.402317],[-0.219137,52.141681],[0.508374,52.470966],[0.362999,53.063327],[-0.529171,53.3287]]]}},{"type":"Feature","properties":{"hex_id":"831948fffffffff","population":1353290,"population_year":2025,"area_km2":10891.0,"population_density":124.3,"all_players":1,"players_per_million":0.74,"player_ids":["motogp:jakedixon"],"label":"Dover","country":"United Kingdom"},"geometry":{"type":"Polygon","coordinates":[[[1.505381,51.605101],[0.789471,51.278095],[0.925401,50.677831],[1.759362,50.407376],[2.463609,50.732311],[2.345517,51.329719],[1.505381,51.605101]]]}},{"type":"Feature","properties":{"hex_id":"831958fffffffff","population":4033735,"population_year":2025,"area_km2":11381.2,"population_density":354.4,"all_players":1,"players_per_million":0.25,"player_ids":["motogp:maxcook"],"label":"Bristol","country":"United Kingdom"},"geometry":{"type":"Polygon","coordinates":[[[-2.732038,52.310399],[-3.456535,51.955725],[-3.269136,51.354012],[-2.376039,51.108741],[-1.661533,51.460545],[-1.830112,52.060429],[-2.732038,52.310399]]]}},{"type":"Feature","properties":{"hex_id":"83195cfffffffff","population":7086124,"population_year":2025,"area_km2":11155.0,"population_density":635.2,"all_players":2,"players_per_million":0.28,"player_ids":["motogp:evanbelford","motogp:jamiehankselliott"],"label":"Burton-on-Trent","country":"United Kingdom"},"geometry":{"type":"Polygon","coordinates":[[[-2.178886,53.251551],[-2.916127,52.906861],[-2.732038,52.310399],[-1.830112,52.060429],[-1.103494,52.402317],[-1.268165,52.996914],[-2.178886,53.251551]]]}},{"type":"Feature","properties":{"hex_id":"83196dfffffffff","population":1707984,"population_year":2025,"area_km2":10331.1,"population_density":165.3,"all_players":1,"players_per_million":0.59,"player_ids":["motogp:collinveijer"],"label":"Staphorst","country":"Netherlands"},"geometry":{"type":"Polygon","coordinates":[[[5.171662,53.221433],[5.280448,52.68056],[6.159603,52.514255],[6.944351,52.888298],[6.848229,53.43156],[5.954532,53.598437],[5.171662,53.221433]]]}},{"type":"Feature","properties":{"hex_id":"831e0afffffffff","population":1008795,"population_year":2025,"area_km2":12679.7,"population_density":79.6,"all_players":1,"players_per_million":0.99,"player_ids":["motogp:tiborvarga"],"label":"Debrecen","country":"Hungary"},"geometry":{"type":"Polygon","coordinates":[[[20.768802,47.267764],[20.751334,46.65651],[21.555106,46.342738],[22.382649,46.637799],[22.4129,47.24913],[21.602834,47.565383],[20.768802,47.267764]]]}},{"type":"Feature","properties":{"hex_id":"831e24fffffffff","population":1792401,"population_year":2025,"area_km2":11261.2,"population_density":159.2,"all_players":1,"players_per_million":0.56,"player_ids":["motogp:milanpawelec"],"label":"Wolsztyn","country":"Poland"},"geometry":{"type":"Polygon","coordinates":[[[15.658506,52.45677],[15.682335,51.890142],[16.558313,51.637437],[17.420443,51.949219],[17.411159,52.516728],[16.525149,52.771637],[15.658506,52.45677]]]}},{"type":"Feature","properties":{"hex_id":"831e33fffffffff","population":1014912,"population_year":2025,"area_km2":12067.7,"population_density":84.1,"all_players":1,"players_per_million":0.99,"player_ids":["motogp:jakobrosenthaler"],"label":"Linz","country":"Austria"},"geometry":{"type":"Polygon","coordinates":[[[14.137456,48.90561],[14.172058,48.311376],[15.007166,48.053459],[15.817384,48.388123],[15.795773,48.983666],[14.950892,49.243294],[14.137456,48.90561]]]}},{"type":"Feature","properties":{"hex_id":"831e35fffffffff","population":2996250,"population_year":2025,"area_km2":11640.2,"population_density":257.4,"all_players":2,"players_per_million":0.67,"player_ids":["motogp:adelaourednickova","motogp:filipsalac"],"label":"Prague","country":"Czechia"},"geometry":{"type":"Polygon","coordinates":[[[14.030273,50.660207],[14.066577,50.080093],[14.922075,49.831219],[15.751501,50.160699],[15.728823,50.742054],[14.863027,50.992748],[14.030273,50.660207]]]}},{"type":"Feature","properties":{"hex_id":"831e63fffffffff","population":3667328,"population_year":2025,"area_km2":11754.3,"population_density":312.0,"all_players":1,"players_per_million":0.27,"player_ids":["motogp:irynanadieieva"],"label":"Kyiv","country":"Ukraine"},"geometry":{"type":"Polygon","coordinates":[[[29.464293,50.49356],[29.376228,49.913355],[30.169488,49.553741],[31.052695,49.771325],[31.153726,50.350024],[30.358689,50.712701],[29.464293,50.49356]]]}},{"type":"Feature","properties":{"hex_id":"831e80fffffffff","population":4856406,"population_year":2025,"area_km2":13258.9,"population_density":366.3,"all_players":5,"players_per_million":1.03,"player_ids":["motogp:dennisfoggia","motogp:fabiodigiannantonio","motogp:francomorbidelli","motogp:jacopohosciuc","motogp:lucalunetta"],"label":"Rome","country":"Italy"},"geometry":{"type":"Polygon","coordinates":[[[12.199341,42.319259],[12.245097,41.684753],[13.015322,41.413495],[13.748722,41.775618],[13.713746,42.412148],[12.934527,42.684579],[12.199341,42.319259]]]}},{"type":"Feature","properties":{"hex_id":"831e85fffffffff","population":1157314,"population_year":2025,"area_km2":13142.7,"population_density":88.1,"all_players":3,"players_per_million":2.59,"player_ids":["motogp:lorenzobaldassarri","motogp:robertaponziani","motogp:stefanonepa"],"label":"San Severino Marche","country":"Italy"},"geometry":{"type":"Polygon","coordinates":[[[12.893237,43.314735],[12.934527,42.684579],[13.713746,42.412148],[14.460581,42.768618],[14.430423,43.400602],[13.642239,43.674337],[12.893237,43.314735]]]}},{"type":"Feature","properties":{"hex_id":"831e8cfffffffff","population":165149,"population_year":2025,"area_km2":13448.5,"population_density":12.3,"all_players":1,"players_per_million":6.06,"player_ids":["motogp:michelepirro"],"label":"San Giovanni Rotondo","country":"Italy"},"geometry":{"type":"Polygon","coordinates":[[[15.239936,42.485371],[15.263913,41.847143],[16.034326,41.554723],[16.788662,41.898895],[16.775858,42.538488],[15.997505,42.832597],[15.239936,42.485371]]]}},{"type":"Feature","properties":{"hex_id":"831e92fffffffff","population":413947,"population_year":2025,"area_km2":13376.9,"population_density":30.9,"all_players":1,"players_per_million":2.42,"player_ids":["motogp:beatricebarbera"],"label":"Cagliari","country":"Italy"},"geometry":{"type":"Polygon","coordinates":[[[8.791439,39.152477],[8.858598,38.510286],[9.598985,38.251433],[10.281466,38.63427],[10.223799,39.279363],[9.474082,39.538754],[8.791439,39.152477]]]}},{"type":"Feature","properties":{"hex_id":"831ea0fffffffff","population":2317839,"population_year":2025,"area_km2":12679.7,"population_density":182.8,"all_players":4,"players_per_million":1.73,"player_ids":["motogp:andreamantovani","motogp:matteobertelle","motogp:raffaelefusco","motogp:tommasoocchi"],"label":"Ferrara","country":"Italy"},"geometry":{"type":"Polygon","coordinates":[[[11.207993,45.07018],[11.262523,44.453696],[12.057997,44.200939],[12.808805,44.563667],[12.765636,45.182217],[11.960221,45.436022],[11.207993,45.07018]]]}},{"type":"Feature","properties":{"hex_id":"831ea3fffffffff","population":1273055,"population_year":2025,"area_km2":12915.2,"population_density":98.6,"all_players":9,"players_per_million":7.07,"player_ids":["motogp:alessandrozaccone","motogp:eneabastianini","motogp:kevinzannoni","motogp:lorenzosavadori","motogp:lucamarini","motogp:marcobezzecchi","motogp:matteoferrari","motogp:mattiacasadei","motogp:mattiapasini"],"label":"Rimini","country":"Italy"},"geometry":{"type":"Polygon","coordinates":[[[12.057997,44.200939],[12.105806,43.577473],[12.893237,43.314735],[13.642239,43.674337],[13.605684,44.299755],[12.808805,44.563667],[12.057997,44.200939]]]}},{"type":"Feature","properties":{"hex_id":"831ea4fffffffff","population":3171424,"population_year":2025,"area_km2":12437.2,"population_density":255.0,"all_players":1,"players_per_million":0.32,"player_ids":["motogp:nicolacarraro"],"label":"Padova","country":"Italy"},"geometry":{"type":"Polygon","coordinates":[[[10.343213,45.921928],[10.404667,45.312696],[11.207993,45.07018],[11.960221,45.436022],[11.910221,46.047428],[11.096453,46.290866],[10.343213,45.921928]]]}},{"type":"Feature","properties":{"hex_id":"831ea6fffffffff","population":2293027,"population_year":2025,"area_km2":12564.6,"population_density":182.5,"all_players":1,"players_per_million":0.44,"player_ids":["motogp:nicolobulega"],"label":"Montecchio Emilia","country":"Italy"},"geometry":{"type":"Polygon","coordinates":[[[9.666362,44.937924],[9.731941,44.323805],[10.524864,44.082048],[11.262523,44.453696],[11.207993,45.07018],[10.404667,45.312696],[9.666362,44.937924]]]}},{"type":"Feature","properties":{"hex_id":"831f83fffffffff","population":4695898,"population_year":2025,"area_km2":11812.0,"population_density":397.6,"all_players":2,"players_per_million":0.43,"player_ids":["motogp:lenoxxphommara","motogp:noahdettwiler"],"label":"Zürich","country":"Switzerland"},"geometry":{"type":"Polygon","coordinates":[[[7.006321,47.39767],[7.093391,46.806293],[7.907014,46.596156],[8.645314,46.977068],[8.569415,47.571079],[7.743929,47.781588],[7.006321,47.39767]]]}},{"type":"Feature","properties":{"hex_id":"831f96fffffffff","population":692470,"population_year":2025,"area_km2":11481.1,"population_density":60.3,"all_players":1,"players_per_million":1.44,"player_ids":["motogp:linevieillard"],"label":"Clermont-Ferrand","country":"France"},"geometry":{"type":"Polygon","coordinates":[[[1.914105,45.801097],[2.026569,45.184249],[2.807218,45.005182],[3.480263,45.413387],[3.369712,46.003392],[2.576666,46.181707],[2.240322,45.976639],[1.914105,45.801097]]]}},{"type":"Feature","properties":{"hex_id":"831f98fffffffff","population":3290090,"population_year":2025,"area_km2":12188.8,"population_density":269.9,"all_players":4,"players_per_million":1.22,"player_ids":["motogp:albertosurra","motogp:alessiofinello","motogp:celestinovietti","motogp:francescobagnaia"],"label":"Turin","country":"Italy"},"geometry":{"type":"Polygon","coordinates":[[[7.263691,45.610704],[7.346976,45.00667],[8.142693,44.786129],[8.866286,45.169339],[8.793725,45.776109],[7.98674,45.996975],[7.263691,45.610704]]]}},{"type":"Feature","properties":{"hex_id":"831f99fffffffff","population":8499702,"population_year":2025,"area_km2":12318.9,"population_density":690.0,"all_players":2,"players_per_million":0.24,"player_ids":["motogp:leonardoabruzzo","motogp:tonyarbolino"],"label":"Busto Arsizio","country":"Italy"},"geometry":{"type":"Polygon","coordinates":[[[8.793725,45.776109],[8.866286,45.169339],[9.666362,44.937924],[10.404667,45.312696],[10.343213,45.921928],[9.53225,46.153971],[8.793725,45.776109]]]}},{"type":"Feature","properties":{"hex_id":"831f9bfffffffff","population":1573619,"population_year":2025,"area_km2":12437.2,"population_density":126.5,"all_players":1,"players_per_million":0.64,"player_ids":["motogp:riccardorossi"],"label":"Genova","country":"Italy"},"geometry":{"type":"Polygon","coordinates":[[[8.142693,44.786129],[8.21897,44.174659],[9.008239,43.943707],[9.731941,44.323805],[9.666362,44.937924],[8.866286,45.169339],[8.142693,44.786129]]]}},{"type":"Feature","properties":{"hex_id":"831f9dfffffffff","population":953379,"population_year":2025,"area_km2":12067.7,"population_density":79.0,"all_players":1,"players_per_million":1.05,"player_ids":["motogp:alessandromorosi"],"label":"Varese","country":"Italy"},"geometry":{"type":"Polygon","coordinates":[[[7.907014,46.596156],[7.98674,45.996975],[8.793725,45.776109],[9.53225,46.153971],[9.463672,46.755704],[8.645314,46.977068],[7.907014,46.596156]]]}},{"type":"Feature","properties":{"hex_id":"831fa4fffffffff","population":7133777,"population_year":2025,"area_km2":10626.5,"population_density":671.3,"all_players":1,"players_per_million":0.14,"player_ids":["motogp:zontavdgoorbergh"],"label":"Breda","country":"The Netherlands"},"geometry":{"type":"Polygon","coordinates":[[[3.881134,51.360376],[3.996418,50.807584],[4.847197,50.641723],[5.5966,51.028589],[5.492877,51.584097],[4.628032,51.750066],[3.881134,51.360376]]]}},{"type":"Feature","properties":{"hex_id":"831fa6fffffffff","population":2653610,"population_year":2025,"area_km2":10765.0,"population_density":246.5,"all_players":1,"players_per_million":0.38,"player_ids":["motogp:barrybaltus"],"label":"Namur","country":"Belgium"},"geometry":{"type":"Polygon","coordinates":[[[3.279015,50.452975],[3.384772,49.85377],[4.221736,49.687797],[4.954255,50.080409],[4.847197,50.641723],[3.996418,50.807584],[3.630009,50.610463],[3.279015,50.452975]]]}},{"type":"Feature","properties":{"hex_id":"831fa8fffffffff","population":1719909,"population_year":2025,"area_km2":11381.2,"population_density":151.1,"all_players":1,"players_per_million":0.58,"player_ids":["motogp:lucymichel"],"label":"Erlabrunn","country":"Germany"},"geometry":{"type":"Polygon","coordinates":[[[9.029395,50.272688],[9.104617,49.69802],[9.954177,49.486187],[10.740578,49.848107],[10.677944,50.424867],[9.816208,50.637667],[9.029395,50.272688]]]}},{"type":"Feature","properties":{"hex_id":"831fb4fffffffff","population":10916515,"population_year":2025,"area_km2":11061.9,"population_density":986.9,"all_players":1,"players_per_million":0.09,"player_ids":["motogp:emilybondi"],"label":"Neuilly-sur-Seine","country":"France"},"geometry":{"type":"Polygon","coordinates":[[[1.882244,49.805032],[1.18851,49.470279],[1.315872,48.863254],[2.120222,48.594025],[2.802853,48.926779],[2.692197,49.530714],[1.882244,49.805032]]]}},{"type":"Feature","properties":{"hex_id":"8329a1fffffffff","population":7894449,"population_year":2025,"area_km2":13766.4,"population_density":573.5,"all_players":1,"players_per_million":0.13,"player_ids":["motogp:joeroberts"],"label":"Malibu","country":"United States"},"geometry":{"type":"Polygon","coordinates":[[[-118.040386,33.946172],[-117.651276,34.526528],[-118.059439,35.079776],[-118.858147,35.049768],[-119.240554,34.468622],[-118.831067,33.918266],[-118.040386,33.946172]]]}},{"type":"Feature","properties":{"hex_id":"832a10fffffffff","population":17834994,"population_year":2025,"area_km2":12479.4,"population_density":1429.2,"all_players":1,"players_per_million":0.06,"player_ids":["motogp:elisagendron"],"label":"New York","country":"United States"},"geometry":{"type":"Polygon","coordinates":[[[-73.803296,41.465407],[-74.532183,41.140409],[-74.501617,40.535843],[-73.761104,40.255982],[-73.041153,40.572801],[-73.052763,41.177546],[-73.803296,41.465407]]]}},{"type":"Feature","properties":{"hex_id":"832a95fffffffff","population":2195772,"population_year":2025,"area_km2":12312.0,"population_density":178.3,"all_players":1,"players_per_million":0.46,"player_ids":["motogp:sonyalloyd"],"label":"Columbus","country":"United States"},"geometry":{"type":"Polygon","coordinates":[[[-82.656756,40.901362],[-83.309073,40.526783],[-83.168923,39.934324],[-82.393741,39.713071],[-81.74478,40.078511],[-81.867503,40.674246],[-82.656756,40.901362]]]}},{"type":"Feature","properties":{"hex_id":"832aa8fffffffff","population":6574928,"population_year":2025,"area_km2":12047.7,"population_density":545.7,"all_players":1,"players_per_million":0.15,"player_ids":["motogp:mallorydobbs"],"label":"Washington","country":"United States"},"geometry":{"type":"Polygon","coordinates":[[[-76.603499,39.549602],[-77.285017,39.215387],[-77.221804,38.626656],[-76.494397,38.370874],[-75.819591,38.696714],[-75.865429,39.286605],[-76.603499,39.549602]]]}},{"type":"Feature","properties":{"hex_id":"832e61fffffffff","population":16062419,"population_year":2025,"area_km2":10435.0,"population_density":1539.3,"all_players":1,"players_per_million":0.06,"player_ids":["motogp:zenmitani"],"label":"Ibaraki","country":"Japan"},"geometry":{"type":"Polygon","coordinates":[[[136.284758,34.544565],[136.074341,35.125905],[135.425844,35.264059],[134.998437,34.823901],[135.213088,34.249062],[135.851025,34.107905],[136.284758,34.544565]]]}},{"type":"Feature","properties":{"hex_id":"832f58fffffffff","population":951972,"population_year":2025,"area_km2":11381.2,"population_density":83.6,"all_players":1,"players_per_million":1.05,"player_ids":["motogp:ayumusasaki"],"label":"Yokosuka","country":"Japan"},"geometry":{"type":"Polygon","coordinates":[[[140.520831,34.62949],[140.332575,35.234652],[139.653549,35.399825],[139.174011,34.961977],[139.368009,34.363069],[140.035927,34.195767],[140.520831,34.62949]]]}},{"type":"Feature","properties":{"hex_id":"832f5afffffffff","population":24486504,"population_year":2025,"area_km2":11478.7,"population_density":2133.2,"all_players":3,"players_per_million":0.12,"player_ids":["motogp:ryuseiyamanaka","motogp:takaakinakagami","motogp:yukikunii"],"label":"Yotsukaidō-shi","country":"Japan"},"geometry":{"type":"Polygon","coordinates":[[[140.827794,35.672072],[140.638685,36.278739],[139.948213,36.441778],[139.458427,36.000295],[139.653549,35.399825],[140.332575,35.234652],[140.827794,35.672072]]]}},{"type":"Feature","properties":{"hex_id":"832f5bfffffffff","population":13410110,"population_year":2025,"area_km2":11219.7,"population_density":1195.2,"all_players":2,"players_per_million":0.15,"player_ids":["motogp:aiogura","motogp:taigahada"],"label":"Kiyose","country":"Japan"},"geometry":{"type":"Polygon","coordinates":[[[139.653549,35.399825],[139.458427,36.000295],[138.778095,36.156603],[138.304265,35.714832],[138.504933,35.120661],[139.174011,34.961977],[139.653549,35.399825]]]}},{"type":"Feature","properties":{"hex_id":"833825fffffffff","population":1247478,"population_year":2025,"area_km2":12395.2,"population_density":100.6,"all_players":4,"players_per_million":3.21,"player_ids":["motogp:alvarocarpe","motogp:ferminaldeguer","motogp:maximoquiles","motogp:pedroacosta"],"label":"Murcia","country":"Spain"},"geometry":{"type":"Polygon","coordinates":[[[-1.416234,38.115997],[-2.001062,37.704074],[-1.863369,37.071291],[-1.153048,36.852999],[-0.575154,37.26165],[-0.700647,37.891827],[-1.416234,38.115997]]]}},{"type":"Feature","properties":{"hex_id":"833901fffffffff","population":259918,"population_year":2025,"area_km2":13035.7,"population_density":19.9,"all_players":1,"players_per_million":3.85,"player_ids":["motogp:mariaherrera"],"label":"Oropesa","country":"Spain"},"geometry":{"type":"Polygon","coordinates":[[[-5.486771,40.465629],[-6.088564,40.033143],[-5.90594,39.394783],[-5.134684,39.1905],[-4.538804,39.619302],[-4.708227,40.256026],[-5.486771,40.465629]]]}},{"type":"Feature","properties":{"hex_id":"83390cfffffffff","population":6740566,"population_year":2025,"area_km2":12803.9,"population_density":526.4,"all_players":9,"players_per_million":1.34,"player_ids":["motogp:adrianfernandez","motogp:adrianhuertas","motogp:alonsolopez","motogp:augustofernandez","motogp:beatrizneila","motogp:davidalonso","motogp:manuelgonzalez","motogp:nataliarivera","motogp:raulfernandez"],"label":"Madrid","country":"Spain"},"geometry":{"type":"Polygon","coordinates":[[[-4.103433,40.678157],[-4.708227,40.256026],[-4.538804,39.619302],[-3.777805,39.406656],[-3.179494,39.825314],[-3.335672,40.460048],[-4.103433,40.678157]]]}},{"type":"Feature","properties":{"hex_id":"83390efffffffff","population":238558,"population_year":2025,"area_km2":12915.2,"population_density":18.5,"all_players":1,"players_per_million":4.19,"player_ids":["motogp:davidalmansa"],"label":"Puertollano","country":"Spain"},"geometry":{"type":"Polygon","coordinates":[[[-4.538804,39.619302],[-5.134684,39.1905],[-4.963456,38.552712],[-4.209206,38.345549],[-3.619465,38.770735],[-3.777805,39.406656],[-4.538804,39.619302]]]}},{"type":"Feature","properties":{"hex_id":"833918fffffffff","population":1266165,"population_year":2025,"area_km2":13096.6,"population_density":96.7,"all_players":1,"players_per_million":0.79,"player_ids":["motogp:jesusrios"],"label":"Marbella","country":"Spain"},"geometry":{"type":"Polygon","coordinates":[[[-5.377737,37.479229],[-5.956355,37.038332],[-5.78198,36.399721],[-5.041156,36.203564],[-4.468042,36.640556],[-4.630214,37.277566],[-5.377737,37.479229]]]}},{"type":"Feature","properties":{"hex_id":"83391cfffffffff","population":1819644,"population_year":2025,"area_km2":13235.5,"population_density":137.5,"all_players":3,"players_per_million":1.65,"player_ids":["motogp:danielmunoz","motogp:davidmunoz","motogp:joseantoniorueda"],"label":"Dos Hermanas","country":"Spain"},"geometry":{"type":"Polygon","coordinates":[[[-6.31462,38.316599],[-6.898506,37.871743],[-6.713159,37.231941],[-5.956355,37.038332],[-5.377737,37.479229],[-5.550612,38.117649],[-6.31462,38.316599]]]}},{"type":"Feature","properties":{"hex_id":"83391efffffffff","population":880126,"population_year":2025,"area_km2":13313.8,"population_density":66.1,"all_players":1,"players_per_million":1.14,"player_ids":["motogp:marcosramirez"],"label":"Conil de la Frontera","country":"Spain"},"geometry":{"type":"Polygon","coordinates":[[[-6.713159,37.231941],[-7.288392,36.781553],[-7.101894,36.141695],[-6.352241,35.953427],[-5.78198,36.399721],[-5.956355,37.038332],[-6.713159,37.231941]]]}},{"type":"Feature","properties":{"hex_id":"83392bfffffffff","population":1038811,"population_year":2025,"area_km2":12679.7,"population_density":81.9,"all_players":1,"players_per_million":0.96,"player_ids":["motogp:jorgemartin"],"label":"San Sebastián de los Reyes","country":"Spain"},"geometry":{"type":"Polygon","coordinates":[[[-3.656987,41.728461],[-4.270886,41.313394],[-4.103433,40.678157],[-3.335672,40.460048],[-2.728618,40.871785],[-2.882457,41.504916],[-3.656987,41.728461]]]}},{"type":"Feature","properties":{"hex_id":"83392dfffffffff","population":571746,"population_year":2025,"area_km2":12636.3,"population_density":45.2,"all_players":1,"players_per_million":1.75,"player_ids":["motogp:brianuriarte"],"label":"Santa Cruz de Bezana","country":"Spain"},"geometry":{"type":"Polygon","coordinates":[[[-4.162635,43.625899],[-4.792849,43.214988],[-4.615502,42.581981],[-3.822291,42.361801],[-3.199092,42.769427],[-3.362059,43.400471],[-4.162635,43.625899]]]}},{"type":"Feature","properties":{"hex_id":"833933fffffffff","population":3081923,"population_year":2025,"area_km2":13675.5,"population_density":225.4,"all_players":2,"players_per_million":0.65,"player_ids":["motogp:madalenasimoes","motogp:migueloliveira"],"label":"Lisboa","country":"Portugal"},"geometry":{"type":"Polygon","coordinates":[[[-9.672222,39.712382],[-10.260578,39.249447],[-10.0391,38.608375],[-9.241968,38.430723],[-8.657648,38.889432],[-8.866346,39.529972],[-9.672222,39.712382]]]}},{"type":"Feature","properties":{"hex_id":"833942fffffffff","population":639290,"population_year":2025,"area_km2":12229.6,"population_density":52.3,"all_players":5,"players_per_million":7.82,"player_ids":["motogp:diegoperez","motogp:izanguevara","motogp:joanmir","motogp:marcosruda","motogp:pakitaruiz"],"label":"Palma","country":"Spain"},"geometry":{"type":"Polygon","coordinates":[[[1.568027,40.141859],[1.682025,39.526861],[2.409691,39.323588],[3.0341,39.73632],[2.928119,40.355416],[2.189602,40.557703],[1.568027,40.141859]]]}},{"type":"Feature","properties":{"hex_id":"833944fffffffff","population":5820367,"population_year":2025,"area_km2":11948.5,"population_density":487.1,"all_players":6,"players_per_million":1.03,"player_ids":["motogp:aleixespargaro","motogp:alexrins","motogp:joelesteban","motogp:jorditorres","motogp:polespargaro","motogp:valentinperrone"],"label":"Granollers","country":"Spain"},"geometry":{"type":"Polygon","coordinates":[[[1.216871,41.967575],[1.335479,41.362336],[2.07735,41.170004],[2.711858,41.583975],[2.601521,42.193196],[1.848287,42.384487],[1.216871,41.967575]]]}},{"type":"Feature","properties":{"hex_id":"833945fffffffff","population":709742,"population_year":2025,"area_km2":12134.7,"population_density":58.5,"all_players":2,"players_per_million":2.82,"player_ids":["motogp:albertarenas","motogp:maverickvinales"],"label":"Girona","country":"Spain"},"geometry":{"type":"Polygon","coordinates":[[[2.601521,42.193196],[2.711858,41.583975],[3.46143,41.382558],[4.111804,41.791133],[4.010176,42.404119],[3.24935,42.604792],[2.601521,42.193196]]]}},{"type":"Feature","properties":{"hex_id":"833946fffffffff","population":735018,"population_year":2025,"area_km2":11997.1,"population_density":61.3,"all_players":1,"players_per_million":1.36,"player_ids":["motogp:paolaramos"],"label":"Tarragona","country":"Spain"},"geometry":{"type":"Polygon","coordinates":[[[0.720675,40.962104],[0.837298,40.335353],[1.568027,40.141859],[2.189602,40.557703],[2.07735,41.170004],[1.335479,41.362336],[1.025085,41.153182],[0.720675,40.962104]]]}},{"type":"Feature","properties":{"hex_id":"833949fffffffff","population":239912,"population_year":2025,"area_km2":12945.1,"population_density":18.5,"all_players":1,"players_per_million":4.17,"player_ids":["motogp:lucabernardi"],"label":"Sassari","country":"Italy"},"geometry":{"type":"Polygon","coordinates":[[[7.140308,40.908575],[7.219862,40.278584],[7.971856,40.038397],[8.654309,40.428048],[8.584299,41.06115],[7.822202,41.301527],[7.140308,40.908575]]]}},{"type":"Feature","properties":{"hex_id":"833954fffffffff","population":2781027,"population_year":2025,"area_km2":12188.8,"population_density":228.2,"all_players":6,"players_per_million":2.16,"player_ids":["motogp:alexescrig","motogp:aroncanet","motogp:hectorgarzo","motogp:jorgenavarro","motogp:sergiogarcia","motogp:vicenteperez"],"label":"Valencia","country":"Spain"},"geometry":{"type":"Polygon","coordinates":[[[-0.49009,40.182979],[-1.091146,39.784657],[-0.95858,39.153492],[-0.237765,38.923477],[0.35567,39.31886],[0.235904,39.947158],[-0.49009,40.182979]]]}},{"type":"Feature","properties":{"hex_id":"833956fffffffff","population":2107084,"population_year":2025,"area_km2":12298.2,"population_density":171.3,"all_players":3,"players_per_million":1.42,"player_ids":["motogp:albertoferrandez","motogp:angelpiqueras","motogp:danielholgado"],"label":"Cox","country":"Spain"},"geometry":{"type":"Polygon","coordinates":[[[-0.95858,39.153492],[-1.551451,38.74818],[-1.416234,38.115997],[-0.700647,37.891827],[-0.115046,38.294034],[-0.237765,38.923477],[-0.95858,39.153492]]]}},{"type":"Feature","properties":{"hex_id":"833969fffffffff","population":1583636,"population_year":2025,"area_km2":12395.2,"population_density":127.8,"all_players":4,"players_per_million":2.53,"player_ids":["motogp:fabioquartararo","motogp:johannzarco","motogp:justinepedemonte","motogp:ornellaongaro"],"label":"Nice","country":"France"},"geometry":{"type":"Polygon","coordinates":[[[6.03167,43.611509],[6.121326,42.998792],[6.894879,42.778417],[7.589687,43.17079],[7.509948,43.786609],[6.725378,44.00699],[6.03167,43.611509]]]}},{"type":"Feature","properties":{"hex_id":"833971fffffffff","population":504409,"population_year":2025,"area_km2":11937.9,"population_density":42.3,"all_players":2,"players_per_million":3.97,"player_ids":["motogp:alexmarquez","motogp:marcmarquez"],"label":"Cervera","country":"Spain"},"geometry":{"type":"Polygon","coordinates":[[[0.480702,42.214859],[-0.137149,41.831588],[-0.010441,41.203682],[0.720675,40.962104],[1.025085,41.153182],[1.335479,41.362336],[1.216871,41.967575],[0.480702,42.214859]]]}},{"type":"Feature","properties":{"hex_id":"833f68fffffffff","population":1231685,"population_year":2025,"area_km2":14123.1,"population_density":87.2,"all_players":1,"players_per_million":0.81,"player_ids":["motogp:denizoncu"],"label":"Alanya","country":"Turkey"},"geometry":{"type":"Polygon","coordinates":[[[30.763964,37.164957],[30.680234,36.50664],[31.34916,36.107781],[32.102668,36.363912],[32.195633,37.019959],[31.525927,37.422186],[30.763964,37.164957]]]}},{"type":"Feature","properties":{"hex_id":"8348f4fffffffff","population":795713,"population_year":2025,"area_km2":14771.4,"population_density":53.9,"all_players":1,"players_per_million":1.26,"player_ids":["motogp:astridmadrigal"],"label":"Chihuahua","country":"Mexico"},"geometry":{"type":"Polygon","coordinates":[[[-105.250678,28.43866],[-104.81082,28.99481],[-105.143581,29.607564],[-105.921591,29.662386],[-106.359363,29.103448],[-106.021314,28.492487],[-105.250678,28.43866]]]}},{"type":"Feature","properties":{"hex_id":"834b71fffffffff","population":333995,"population_year":2025,"area_km2":10456.0,"population_density":31.9,"all_players":1,"players_per_million":2.99,"player_ids":["motogp:taiyofurusato"],"label":"Kanoya","country":"Japan"},"geometry":{"type":"Polygon","coordinates":[[[130.502399,31.349458],[130.622982,30.821811],[131.281902,30.664849],[131.82227,31.036932],[131.702216,31.564914],[131.041236,31.720504],[130.502399,31.349458]]]}},{"type":"Feature","properties":{"hex_id":"834ba0fffffffff","population":10190325,"population_year":2025,"area_km2":10891.0,"population_density":935.7,"all_players":1,"players_per_million":0.1,"player_ids":["motogp:chunmeiliu"],"label":"New Taipei City","country":"Taiwan"},"geometry":{"type":"Polygon","coordinates":[[[120.48761,24.811824],[120.607345,24.25696],[121.215981,24.121857],[121.708089,24.544589],[121.58798,25.101239],[120.976115,25.233392],[120.48761,24.811824]]]}},{"type":"Feature","properties":{"hex_id":"8364b4fffffffff","population":1980684,"population_year":2025,"area_km2":14387.3,"population_density":137.7,"all_players":1,"players_per_million":0.5,"player_ids":["motogp:nakarinatiratphuvapat"],"label":"Khon Kaen","country":"Thailand"},"geometry":{"type":"Polygon","coordinates":[[[103.137733,16.48245],[102.973397,17.133721],[102.301759,17.330096],[101.795802,16.873739],[101.96315,16.221378],[102.633475,16.026446],[103.137733,16.48245]]]}},{"type":"Feature","properties":{"hex_id":"836505fffffffff","population":10740103,"population_year":2025,"area_km2":14423.2,"population_density":744.6,"all_players":2,"players_per_million":0.19,"player_ids":["motogp:azroyanuar","motogp:helmiazman"],"label":"Kuala Lumpur","country":"Malaysia"},"geometry":{"type":"Polygon","coordinates":[[[102.265566,2.732418],[102.105795,3.379974],[101.459579,3.559439],[100.974489,3.089186],[101.136946,2.441467],[101.781836,2.264143],[102.265566,2.732418]]]}},{"type":"Feature","properties":{"hex_id":"836506fffffffff","population":985173,"population_year":2025,"area_km2":14423.2,"population_density":68.3,"all_players":1,"players_per_million":1.02,"player_ids":["motogp:hakimdanish"],"label":"Terengganu","country":"Malaysia"},"geometry":{"type":"Polygon","coordinates":[[[103.719547,4.136198],[103.562917,4.785999],[102.918356,4.968796],[102.431582,4.499409],[102.591058,3.849044],[103.23449,3.668608],[103.719547,4.136198]]]}},{"type":"Feature","properties":{"hex_id":"83658bfffffffff","population":3105445,"population_year":2025,"area_km2":14771.4,"population_density":210.2,"all_players":1,"players_per_million":0.32,"player_ids":["motogp:somkiatchantra"],"label":"Pattaya","country":"Thailand"},"geometry":{"type":"Polygon","coordinates":[[[100.959264,12.859608],[100.791105,13.518015],[100.121173,13.70703],[99.621042,13.236333],[99.791914,12.577456],[100.460239,12.389725],[100.959264,12.859608]]]}},{"type":"Feature","properties":{"hex_id":"83659bfffffffff","population":1572188,"population_year":2025,"area_km2":14504.4,"population_density":108.4,"all_players":1,"players_per_million":0.64,"player_ids":["motogp:tatchakornbuasri"],"label":"Nakhon Ratchasima","country":"Thailand"},"geometry":{"type":"Polygon","coordinates":[[[102.798155,15.372577],[102.633475,16.026446],[101.96315,16.221378],[101.458892,15.760959],[101.626527,15.106112],[102.295498,14.912642],[102.798155,15.372577]]]}},{"type":"Feature","properties":{"hex_id":"8366e6fffffffff","population":2941362,"population_year":2025,"area_km2":13081.4,"population_density":224.9,"all_players":1,"players_per_million":0.34,"player_ids":["motogp:saravaron"],"label":"Ibague","country":"Colombia"},"geometry":{"type":"Polygon","coordinates":[[[-75.499073,5.322428],[-75.87276,4.821344],[-75.600234,4.237055],[-74.953963,4.156995],[-74.582784,4.660074],[-74.855325,5.241221],[-75.499073,5.322428]]]}},{"type":"Feature","properties":{"hex_id":"838d8cfffffffff","population":16552198,"population_year":2025,"area_km2":11792.7,"population_density":1403.6,"all_players":1,"players_per_million":0.06,"player_ids":["motogp:arbiaditama"],"label":"Purworejo","country":"Indonesia"},"geometry":{"type":"Polygon","coordinates":[[[111.055271,-7.631575],[110.925422,-7.055314],[110.33795,-6.915435],[109.880406,-7.355494],[110.013347,-7.932699],[110.600753,-8.068928],[111.055271,-7.631575]]]}},{"type":"Feature","properties":{"hex_id":"839d0bfffffffff","population":205876,"population_year":2025,"area_km2":13220.0,"population_density":15.6,"all_players":1,"players_per_million":4.86,"player_ids":["motogp:jackmiller"],"label":"Townsville","country":"Australia"},"geometry":{"type":"Polygon","coordinates":[[[147.335389,-19.710104],[147.217062,-19.090051],[146.572745,-18.888357],[146.041409,-19.302203],[146.151528,-19.922933],[146.801225,-20.129189],[147.335389,-19.710104]]]}},{"type":"Feature","properties":{"hex_id":"83a810fffffffff","population":24232036,"population_year":2025,"area_km2":12479.4,"population_density":1941.8,"all_players":2,"players_per_million":0.08,"player_ids":["motogp:diogomoreira","motogp:ericgranado"],"label":"São Paulo","country":"Brazil"},"geometry":{"type":"Polygon","coordinates":[[[-46.29901,-24.248724],[-45.933728,-23.740374],[-46.268552,-23.19855],[-46.967078,-23.166485],[-47.331841,-23.675521],[-46.998649,-24.215936],[-46.29901,-24.248724]]]}},{"type":"Feature","properties":{"hex_id":"83ad36fffffffff","population":5535663,"population_year":2025,"area_km2":11735.1,"population_density":471.7,"all_players":1,"players_per_million":0.18,"player_ids":["motogp:jessicahowden"],"label":"Cape Town","country":"South Africa"},"geometry":{"type":"Polygon","coordinates":[[[19.103997,-34.207935],[19.172477,-33.623556],[18.564036,-33.250257],[17.888565,-33.460973],[17.816737,-34.043796],[18.423695,-34.417486],[19.103997,-34.207935]]]}},{"type":"Feature","properties":{"hex_id":"83b2c5fffffffff","population":7706249,"population_year":2025,"area_km2":10691.6,"population_density":720.8,"all_players":1,"players_per_million":0.13,"player_ids":["motogp:isiscarreno"],"label":"Santiago de Chile","country":"Chile"},"geometry":{"type":"Polygon","coordinates":[[[-70.680815,-32.940387],[-71.083294,-33.435542],[-70.773643,-33.916601],[-70.062513,-33.902016],[-69.664357,-33.408238],[-69.972956,-32.927676],[-70.680815,-32.940387]]]}},{"type":"Feature","properties":{"hex_id":"83bb50fffffffff","population":1759286,"population_year":2025,"area_km2":13096.6,"population_density":134.3,"all_players":1,"players_per_million":0.57,"player_ids":["motogp:avalonlewis"],"label":"Auckland","country":"New Zealand"},"geometry":{"type":"Polygon","coordinates":[[[175.568271,-36.884501],[175.227336,-36.30045],[174.454886,-36.252874],[174.011624,-36.792406],[174.349024,-37.382116],[175.133375,-37.426619],[175.568271,-36.884501]]]}},{"type":"Feature","properties":{"hex_id":"83bcc1fffffffff","population":830188,"population_year":2025,"area_km2":13642.7,"population_density":60.9,"all_players":2,"players_per_million":2.41,"player_ids":["motogp:bradbinder","motogp:darrynbinder"],"label":"Potchefstroom","country":"South Africa"},"geometry":{"type":"Polygon","coordinates":[[[27.54641,-27.538068],[27.589205,-26.897137],[26.969404,-26.538665],[26.305822,-26.82072],[26.259296,-27.461202],[26.880067,-27.820109],[27.54641,-27.538068]]]}},{"type":"Feature","properties":{"hex_id":"83be08fffffffff","population":3715576,"population_year":2025,"area_km2":14884.3,"population_density":249.6,"all_players":1,"players_per_million":0.27,"player_ids":["motogp:sennaagius"],"label":"Liverpool","country":"Australia"},"geometry":{"type":"Polygon","coordinates":[[[151.210157,-34.25249],[151.038963,-33.586023],[150.264159,-33.373537],[149.651925,-33.824078],[149.812161,-34.491757],[150.595673,-34.707733],[151.210157,-34.25249]]]}},{"type":"Feature","properties":{"hex_id":"83be88fffffffff","population":355061,"population_year":2025,"area_km2":14495.3,"population_density":24.5,"all_players":1,"players_per_million":2.82,"player_ids":["motogp:joelkelso"],"label":"Nambour","country":"Australia"},"geometry":{"type":"Polygon","coordinates":[[[154.020867,-26.398343],[153.84377,-25.749272],[153.127039,-25.5596],[152.579515,-26.01596],[152.74788,-26.667264],[153.47258,-26.860017],[154.020867,-26.398343]]]}},{"type":"Feature","properties":{"hex_id":"83be8dfffffffff","population":2791925,"population_year":2025,"area_km2":14604.7,"population_density":191.2,"all_players":1,"players_per_million":0.36,"player_ids":["motogp:taylarelph"],"label":"South Brisbane","country":"Australia"},"geometry":{"type":"Polygon","coordinates":[[[153.649162,-27.512988],[153.47258,-26.860017],[152.74788,-26.667264],[152.191761,-27.124384],[152.359327,-27.779455],[153.092109,-27.975349],[153.649162,-27.512988]]]}},{"type":"Feature","properties":{"hex_id":"83beabfffffffff","population":784032,"population_year":2025,"area_km2":14687.7,"population_density":53.4,"all_players":1,"players_per_million":1.28,"player_ids":["motogp:harrisonvoight"],"label":"Gold Coast","country":"Australia"},"geometry":{"type":"Polygon","coordinates":[[[154.567848,-28.355976],[154.382852,-27.701877],[153.649162,-27.512988],[153.092109,-27.975349],[153.268079,-28.631768],[154.010216,-28.823548],[154.567848,-28.355976]]]}},{"type":"Feature","properties":{"hex_id":"83bef6fffffffff","population":72808,"population_year":2025,"area_km2":14696.9,"population_density":5.0,"all_players":1,"players_per_million":13.73,"player_ids":["motogp:jacobroulstone"],"label":"Figtree","country":"Australia"},"geometry":{"type":"Polygon","coordinates":[[[153.268079,-28.631768],[153.092109,-27.975349],[152.359327,-27.779455],[151.794405,-28.236823],[151.961065,-28.895203],[152.702039,-29.094299],[153.268079,-28.631768]]]}},{"type":"Feature","properties":{"hex_id":"83daaafffffffff","population":78909,"population_year":2025,"area_km2":13235.5,"population_density":6.0,"all_players":1,"players_per_million":12.67,"player_ids":["motogp:cormacbuchanan"],"label":"Invercargill","country":"New Zealand"},"geometry":{"type":"Polygon","coordinates":[[[169.186808,-46.705915],[168.835164,-46.121865],[167.917904,-46.055866],[167.336377,-46.575114],[167.679829,-47.163641],[168.613251,-47.228454],[169.186808,-46.705915]]]}}]}