{"type":"FeatureCollection","metadata":{"population_source":"WorldPop Global 2 R2025A","population_source_url":"https://hub.worldpop.org/project/categories?id=3","population_license":"CC BY 4.0","population_year":2025,"raster_resolution":"1km","h3_resolution":2,"population_method":"official_country_rasters","occupied_cells":58,"mapped_players":147},"features":[{"type":"Feature","properties":{"hex_id":"82182ffffffffff","population":4166502,"population_year":2025,"area_km2":82705.0,"population_density":50.4,"all_players":1,"players_per_million":0.24,"player_ids":["motogp:caseyogorman"],"label":"Portlaoise","country":"Ireland"},"geometry":{"type":"Polygon","coordinates":[[[-6.713499,53.841054],[-9.166993,53.289084],[-9.362891,51.696863],[-7.224494,50.679047],[-4.88976,51.223728],[-4.578382,52.792439],[-6.713499,53.841054]]]}},{"type":"Feature","properties":{"hex_id":"82184ffffffffff","population":5386228,"population_year":2025,"area_km2":85627.7,"population_density":62.9,"all_players":1,"players_per_million":0.19,"player_ids":["motogp:xabizurutuza"],"label":"Legazpi","country":"Spain"},"geometry":{"type":"Polygon","coordinates":[[[-1.752798,45.828917],[-3.870647,45.286766],[-4.162635,43.625899],[-2.417796,42.54048],[-0.397973,43.08589],[-0.028005,44.712978],[-1.752798,45.828917]]]}},{"type":"Feature","properties":{"hex_id":"821867fffffffff","population":5245763,"population_year":2025,"area_km2":80847.5,"population_density":64.9,"all_players":1,"players_per_million":0.19,"player_ids":["motogp:lucieboudesseul"],"label":"Bernay","country":"France"},"geometry":{"type":"Polygon","coordinates":[[[-0.631095,50.601911],[-2.906528,50.142292],[-3.243656,48.547301],[-1.396608,47.443512],[0.764026,47.90745],[1.18851,49.470279],[-0.631095,50.601911]]]}},{"type":"Feature","properties":{"hex_id":"821947fffffffff","population":12519310,"population_year":2025,"area_km2":74863.4,"population_density":167.2,"all_players":1,"players_per_million":0.08,"player_ids":["motogp:scottogden"],"label":"Doncaster","country":"United Kingdom"},"geometry":{"type":"Polygon","coordinates":[[[0.670759,55.133806],[-1.785543,54.762388],[-2.178886,53.251551],[-0.219137,52.141681],[2.101314,52.517134],[2.592789,53.997752],[0.670759,55.133806]]]}},{"type":"Feature","properties":{"hex_id":"82194ffffffffff","population":23325550,"population_year":2025,"area_km2":76219.8,"population_density":306.0,"all_players":1,"players_per_million":0.04,"player_ids":["motogp:jakedixon"],"label":"Dover","country":"United Kingdom"},"geometry":{"type":"Polygon","coordinates":[[[2.101314,52.517134],[-0.219137,52.141681],[-0.631095,50.601911],[1.18851,49.470279],[3.384772,49.85377],[3.881134,51.360376],[2.101314,52.517134]]]}},{"type":"Feature","properties":{"hex_id":"82195ffffffffff","population":22721748,"population_year":2025,"area_km2":79647.5,"population_density":285.3,"all_players":4,"players_per_million":0.18,"player_ids":["motogp:eddieoshea","motogp:evanbelford","motogp:jamiehankselliott","motogp:maxcook"],"label":"Leicester","country":"United Kingdom"},"geometry":{"type":"Polygon","coordinates":[[[-2.178886,53.251551],[-4.578382,52.792439],[-4.88976,51.223728],[-2.906528,50.142292],[-0.631095,50.601911],[-0.219137,52.141681],[-2.178886,53.251551]]]}},{"type":"Feature","properties":{"hex_id":"82196ffffffffff","population":13271725,"population_year":2025,"area_km2":72289.7,"population_density":183.6,"all_players":1,"players_per_million":0.08,"player_ids":["motogp:collinveijer"],"label":"Staphorst","country":"Netherlands"},"geometry":{"type":"Polygon","coordinates":[[[4.948742,54.288287],[2.592789,53.997752],[2.101314,52.517134],[3.881134,51.360376],[6.259687,51.96477],[6.848229,53.43156],[4.948742,54.288287]]]}},{"type":"Feature","properties":{"hex_id":"821e0ffffffffff","population":6622895,"population_year":2025,"area_km2":87326.6,"population_density":75.8,"all_players":1,"players_per_million":0.15,"player_ids":["motogp:tiborvarga"],"label":"Debrecen","country":"Hungary"},"geometry":{"type":"Polygon","coordinates":[[[20.822886,49.074367],[19.952961,47.57214],[21.555106,46.342738],[24.013384,46.595885],[24.952412,48.084867],[23.367705,49.334469],[20.822886,49.074367]]]}},{"type":"Feature","properties":{"hex_id":"821e27fffffffff","population":12111129,"population_year":2025,"area_km2":80544.7,"population_density":150.4,"all_players":1,"players_per_million":0.08,"player_ids":["motogp:milanpawelec"],"label":"Wolsztyn","country":"Poland"},"geometry":{"type":"Polygon","coordinates":[[[15.658506,52.45677],[14.863027,50.992748],[16.606047,49.899182],[19.15135,50.248654],[20.036282,51.703743],[18.289963,52.819052],[15.658506,52.45677]]]}},{"type":"Feature","properties":{"hex_id":"821e37fffffffff","population":10279073,"population_year":2025,"area_km2":82705.0,"population_density":124.3,"all_players":3,"players_per_million":0.29,"player_ids":["motogp:adelaourednickova","motogp:filipsalac","motogp:jakobrosenthaler"],"label":"Prague","country":"Czechia"},"geometry":{"type":"Polygon","coordinates":[[[12.345747,50.554275],[11.648396,49.039345],[13.374348,47.965938],[15.817384,48.388123],[16.606047,49.899182],[14.863027,50.992748],[12.345747,50.554275]]]}},{"type":"Feature","properties":{"hex_id":"821e67fffffffff","population":5717680,"population_year":2025,"area_km2":80847.5,"population_density":70.7,"all_players":1,"players_per_million":0.17,"player_ids":["motogp:irynanadieieva"],"label":"Kyiv","country":"Ukraine"},"geometry":{"type":"Polygon","coordinates":[[[27.993406,52.327164],[26.940864,50.952157],[28.492806,49.683116],[31.052695,49.771325],[32.156918,51.126789],[30.654128,52.413789],[27.993406,52.327164]]]}},{"type":"Feature","properties":{"hex_id":"821e87fffffffff","population":12834722,"population_year":2025,"area_km2":92775.6,"population_density":138.3,"all_players":8,"players_per_million":0.62,"player_ids":["motogp:dennisfoggia","motogp:fabiodigiannantonio","motogp:francomorbidelli","motogp:jacopohosciuc","motogp:lorenzobaldassarri","motogp:lucalunetta","motogp:robertaponziani","motogp:stefanonepa"],"label":"Rome","country":"Italy"},"geometry":{"type":"Polygon","coordinates":[[[11.369193,43.208977],[10.754951,41.575053],[12.334661,40.405578],[14.548451,40.851244],[15.239936,42.485371],[13.642239,43.674337],[11.369193,43.208977]]]}},{"type":"Feature","properties":{"hex_id":"821e8ffffffffff","population":5543268,"population_year":2025,"area_km2":95515.4,"population_density":58.0,"all_players":1,"players_per_million":0.18,"player_ids":["motogp:michelepirro"],"label":"San Giovanni Rotondo","country":"Italy"},"geometry":{"type":"Polygon","coordinates":[[[15.239936,42.485371],[14.548451,40.851244],[16.087589,39.612646],[18.32526,39.988178],[19.087059,41.616885],[17.543183,42.876114],[15.239936,42.485371]]]}},{"type":"Feature","properties":{"hex_id":"821e97fffffffff","population":1460796,"population_year":2025,"area_km2":93159.0,"population_density":15.7,"all_players":2,"players_per_million":1.37,"player_ids":["motogp:beatricebarbera","motogp:lucabernardi"],"label":"Cagliari","country":"Italy"},"geometry":{"type":"Polygon","coordinates":[[[8.584299,41.06115],[8.045142,39.402136],[9.598985,38.251433],[11.719175,38.741667],[12.334661,40.405578],[10.754951,41.575053],[8.584299,41.06115]]]}},{"type":"Feature","properties":{"hex_id":"821ea7fffffffff","population":14372848,"population_year":2025,"area_km2":88726.5,"population_density":162.0,"all_players":15,"players_per_million":1.04,"player_ids":["motogp:alessandrozaccone","motogp:andreamantovani","motogp:eneabastianini","motogp:kevinzannoni","motogp:lorenzosavadori","motogp:lucamarini","motogp:marcobezzecchi","motogp:matteobertelle","motogp:matteoferrari","motogp:mattiacasadei","motogp:mattiapasini","motogp:nicolacarraro","motogp:nicolobulega","motogp:raffaelefusco","motogp:tommasoocchi"],"label":"Rimini","country":"Italy"},"geometry":{"type":"Polygon","coordinates":[[[10.343213,45.921928],[9.731941,44.323805],[11.369193,43.208977],[13.642239,43.674337],[14.337206,45.273432],[12.677318,46.406957],[10.343213,45.921928]]]}},{"type":"Feature","properties":{"hex_id":"821f87fffffffff","population":16111686,"population_year":2025,"area_km2":80847.5,"population_density":199.3,"all_players":2,"players_per_million":0.12,"player_ids":["motogp:lenoxxphommara","motogp:noahdettwiler"],"label":"Zürich","country":"Switzerland"},"geometry":{"type":"Polygon","coordinates":[[[5.163511,48.943764],[4.652435,47.393027],[6.371339,46.417017],[8.645314,46.977068],[9.251571,48.534678],[7.489806,49.526212],[5.163511,48.943764]]]}},{"type":"Feature","properties":{"hex_id":"821f97fffffffff","population":9069390,"population_year":2025,"area_km2":81458.9,"population_density":111.3,"all_players":1,"players_per_million":0.11,"player_ids":["motogp:linevieillard"],"label":"Clermont-Ferrand","country":"France"},"geometry":{"type":"Polygon","coordinates":[[[2.458902,46.763731],[2.026569,45.184249],[3.696702,44.221235],[5.848477,44.82547],[6.371339,46.417017],[4.652435,47.393027],[2.458902,46.763731]]]}},{"type":"Feature","properties":{"hex_id":"821f9ffffffffff","population":16398717,"population_year":2025,"area_km2":85294.5,"population_density":192.3,"all_players":8,"players_per_million":0.49,"player_ids":["motogp:albertosurra","motogp:alessandromorosi","motogp:alessiofinello","motogp:celestinovietti","motogp:francescobagnaia","motogp:leonardoabruzzo","motogp:riccardorossi","motogp:tonyarbolino"],"label":"Turin","country":"Italy"},"geometry":{"type":"Polygon","coordinates":[[[6.371339,46.417017],[5.848477,44.82547],[7.509948,43.786609],[9.731941,44.323805],[10.343213,45.921928],[8.645314,46.977068],[6.371339,46.417017]]]}},{"type":"Feature","properties":{"hex_id":"821fa7fffffffff","population":28149582,"population_year":2025,"area_km2":76219.8,"population_density":369.3,"all_players":2,"players_per_million":0.07,"player_ids":["motogp:barrybaltus","motogp:zontavdgoorbergh"],"label":"Namur","country":"Belgium"},"geometry":{"type":"Polygon","coordinates":[[[3.881134,51.360376],[3.384772,49.85377],[5.163511,48.943764],[7.489806,49.526212],[8.088631,51.039696],[6.259687,51.96477],[3.881134,51.360376]]]}},{"type":"Feature","properties":{"hex_id":"821faffffffffff","population":20512004,"population_year":2025,"area_km2":79647.5,"population_density":257.5,"all_players":1,"players_per_million":0.05,"player_ids":["motogp:lucymichel"],"label":"Erlabrunn","country":"Germany"},"geometry":{"type":"Polygon","coordinates":[[[8.088631,51.039696],[7.489806,49.526212],[9.251571,48.534678],[11.648396,49.039345],[12.345747,50.554275],[10.549623,51.56399],[8.088631,51.039696]]]}},{"type":"Feature","properties":{"hex_id":"821fb7fffffffff","population":17326098,"population_year":2025,"area_km2":77926.1,"population_density":222.3,"all_players":1,"players_per_million":0.06,"player_ids":["motogp:emilybondi"],"label":"Neuilly-sur-Seine","country":"France"},"geometry":{"type":"Polygon","coordinates":[[[1.18851,49.470279],[0.764026,47.90745],[2.458902,46.763731],[4.652435,47.393027],[5.163511,48.943764],[3.384772,49.85377],[1.18851,49.470279]]]}},{"type":"Feature","properties":{"hex_id":"8229a7fffffffff","population":26139253,"population_year":2025,"area_km2":97556.0,"population_density":267.9,"all_players":1,"players_per_million":0.04,"player_ids":["motogp:joeroberts"],"label":"Malibu","country":"United States"},"geometry":{"type":"Polygon","coordinates":[[[-116.838302,32.260383],[-115.254005,33.431536],[-115.644549,35.13856],[-117.666441,35.65712],[-119.240554,34.468622],[-118.804528,32.779438],[-116.838302,32.260383]]]}},{"type":"Feature","properties":{"hex_id":"822a17fffffffff","population":30364242,"population_year":2025,"area_km2":87326.6,"population_density":347.7,"all_players":1,"players_per_million":0.03,"player_ids":["motogp:elisagendron"],"label":"New York","country":"United States"},"geometry":{"type":"Polygon","coordinates":[[[-73.076912,42.400493],[-75.333452,42.029564],[-75.960619,40.480497],[-74.442775,39.340569],[-72.307877,39.686062],[-71.573772,41.195725],[-73.076912,42.400493]]]}},{"type":"Feature","properties":{"hex_id":"822a97fffffffff","population":8425121,"population_year":2025,"area_km2":85627.7,"population_density":98.4,"all_players":1,"players_per_million":0.12,"player_ids":["motogp:sonyalloyd"],"label":"Columbus","country":"United States"},"geometry":{"type":"Polygon","coordinates":[[[-83.600197,41.724215],[-85.703199,41.161269],[-85.979328,39.596509],[-84.278055,38.60875],[-82.267059,39.125451],[-81.867503,40.674246],[-83.600197,41.724215]]]}},{"type":"Feature","properties":{"hex_id":"822aaffffffffff","population":16213426,"population_year":2025,"area_km2":84307.8,"population_density":192.3,"all_players":1,"players_per_million":0.06,"player_ids":["motogp:mallorydobbs"],"label":"Washington","country":"United States"},"geometry":{"type":"Polygon","coordinates":[[[-75.960619,40.480497],[-78.104271,40.06406],[-78.619418,38.540002],[-77.099922,37.463561],[-75.063317,37.849069],[-74.442775,39.340569],[-75.960619,40.480497]]]}},{"type":"Feature","properties":{"hex_id":"822e67fffffffff","population":29949728,"population_year":2025,"area_km2":74863.4,"population_density":400.1,"all_players":1,"players_per_million":0.03,"player_ids":["motogp:zenmitani"],"label":"Ibaraki","country":"Japan"},"geometry":{"type":"Polygon","coordinates":[[[138.240188,34.090249],[138.304265,35.714832],[136.756542,36.594877],[135.209181,35.840284],[135.213088,34.249062],[136.697641,33.378798],[138.240188,34.090249]]]}},{"type":"Feature","properties":{"hex_id":"822f5ffffffffff","population":40494200,"population_year":2025,"area_km2":79647.5,"population_density":508.4,"all_players":6,"players_per_million":0.15,"player_ids":["motogp:aiogura","motogp:ayumusasaki","motogp:ryuseiyamanaka","motogp:taigahada","motogp:takaakinakagami","motogp:yukikunii"],"label":"Kiyose","country":"Japan"},"geometry":{"type":"Polygon","coordinates":[[[141.379662,33.846135],[141.516472,35.500079],[139.948213,36.441778],[138.304265,35.714832],[138.240188,34.090249],[139.748325,33.162808],[141.379662,33.846135]]]}},{"type":"Feature","properties":{"hex_id":"823827fffffffff","population":4893624,"population_year":2025,"area_km2":87326.6,"population_density":56.0,"all_players":1,"players_per_million":0.2,"player_ids":["motogp:pedroacosta"],"label":"Mazarrón","country":"Spain"},"geometry":{"type":"Polygon","coordinates":[[[-1.416234,38.115997],[-3.311341,37.499409],[-3.584806,35.801656],[-2.027587,34.757091],[-0.211854,35.375671],[0.123807,37.036562],[-1.416234,38.115997]]]}},{"type":"Feature","properties":{"hex_id":"823907fffffffff","population":2648705,"population_year":2025,"area_km2":92775.6,"population_density":28.5,"all_players":1,"players_per_million":0.38,"player_ids":["motogp:mariaherrera"],"label":"Oropesa","country":"Spain"},"geometry":{"type":"Polygon","coordinates":[[[-6.464182,41.30856],[-8.480681,40.6223],[-8.657648,38.889432],[-6.898506,37.871743],[-4.963456,38.552712],[-4.708227,40.256026],[-6.464182,41.30856]]]}},{"type":"Feature","properties":{"hex_id":"82390ffffffffff","population":8669237,"population_year":2025,"area_km2":88726.5,"population_density":97.7,"all_players":11,"players_per_million":1.27,"player_ids":["motogp:adrianfernandez","motogp:adrianhuertas","motogp:alonsolopez","motogp:augustofernandez","motogp:beatrizneila","motogp:davidalmansa","motogp:davidalonso","motogp:jorgemartin","motogp:manuelgonzalez","motogp:nataliarivera","motogp:raulfernandez"],"label":"Madrid","country":"Spain"},"geometry":{"type":"Polygon","coordinates":[[[-2.728618,40.871785],[-4.708227,40.256026],[-4.963456,38.552712],[-3.311341,37.499409],[-1.416234,38.115997],[-1.091146,39.784657],[-2.728618,40.871785]]]}},{"type":"Feature","properties":{"hex_id":"823917fffffffff","population":1682178,"population_year":2025,"area_km2":95515.4,"population_density":17.6,"all_players":1,"players_per_million":0.59,"player_ids":["motogp:migueloliveira"],"label":"Almada","country":"Portugal"},"geometry":{"type":"Polygon","coordinates":[[[-8.657648,38.889432],[-10.618161,38.139996],[-10.744488,36.38323],[-8.989073,35.401916],[-7.101894,36.141695],[-6.898506,37.871743],[-8.657648,38.889432]]]}},{"type":"Feature","properties":{"hex_id":"82391ffffffffff","population":8248421,"population_year":2025,"area_km2":91641.3,"population_density":90.0,"all_players":5,"players_per_million":0.61,"player_ids":["motogp:danielmunoz","motogp:davidmunoz","motogp:jesusrios","motogp:joseantoniorueda","motogp:marcosramirez"],"label":"Dos Hermanas","country":"Spain"},"geometry":{"type":"Polygon","coordinates":[[[-4.963456,38.552712],[-6.898506,37.871743],[-7.101894,36.141695],[-5.442348,35.124424],[-3.584806,35.801656],[-3.311341,37.499409],[-4.963456,38.552712]]]}},{"type":"Feature","properties":{"hex_id":"82392ffffffffff","population":3160870,"population_year":2025,"area_km2":89440.6,"population_density":35.3,"all_players":1,"players_per_million":0.32,"player_ids":["motogp:brianuriarte"],"label":"Santa Cruz de Bezana","country":"Spain"},"geometry":{"type":"Polygon","coordinates":[[[-4.162635,43.625899],[-6.231988,43.009176],[-6.464182,41.30856],[-4.708227,40.256026],[-2.728618,40.871785],[-2.417796,42.54048],[-4.162635,43.625899]]]}},{"type":"Feature","properties":{"hex_id":"823937fffffffff","population":3262075,"population_year":2025,"area_km2":96323.1,"population_density":33.9,"all_players":1,"players_per_million":0.31,"player_ids":["motogp:madalenasimoes"],"label":"Lisboa","country":"Portugal"},"geometry":{"type":"Polygon","coordinates":[[[-10.347941,41.63003],[-12.384127,40.869133],[-12.4757,39.112815],[-10.618161,38.139996],[-8.657648,38.889432],[-8.480681,40.6223],[-10.347941,41.63003]]]}},{"type":"Feature","properties":{"hex_id":"823947fffffffff","population":8221573,"population_year":2025,"area_km2":85294.5,"population_density":96.4,"all_players":16,"players_per_million":1.95,"player_ids":["motogp:albertarenas","motogp:aleixespargaro","motogp:alexmarquez","motogp:alexrins","motogp:diegoperez","motogp:izanguevara","motogp:joanmir","motogp:joelesteban","motogp:jorditorres","motogp:marcmarquez","motogp:marcosruda","motogp:maverickvinales","motogp:pakitaruiz","motogp:paolaramos","motogp:polespargaro","motogp:valentinperrone"],"label":"Palma","country":"Spain"},"geometry":{"type":"Polygon","coordinates":[[[1.216871,41.967575],[0.837298,40.335353],[2.409691,39.323588],[4.408495,39.931959],[4.868332,41.580315],[3.24935,42.604792],[1.216871,41.967575]]]}},{"type":"Feature","properties":{"hex_id":"823957fffffffff","population":5978276,"population_year":2025,"area_km2":85321.7,"population_density":70.1,"all_players":12,"players_per_million":2.01,"player_ids":["motogp:albertoferrandez","motogp:alexescrig","motogp:alvarocarpe","motogp:angelpiqueras","motogp:aroncanet","motogp:danielholgado","motogp:ferminaldeguer","motogp:hectorgarzo","motogp:jorgenavarro","motogp:maximoquiles","motogp:sergiogarcia","motogp:vicenteperez"],"label":"Murcia","country":"Spain"},"geometry":{"type":"Polygon","coordinates":[[[-1.091146,39.784657],[-1.416234,38.115997],[0.123807,37.036562],[2.015255,37.664358],[2.409691,39.323588],[0.837298,40.335353],[-1.091146,39.784657]]]}},{"type":"Feature","properties":{"hex_id":"82396ffffffffff","population":6845595,"population_year":2025,"area_km2":85627.7,"population_density":79.9,"all_players":4,"players_per_million":0.58,"player_ids":["motogp:fabioquartararo","motogp:johannzarco","motogp:justinepedemonte","motogp:ornellaongaro"],"label":"Nice","country":"France"},"geometry":{"type":"Polygon","coordinates":[[[3.696702,44.221235],[3.24935,42.604792],[4.868332,41.580315],[6.97784,42.158616],[7.509948,43.786609],[5.848477,44.82547],[3.696702,44.221235]]]}},{"type":"Feature","properties":{"hex_id":"823f6ffffffffff","population":5637154,"population_year":2025,"area_km2":98815.5,"population_density":57.0,"all_players":1,"players_per_million":0.18,"player_ids":["motogp:denizoncu"],"label":"Alanya","country":"Turkey"},"geometry":{"type":"Polygon","coordinates":[[[30.164431,38.215301],[29.24697,36.632905],[30.516116,35.182951],[32.6655,35.299894],[33.614584,36.858664],[32.385359,38.324197],[30.164431,38.215301]]]}},{"type":"Feature","properties":{"hex_id":"82481ffffffffff","population":1987203,"population_year":2025,"area_km2":104135.0,"population_density":19.1,"all_players":1,"players_per_million":0.5,"player_ids":["motogp:astridmadrigal"],"label":"Chihuahua","country":"Mexico"},"geometry":{"type":"Polygon","coordinates":[[[-106.639261,25.578666],[-105.028152,26.651299],[-105.250678,28.43866],[-107.135557,29.151136],[-108.763145,28.059391],[-108.490011,26.27498],[-106.639261,25.578666]]]}},{"type":"Feature","properties":{"hex_id":"824b77fffffffff","population":1762532,"population_year":2025,"area_km2":73030.9,"population_density":24.1,"all_players":1,"players_per_million":0.57,"player_ids":["motogp:taiyofurusato"],"label":"Kanoya","country":"Japan"},"geometry":{"type":"Polygon","coordinates":[[[128.534469,31.786712],[128.246663,30.359872],[129.672315,29.525999],[131.401974,30.12918],[131.702216,31.564914],[130.260732,32.389001],[128.534469,31.786712]]]}},{"type":"Feature","properties":{"hex_id":"824ba7fffffffff","population":17459604,"population_year":2025,"area_km2":76219.8,"population_density":229.1,"all_players":1,"players_per_million":0.06,"player_ids":["motogp:chunmeiliu"],"label":"New Taipei City","country":"Taiwan"},"geometry":{"type":"Polygon","coordinates":[[[119.763148,25.487093],[119.520262,23.963809],[120.846595,23.133384],[122.443634,23.841124],[122.701532,25.384508],[121.347514,26.200276],[119.763148,25.487093]]]}},{"type":"Feature","properties":{"hex_id":"8264b7fffffffff","population":7935178,"population_year":2025,"area_km2":100537.4,"population_density":78.9,"all_players":1,"players_per_million":0.13,"player_ids":["motogp:nakarinatiratphuvapat"],"label":"Khon Kaen","country":"Thailand"},"geometry":{"type":"Polygon","coordinates":[[[103.137733,16.48245],[103.315255,18.233591],[101.798256,19.272673],[100.100258,18.555033],[99.938788,16.794916],[101.458892,15.760959],[103.137733,16.48245]]]}},{"type":"Feature","properties":{"hex_id":"826507fffffffff","population":16316980,"population_year":2025,"area_km2":101417.2,"population_density":160.9,"all_players":3,"players_per_million":0.18,"player_ids":["motogp:azroyanuar","motogp:hakimdanish","motogp:helmiazman"],"label":"Kuala Lumpur","country":"Malaysia"},"geometry":{"type":"Polygon","coordinates":[[[103.391464,3.021473],[103.562917,4.785999],[102.110437,5.805283],[100.482799,5.043918],[100.325985,3.267721],[101.781836,2.264143],[103.391464,3.021473]]]}},{"type":"Feature","properties":{"hex_id":"82658ffffffffff","population":9895315,"population_year":2025,"area_km2":103215.8,"population_density":95.9,"all_players":1,"players_per_million":0.1,"player_ids":["motogp:somkiatchantra"],"label":"Pattaya","country":"Thailand"},"geometry":{"type":"Polygon","coordinates":[[[102.616126,11.159905],[102.788194,12.942278],[101.291897,13.985209],[99.621042,13.236333],[99.464714,11.444613],[100.963156,10.410684],[102.616126,11.159905]]]}},{"type":"Feature","properties":{"hex_id":"82659ffffffffff","population":10629164,"population_year":2025,"area_km2":101417.2,"population_density":104.8,"all_players":1,"players_per_million":0.09,"player_ids":["motogp:tatchakornbuasri"],"label":"Nakhon Ratchasima","country":"Thailand"},"geometry":{"type":"Polygon","coordinates":[[[104.446527,13.6677],[104.628684,15.431709],[103.137733,16.48245],[101.458892,15.760959],[101.291897,13.985209],[102.788194,12.942278],[104.446527,13.6677]]]}},{"type":"Feature","properties":{"hex_id":"8266e7fffffffff","population":16749351,"population_year":2025,"area_km2":91641.3,"population_density":182.8,"all_players":1,"players_per_million":0.06,"player_ids":["motogp:saravaron"],"label":"Ibague","country":"Colombia"},"geometry":{"type":"Polygon","coordinates":[[[-74.485771,5.737922],[-75.87276,4.821344],[-75.702142,3.140563],[-74.131897,2.392531],[-72.753723,3.330953],[-72.936618,4.995193],[-74.485771,5.737922]]]}},{"type":"Feature","properties":{"hex_id":"828d8ffffffffff","population":44702480,"population_year":2025,"area_km2":84307.8,"population_density":530.2,"all_players":1,"players_per_million":0.02,"player_ids":["motogp:arbiaditama"],"label":"Purworejo","country":"Indonesia"},"geometry":{"type":"Polygon","coordinates":[[[111.055271,-7.631575],[111.251261,-6.03334],[109.938807,-5.15272],[108.415879,-5.894708],[108.229928,-7.513552],[109.556486,-8.370077],[111.055271,-7.631575]]]}},{"type":"Feature","properties":{"hex_id":"829d0ffffffffff","population":281851,"population_year":2025,"area_km2":93933.6,"population_density":3.0,"all_players":1,"players_per_million":3.55,"player_ids":["motogp:jackmiller"],"label":"Townsville","country":"Australia"},"geometry":{"type":"Polygon","coordinates":[[[148.908355,-21.368239],[149.1751,-19.686219],[147.744098,-18.672653],[146.041409,-19.302203],[145.721377,-20.964646],[147.156222,-22.017841],[148.908355,-21.368239]]]}},{"type":"Feature","properties":{"hex_id":"82a817fffffffff","population":35227396,"population_year":2025,"area_km2":87326.6,"population_density":403.4,"all_players":2,"players_per_million":0.06,"player_ids":["motogp:diogomoreira","motogp:ericgranado"],"label":"São Paulo","country":"Brazil"},"geometry":{"type":"Polygon","coordinates":[[[-46.329568,-25.285204],[-44.896021,-24.304788],[-45.204057,-22.710396],[-46.93561,-22.103817],[-48.35944,-23.093332],[-48.061859,-24.679886],[-46.329568,-25.285204]]]}},{"type":"Feature","properties":{"hex_id":"82ad37fffffffff","population":5629844,"population_year":2025,"area_km2":82416.4,"population_density":68.3,"all_players":1,"players_per_million":0.18,"player_ids":["motogp:jessicahowden"],"label":"Cape Town","country":"South Africa"},"geometry":{"type":"Polygon","coordinates":[[[18.352922,-34.994007],[19.172477,-33.623556],[18.03101,-32.281494],[16.099481,-32.315582],[15.366054,-33.828537],[16.499817,-35.187102],[18.352922,-34.994007]]]}},{"type":"Feature","properties":{"hex_id":"82b2c7fffffffff","population":11329671,"population_year":2025,"area_km2":74863.4,"population_density":151.3,"all_players":1,"players_per_million":0.09,"player_ids":["motogp:isiscarreno"],"label":"Santiago de Chile","country":"Chile"},"geometry":{"type":"Polygon","coordinates":[[[-71.701009,-32.457423],[-73.23859,-33.44609],[-73.032279,-34.902991],[-71.273842,-35.361914],[-69.752658,-34.374792],[-69.972956,-32.927676],[-71.701009,-32.457423]]]}},{"type":"Feature","properties":{"hex_id":"82bb57fffffffff","population":2517968,"population_year":2025,"area_km2":91641.3,"population_density":27.5,"all_players":1,"players_per_million":0.4,"player_ids":["motogp:avalonlewis"],"label":"Auckland","country":"New Zealand"},"geometry":{"type":"Polygon","coordinates":[[[176.688659,-37.499409],[176.415194,-35.801656],[174.557652,-35.124424],[172.898106,-36.141695],[173.101494,-37.871743],[175.036544,-38.552712],[176.688659,-37.499409]]]}},{"type":"Feature","properties":{"hex_id":"82bcc7fffffffff","population":16401038,"population_year":2025,"area_km2":95515.4,"population_density":171.7,"all_players":2,"players_per_million":0.12,"player_ids":["motogp:bradbinder","motogp:darrynbinder"],"label":"Potchefstroom","country":"South Africa"},"geometry":{"type":"Polygon","coordinates":[[[29.424697,-28.585894],[30.161044,-27.015106],[28.952033,-25.669244],[27.013681,-25.892672],[26.259296,-27.461202],[27.460057,-28.808795],[29.424697,-28.585894]]]}},{"type":"Feature","properties":{"hex_id":"82be0ffffffffff","population":6793674,"population_year":2025,"area_km2":104135.0,"population_density":65.2,"all_players":1,"players_per_million":0.15,"player_ids":["motogp:sennaagius"],"label":"Liverpool","country":"Australia"},"geometry":{"type":"Polygon","coordinates":[[[152.177285,-35.125129],[152.420459,-33.332138],[150.704674,-32.253721],[148.729494,-32.935272],[148.409969,-34.714468],[150.140595,-35.826845],[152.177285,-35.125129]]]}},{"type":"Feature","properties":{"hex_id":"82be8ffffffffff","population":3414014,"population_year":2025,"area_km2":101417.2,"population_density":33.7,"all_players":2,"players_per_million":0.59,"player_ids":["motogp:joelkelso","motogp:taylarelph"],"label":"Nambour","country":"Australia"},"geometry":{"type":"Polygon","coordinates":[[[154.931553,-27.234921],[155.100683,-25.47207],[153.49711,-24.457404],[151.703594,-25.170738],[151.46847,-26.924893],[153.092109,-27.975349],[154.931553,-27.234921]]]}},{"type":"Feature","properties":{"hex_id":"82beaffffffffff","population":860278,"population_year":2025,"area_km2":103215.8,"population_density":8.3,"all_players":1,"players_per_million":1.16,"player_ids":["motogp:harrisonvoight"],"label":"Gold Coast","country":"Australia"},"geometry":{"type":"Polygon","coordinates":[[[156.457483,-30.029487],[156.601213,-28.245627],[154.931553,-27.234921],[153.092109,-27.975349],[152.877292,-29.753699],[154.572365,-30.798114],[156.457483,-30.029487]]]}},{"type":"Feature","properties":{"hex_id":"82bef7fffffffff","population":374361,"population_year":2025,"area_km2":102761.2,"population_density":3.6,"all_players":1,"players_per_million":2.67,"player_ids":["motogp:jacobroulstone"],"label":"Figtree","country":"Australia"},"geometry":{"type":"Polygon","coordinates":[[[152.877292,-29.753699],[153.092109,-27.975349],[151.46847,-26.924893],[149.613583,-27.617724],[149.330579,-29.383365],[150.969593,-30.469788],[152.877292,-29.753699]]]}},{"type":"Feature","properties":{"hex_id":"82daaffffffffff","population":71401,"population_year":2025,"area_km2":91641.3,"population_density":0.8,"all_players":1,"players_per_million":14.01,"player_ids":["motogp:cormacbuchanan"],"label":"Invercargill","country":"New Zealand"},"geometry":{"type":"Polygon","coordinates":[[[170.275264,-48.430094],[170.107835,-46.759699],[167.917904,-46.055866],[165.806823,-47.010136],[165.865034,-48.699061],[168.145581,-49.416339],[170.275264,-48.430094]]]}}]}