{"type":"FeatureCollection","metadata":{"population_source":"WorldPop Global 2 R2025A","population_source_url":"https://hub.worldpop.org/project/categories?id=3","population_license":"CC BY 4.0","population_year":2025,"raster_resolution":"1km","h3_resolution":3,"population_method":"official_country_rasters","occupied_cells":110,"mapped_players":168},"features":[{"type":"Feature","properties":{"hex_id":"830886fffffffff","population":2640375,"population_year":2025,"area_km2":9267.4,"population_density":284.9,"all_players":2,"players_per_million":0.76,"player_ids":["golf:owgr:alexnoren-sweden","golf:wwgr:5449"],"label":"Stockholm","country":"Sweden"},"geometry":{"type":"Polygon","coordinates":[[[16.278958,59.64339],[16.300028,59.146064],[17.2862,58.926343],[18.263528,59.200793],[18.261053,59.698623],[17.262594,59.921571],[16.278958,59.64339]]]}},{"type":"Feature","properties":{"hex_id":"83088afffffffff","population":301530,"population_year":2025,"area_km2":9241.7,"population_density":32.6,"all_players":1,"players_per_million":3.32,"player_ids":["golf:owgr:samivalimaki-finland"],"label":"Nokia","country":"Finland"},"geometry":{"type":"Polygon","coordinates":[[[22.080946,60.825166],[23.009481,60.610921],[23.838471,60.96689],[23.738785,61.54427],[22.781062,61.75929],[21.952715,61.396097],[22.080946,60.825166]]]}},{"type":"Feature","properties":{"hex_id":"830999fffffffff","population":1719569,"population_year":2025,"area_km2":8885.6,"population_density":193.5,"all_players":2,"players_per_million":1.16,"player_ids":["golf:owgr:kristofferreitan-norway","golf:owgr:viktorhovland-norway"],"label":"Oslo","country":"Norway"},"geometry":{"type":"Polygon","coordinates":[[[9.350687,59.952276],[9.435996,59.466549],[10.432407,59.303039],[11.359873,59.622978],[11.292042,60.110099],[10.279089,60.275949],[9.350687,59.952276]]]}},{"type":"Feature","properties":{"hex_id":"83182efffffffff","population":649153,"population_year":2025,"area_km2":11792.7,"population_density":55.0,"all_players":1,"players_per_million":1.54,"player_ids":["golf:owgr:shanelowry-ireland"],"label":"Clara","country":"Ireland"},"geometry":{"type":"Polygon","coordinates":[[[-8.435871,53.677083],[-9.166993,53.289084],[-8.906839,52.6944],[-7.935083,52.487974],[-7.210985,52.872185],[-7.451495,53.466543],[-8.435871,53.677083]]]}},{"type":"Feature","properties":{"hex_id":"831849fffffffff","population":803503,"population_year":2025,"area_km2":12148.2,"population_density":66.1,"all_players":1,"players_per_million":1.24,"player_ids":["golf:wwgr:2218"],"label":"Ultzama","country":"Spain"},"geometry":{"type":"Polygon","coordinates":[[[-1.30697,43.954767],[-1.941313,43.565989],[-1.792726,42.937258],[-1.024123,42.699916],[-0.397973,43.08589],[-0.532232,43.711967],[-1.30697,43.954767]]]}},{"type":"Feature","properties":{"hex_id":"83184bfffffffff","population":2215141,"population_year":2025,"area_km2":12395.2,"population_density":178.7,"all_players":1,"players_per_million":0.45,"player_ids":["golf:owgr:jonrahm-spain"],"label":"Barrika","country":"Spain"},"geometry":{"type":"Polygon","coordinates":[[[-2.729364,43.8003],[-3.362059,43.400471],[-3.199092,42.769427],[-2.417796,42.54048],[-1.792726,42.937258],[-1.941313,43.565989],[-2.729364,43.8003]]]}},{"type":"Feature","properties":{"hex_id":"831870fffffffff","population":131995,"population_year":2025,"area_km2":12047.7,"population_density":11.0,"all_players":1,"players_per_million":7.58,"player_ids":["golf:owgr:harryhall-england"],"label":"Camborne","country":"United Kingdom"},"geometry":{"type":"Polygon","coordinates":[[[-5.389545,50.238369],[-6.085548,49.851754],[-5.874787,49.238914],[-4.985584,49.013993],[-4.297538,49.397333],[-4.49068,50.008809],[-5.389545,50.238369]]]}},{"type":"Feature","properties":{"hex_id":"831909fffffffff","population":1893258,"population_year":2025,"area_km2":10857.3,"population_density":174.4,"all_players":1,"players_per_million":0.53,"player_ids":["golf:owgr:robertmacintyre-scotland"],"label":"Oban","country":"United Kingdom"},"geometry":{"type":"Polygon","coordinates":[[[-5.121114,56.653173],[-5.903325,56.308916],[-5.669297,55.731906],[-4.675173,55.499857],[-3.903181,55.840606],[-4.115017,56.416836],[-5.121114,56.653173]]]}},{"type":"Feature","properties":{"hex_id":"831942fffffffff","population":7293042,"population_year":2025,"area_km2":10924.8,"population_density":667.6,"all_players":2,"players_per_million":0.27,"player_ids":["golf:owgr:johnparry-england","golf:owgr:mattfitzpatrick-england"],"label":"Sheffield","country":"United Kingdom"},"geometry":{"type":"Polygon","coordinates":[[[-1.609057,54.177066],[-2.359345,53.842543],[-2.178886,53.251551],[-1.268165,52.996914],[-0.529171,53.3287],[-0.689598,53.917795],[-1.609057,54.177066]]]}},{"type":"Feature","properties":{"hex_id":"831943fffffffff","population":3138363,"population_year":2025,"area_km2":10924.8,"population_density":287.3,"all_players":1,"players_per_million":0.32,"player_ids":["golf:wwgr:4469"],"label":"Kettering","country":"United Kingdom"},"geometry":{"type":"Polygon","coordinates":[[[-0.529171,53.3287],[-1.268165,52.996914],[-1.103494,52.402317],[-0.219137,52.141681],[0.508374,52.470966],[0.362999,53.063327],[-0.529171,53.3287]]]}},{"type":"Feature","properties":{"hex_id":"831946fffffffff","population":1540753,"population_year":2025,"area_km2":10691.6,"population_density":144.1,"all_players":1,"players_per_million":0.65,"player_ids":["golf:owgr:danielbrownoct1994-england"],"label":"Northallerton","country":"United Kingdom"},"geometry":{"type":"Polygon","coordinates":[[[-1.021902,55.086581],[-1.785543,54.762388],[-1.609057,54.177066],[-0.689598,53.917795],[0.062038,54.239312],[-0.093784,54.822708],[-1.021902,55.086581]]]}},{"type":"Feature","properties":{"hex_id":"83194afffffffff","population":6871941,"population_year":2025,"area_km2":11131.6,"population_density":617.3,"all_players":1,"players_per_million":0.15,"player_ids":["golf:owgr:marcopenge-england"],"label":"Crawley","country":"United Kingdom"},"geometry":{"type":"Polygon","coordinates":[[[-0.069294,51.543996],[-0.785076,51.204689],[-0.631095,50.601911],[0.220599,50.340898],[0.925401,50.677831],[0.789471,51.278095],[-0.069294,51.543996]]]}},{"type":"Feature","properties":{"hex_id":"831951fffffffff","population":5457858,"population_year":2025,"area_km2":11149.1,"population_density":489.5,"all_players":1,"players_per_million":0.18,"player_ids":["golf:owgr:tommyfleetwood-england"],"label":"Southport","country":"United Kingdom"},"geometry":{"type":"Polygon","coordinates":[[[-3.297175,54.090428],[-4.044754,53.742706],[-3.844199,53.150199],[-2.916127,52.906861],[-2.178886,53.251551],[-2.359345,53.842543],[-3.297175,54.090428]]]}},{"type":"Feature","properties":{"hex_id":"831952fffffffff","population":1386449,"population_year":2025,"area_km2":11344.9,"population_density":122.2,"all_players":1,"players_per_million":0.72,"player_ids":["golf:owgr:rorymcilroy-northernireland"],"label":"Holywood","country":"United Kingdom"},"geometry":{"type":"Polygon","coordinates":[[[-6.199841,54.79442],[-6.952147,54.429814],[-6.713499,53.841054],[-5.743092,53.617578],[-4.999608,53.978646],[-5.21762,54.566658],[-6.199841,54.79442]]]}},{"type":"Feature","properties":{"hex_id":"831958fffffffff","population":4033735,"population_year":2025,"area_km2":11381.2,"population_density":354.4,"all_players":3,"players_per_million":0.74,"player_ids":["golf:owgr:jordansmith-england","golf:owgr:lauriecanter-england","golf:wwgr:10231"],"label":"Bath","country":"United Kingdom"},"geometry":{"type":"Polygon","coordinates":[[[-2.732038,52.310399],[-3.456535,51.955725],[-3.269136,51.354012],[-2.376039,51.108741],[-1.661533,51.460545],[-1.830112,52.060429],[-2.732038,52.310399]]]}},{"type":"Feature","properties":{"hex_id":"83195cfffffffff","population":7086124,"population_year":2025,"area_km2":11155.0,"population_density":635.2,"all_players":1,"players_per_million":0.14,"player_ids":["golf:owgr:aaronrai-england"],"label":"Wolverhampton","country":"United Kingdom"},"geometry":{"type":"Polygon","coordinates":[[[-2.178886,53.251551],[-2.916127,52.906861],[-2.732038,52.310399],[-1.830112,52.060429],[-1.103494,52.402317],[-1.268165,52.996914],[-2.178886,53.251551]]]}},{"type":"Feature","properties":{"hex_id":"83195dfffffffff","population":9049238,"population_year":2025,"area_km2":11149.1,"population_density":811.7,"all_players":3,"players_per_million":0.33,"player_ids":["golf:owgr:mattwallace-england","golf:owgr:tyrrellhatton-england","golf:wwgr:10563"],"label":"High Wycombe","country":"United Kingdom"},"geometry":{"type":"Polygon","coordinates":[[[-1.103494,52.402317],[-1.830112,52.060429],[-1.661533,51.460545],[-0.785076,51.204689],[-0.069294,51.543996],[-0.219137,52.141681],[-1.103494,52.402317]]]}},{"type":"Feature","properties":{"hex_id":"831e15fffffffff","population":2436530,"population_year":2025,"area_km2":12312.0,"population_density":197.9,"all_players":1,"players_per_million":0.41,"player_ids":["golf:owgr:seppstraka-austria"],"label":"Vienna","country":"Austria"},"geometry":{"type":"Polygon","coordinates":[[[15.007166,48.053459],[15.034644,47.451699],[15.859594,47.183359],[16.6662,47.515042],[16.651518,48.117989],[15.817384,48.388123],[15.007166,48.053459]]]}},{"type":"Feature","properties":{"hex_id":"831e36fffffffff","population":1228992,"population_year":2025,"area_km2":11735.1,"population_density":104.7,"all_players":1,"players_per_million":0.81,"player_ids":["golf:owgr:mattischmid-germany"],"label":"Regensburg","country":"Germany"},"geometry":{"type":"Polygon","coordinates":[[[11.593536,49.624128],[11.648396,49.039345],[12.492328,48.804358],[13.292336,49.152852],[13.250346,49.739353],[12.39539,49.975696],[11.593536,49.624128]]]}},{"type":"Feature","properties":{"hex_id":"831f05fffffffff","population":2284708,"population_year":2025,"area_km2":10249.3,"population_density":222.9,"all_players":1,"players_per_million":0.44,"player_ids":["golf:wwgr:6953"],"label":"Skurup","country":"Sweden"},"geometry":{"type":"Polygon","coordinates":[[[11.860105,55.539449],[11.917787,55.005749],[12.839846,54.798544],[13.717125,55.123081],[13.674893,55.658102],[12.739823,55.867327],[11.860105,55.539449]]]}},{"type":"Feature","properties":{"hex_id":"831f14fffffffff","population":1611302,"population_year":2025,"area_km2":10435.0,"population_density":154.4,"all_players":1,"players_per_million":0.62,"player_ids":["golf:wwgr:9226"],"label":"Varel","country":"Germany"},"geometry":{"type":"Polygon","coordinates":[[[6.848229,53.43156],[6.944351,52.888298],[7.8306,52.709811],[8.634702,53.073729],[8.551833,53.61915],[7.651457,53.798545],[6.848229,53.43156]]]}},{"type":"Feature","properties":{"hex_id":"831f21fffffffff","population":258303,"population_year":2025,"area_km2":9808.2,"population_density":26.3,"all_players":1,"players_per_million":3.87,"player_ids":["golf:wwgr:9242"],"label":"Halmstad","country":"Sweden"},"geometry":{"type":"Polygon","coordinates":[[[11.680885,57.109629],[11.741681,56.591404],[12.688484,56.393983],[13.588169,56.712632],[13.543636,57.232114],[12.583033,57.431753],[11.680885,57.109629]]]}},{"type":"Feature","properties":{"hex_id":"831f22fffffffff","population":1078499,"population_year":2025,"area_km2":9922.7,"population_density":108.7,"all_players":2,"players_per_million":1.85,"player_ids":["golf:owgr:nicolaihojgaard-denmark","golf:owgr:rasmushojgaard-denmark"],"label":"Aarhus","country":"Denmark"},"geometry":{"type":"Polygon","coordinates":[[[9.054551,56.10039],[9.136608,55.576825],[10.065692,55.394879],[10.927107,55.734903],[10.860149,56.260141],[9.916531,56.44374],[9.054551,56.10039]]]}},{"type":"Feature","properties":{"hex_id":"831f23fffffffff","population":869269,"population_year":2025,"area_km2":9995.4,"population_density":87.0,"all_players":4,"players_per_million":4.6,"player_ids":["golf:owgr:rasmusneergaardpetersen-denmark","golf:owgr:thorbjornolesen-denmark","golf:wwgr:5003","golf:wwgr:6425"],"label":"Nivå","country":"Denmark"},"geometry":{"type":"Polygon","coordinates":[[[10.860149,56.260141],[10.927107,55.734903],[11.860105,55.539449],[12.739823,55.867327],[12.688484,56.393983],[11.741681,56.591404],[10.860149,56.260141]]]}},{"type":"Feature","properties":{"hex_id":"831f2efffffffff","population":588838,"population_year":2025,"area_km2":10059.1,"population_density":58.5,"all_players":1,"players_per_million":1.7,"player_ids":["golf:owgr:ludvigaberg-sweden"],"label":"Eslöv","country":"Sweden"},"geometry":{"type":"Polygon","coordinates":[[[12.688484,56.393983],[12.739823,55.867327],[13.674893,55.658102],[14.571482,55.973336],[14.5362,56.501146],[13.588169,56.712632],[12.688484,56.393983]]]}},{"type":"Feature","properties":{"hex_id":"831f8efffffffff","population":2930596,"population_year":2025,"area_km2":11935.4,"population_density":245.5,"all_players":1,"players_per_million":0.34,"player_ids":["golf:wwgr:6919"],"label":"St. Gallen","country":"Switzerland"},"geometry":{"type":"Polygon","coordinates":[[[8.569415,47.571079],[8.645314,46.977068],[9.463672,46.755704],[10.217491,47.127717],[10.15318,47.724095],[9.323357,47.94614],[8.569415,47.571079]]]}},{"type":"Feature","properties":{"hex_id":"831f91fffffffff","population":2475194,"population_year":2025,"area_km2":11792.7,"population_density":209.9,"all_players":2,"players_per_million":0.81,"player_ids":["golf:owgr:adriensaddier-france","golf:wwgr:9546"],"label":"Annemasse","country":"France"},"geometry":{"type":"Polygon","coordinates":[[[4.858384,46.21913],[4.959125,45.625827],[5.754884,45.426507],[6.461796,45.82065],[6.371339,46.417017],[5.563563,46.616214],[4.858384,46.21913]]]}},{"type":"Feature","properties":{"hex_id":"831fa4fffffffff","population":7133777,"population_year":2025,"area_km2":10626.5,"population_density":671.3,"all_players":2,"players_per_million":0.28,"player_ids":["golf:owgr:thomasdetry-belgium","golf:wwgr:4570"],"label":"Brussels","country":"Belgium"},"geometry":{"type":"Polygon","coordinates":[[[3.881134,51.360376],[3.996418,50.807584],[4.847197,50.641723],[5.5966,51.028589],[5.492877,51.584097],[4.628032,51.750066],[3.881134,51.360376]]]}},{"type":"Feature","properties":{"hex_id":"831faafffffffff","population":5382251,"population_year":2025,"area_km2":11534.2,"population_density":466.6,"all_players":1,"players_per_million":0.19,"player_ids":["golf:wwgr:10344"],"label":"Nürtingen","country":"Germany"},"geometry":{"type":"Polygon","coordinates":[[[8.334632,49.326261],[8.414101,48.74575],[9.251571,48.534678],[10.021547,48.903405],[9.954177,49.486187],[9.104617,49.69802],[8.334632,49.326261]]]}},{"type":"Feature","properties":{"hex_id":"831fb4fffffffff","population":10916515,"population_year":2025,"area_km2":11061.9,"population_density":986.9,"all_players":1,"players_per_million":0.09,"player_ids":["golf:wwgr:4029"],"label":"Clamart","country":"France"},"geometry":{"type":"Polygon","coordinates":[[[1.882244,49.805032],[1.18851,49.470279],[1.315872,48.863254],[2.120222,48.594025],[2.802853,48.926779],[2.692197,49.530714],[1.882244,49.805032]]]}},{"type":"Feature","properties":{"hex_id":"832668fffffffff","population":1167466,"population_year":2025,"area_km2":11692.4,"population_density":99.8,"all_players":1,"players_per_million":0.86,"player_ids":["golf:owgr:justinthomas-unitedstates"],"label":"Louisville","country":"United States"},"geometry":{"type":"Polygon","coordinates":[[[-86.408736,38.636347],[-86.802174,38.382944],[-86.972575,38.241852],[-86.746297,37.641022],[-86.017894,37.463794],[-85.680143,37.744189],[-85.483182,37.867893],[-85.644636,38.439846],[-86.408736,38.636347]]]}},{"type":"Feature","properties":{"hex_id":"83268cfffffffff","population":2583743,"population_year":2025,"area_km2":13448.5,"population_density":192.1,"all_players":2,"players_per_million":0.77,"player_ids":["golf:owgr:wyndhamclark-unitedstates","golf:wwgr:6944"],"label":"Denver","country":"United States"},"geometry":{"type":"Polygon","coordinates":[[[-104.205999,38.721189],[-103.71972,39.237206],[-104.077647,39.818276],[-104.928668,39.882147],[-105.412875,39.363927],[-105.048267,38.784053],[-104.205999,38.721189]]]}},{"type":"Feature","properties":{"hex_id":"832696fffffffff","population":2210821,"population_year":2025,"area_km2":13165.8,"population_density":167.9,"all_players":1,"players_per_million":0.45,"player_ids":["golf:owgr:tonyfinau-unitedstates"],"label":"Salt Lake City","country":"United States"},"geometry":{"type":"Polygon","coordinates":[[[-111.779687,40.167177],[-111.325006,40.706905],[-111.731524,41.255312],[-112.596923,41.261888],[-113.046271,40.72062],[-112.6357,40.174318],[-111.779687,40.167177]]]}},{"type":"Feature","properties":{"hex_id":"8326c1fffffffff","population":1409260,"population_year":2025,"area_km2":13642.7,"population_density":103.3,"all_players":1,"players_per_million":0.71,"player_ids":["golf:owgr:maxmcgreevy-unitedstates"],"label":"Edmond","country":"United States"},"geometry":{"type":"Polygon","coordinates":[[[-97.351395,34.591699],[-96.863145,35.093055],[-97.161633,35.702999],[-97.956398,35.811583],[-98.445453,35.30764],[-98.139031,34.697721],[-97.351395,34.591699]]]}},{"type":"Feature","properties":{"hex_id":"8326c8fffffffff","population":4676776,"population_year":2025,"area_km2":13766.4,"population_density":339.7,"all_players":1,"players_per_million":0.21,"player_ids":["golf:owgr:piercesoncoody-unitedstates"],"label":"Plano","country":"United States"},"geometry":{"type":"Polygon","coordinates":[[[-96.471973,32.747056],[-95.990106,33.251328],[-96.277437,33.86704],[-97.054564,33.978612],[-97.53754,33.471612],[-97.242365,32.855789],[-96.471973,32.747056]]]}},{"type":"Feature","properties":{"hex_id":"8326cbfffffffff","population":2915642,"population_year":2025,"area_km2":13900.5,"population_density":209.8,"all_players":1,"players_per_million":0.34,"player_ids":["golf:owgr:jordanspieth-unitedstates"],"label":"Dallas","country":"United States"},"geometry":{"type":"Polygon","coordinates":[[[-96.66289,31.619531],[-96.186106,32.128956],[-96.471973,32.747056],[-97.242365,32.855789],[-97.720168,32.343534],[-97.426644,31.725397],[-96.66289,31.619531]]]}},{"type":"Feature","properties":{"hex_id":"83271cfffffffff","population":851693,"population_year":2025,"area_km2":13290.2,"population_density":64.1,"all_players":1,"players_per_million":1.17,"player_ids":["golf:owgr:nicktaylor-canada"],"label":"Winnipeg","country":"Canada"},"geometry":{"type":"Polygon","coordinates":[[[-97.993762,50.038615],[-98.596277,49.542142],[-98.210218,48.944917],[-97.238462,48.83552],[-96.626804,49.322624],[-96.995553,49.92847],[-97.993762,50.038615]]]}},{"type":"Feature","properties":{"hex_id":"832752fffffffff","population":2195252,"population_year":2025,"area_km2":12945.1,"population_density":169.6,"all_players":1,"players_per_million":0.46,"player_ids":["golf:wwgr:5486"],"label":"Minneapolis","country":"United States"},"geometry":{"type":"Polygon","coordinates":[[[-93.099638,46.0249],[-93.711252,45.570842],[-93.418118,44.972526],[-92.530293,44.821273],[-91.914646,45.265738],[-92.190515,45.870995],[-93.099638,46.0249]]]}},{"type":"Feature","properties":{"hex_id":"832830fffffffff","population":5390523,"population_year":2025,"area_km2":12833.4,"population_density":420.0,"all_players":1,"players_per_million":0.19,"player_ids":["golf:wwgr:9009"],"label":"San Francisco","country":"United States"},"geometry":{"type":"Polygon","coordinates":[[[-121.764466,37.675694],[-121.389711,38.251087],[-121.822972,38.767388],[-122.631058,38.705571],[-122.997641,38.130127],[-122.564417,37.616538],[-121.764466,37.675694]]]}},{"type":"Feature","properties":{"hex_id":"832833fffffffff","population":406215,"population_year":2025,"area_km2":12650.8,"population_density":32.1,"all_players":1,"players_per_million":2.46,"player_ids":["golf:owgr:kurtkitayama-unitedstates"],"label":"Chico","country":"United States"},"geometry":{"type":"Polygon","coordinates":[[[-121.822972,38.767388],[-121.444673,39.3389],[-121.882713,39.848645],[-122.699099,39.784231],[-123.069035,39.212682],[-122.631058,38.705571],[-121.822972,38.767388]]]}},{"type":"Feature","properties":{"hex_id":"832834fffffffff","population":3936879,"population_year":2025,"area_km2":13005.4,"population_density":302.7,"all_players":2,"players_per_million":0.51,"player_ids":["golf:owgr:maverickmcnealy-unitedstates","golf:wwgr:5810"],"label":"Portola Valley","country":"United States"},"geometry":{"type":"Polygon","coordinates":[[[-121.707157,36.574218],[-121.335882,37.15313],[-121.764466,37.675694],[-122.564417,37.616538],[-122.927704,37.037552],[-122.499133,36.517784],[-121.707157,36.574218]]]}},{"type":"Feature","properties":{"hex_id":"832836fffffffff","population":1853463,"population_year":2025,"area_km2":13050.9,"population_density":142.0,"all_players":1,"players_per_million":0.54,"player_ids":["golf:owgr:brysondechambeau-unitedstates"],"label":"Modesto","country":"United States"},"geometry":{"type":"Polygon","coordinates":[[[-120.532864,37.20324],[-120.150308,37.778361],[-120.578459,38.303656],[-121.389711,38.251087],[-121.764466,37.675694],[-121.335882,37.15313],[-120.532864,37.20324]]]}},{"type":"Feature","properties":{"hex_id":"8329a0fffffffff","population":7767902,"population_year":2025,"area_km2":13942.8,"population_density":557.1,"all_players":1,"players_per_million":0.13,"player_ids":["golf:owgr:rickiefowler-unitedstates"],"label":"Murrieta","country":"United States"},"geometry":{"type":"Polygon","coordinates":[[[-116.844972,33.407616],[-116.449556,33.986961],[-116.851778,34.547853],[-117.651276,34.526528],[-118.040386,33.946172],[-117.636417,33.388145],[-116.844972,33.407616]]]}},{"type":"Feature","properties":{"hex_id":"8329a1fffffffff","population":7894449,"population_year":2025,"area_km2":13766.4,"population_density":573.5,"all_players":6,"players_per_million":0.76,"player_ids":["golf:owgr:akshaybhatia-unitedstates","golf:owgr:collinmorikawa-unitedstates","golf:owgr:jjspaun-unitedstates","golf:wwgr:4497","golf:wwgr:4598","golf:wwgr:8786"],"label":"Los Angeles","country":"United States"},"geometry":{"type":"Polygon","coordinates":[[[-118.040386,33.946172],[-117.651276,34.526528],[-118.059439,35.079776],[-118.858147,35.049768],[-119.240554,34.468622],[-118.831067,33.918266],[-118.040386,33.946172]]]}},{"type":"Feature","properties":{"hex_id":"8329a4fffffffff","population":5801541,"population_year":2025,"area_km2":14071.2,"population_density":412.3,"all_players":1,"players_per_million":0.17,"player_ids":["golf:owgr:xanderschauffele-unitedstates"],"label":"La Jolla","country":"United States"},"geometry":{"type":"Polygon","coordinates":[[[-116.838302,32.260383],[-116.446827,32.842254],[-116.844972,33.407616],[-117.636417,33.388145],[-118.021715,32.805205],[-117.621854,32.242798],[-116.838302,32.260383]]]}},{"type":"Feature","properties":{"hex_id":"8329a5fffffffff","population":3788026,"population_year":2025,"area_km2":13900.5,"population_density":272.5,"all_players":2,"players_per_million":0.53,"player_ids":["golf:owgr:patrickcantlay-unitedstates","golf:wwgr:4504"],"label":"Long Beach","country":"United States"},"geometry":{"type":"Polygon","coordinates":[[[-118.021715,32.805205],[-117.636417,33.388145],[-118.040386,33.946172],[-118.831067,33.918266],[-119.209803,33.334481],[-118.804528,32.779438],[-118.021715,32.805205]]]}},{"type":"Feature","properties":{"hex_id":"8329b6fffffffff","population":3258765,"population_year":2025,"area_km2":14254.2,"population_density":228.6,"all_players":1,"players_per_million":0.31,"player_ids":["golf:wwgr:7101"],"label":"Phoenix","country":"United States"},"geometry":{"type":"Polygon","coordinates":[[[-112.048129,33.41802],[-111.622726,33.985325],[-112.005683,34.565481],[-112.817654,34.575887],[-113.238272,34.006867],[-112.851827,33.429156],[-112.048129,33.41802]]]}},{"type":"Feature","properties":{"hex_id":"832a10fffffffff","population":17834994,"population_year":2025,"area_km2":12479.4,"population_density":1429.2,"all_players":4,"players_per_million":0.22,"player_ids":["golf:owgr:cameronyoung-unitedstates","golf:owgr:maxgreyserman-unitedstates","golf:owgr:scottiescheffler-unitedstates","golf:wwgr:9328"],"label":"Ridgewood","country":"United States"},"geometry":{"type":"Polygon","coordinates":[[[-73.803296,41.465407],[-74.532183,41.140409],[-74.501617,40.535843],[-73.761104,40.255982],[-73.041153,40.572801],[-73.052763,41.177546],[-73.803296,41.465407]]]}},{"type":"Feature","properties":{"hex_id":"832a33fffffffff","population":3511026,"population_year":2025,"area_km2":12650.8,"population_density":277.5,"all_players":1,"players_per_million":0.28,"player_ids":["golf:wwgr:4560"],"label":"Brockton","country":"United States"},"geometry":{"type":"Polygon","coordinates":[[[-71.558483,42.417927],[-72.316385,42.104387],[-72.314174,41.493018],[-71.573772,41.195725],[-70.826484,41.501412],[-70.809006,42.112129],[-71.558483,42.417927]]]}},{"type":"Feature","properties":{"hex_id":"832a8bfffffffff","population":1748245,"population_year":2025,"area_km2":11308.9,"population_density":154.6,"all_players":1,"players_per_million":0.57,"player_ids":["golf:owgr:bengriffin-unitedstates"],"label":"Chapel Hill","country":"United States"},"geometry":{"type":"Polygon","coordinates":[[[-79.732513,36.710417],[-80.35312,36.373406],[-80.258145,35.811082],[-79.557618,35.583567],[-78.941376,35.912259],[-79.021217,36.476693],[-79.732513,36.710417]]]}},{"type":"Feature","properties":{"hex_id":"832aa8fffffffff","population":6574928,"population_year":2025,"area_km2":12047.7,"population_density":545.7,"all_players":3,"players_per_million":0.46,"player_ids":["golf:owgr:chrisgotterup-unitedstates","golf:owgr:dennymccarthy-unitedstates","golf:owgr:johnkeefer-unitedstates"],"label":"Easton","country":"United States"},"geometry":{"type":"Polygon","coordinates":[[[-76.603499,39.549602],[-77.285017,39.215387],[-77.221804,38.626656],[-76.494397,38.370874],[-75.819591,38.696714],[-75.865429,39.286605],[-76.603499,39.549602]]]}},{"type":"Feature","properties":{"hex_id":"832aaafffffffff","population":2320854,"population_year":2025,"area_km2":12027.7,"population_density":193.0,"all_players":1,"players_per_million":0.43,"player_ids":["golf:owgr:michaelbrennan-unitedstates"],"label":"Leesburg","country":"United States"},"geometry":{"type":"Polygon","coordinates":[[[-78.029709,39.469102],[-78.699814,39.127086],[-78.619418,38.540002],[-77.886029,38.293183],[-77.221804,38.626656],[-77.285017,39.215387],[-78.029709,39.469102]]]}},{"type":"Feature","properties":{"hex_id":"832ab3fffffffff","population":2732492,"population_year":2025,"area_km2":12550.3,"population_density":217.7,"all_players":1,"players_per_million":0.37,"player_ids":["golf:owgr:michaelthorbjornsen-unitedstates"],"label":"Cleveland","country":"United States"},"geometry":{"type":"Polygon","coordinates":[[[-82.122513,41.878477],[-82.793334,41.501851],[-82.656756,40.901362],[-81.867503,40.674246],[-81.200534,41.04163],[-81.318822,41.64527],[-82.122513,41.878477]]]}},{"type":"Feature","properties":{"hex_id":"832ab4fffffffff","population":1849860,"population_year":2025,"area_km2":13005.4,"population_density":142.2,"all_players":1,"players_per_million":0.54,"player_ids":["golf:owgr:coreyconners-canada"],"label":"Listowel","country":"Canada"},"geometry":{"type":"Polygon","coordinates":[[[-80.982253,43.86012],[-81.692808,43.480838],[-81.564833,42.86498],[-80.746338,42.625447],[-80.040798,42.99531],[-80.148592,43.614015],[-80.982253,43.86012]]]}},{"type":"Feature","properties":{"hex_id":"832ad6fffffffff","population":1854734,"population_year":2025,"area_km2":11102.5,"population_density":167.1,"all_players":2,"players_per_million":1.08,"player_ids":["golf:owgr:andrewnovak-unitedstates","golf:owgr:ryangerard-unitedstates"],"label":"Raleigh","country":"United States"},"geometry":{"type":"Polygon","coordinates":[[[-78.941376,35.912259],[-79.557618,35.583567],[-79.473144,35.027553],[-78.787108,34.798309],[-78.175489,35.118876],[-78.245215,35.67672],[-78.941376,35.912259]]]}},{"type":"Feature","properties":{"hex_id":"832b8dfffffffff","population":329354,"population_year":2025,"area_km2":13081.4,"population_density":25.2,"all_players":1,"players_per_million":3.04,"player_ids":["golf:owgr:keeganbradley-unitedstates"],"label":"Woodstock","country":"United States"},"geometry":{"type":"Polygon","coordinates":[[[-73.115651,44.267141],[-73.894662,43.937131],[-73.870888,43.31283],[-73.089476,43.018511],[-72.320986,43.340158],[-72.323382,43.964363],[-73.115651,44.267141]]]}},{"type":"Feature","properties":{"hex_id":"832b8efffffffff","population":281222,"population_year":2025,"area_km2":13290.2,"population_density":21.2,"all_players":1,"players_per_million":3.56,"player_ids":["golf:wwgr:4629"],"label":"Smiths Falls","country":"Canada"},"geometry":{"type":"Polygon","coordinates":[[[-75.55918,45.147991],[-76.33587,44.798413],[-76.277812,44.169075],[-75.465161,43.888346],[-74.697738,44.229023],[-74.733644,44.859203],[-75.55918,45.147991]]]}},{"type":"Feature","properties":{"hex_id":"832b9bfffffffff","population":7907887,"population_year":2025,"area_km2":13050.9,"population_density":605.9,"all_players":2,"players_per_million":0.25,"player_ids":["golf:owgr:mackenziehughes-canada","golf:owgr:taylorpendrith-canada"],"label":"Richmond Hill","country":"Canada"},"geometry":{"type":"Polygon","coordinates":[[[-79.42239,43.984339],[-80.148592,43.614015],[-80.040798,42.99531],[-79.227281,42.744533],[-78.507232,43.105571],[-78.594427,43.726557],[-79.42239,43.984339]]]}},{"type":"Feature","properties":{"hex_id":"832e1bfffffffff","population":2931596,"population_year":2025,"area_km2":11602.6,"population_density":252.7,"all_players":1,"players_per_million":0.34,"player_ids":["golf:wwgr:5464"],"label":"Kitahiroshima","country":"Japan"},"geometry":{"type":"Polygon","coordinates":[[[141.93372,42.75965],[141.732147,43.360464],[140.962382,43.500645],[140.4084,43.04217],[140.61775,42.447067],[141.373482,42.304726],[141.93372,42.75965]]]}},{"type":"Feature","properties":{"hex_id":"832e60fffffffff","population":10118954,"population_year":2025,"area_km2":10697.0,"population_density":946.0,"all_players":1,"players_per_million":0.1,"player_ids":["golf:wwgr:8434"],"label":"Toki","country":"Japan"},"geometry":{"type":"Polygon","coordinates":[[[137.382008,34.835332],[137.176248,35.42312],[136.516951,35.566991],[136.074341,35.125905],[136.284758,34.544565],[136.933247,34.397885],[137.382008,34.835332]]]}},{"type":"Feature","properties":{"hex_id":"832e61fffffffff","population":16062419,"population_year":2025,"area_km2":10435.0,"population_density":1539.3,"all_players":3,"players_per_million":0.19,"player_ids":["golf:wwgr:6081","golf:wwgr:7214","golf:wwgr:7247"],"label":"Neyagawa","country":"Japan"},"geometry":{"type":"Polygon","coordinates":[[[136.284758,34.544565],[136.074341,35.125905],[135.425844,35.264059],[134.998437,34.823901],[135.213088,34.249062],[135.851025,34.107905],[136.284758,34.544565]]]}},{"type":"Feature","properties":{"hex_id":"832e68fffffffff","population":1686930,"population_year":2025,"area_km2":10010.0,"population_density":168.5,"all_players":1,"players_per_million":0.59,"player_ids":["golf:wwgr:9146"],"label":"Okayama","country":"Japan"},"geometry":{"type":"Polygon","coordinates":[[[134.360868,34.956664],[134.140195,35.526385],[133.503297,35.650678],[133.097527,35.208672],[133.321804,34.645482],[133.948357,34.517795],[134.360868,34.956664]]]}},{"type":"Feature","properties":{"hex_id":"832e6dfffffffff","population":2167585,"population_year":2025,"area_km2":9914.9,"population_density":218.6,"all_players":1,"players_per_million":0.46,"player_ids":["golf:wwgr:3444"],"label":"Miyoshi district","country":"Japan"},"geometry":{"type":"Polygon","coordinates":[[[134.166838,33.949493],[133.948357,34.517795],[133.321804,34.645482],[132.923863,34.208239],[133.035155,33.927508],[133.095088,33.674587],[133.762313,33.515468],[134.166838,33.949493]]]}},{"type":"Feature","properties":{"hex_id":"832f5afffffffff","population":24486504,"population_year":2025,"area_km2":11478.7,"population_density":2133.2,"all_players":6,"players_per_million":0.25,"player_ids":["golf:owgr:keitanakajima-japan","golf:wwgr:6560","golf:wwgr:6781","golf:wwgr:8632","golf:wwgr:8813","golf:wwgr:8814"],"label":"Saitama Prefecture","country":"Japan"},"geometry":{"type":"Polygon","coordinates":[[[140.827794,35.672072],[140.638685,36.278739],[139.948213,36.441778],[139.458427,36.000295],[139.653549,35.399825],[140.332575,35.234652],[140.827794,35.672072]]]}},{"type":"Feature","properties":{"hex_id":"8330c1fffffffff","population":8756452,"population_year":2025,"area_km2":9089.8,"population_density":963.3,"all_players":1,"players_per_million":0.11,"player_ids":["golf:wwgr:5316"],"label":"Gimhae","country":"South Korea"},"geometry":{"type":"Polygon","coordinates":[[[128.213849,35.631454],[128.33623,35.151585],[128.993984,35.025737],[129.53177,35.381031],[129.409707,35.861246],[128.749512,35.985844],[128.213849,35.631454]]]}},{"type":"Feature","properties":{"hex_id":"8330c6fffffffff","population":2266184,"population_year":2025,"area_km2":9031.8,"population_density":250.9,"all_players":2,"players_per_million":0.88,"player_ids":["golf:wwgr:1615","golf:wwgr:6925"],"label":"Yeongam County","country":"South Korea"},"geometry":{"type":"Polygon","coordinates":[[[125.850587,35.138362],[125.973267,34.659415],[126.621486,34.544932],[127.149761,34.910916],[127.027176,35.390362],[126.376194,35.503347],[125.850587,35.138362]]]}},{"type":"Feature","properties":{"hex_id":"8330d1fffffffff","population":617801,"population_year":2025,"area_km2":9468.7,"population_density":65.2,"all_players":2,"players_per_million":3.24,"player_ids":["golf:owgr:sungjaeim-southkorea","golf:wwgr:8562"],"label":"Jeju Island","country":"South Korea"},"geometry":{"type":"Polygon","coordinates":[[[126.21824,33.685865],[126.340532,33.191246],[126.988416,33.068063],[127.516679,33.441128],[127.394514,33.936306],[126.743931,34.057882],[126.21824,33.685865]]]}},{"type":"Feature","properties":{"hex_id":"8330e0fffffffff","population":13687509,"population_year":2025,"area_km2":8441.3,"population_density":1621.5,"all_players":1,"players_per_million":0.07,"player_ids":["golf:wwgr:2418"],"label":"Ilsan","country":"South Korea"},"geometry":{"type":"Polygon","coordinates":[[[125.884029,37.357823],[126.007266,36.901954],[126.658592,36.797418],[127.012201,37.032929],[127.123933,37.181378],[126.867787,37.702666],[126.277216,37.773186],[126.059782,37.475499],[125.884029,37.357823]]]}},{"type":"Feature","properties":{"hex_id":"8330e1fffffffff","population":11601660,"population_year":2025,"area_km2":8646.7,"population_density":1341.8,"all_players":8,"players_per_million":0.69,"player_ids":["golf:owgr:byeonghunan-southkorea","golf:owgr:michaelkim-unitedstates","golf:owgr:siwookim-southkorea","golf:wwgr:3279","golf:wwgr:3837","golf:wwgr:4006","golf:wwgr:4110","golf:wwgr:4532"],"label":"Seoul","country":"South Korea"},"geometry":{"type":"Polygon","coordinates":[[[128.064451,37.550301],[127.809941,38.077868],[127.206753,38.151759],[126.867787,37.702666],[127.123933,37.181378],[127.717502,37.10294],[128.064451,37.550301]]]}},{"type":"Feature","properties":{"hex_id":"8330e3fffffffff","population":5008630,"population_year":2025,"area_km2":8646.0,"population_density":579.3,"all_players":1,"players_per_million":0.2,"player_ids":["golf:wwgr:9694"],"label":"Anseong","country":"South Korea"},"geometry":{"type":"Polygon","coordinates":[[[126.658592,36.797418],[126.78159,36.333598],[127.435291,36.221993],[127.968639,36.57549],[127.717502,37.10294],[127.123933,37.181378],[127.012201,37.032929],[126.658592,36.797418]]]}},{"type":"Feature","properties":{"hex_id":"8330eefffffffff","population":1032819,"population_year":2025,"area_km2":8821.9,"population_density":117.1,"all_players":1,"players_per_million":0.97,"player_ids":["golf:wwgr:3625"],"label":"Wonju","country":"South Korea"},"geometry":{"type":"Polygon","coordinates":[[[128.919661,36.934486],[128.670415,37.468288],[128.064451,37.550301],[127.717502,37.10294],[127.968639,36.57549],[128.564929,36.489084],[128.919661,36.934486]]]}},{"type":"Feature","properties":{"hex_id":"8331aafffffffff","population":20584800,"population_year":2025,"area_km2":8798.2,"population_density":2339.7,"all_players":1,"players_per_million":0.05,"player_ids":["golf:wwgr:4391"],"label":"Beijing","country":"People's Republic of China"},"geometry":{"type":"Polygon","coordinates":[[[116.194775,40.395045],[116.100349,39.836551],[116.607976,39.554439],[117.208793,39.823737],[117.313576,40.376351],[116.807317,40.665555],[116.194775,40.395045]]]}},{"type":"Feature","properties":{"hex_id":"834014fffffffff","population":3748029,"population_year":2025,"area_km2":11552.8,"population_density":324.4,"all_players":1,"players_per_million":0.27,"player_ids":["golf:owgr:haotongli-china"],"label":"Hunan","country":"People's Republic of China"},"geometry":{"type":"Polygon","coordinates":[[[112.515328,27.835285],[112.374603,28.427556],[111.724209,28.66067],[111.214414,28.299862],[111.359099,27.704934],[112.009632,27.473458],[112.515328,27.835285]]]}},{"type":"Feature","properties":{"hex_id":"834071fffffffff","population":8215724,"population_year":2025,"area_km2":13235.5,"population_density":620.7,"all_players":1,"players_per_million":0.12,"player_ids":["golf:wwgr:6803"],"label":"Kunming","country":"People's Republic of China"},"geometry":{"type":"Polygon","coordinates":[[[103.526201,24.622401],[103.358487,25.241548],[102.669809,25.438624],[102.150202,25.015606],[102.321132,24.395174],[103.008486,24.199026],[103.526201,24.622401]]]}},{"type":"Feature","properties":{"hex_id":"83411cfffffffff","population":32618370,"population_year":2025,"area_km2":12027.7,"population_density":2711.9,"all_players":1,"players_per_million":0.03,"player_ids":["golf:wwgr:5511"],"label":"Shenzhen","country":"People's Republic of China"},"geometry":{"type":"Polygon","coordinates":[[[114.855932,22.520124],[114.726111,23.133955],[114.10474,23.370163],[113.612713,22.990107],[113.74641,22.372984],[114.368265,22.139203],[114.855932,22.520124]]]}},{"type":"Feature","properties":{"hex_id":"83441efffffffff","population":1159405,"population_year":2025,"area_km2":11640.2,"population_density":99.6,"all_players":1,"players_per_million":0.86,"player_ids":["golf:wwgr:5394"],"label":"Bradenton","country":"United States"},"geometry":{"type":"Polygon","coordinates":[[[-82.536746,26.538801],[-82.084301,26.984013],[-82.253729,27.587841],[-82.883444,27.749188],[-83.340621,27.301399],[-83.163358,26.694856],[-82.536746,26.538801]]]}},{"type":"Feature","properties":{"hex_id":"83444cfffffffff","population":449089,"population_year":2025,"area_km2":13448.5,"population_density":33.4,"all_players":1,"players_per_million":2.23,"player_ids":["golf:owgr:samburns-unitedstates"],"label":"Shreveport","country":"United States"},"geometry":{"type":"Polygon","coordinates":[[[-93.177711,31.651131],[-92.696403,32.141716],[-92.956891,32.760281],[-93.70695,32.889054],[-94.190501,32.395718],[-93.921815,31.776383],[-93.177711,31.651131]]]}},{"type":"Feature","properties":{"hex_id":"8344a1fffffffff","population":5763886,"population_year":2025,"area_km2":11010.2,"population_density":523.5,"all_players":3,"players_per_million":0.52,"player_ids":["golf:owgr:danielberger-unitedstates","golf:wwgr:2611","golf:wwgr:3007"],"label":"Plantation","country":"United States"},"geometry":{"type":"Polygon","coordinates":[[[-79.949065,25.306967],[-79.508022,25.739732],[-79.655984,26.333663],[-80.252477,26.497928],[-80.698565,26.062694],[-80.543111,25.465679],[-79.949065,25.306967]]]}},{"type":"Feature","properties":{"hex_id":"8344a8fffffffff","population":1093239,"population_year":2025,"area_km2":11131.6,"population_density":98.2,"all_players":1,"players_per_million":0.91,"player_ids":["golf:owgr:billyhorschel-unitedstates"],"label":"Grant-Valkaria","country":"United States"},"geometry":{"type":"Polygon","coordinates":[[[-80.407147,27.095513],[-79.957715,27.52564],[-80.111556,28.123412],[-80.722601,28.294198],[-81.177173,27.861791],[-81.015558,27.260891],[-80.407147,27.095513]]]}},{"type":"Feature","properties":{"hex_id":"8344a9fffffffff","population":3916404,"population_year":2025,"area_km2":11308.9,"population_density":346.3,"all_players":1,"players_per_million":0.26,"player_ids":["golf:wwgr:9329"],"label":"Orlando","country":"United States"},"geometry":{"type":"Polygon","coordinates":[[[-81.177173,27.861791],[-80.722601,28.294198],[-80.88346,28.895015],[-81.506834,29.066476],[-81.966494,28.631807],[-81.797694,28.027952],[-81.177173,27.861791]]]}},{"type":"Feature","properties":{"hex_id":"8344c0fffffffff","population":517494,"population_year":2025,"area_km2":11552.8,"population_density":44.8,"all_players":1,"players_per_million":1.93,"player_ids":["golf:owgr:russellhenley-unitedstates"],"label":"Macon","country":"United States"},"geometry":{"type":"Polygon","coordinates":[[[-83.027811,32.266287],[-82.550234,32.692957],[-82.73253,33.297599],[-83.401132,33.478441],[-83.883855,33.049852],[-83.69284,32.442355],[-83.027811,32.266287]]]}},{"type":"Feature","properties":{"hex_id":"8344c1fffffffff","population":5328708,"population_year":2025,"area_km2":11678.0,"population_density":456.3,"all_players":2,"players_per_million":0.38,"player_ids":["golf:owgr:davisthompson-unitedstates","golf:wwgr:11283"],"label":"Atlanta","country":"United States"},"geometry":{"type":"Polygon","coordinates":[[[-83.883855,33.049852],[-83.401132,33.478441],[-83.591669,34.083947],[-84.273825,34.263584],[-84.761579,33.833075],[-84.562163,33.224865],[-83.883855,33.049852]]]}},{"type":"Feature","properties":{"hex_id":"8344cafffffffff","population":909086,"population_year":2025,"area_km2":11381.2,"population_density":79.9,"all_players":1,"players_per_million":1.1,"player_ids":["golf:owgr:chriskirk-unitedstates"],"label":"Knoxville","country":"United States"},"geometry":{"type":"Polygon","coordinates":[[[-83.294745,35.108864],[-82.803555,35.523528],[-82.992984,36.123996],[-83.682833,36.31263],[-84.179395,35.896325],[-83.980749,35.293044],[-83.294745,35.108864]]]}},{"type":"Feature","properties":{"hex_id":"8344d5fffffffff","population":734655,"population_year":2025,"area_km2":11155.0,"population_density":65.9,"all_players":1,"players_per_million":1.36,"player_ids":["golf:owgr:brianharman-unitedstates"],"label":"Savannah","country":"United States"},"geometry":{"type":"Polygon","coordinates":[[[-81.078665,31.726077],[-80.607929,32.142536],[-80.773736,32.742682],[-81.4188,32.929579],[-81.895015,32.511356],[-81.720688,31.908012],[-81.078665,31.726077]]]}},{"type":"Feature","properties":{"hex_id":"8344dbfffffffff","population":978897,"population_year":2025,"area_km2":11261.2,"population_density":86.9,"all_players":2,"players_per_million":2.04,"player_ids":["golf:owgr:jtposton-unitedstates","golf:owgr:tomhoge-unitedstates"],"label":"Hickory","country":"United States"},"geometry":{"type":"Polygon","coordinates":[[[-81.068449,36.598719],[-81.677489,36.255732],[-81.56765,35.695929],[-80.863541,35.476502],[-80.258145,35.811082],[-80.35312,36.373406],[-81.068449,36.598719]]]}},{"type":"Feature","properties":{"hex_id":"8344ddfffffffff","population":1270062,"population_year":2025,"area_km2":11273.1,"population_density":112.7,"all_players":2,"players_per_million":1.57,"player_ids":["golf:owgr:jacobbridgeman-unitedstates","golf:owgr:lucasglover-unitedstates"],"label":"Greenville","country":"United States"},"geometry":{"type":"Polygon","coordinates":[[[-82.432568,34.320173],[-81.94686,34.733211],[-82.12783,35.333393],[-82.803555,35.523528],[-83.294745,35.108864],[-83.104736,34.505705],[-82.432568,34.320173]]]}},{"type":"Feature","properties":{"hex_id":"8344e2fffffffff","population":502544,"population_year":2025,"area_km2":11792.7,"population_density":42.6,"all_players":1,"players_per_million":1.99,"player_ids":["golf:owgr:harrisenglish-unitedstates"],"label":"Valdosta","country":"United States"},"geometry":{"type":"Polygon","coordinates":[[[-83.604702,30.180069],[-83.135088,30.619223],[-83.318504,31.226884],[-83.979957,31.398103],[-84.454402,30.956725],[-84.262576,30.346369],[-83.604702,30.180069]]]}},{"type":"Feature","properties":{"hex_id":"8344f6fffffffff","population":746889,"population_year":2025,"area_km2":11219.7,"population_density":66.6,"all_players":1,"players_per_million":1.34,"player_ids":["golf:owgr:budcauley-unitedstates"],"label":"Daytona Beach","country":"United States"},"geometry":{"type":"Polygon","coordinates":[[[-80.88346,28.895015],[-80.425375,29.321821],[-80.58543,29.922173],[-81.211641,30.098872],[-81.67496,29.669969],[-81.506834,29.066476],[-80.88346,28.895015]]]}},{"type":"Feature","properties":{"hex_id":"83464bfffffffff","population":438801,"population_year":2025,"area_km2":14263.0,"population_density":30.8,"all_players":1,"players_per_million":2.28,"player_ids":["golf:wwgr:6892"],"label":"Honolulu","country":"United States"},"geometry":{"type":"Polygon","coordinates":[[[-158.575873,21.222572],[-158.784523,20.583695],[-158.300801,20.102693],[-157.606849,20.259692],[-157.394228,20.899442],[-157.879487,21.381338],[-158.575873,21.222572]]]}},{"type":"Feature","properties":{"hex_id":"83489cfffffffff","population":2696038,"population_year":2025,"area_km2":14280.6,"population_density":188.8,"all_players":1,"players_per_million":0.37,"player_ids":["golf:owgr:patrickreed-unitedstates"],"label":"San Antonio","country":"United States"},"geometry":{"type":"Polygon","coordinates":[[[-98.247879,28.919834],[-97.785013,29.445331],[-98.075247,30.066766],[-98.835447,30.162308],[-99.298731,29.633735],[-99.001481,29.012716],[-98.247879,28.919834]]]}},{"type":"Feature","properties":{"hex_id":"8348ebfffffffff","population":2689536,"population_year":2025,"area_km2":14369.4,"population_density":187.2,"all_players":1,"players_per_million":0.37,"player_ids":["golf:owgr:mattmccarty-unitedstates"],"label":"Scottsdale","country":"United States"},"geometry":{"type":"Polygon","coordinates":[[[-110.867885,32.814698],[-110.438155,33.380106],[-110.813583,33.966592],[-111.622726,33.985325],[-112.048129,33.41802],[-111.668838,32.833881],[-110.867885,32.814698]]]}},{"type":"Feature","properties":{"hex_id":"834995fffffffff","population":24440832,"population_year":2025,"area_km2":14280.6,"population_density":1711.5,"all_players":1,"players_per_million":0.04,"player_ids":["golf:wwgr:3516"],"label":"Mexico City","country":"Mexico"},"geometry":{"type":"Polygon","coordinates":[[[-98.549393,18.976465],[-98.122773,19.512595],[-98.392604,20.126692],[-99.095052,20.20349],[-99.521944,19.663326],[-99.246183,19.050422],[-98.549393,18.976465]]]}},{"type":"Feature","properties":{"hex_id":"834b62fffffffff","population":822235,"population_year":2025,"area_km2":10234.0,"population_density":80.3,"all_players":1,"players_per_million":1.22,"player_ids":["golf:wwgr:10959"],"label":"Miyazaki","country":"Japan"},"geometry":{"type":"Polygon","coordinates":[[[130.920644,32.240453],[131.041236,31.720504],[131.702216,31.564914],[132.244576,31.930572],[132.124554,32.450789],[131.461574,32.605104],[130.920644,32.240453]]]}},{"type":"Feature","properties":{"hex_id":"834b65fffffffff","population":1368780,"population_year":2025,"area_km2":9786.4,"population_density":139.9,"all_players":2,"players_per_million":1.46,"player_ids":["golf:owgr:hidekimatsuyama-japan","golf:wwgr:4655"],"label":"Matsuyama","country":"Japan"},"geometry":{"type":"Polygon","coordinates":[[[131.763398,33.979751],[131.883964,33.475385],[132.548885,33.322249],[133.095088,33.674587],[133.035155,33.927508],[132.923863,34.208239],[132.308377,34.331159],[131.763398,33.979751]]]}},{"type":"Feature","properties":{"hex_id":"834b66fffffffff","population":1830583,"population_year":2025,"area_km2":10000.2,"population_density":183.1,"all_players":2,"players_per_million":1.09,"player_ids":["golf:wwgr:10450","golf:wwgr:9307"],"label":"Kōshi-shi","country":"Japan"},"geometry":{"type":"Polygon","coordinates":[[[130.139649,32.900871],[130.260732,32.389001],[130.920644,32.240453],[131.461574,32.605104],[131.340987,33.117287],[130.678947,33.26453],[130.139649,32.900871]]]}},{"type":"Feature","properties":{"hex_id":"834b75fffffffff","population":1269654,"population_year":2025,"area_km2":10218.8,"population_density":124.2,"all_players":1,"players_per_million":0.79,"player_ids":["golf:wwgr:4471"],"label":"Kagoshima","country":"Japan"},"geometry":{"type":"Polygon","coordinates":[[[129.723624,32.018981],[129.844672,31.499411],[130.502399,31.349458],[131.041236,31.720504],[130.920644,32.240453],[130.260732,32.389001],[129.723624,32.018981]]]}},{"type":"Feature","properties":{"hex_id":"835f4afffffffff","population":306796,"population_year":2025,"area_km2":11010.2,"population_density":27.9,"all_players":1,"players_per_million":3.26,"player_ids":["golf:owgr:jhonattanvegas-venezuela"],"label":"Maturín","country":"Venezuela"},"geometry":{"type":"Polygon","coordinates":[[[-62.592079,9.677515],[-62.273246,10.210012],[-62.542405,10.713529],[-63.126689,10.684412],[-63.442343,10.155494],[-63.176908,9.652132],[-62.592079,9.677515]]]}},{"type":"Feature","properties":{"hex_id":"836482fffffffff","population":1723866,"population_year":2025,"area_km2":14360.5,"population_density":120.0,"all_players":1,"players_per_million":0.58,"player_ids":["golf:wwgr:9935"],"label":"Chiang Mai","country":"Thailand"},"geometry":{"type":"Polygon","coordinates":[[[99.418101,18.742312],[99.242976,19.38725],[98.557403,19.571163],[98.048896,19.109509],[98.226649,18.464169],[98.91032,18.280864],[99.418101,18.742312]]]}},{"type":"Feature","properties":{"hex_id":"8364a4fffffffff","population":21602692,"population_year":2025,"area_km2":14696.9,"population_density":1469.9,"all_players":3,"players_per_million":0.14,"player_ids":["golf:wwgr:3079","golf:wwgr:6198","golf:wwgr:7330"],"label":"Bangkok","country":"Thailand"},"geometry":{"type":"Polygon","coordinates":[[[101.291897,13.985209],[101.123991,14.642076],[100.45249,14.832364],[99.950498,14.364493],[100.121173,13.70703],[100.791105,13.518015],[101.291897,13.985209]]]}},{"type":"Feature","properties":{"hex_id":"8364a5fffffffff","population":1737014,"population_year":2025,"area_km2":14771.4,"population_density":117.6,"all_players":1,"players_per_million":0.58,"player_ids":["golf:wwgr:7331"],"label":"Ratchaburi","country":"Thailand"},"geometry":{"type":"Polygon","coordinates":[[[100.121173,13.70703],[99.950498,14.364493],[99.277024,14.551609],[98.776001,14.080183],[98.949307,13.422389],[99.621042,13.236333],[100.121173,13.70703]]]}},{"type":"Feature","properties":{"hex_id":"836618fffffffff","population":4786459,"population_year":2025,"area_km2":12833.4,"population_density":373.0,"all_players":1,"players_per_million":0.21,"player_ids":["golf:owgr:nicolasechavarria-colombia"],"label":"Medellín","country":"Colombia"},"geometry":{"type":"Polygon","coordinates":[[[-76.312131,7.051353],[-76.686519,6.558891],[-76.415912,5.982402],[-75.770717,5.901439],[-75.398652,6.396072],[-75.669417,6.969499],[-76.312131,7.051353]]]}},{"type":"Feature","properties":{"hex_id":"83694efffffffff","population":27756486,"population_year":2025,"area_km2":12607.6,"population_density":2201.6,"all_players":1,"players_per_million":0.04,"player_ids":["golf:owgr:richardhoey-philippines"],"label":"Manila","country":"Philippines"},"geometry":{"type":"Polygon","coordinates":[[[120.818686,14.722923],[120.936616,14.106],[121.537485,13.923581],[122.023502,14.361208],[121.905235,14.980976],[121.301266,15.160283],[120.818686,14.722923]]]}},{"type":"Feature","properties":{"hex_id":"83a726fffffffff","population":1846194,"population_year":2025,"area_km2":9765.8,"population_density":189.0,"all_players":3,"players_per_million":1.62,"player_ids":["golf:owgr:minwoolee-australia","golf:wwgr:4139","golf:wwgr:4449"],"label":"Perth","country":"Australia"},"geometry":{"type":"Polygon","coordinates":[[[116.156806,-31.717896],[115.668386,-31.333698],[115.004431,-31.434051],[114.818313,-31.922938],[115.307453,-32.314951],[115.982101,-32.210194],[116.156806,-31.717896]]]}},{"type":"Feature","properties":{"hex_id":"83bb50fffffffff","population":1759286,"population_year":2025,"area_km2":13096.6,"population_density":134.3,"all_players":1,"players_per_million":0.57,"player_ids":["golf:owgr:ryanfox-newzealand"],"label":"Auckland","country":"New Zealand"},"geometry":{"type":"Polygon","coordinates":[[[175.568271,-36.884501],[175.227336,-36.30045],[174.454886,-36.252874],[174.011624,-36.792406],[174.349024,-37.382116],[175.133375,-37.426619],[175.568271,-36.884501]]]}},{"type":"Feature","properties":{"hex_id":"83bc45fffffffff","population":492474,"population_year":2025,"area_km2":11948.5,"population_density":41.2,"all_players":1,"players_per_million":2.03,"player_ids":["golf:owgr:aldrichpotgieter-southafrica"],"label":"Mossel Bay","country":"South Africa"},"geometry":{"type":"Polygon","coordinates":[[[23.02634,-34.621836],[23.084032,-34.033899],[22.456426,-33.678338],[21.77144,-33.910402],[21.710037,-34.497342],[22.337303,-34.853247],[23.02634,-34.621836]]]}},{"type":"Feature","properties":{"hex_id":"83bcc2fffffffff","population":2874436,"population_year":2025,"area_km2":13816.5,"population_density":208.0,"all_players":2,"players_per_million":0.7,"player_ids":["golf:owgr:christiaanbezuidenhout-southafrica","golf:owgr:jaydenschaper-southafrica"],"label":"Benoni","country":"South Africa"},"geometry":{"type":"Polygon","coordinates":[[[29.536319,-26.668105],[29.573086,-26.021731],[28.952033,-25.669244],[28.292681,-25.962826],[28.252135,-26.609142],[28.874709,-26.961965],[29.536319,-26.668105]]]}},{"type":"Feature","properties":{"hex_id":"83bcc3fffffffff","population":10165897,"population_year":2025,"area_km2":13816.5,"population_density":735.8,"all_players":2,"players_per_million":0.2,"player_ids":["golf:owgr:garrickhiggo-southafrica","golf:owgr:justinrose-england"],"label":"Johannesburg","country":"South Africa"},"geometry":{"type":"Polygon","coordinates":[[[28.252135,-26.609142],[28.292681,-25.962826],[27.674042,-25.604797],[27.013681,-25.892672],[26.969404,-26.538665],[27.589205,-26.897137],[28.252135,-26.609142]]]}},{"type":"Feature","properties":{"hex_id":"83bcd0fffffffff","population":1227736,"population_year":2025,"area_km2":13942.8,"population_density":88.1,"all_players":1,"players_per_million":0.81,"player_ids":["golf:owgr:thristonlawrence-southafrica"],"label":"Mbombela","country":"South Africa"},"geometry":{"type":"Polygon","coordinates":[[[31.508975,-25.764605],[31.53973,-25.113714],[30.918932,-24.767148],[30.265323,-25.07129],[30.230769,-25.722531],[30.853616,-26.069311],[31.508975,-25.764605]]]}},{"type":"Feature","properties":{"hex_id":"83be0efffffffff","population":2059884,"population_year":2025,"area_km2":14922.2,"population_density":138.0,"all_players":2,"players_per_million":0.97,"player_ids":["golf:wwgr:6290","golf:wwgr:8711"],"label":"Sydney","country":"Australia"},"geometry":{"type":"Polygon","coordinates":[[[152.602318,-33.997],[152.420459,-33.332138],[151.64327,-33.128216],[151.038963,-33.586023],[151.210157,-34.25249],[151.996416,-34.459593],[152.602318,-33.997]]]}},{"type":"Feature","properties":{"hex_id":"83bef6fffffffff","population":72808,"population_year":2025,"area_km2":14696.9,"population_density":5.0,"all_players":1,"players_per_million":13.73,"player_ids":["golf:owgr:jasonday-australia"],"label":"Beaudesert","country":"Australia"},"geometry":{"type":"Polygon","coordinates":[[[153.268079,-28.631768],[153.092109,-27.975349],[152.359327,-27.779455],[151.794405,-28.236823],[151.961065,-28.895203],[152.702039,-29.094299],[153.268079,-28.631768]]]}}]}