{"type":"FeatureCollection","metadata":{"population_source":"WorldPop Global 2 R2025A","population_source_url":"https://hub.worldpop.org/project/categories?id=3","population_license":"CC BY 4.0","population_year":2025,"raster_resolution":"1km","h3_resolution":1,"population_method":"official_country_rasters","occupied_cells":49,"mapped_players":168},"features":[{"type":"Feature","properties":{"hex_id":"8108bffffffffff","population":9413392,"population_year":2025,"area_km2":447684.2,"population_density":21.0,"all_players":3,"players_per_million":0.32,"player_ids":["golf:owgr:alexnoren-sweden","golf:owgr:samivalimaki-finland","golf:wwgr:5449"],"label":"Stockholm","country":"Sweden"},"geometry":{"type":"Polygon","coordinates":[[[11.08066,61.540515],[11.555978,58.130531],[18.275236,56.632953],[25.082722,58.401545],[24.517172,62.478113],[17.535446,63.800793],[15.771774,62.889968],[11.08066,61.540515]]]}},{"type":"Feature","properties":{"hex_id":"8109bffffffffff","population":4354591,"population_year":2025,"area_km2":447684.2,"population_density":9.7,"all_players":2,"players_per_million":0.46,"player_ids":["golf:owgr:kristofferreitan-norway","golf:owgr:viktorhovland-norway"],"label":"Oslo","country":"Norway"},"geometry":{"type":"Polygon","coordinates":[[[4.012621,63.327061],[-2.297526,61.54551],[-0.931587,57.689497],[5.523647,55.706768],[11.555978,58.130531],[11.08066,61.540515],[8.644221,61.890838],[4.012621,63.327061]]]}},{"type":"Feature","properties":{"hex_id":"81183ffffffffff","population":6292474,"population_year":2025,"area_km2":595741.2,"population_density":10.6,"all_players":1,"players_per_million":0.16,"player_ids":["golf:owgr:shanelowry-ireland"],"label":"Clara","country":"Ireland"},"geometry":{"type":"Polygon","coordinates":[[[-13.791647,56.736324],[-18.841172,53.740207],[-16.382341,49.609269],[-9.724736,48.430094],[-4.88976,51.223728],[-6.436337,55.37739],[-13.791647,56.736324]]]}},{"type":"Feature","properties":{"hex_id":"81187ffffffffff","population":21776966,"population_year":2025,"area_km2":595741.2,"population_density":36.6,"all_players":2,"players_per_million":0.09,"player_ids":["golf:owgr:harryhall-england","golf:owgr:jonrahm-spain"],"label":"Camborne","country":"United Kingdom"},"geometry":{"type":"Polygon","coordinates":[[[-4.88976,51.223728],[-9.724736,48.430094],[-8.101589,44.050631],[-2.417796,42.54048],[2.026569,45.184249],[1.18851,49.470279],[-4.88976,51.223728]]]}},{"type":"Feature","properties":{"hex_id":"81193ffffffffff","population":771399,"population_year":2025,"area_km2":510516.1,"population_density":1.5,"all_players":1,"players_per_million":1.3,"player_ids":["golf:owgr:robertmacintyre-scotland"],"label":"Oban","country":"United Kingdom"},"geometry":{"type":"Polygon","coordinates":[[[-10.444978,63.095054],[-16.371962,60.568694],[-13.791647,56.736324],[-6.436337,55.37739],[-0.931587,57.689497],[-2.297526,61.54551],[-10.444978,63.095054]]]}},{"type":"Feature","properties":{"hex_id":"81197ffffffffff","population":88036357,"population_year":2025,"area_km2":523941.7,"population_density":168.0,"all_players":15,"players_per_million":0.17,"player_ids":["golf:owgr:aaronrai-england","golf:owgr:danielbrownoct1994-england","golf:owgr:johnparry-england","golf:owgr:jordansmith-england","golf:owgr:lauriecanter-england","golf:owgr:marcopenge-england","golf:owgr:mattfitzpatrick-england","golf:owgr:mattwallace-england","golf:owgr:rorymcilroy-northernireland","golf:owgr:tommyfleetwood-england","golf:owgr:tyrrellhatton-england","golf:wwgr:10231","golf:wwgr:10563","golf:wwgr:4469","golf:wwgr:4570"],"label":"Bath","country":"United Kingdom"},"geometry":{"type":"Polygon","coordinates":[[[-0.931587,57.689497],[-6.436337,55.37739],[-4.88976,51.223728],[1.18851,49.470279],[3.630009,50.610463],[6.259687,51.96477],[5.523647,55.706768],[-0.931587,57.689497]]]}},{"type":"Feature","properties":{"hex_id":"811e3ffffffffff","population":71057199,"population_year":2025,"area_km2":595741.2,"population_density":119.3,"all_players":1,"players_per_million":0.01,"player_ids":["golf:owgr:seppstraka-austria"],"label":"Vienna","country":"Austria"},"geometry":{"type":"Polygon","coordinates":[[[12.345747,50.554275],[12.677318,46.406957],[18.31474,44.47068],[24.013384,46.595885],[24.329,50.776322],[18.289963,52.819052],[12.345747,50.554275]]]}},{"type":"Feature","properties":{"hex_id":"811f3ffffffffff","population":49754999,"population_year":2025,"area_km2":510516.1,"population_density":97.5,"all_players":10,"players_per_million":0.2,"player_ids":["golf:owgr:ludvigaberg-sweden","golf:owgr:nicolaihojgaard-denmark","golf:owgr:rasmushojgaard-denmark","golf:owgr:rasmusneergaardpetersen-denmark","golf:owgr:thorbjornolesen-denmark","golf:wwgr:5003","golf:wwgr:6425","golf:wwgr:6953","golf:wwgr:9226","golf:wwgr:9242"],"label":"Aarhus","country":"Denmark"},"geometry":{"type":"Polygon","coordinates":[[[5.523647,55.706768],[6.259687,51.96477],[12.345747,50.554275],[18.289963,52.819052],[18.275236,56.632953],[11.555978,58.130531],[5.523647,55.706768]]]}},{"type":"Feature","properties":{"hex_id":"811fbffffffffff","population":119418410,"population_year":2025,"area_km2":565620.1,"population_density":211.1,"all_players":7,"players_per_million":0.06,"player_ids":["golf:owgr:adriensaddier-france","golf:owgr:mattischmid-germany","golf:owgr:thomasdetry-belgium","golf:wwgr:10344","golf:wwgr:4029","golf:wwgr:6919","golf:wwgr:9546"],"label":"Brussels","country":"France"},"geometry":{"type":"Polygon","coordinates":[[[1.18851,49.470279],[2.026569,45.184249],[7.509948,43.786609],[12.677318,46.406957],[12.345747,50.554275],[6.259687,51.96477],[3.630009,50.610463],[1.18851,49.470279]]]}},{"type":"Feature","properties":{"hex_id":"81263ffffffffff","population":10240947,"population_year":2025,"area_km2":614937.0,"population_density":16.7,"all_players":1,"players_per_million":0.1,"player_ids":["golf:wwgr:5486"],"label":"Minneapolis","country":"United States"},"geometry":{"type":"Polygon","coordinates":[[[-99.917049,47.471519],[-102.323756,45.197628],[-103.535954,44.08338],[-101.04033,40.088597],[-95.246862,39.326803],[-92.81941,41.451207],[-91.476262,42.44496],[-93.395849,46.63002],[-99.917049,47.471519]]]}},{"type":"Feature","properties":{"hex_id":"81267ffffffffff","population":25791718,"population_year":2025,"area_km2":602082.0,"population_density":42.8,"all_players":1,"players_per_million":0.04,"player_ids":["golf:owgr:justinthomas-unitedstates"],"label":"Louisville","country":"United States"},"geometry":{"type":"Polygon","coordinates":[[[-88.065886,34.059836],[-84.585167,37.099589],[-85.703199,41.161269],[-91.476262,42.44496],[-92.81941,41.451207],[-95.246862,39.326803],[-93.265212,35.090108],[-88.065886,34.059836]]]}},{"type":"Feature","properties":{"hex_id":"8126bffffffffff","population":8947665,"population_year":2025,"area_km2":647632.6,"population_density":13.8,"all_players":3,"players_per_million":0.34,"player_ids":["golf:owgr:tonyfinau-unitedstates","golf:owgr:wyndhamclark-unitedstates","golf:wwgr:6944"],"label":"Denver","country":"United States"},"geometry":{"type":"Polygon","coordinates":[[[-104.454816,36.494369],[-101.04033,40.088597],[-103.535954,44.08338],[-109.788387,44.413071],[-113.046271,40.72062],[-110.257485,36.800197],[-104.454816,36.494369]]]}},{"type":"Feature","properties":{"hex_id":"8126fffffffffff","population":17160726,"population_year":2025,"area_km2":666617.1,"population_density":25.7,"all_players":3,"players_per_million":0.17,"player_ids":["golf:owgr:jordanspieth-unitedstates","golf:owgr:maxmcgreevy-unitedstates","golf:owgr:piercesoncoody-unitedstates"],"label":"Edmond","country":"United States"},"geometry":{"type":"Polygon","coordinates":[[[-96.66289,31.619531],[-93.265212,35.090108],[-95.246862,39.326803],[-101.04033,40.088597],[-104.454816,36.494369],[-102.093235,32.268747],[-96.66289,31.619531]]]}},{"type":"Feature","properties":{"hex_id":"81273ffffffffff","population":1973811,"population_year":2025,"area_km2":666617.1,"population_density":3.0,"all_players":1,"players_per_million":0.51,"player_ids":["golf:owgr:nicktaylor-canada"],"label":"Winnipeg","country":"Canada"},"geometry":{"type":"Polygon","coordinates":[[[-98.561848,55.218551],[-102.902298,51.556776],[-99.917049,47.471519],[-93.395849,46.63002],[-88.654124,49.812423],[-90.651446,54.300916],[-98.561848,55.218551]]]}},{"type":"Feature","properties":{"hex_id":"81283ffffffffff","population":15759816,"population_year":2025,"area_km2":595741.2,"population_density":26.5,"all_players":4,"players_per_million":0.25,"player_ids":["golf:owgr:kurtkitayama-unitedstates","golf:owgr:maverickmcnealy-unitedstates","golf:wwgr:5810","golf:wwgr:9009"],"label":"Portola Valley","country":"United States"},"geometry":{"type":"Polygon","coordinates":[[[-121.707157,36.574218],[-119.002282,40.570572],[-122.134831,44.057691],[-127.958662,43.419208],[-130.222638,39.442424],[-127.138101,36.079796],[-121.707157,36.574218]]]}},{"type":"Feature","properties":{"hex_id":"8129bffffffffff","population":31485482,"population_year":2025,"area_km2":666617.1,"population_density":47.2,"all_players":11,"players_per_million":0.35,"player_ids":["golf:owgr:akshaybhatia-unitedstates","golf:owgr:brysondechambeau-unitedstates","golf:owgr:collinmorikawa-unitedstates","golf:owgr:jjspaun-unitedstates","golf:owgr:patrickcantlay-unitedstates","golf:owgr:rickiefowler-unitedstates","golf:owgr:xanderschauffele-unitedstates","golf:wwgr:4497","golf:wwgr:4504","golf:wwgr:4598","golf:wwgr:8786"],"label":"Los Angeles","country":"United States"},"geometry":{"type":"Polygon","coordinates":[[[-113.268008,32.856905],[-110.257485,36.800197],[-113.046271,40.72062],[-119.002282,40.570572],[-121.707157,36.574218],[-118.804528,32.779438],[-113.268008,32.856905]]]}},{"type":"Feature","properties":{"hex_id":"812a3ffffffffff","population":39671228,"population_year":2025,"area_km2":595741.2,"population_density":66.6,"all_players":5,"players_per_million":0.13,"player_ids":["golf:owgr:cameronyoung-unitedstates","golf:owgr:maxgreyserman-unitedstates","golf:owgr:scottiescheffler-unitedstates","golf:wwgr:4560","golf:wwgr:9328"],"label":"Ridgewood","country":"United States"},"geometry":{"type":"Polygon","coordinates":[[[-69.955068,44.277849],[-75.333452,42.029564],[-75.063317,37.849069],[-70.311412,35.933887],[-65.448142,37.822091],[-64.835193,41.948534],[-69.955068,44.277849]]]}},{"type":"Feature","properties":{"hex_id":"812abffffffffff","population":54889027,"population_year":2025,"area_km2":595741.2,"population_density":92.1,"all_players":8,"players_per_million":0.15,"player_ids":["golf:owgr:bengriffin-unitedstates","golf:owgr:chrisgotterup-unitedstates","golf:owgr:coreyconners-canada","golf:owgr:dennymccarthy-unitedstates","golf:owgr:johnkeefer-unitedstates","golf:owgr:mackenziehughes-canada","golf:owgr:michaelbrennan-unitedstates","golf:owgr:michaelthorbjornsen-unitedstates"],"label":"Chapel Hill","country":"United States"},"geometry":{"type":"Polygon","coordinates":[[[-80.982253,43.86012],[-85.703199,41.161269],[-84.585167,37.099589],[-79.557618,35.583567],[-75.063317,37.849069],[-75.333452,42.029564],[-80.982253,43.86012]]]}},{"type":"Feature","properties":{"hex_id":"812afffffffffff","population":6566236,"population_year":2025,"area_km2":523941.7,"population_density":12.5,"all_players":2,"players_per_million":0.3,"player_ids":["golf:owgr:andrewnovak-unitedstates","golf:owgr:ryangerard-unitedstates"],"label":"Raleigh","country":"United States"},"geometry":{"type":"Polygon","coordinates":[[[-75.063317,37.849069],[-79.557618,35.583567],[-79.270109,33.659462],[-78.735928,31.57726],[-74.640468,30.219492],[-70.449419,32.12169],[-70.311412,35.933887],[-75.063317,37.849069]]]}},{"type":"Feature","properties":{"hex_id":"812bbffffffffff","population":23927662,"population_year":2025,"area_km2":666617.1,"population_density":35.9,"all_players":3,"players_per_million":0.13,"player_ids":["golf:owgr:keeganbradley-unitedstates","golf:owgr:taylorpendrith-canada","golf:wwgr:4629"],"label":"Woodstock","country":"Canada"},"geometry":{"type":"Polygon","coordinates":[[[-76.057729,50.990211],[-81.919627,48.295316],[-80.982253,43.86012],[-75.333452,42.029564],[-69.955068,44.277849],[-69.719479,48.757432],[-76.057729,50.990211]]]}},{"type":"Feature","properties":{"hex_id":"812e3ffffffffff","population":12920451,"population_year":2025,"area_km2":595741.2,"population_density":21.7,"all_players":1,"players_per_million":0.08,"player_ids":["golf:wwgr:5464"],"label":"Kitahiroshima","country":"Japan"},"geometry":{"type":"Polygon","coordinates":[[[148.856926,38.18238],[147.817284,42.633407],[142.305844,43.816095],[138.515018,40.617501],[139.948213,36.441778],[144.831325,35.18743],[148.856926,38.18238]]]}},{"type":"Feature","properties":{"hex_id":"812e7ffffffffff","population":52072688,"population_year":2025,"area_km2":510516.1,"population_density":102.0,"all_players":6,"players_per_million":0.12,"player_ids":["golf:wwgr:3444","golf:wwgr:6081","golf:wwgr:7214","golf:wwgr:7247","golf:wwgr:8434","golf:wwgr:9146"],"label":"Neyagawa","country":"Japan"},"geometry":{"type":"Polygon","coordinates":[[[139.948213,36.441778],[138.515018,40.617501],[133.570126,41.410447],[130.657533,38.194564],[132.308377,34.331159],[136.697641,33.378798],[139.948213,36.441778]]]}},{"type":"Feature","properties":{"hex_id":"812f7ffffffffff","population":38419612,"population_year":2025,"area_km2":565620.1,"population_density":67.9,"all_players":6,"players_per_million":0.16,"player_ids":["golf:owgr:keitanakajima-japan","golf:wwgr:6560","golf:wwgr:6781","golf:wwgr:8632","golf:wwgr:8813","golf:wwgr:8814"],"label":"Saitama Prefecture","country":"Japan"},"geometry":{"type":"Polygon","coordinates":[[[145.91104,30.789834],[144.831325,35.18743],[139.948213,36.441778],[136.697641,33.378798],[137.3956,31.331749],[137.800087,29.424814],[142.433222,27.949606],[145.91104,30.789834]]]}},{"type":"Feature","properties":{"hex_id":"8130fffffffffff","population":61653931,"population_year":2025,"area_km2":447684.2,"population_density":137.7,"all_players":16,"players_per_million":0.26,"player_ids":["golf:owgr:byeonghunan-southkorea","golf:owgr:michaelkim-unitedstates","golf:owgr:siwookim-southkorea","golf:owgr:sungjaeim-southkorea","golf:wwgr:1615","golf:wwgr:2418","golf:wwgr:3279","golf:wwgr:3625","golf:wwgr:3837","golf:wwgr:4006","golf:wwgr:4110","golf:wwgr:4532","golf:wwgr:5316","golf:wwgr:6925","golf:wwgr:8562","golf:wwgr:9694"],"label":"Seoul","country":"South Korea"},"geometry":{"type":"Polygon","coordinates":[[[123.162765,36.005614],[124.020556,32.661445],[128.534469,31.786712],[132.308377,34.331159],[130.657533,38.194564],[126.346943,38.738746],[125.585234,37.691245],[123.162765,36.005614]]]}},{"type":"Feature","properties":{"hex_id":"8131bffffffffff","population":167852256,"population_year":2025,"area_km2":447684.2,"population_density":374.9,"all_players":1,"players_per_million":0.01,"player_ids":["golf:wwgr:4391"],"label":"Beijing","country":"People's Republic of China"},"geometry":{"type":"Polygon","coordinates":[[[110.981139,41.216599],[110.694611,37.163896],[115.340961,35.522424],[118.869299,37.429854],[118.582885,38.614967],[119.13691,41.148271],[115.501139,43.254142],[110.981139,41.216599]]]}},{"type":"Feature","properties":{"hex_id":"81397ffffffffff","population":31465600,"population_year":2025,"area_km2":602082.0,"population_density":52.3,"all_players":1,"players_per_million":0.03,"player_ids":["golf:wwgr:2218"],"label":"Ultzama","country":"Spain"},"geometry":{"type":"Polygon","coordinates":[[[-2.417796,42.54048],[-1.416234,38.115997],[0.238716,37.588846],[3.543589,36.597898],[8.045142,39.402136],[7.509948,43.786609],[2.026569,45.184249],[-2.417796,42.54048]]]}},{"type":"Feature","properties":{"hex_id":"81403ffffffffff","population":152073664,"population_year":2025,"area_km2":595741.2,"population_density":255.3,"all_players":1,"players_per_million":0.01,"player_ids":["golf:owgr:haotongli-china"],"label":"Hunan","country":"People's Republic of China"},"geometry":{"type":"Polygon","coordinates":[[[113.703767,25.199133],[112.740922,29.367232],[108.088674,30.953537],[104.42056,28.291742],[105.568,24.011141],[110.205767,22.499632],[113.703767,25.199133]]]}},{"type":"Feature","properties":{"hex_id":"81407ffffffffff","population":61337955,"population_year":2025,"area_km2":647632.6,"population_density":94.7,"all_players":1,"players_per_million":0.02,"player_ids":["golf:wwgr:6803"],"label":"Kunming","country":"People's Republic of China"},"geometry":{"type":"Polygon","coordinates":[[[105.568,24.011141],[104.42056,28.291742],[99.516939,29.61536],[95.855137,26.622305],[97.148502,22.297036],[101.970677,21.002365],[105.568,24.011141]]]}},{"type":"Feature","properties":{"hex_id":"81413ffffffffff","population":120800976,"population_year":2025,"area_km2":595741.2,"population_density":202.8,"all_players":1,"players_per_million":0.01,"player_ids":["golf:wwgr:5511"],"label":"Shenzhen","country":"People's Republic of China"},"geometry":{"type":"Polygon","coordinates":[[[118.803002,19.252195],[117.990477,23.508952],[113.703767,25.199133],[110.205767,22.499632],[111.205113,18.077041],[115.517768,16.517912],[118.803002,19.252195]]]}},{"type":"Feature","properties":{"hex_id":"81443ffffffffff","population":10265740,"population_year":2025,"area_km2":595741.2,"population_density":17.2,"all_players":1,"players_per_million":0.1,"player_ids":["golf:wwgr:5394"],"label":"Bradenton","country":"United States"},"geometry":{"type":"Polygon","coordinates":[[[-83.891248,21.244199],[-80.82969,24.429618],[-81.966494,28.631807],[-86.545778,29.759287],[-89.807712,26.426478],[-88.2959,22.120731],[-83.891248,21.244199]]]}},{"type":"Feature","properties":{"hex_id":"81447ffffffffff","population":18780862,"population_year":2025,"area_km2":647632.6,"population_density":29.0,"all_players":1,"players_per_million":0.05,"player_ids":["golf:owgr:samburns-unitedstates"],"label":"Shreveport","country":"United States"},"geometry":{"type":"Polygon","coordinates":[[[-89.807712,26.426478],[-86.545778,29.759287],[-88.065886,34.059836],[-93.265212,35.090108],[-96.66289,31.619531],[-94.743568,27.264006],[-89.807712,26.426478]]]}},{"type":"Feature","properties":{"hex_id":"8144bffffffffff","population":13618822,"population_year":2025,"area_km2":510516.1,"population_density":26.7,"all_players":6,"players_per_million":0.44,"player_ids":["golf:owgr:billyhorschel-unitedstates","golf:owgr:budcauley-unitedstates","golf:owgr:danielberger-unitedstates","golf:wwgr:2611","golf:wwgr:3007","golf:wwgr:9329"],"label":"Grant-Valkaria","country":"United States"},"geometry":{"type":"Polygon","coordinates":[[[-76.831217,23.342863],[-73.868279,26.190449],[-74.640468,30.219492],[-78.735928,31.57726],[-81.966494,28.631807],[-80.82969,24.429618],[-76.831217,23.342863]]]}},{"type":"Feature","properties":{"hex_id":"8144fffffffffff","population":31558550,"population_year":2025,"area_km2":565620.1,"population_density":55.8,"all_players":10,"players_per_million":0.32,"player_ids":["golf:owgr:brianharman-unitedstates","golf:owgr:chriskirk-unitedstates","golf:owgr:davisthompson-unitedstates","golf:owgr:harrisenglish-unitedstates","golf:owgr:jacobbridgeman-unitedstates","golf:owgr:jtposton-unitedstates","golf:owgr:lucasglover-unitedstates","golf:owgr:russellhenley-unitedstates","golf:owgr:tomhoge-unitedstates","golf:wwgr:11283"],"label":"Macon","country":"United States"},"geometry":{"type":"Polygon","coordinates":[[[-81.966494,28.631807],[-78.735928,31.57726],[-79.270109,33.659462],[-79.557618,35.583567],[-84.585167,37.099589],[-88.065886,34.059836],[-86.545778,29.759287],[-81.966494,28.631807]]]}},{"type":"Feature","properties":{"hex_id":"81467ffffffffff","population":1069513,"population_year":2025,"area_km2":666617.1,"population_density":1.6,"all_players":1,"players_per_million":0.94,"player_ids":["golf:wwgr:6892"],"label":"Honolulu","country":"United States"},"geometry":{"type":"Polygon","coordinates":[[[-164.456478,26.673265],[-165.758017,22.310289],[-162.396941,19.114486],[-157.606849,20.259692],[-156.089989,24.696711],[-159.565972,27.919872],[-164.456478,26.673265]]]}},{"type":"Feature","properties":{"hex_id":"8148bffffffffff","population":22495747,"population_year":2025,"area_km2":707475.0,"population_density":31.8,"all_players":1,"players_per_million":0.04,"player_ids":["golf:owgr:patrickreed-unitedstates"],"label":"San Antonio","country":"United States"},"geometry":{"type":"Polygon","coordinates":[[[-97.905634,23.589794],[-94.743568,27.264006],[-96.66289,31.619531],[-102.093235,32.268747],[-105.250678,28.43866],[-103.011626,24.121727],[-97.905634,23.589794]]]}},{"type":"Feature","properties":{"hex_id":"8148fffffffffff","population":14949273,"population_year":2025,"area_km2":707475.0,"population_density":21.1,"all_players":2,"players_per_million":0.13,"player_ids":["golf:owgr:mattmccarty-unitedstates","golf:wwgr:7101"],"label":"Scottsdale","country":"United States"},"geometry":{"type":"Polygon","coordinates":[[[-105.250678,28.43866],[-102.093235,32.268747],[-104.454816,36.494369],[-110.257485,36.800197],[-113.268008,32.856905],[-110.662618,28.72381],[-105.250678,28.43866]]]}},{"type":"Feature","properties":{"hex_id":"8149bffffffffff","population":82320512,"population_year":2025,"area_km2":707475.0,"population_density":116.4,"all_players":1,"players_per_million":0.01,"player_ids":["golf:wwgr:3516"],"label":"Mexico City","country":"Mexico"},"geometry":{"type":"Polygon","coordinates":[[[-99.004086,15.55132],[-96.05021,19.269007],[-97.905634,23.589794],[-103.011626,24.121727],[-105.946435,20.212679],[-103.819339,15.969878],[-99.004086,15.55132]]]}},{"type":"Feature","properties":{"hex_id":"814b7ffffffffff","population":8198106,"population_year":2025,"area_km2":523941.7,"population_density":15.6,"all_players":6,"players_per_million":0.73,"player_ids":["golf:owgr:hidekimatsuyama-japan","golf:wwgr:10450","golf:wwgr:10959","golf:wwgr:4471","golf:wwgr:4655","golf:wwgr:9307"],"label":"Matsuyama","country":"Japan"},"geometry":{"type":"Polygon","coordinates":[[[128.534469,31.786712],[129.381002,28.043997],[133.976139,26.829336],[137.800087,29.424814],[137.3956,31.331749],[136.697641,33.378798],[132.308377,34.331159],[128.534469,31.786712]]]}},{"type":"Feature","properties":{"hex_id":"815f7ffffffffff","population":6903837,"population_year":2025,"area_km2":565620.1,"population_density":12.2,"all_players":1,"players_per_million":0.14,"player_ids":["golf:owgr:jhonattanvegas-venezuela"],"label":"Maturín","country":"Venezuela"},"geometry":{"type":"Polygon","coordinates":[[[-60.165868,3.84262],[-57.846431,7.694211],[-59.834917,11.355368],[-63.969049,11.14894],[-65.058471,9.308112],[-66.195256,7.728775],[-64.328272,3.824532],[-60.165868,3.84262]]]}},{"type":"Feature","properties":{"hex_id":"8164bffffffffff","population":56913507,"population_year":2025,"area_km2":707475.0,"population_density":80.4,"all_players":2,"players_per_million":0.04,"player_ids":["golf:wwgr:7331","golf:wwgr:9935"],"label":"Ratchaburi","country":"Thailand"},"geometry":{"type":"Polygon","coordinates":[[[103.137733,16.48245],[101.970677,21.002365],[97.148502,22.297036],[93.60132,19.035204],[94.893577,14.501203],[99.621042,13.236333],[103.137733,16.48245]]]}},{"type":"Feature","properties":{"hex_id":"8165bffffffffff","population":97524895,"population_year":2025,"area_km2":707475.0,"population_density":137.8,"all_players":3,"players_per_million":0.03,"player_ids":["golf:wwgr:3079","golf:wwgr:6198","golf:wwgr:7330"],"label":"Bangkok","country":"Thailand"},"geometry":{"type":"Polygon","coordinates":[[[108.772478,10.507688],[107.742624,15.063301],[103.137733,16.48245],[99.621042,13.236333],[100.801361,8.618891],[105.357168,7.303219],[108.772478,10.507688]]]}},{"type":"Feature","properties":{"hex_id":"81663ffffffffff","population":31391637,"population_year":2025,"area_km2":595741.2,"population_density":52.7,"all_players":1,"players_per_million":0.03,"player_ids":["golf:owgr:nicolasechavarria-colombia"],"label":"Medellín","country":"Colombia"},"geometry":{"type":"Polygon","coordinates":[[[-76.701678,12.819508],[-79.317401,9.553624],[-77.440699,5.563142],[-72.936618,4.995193],[-70.443514,8.370077],[-72.317998,12.204723],[-76.701678,12.819508]]]}},{"type":"Feature","properties":{"hex_id":"81697ffffffffff","population":61355356,"population_year":2025,"area_km2":602082.0,"population_density":101.9,"all_players":1,"players_per_million":0.02,"player_ids":["golf:owgr:richardhoey-philippines"],"label":"Manila","country":"Philippines"},"geometry":{"type":"Polygon","coordinates":[[[115.517768,16.517912],[116.372319,12.105102],[117.720512,11.610617],[120.449366,10.736966],[123.854824,13.797501],[123.023555,18.12707],[118.803002,19.252195],[115.517768,16.517912]]]}},{"type":"Feature","properties":{"hex_id":"81a73ffffffffff","population":2011346,"population_year":2025,"area_km2":447684.2,"population_density":4.5,"all_players":3,"players_per_million":1.49,"player_ids":["golf:owgr:minwoolee-australia","golf:wwgr:4139","golf:wwgr:4449"],"label":"Perth","country":"Australia"},"geometry":{"type":"Polygon","coordinates":[[[118.588203,-27.826272],[115.570257,-25.722246],[114.395275,-26.30569],[111.552066,-26.654916],[110.054805,-29.808573],[113.256895,-32.609931],[117.977474,-31.877886],[118.588203,-27.826272]]]}},{"type":"Feature","properties":{"hex_id":"81bb7ffffffffff","population":2835946,"population_year":2025,"area_km2":666617.1,"population_density":4.3,"all_players":1,"players_per_million":0.35,"player_ids":["golf:owgr:ryanfox-newzealand"],"label":"Auckland","country":"New Zealand"},"geometry":{"type":"Polygon","coordinates":[[[176.688659,-37.499409],[174.332728,-33.405709],[169.018604,-32.862675],[165.511402,-36.515279],[167.615873,-40.869133],[173.535818,-41.30856],[176.688659,-37.499409]]]}},{"type":"Feature","properties":{"hex_id":"81bc7ffffffffff","population":10279782,"population_year":2025,"area_km2":595741.2,"population_density":17.3,"all_players":1,"players_per_million":0.1,"player_ids":["golf:owgr:aldrichpotgieter-southafrica"],"label":"Mossel Bay","country":"South Africa"},"geometry":{"type":"Polygon","coordinates":[[[27.613905,-35.822076],[27.918941,-31.644147],[23.533518,-29.166646],[18.839987,-30.861032],[18.352922,-34.994007],[22.732651,-37.488282],[27.613905,-35.822076]]]}},{"type":"Feature","properties":{"hex_id":"81bcfffffffffff","population":54771011,"population_year":2025,"area_km2":666617.1,"population_density":82.2,"all_players":5,"players_per_million":0.09,"player_ids":["golf:owgr:christiaanbezuidenhout-southafrica","golf:owgr:garrickhiggo-southafrica","golf:owgr:jaydenschaper-southafrica","golf:owgr:justinrose-england","golf:owgr:thristonlawrence-southafrica"],"label":"Johannesburg","country":"South Africa"},"geometry":{"type":"Polygon","coordinates":[[[32.620327,-29.624454],[32.812319,-25.145186],[28.491882,-22.684204],[23.910011,-24.696711],[23.533518,-29.166646],[27.918941,-31.644147],[32.620327,-29.624454]]]}},{"type":"Feature","properties":{"hex_id":"81be3ffffffffff","population":7422285,"population_year":2025,"area_km2":729486.9,"population_density":10.2,"all_players":2,"players_per_million":0.27,"player_ids":["golf:wwgr:6290","golf:wwgr:8711"],"label":"Sydney","country":"Australia"},"geometry":{"type":"Polygon","coordinates":[[[159.810679,-35.59178],[158.196039,-31.026208],[152.877292,-29.753699],[148.729494,-32.935272],[149.839959,-37.608844],[155.640338,-39.007712],[159.810679,-35.59178]]]}},{"type":"Feature","properties":{"hex_id":"81bebffffffffff","population":4369258,"population_year":2025,"area_km2":707475.0,"population_density":6.2,"all_players":1,"players_per_million":0.23,"player_ids":["golf:owgr:jasonday-australia"],"label":"Beaudesert","country":"Australia"},"geometry":{"type":"Polygon","coordinates":[[[161.882144,-27.596488],[160.312535,-23.16469],[155.419957,-21.999746],[151.703594,-25.170738],[152.877292,-29.753699],[158.196039,-31.026208],[161.882144,-27.596488]]]}}]}