{"type":"FeatureCollection","metadata":{"population_source":"WorldPop Global 2 R2025A","population_source_url":"https://hub.worldpop.org/project/categories?id=3","population_license":"CC BY 4.0","population_year":2025,"raster_resolution":"1km","h3_resolution":2,"population_method":"official_country_rasters","occupied_cells":81,"mapped_players":168},"features":[{"type":"Feature","properties":{"hex_id":"820887fffffffff","population":3462230,"population_year":2025,"area_km2":63447.1,"population_density":54.6,"all_players":2,"players_per_million":0.58,"player_ids":["golf:owgr:alexnoren-sweden","golf:wwgr:5449"],"label":"Stockholm","country":"Sweden"},"geometry":{"type":"Polygon","coordinates":[[[16.213285,61.104087],[15.277419,59.851205],[17.2862,58.926343],[20.235913,59.22587],[21.289182,60.46251],[19.280999,61.41675],[16.213285,61.104087]]]}},{"type":"Feature","properties":{"hex_id":"82088ffffffffff","population":1060279,"population_year":2025,"area_km2":63447.1,"population_density":16.7,"all_players":1,"players_per_million":0.94,"player_ids":["golf:owgr:samivalimaki-finland"],"label":"Nokia","country":"Finland"},"geometry":{"type":"Polygon","coordinates":[[[19.280999,61.41675],[21.289182,60.46251],[23.838471,60.96689],[24.517172,62.478113],[22.407229,63.469342],[19.718783,62.910504],[19.280999,61.41675]]]}},{"type":"Feature","properties":{"hex_id":"82099ffffffffff","population":2587703,"population_year":2025,"area_km2":63447.1,"population_density":40.8,"all_players":2,"players_per_million":0.77,"player_ids":["golf:owgr:kristofferreitan-norway","golf:owgr:viktorhovland-norway"],"label":"Oslo","country":"Norway"},"geometry":{"type":"Polygon","coordinates":[[[7.438464,59.76718],[6.766113,58.447096],[8.799628,57.640256],[11.555978,58.130531],[12.360313,59.444957],[10.279089,60.275949],[7.438464,59.76718]]]}},{"type":"Feature","properties":{"hex_id":"82182ffffffffff","population":4166502,"population_year":2025,"area_km2":82705.0,"population_density":50.4,"all_players":1,"players_per_million":0.24,"player_ids":["golf:owgr:shanelowry-ireland"],"label":"Clara","country":"Ireland"},"geometry":{"type":"Polygon","coordinates":[[[-6.713499,53.841054],[-9.166993,53.289084],[-9.362891,51.696863],[-7.224494,50.679047],[-4.88976,51.223728],[-4.578382,52.792439],[-6.713499,53.841054]]]}},{"type":"Feature","properties":{"hex_id":"82184ffffffffff","population":5386228,"population_year":2025,"area_km2":85627.7,"population_density":62.9,"all_players":2,"players_per_million":0.37,"player_ids":["golf:owgr:jonrahm-spain","golf:wwgr:2218"],"label":"Barrika","country":"Spain"},"geometry":{"type":"Polygon","coordinates":[[[-1.752798,45.828917],[-3.870647,45.286766],[-4.162635,43.625899],[-2.417796,42.54048],[-0.397973,43.08589],[-0.028005,44.712978],[-1.752798,45.828917]]]}},{"type":"Feature","properties":{"hex_id":"821877fffffffff","population":1812218,"population_year":2025,"area_km2":84307.8,"population_density":21.5,"all_players":1,"players_per_million":0.55,"player_ids":["golf:owgr:harryhall-england"],"label":"Camborne","country":"United Kingdom"},"geometry":{"type":"Polygon","coordinates":[[[-4.88976,51.223728],[-7.224494,50.679047],[-7.460509,49.056818],[-5.466445,48.005645],[-3.243656,48.547301],[-2.906528,50.142292],[-4.88976,51.223728]]]}},{"type":"Feature","properties":{"hex_id":"82190ffffffffff","population":1891088,"population_year":2025,"area_km2":75672.4,"population_density":25.0,"all_players":1,"players_per_million":0.53,"player_ids":["golf:owgr:robertmacintyre-scotland"],"label":"Oban","country":"United Kingdom"},"geometry":{"type":"Polygon","coordinates":[[[-5.83227,58.353838],[-8.508655,57.881131],[-8.7409,56.382588],[-6.436337,55.37739],[-3.903181,55.840606],[-3.536381,57.317288],[-5.83227,58.353838]]]}},{"type":"Feature","properties":{"hex_id":"821947fffffffff","population":12519310,"population_year":2025,"area_km2":74863.4,"population_density":167.2,"all_players":3,"players_per_million":0.24,"player_ids":["golf:owgr:danielbrownoct1994-england","golf:owgr:johnparry-england","golf:owgr:mattfitzpatrick-england"],"label":"Sheffield","country":"United Kingdom"},"geometry":{"type":"Polygon","coordinates":[[[0.670759,55.133806],[-1.785543,54.762388],[-2.178886,53.251551],[-0.219137,52.141681],[2.101314,52.517134],[2.592789,53.997752],[0.670759,55.133806]]]}},{"type":"Feature","properties":{"hex_id":"82194ffffffffff","population":23325550,"population_year":2025,"area_km2":76219.8,"population_density":306.0,"all_players":1,"players_per_million":0.04,"player_ids":["golf:owgr:marcopenge-england"],"label":"Crawley","country":"United Kingdom"},"geometry":{"type":"Polygon","coordinates":[[[2.101314,52.517134],[-0.219137,52.141681],[-0.631095,50.601911],[1.18851,49.470279],[3.384772,49.85377],[3.881134,51.360376],[2.101314,52.517134]]]}},{"type":"Feature","properties":{"hex_id":"821957fffffffff","population":9970811,"population_year":2025,"area_km2":77902.3,"population_density":128.0,"all_players":2,"players_per_million":0.2,"player_ids":["golf:owgr:rorymcilroy-northernireland","golf:owgr:tommyfleetwood-england"],"label":"Holywood","country":"United Kingdom"},"geometry":{"type":"Polygon","coordinates":[[[-3.903181,55.840606],[-6.436337,55.37739],[-6.713499,53.841054],[-4.578382,52.792439],[-2.178886,53.251551],[-1.785543,54.762388],[-3.903181,55.840606]]]}},{"type":"Feature","properties":{"hex_id":"82195ffffffffff","population":22721748,"population_year":2025,"area_km2":79647.5,"population_density":285.3,"all_players":8,"players_per_million":0.35,"player_ids":["golf:owgr:aaronrai-england","golf:owgr:jordansmith-england","golf:owgr:lauriecanter-england","golf:owgr:mattwallace-england","golf:owgr:tyrrellhatton-england","golf:wwgr:10231","golf:wwgr:10563","golf:wwgr:4469"],"label":"Bath","country":"United Kingdom"},"geometry":{"type":"Polygon","coordinates":[[[-2.178886,53.251551],[-4.578382,52.792439],[-4.88976,51.223728],[-2.906528,50.142292],[-0.631095,50.601911],[-0.219137,52.141681],[-2.178886,53.251551]]]}},{"type":"Feature","properties":{"hex_id":"821e07fffffffff","population":15880792,"population_year":2025,"area_km2":85294.5,"population_density":186.2,"all_players":1,"players_per_million":0.06,"player_ids":["golf:owgr:seppstraka-austria"],"label":"Vienna","country":"Austria"},"geometry":{"type":"Polygon","coordinates":[[[16.606047,49.899182],[15.817384,48.388123],[17.489488,47.234679],[19.952961,47.57214],[20.822886,49.074367],[19.15135,50.248654],[16.606047,49.899182]]]}},{"type":"Feature","properties":{"hex_id":"821e37fffffffff","population":10279073,"population_year":2025,"area_km2":82705.0,"population_density":124.3,"all_players":1,"players_per_million":0.1,"player_ids":["golf:owgr:mattischmid-germany"],"label":"Regensburg","country":"Germany"},"geometry":{"type":"Polygon","coordinates":[[[12.345747,50.554275],[11.648396,49.039345],[13.374348,47.965938],[15.817384,48.388123],[16.606047,49.899182],[14.863027,50.992748],[12.345747,50.554275]]]}},{"type":"Feature","properties":{"hex_id":"821f07fffffffff","population":6981829,"population_year":2025,"area_km2":73030.9,"population_density":95.6,"all_players":3,"players_per_million":0.43,"player_ids":["golf:owgr:thorbjornolesen-denmark","golf:wwgr:5003","golf:wwgr:6953"],"label":"Furesø Municipality","country":"Denmark"},"geometry":{"type":"Polygon","coordinates":[[[10.065692,55.394879],[9.374531,53.975514],[11.24517,53.03204],[13.839529,53.487245],[14.640207,54.902182],[12.739823,55.867327],[10.065692,55.394879]]]}},{"type":"Feature","properties":{"hex_id":"821f17fffffffff","population":19193666,"population_year":2025,"area_km2":74863.4,"population_density":256.4,"all_players":1,"players_per_million":0.05,"player_ids":["golf:wwgr:9226"],"label":"Varel","country":"Germany"},"geometry":{"type":"Polygon","coordinates":[[[6.848229,53.43156],[6.259687,51.96477],[8.088631,51.039696],[10.549623,51.56399],[11.24517,53.03204],[9.374531,53.975514],[6.848229,53.43156]]]}},{"type":"Feature","properties":{"hex_id":"821f27fffffffff","population":4146711,"population_year":2025,"area_km2":68186.6,"population_density":60.8,"all_players":5,"players_per_million":1.21,"player_ids":["golf:owgr:nicolaihojgaard-denmark","golf:owgr:rasmushojgaard-denmark","golf:owgr:rasmusneergaardpetersen-denmark","golf:wwgr:6425","golf:wwgr:9242"],"label":"Aarhus","country":"Denmark"},"geometry":{"type":"Polygon","coordinates":[[[8.799628,57.640256],[8.115982,56.270471],[10.065692,55.394879],[12.739823,55.867327],[13.543636,57.232114],[11.555978,58.130531],[8.799628,57.640256]]]}},{"type":"Feature","properties":{"hex_id":"821f2ffffffffff","population":1311700,"population_year":2025,"area_km2":70782.3,"population_density":18.5,"all_players":1,"players_per_million":0.76,"player_ids":["golf:owgr:ludvigaberg-sweden"],"label":"Eslöv","country":"Sweden"},"geometry":{"type":"Polygon","coordinates":[[[13.543636,57.232114],[12.739823,55.867327],[14.640207,54.902182],[17.362293,55.278144],[18.275236,56.632953],[16.36093,57.622703],[13.543636,57.232114]]]}},{"type":"Feature","properties":{"hex_id":"821f8ffffffffff","population":12778297,"population_year":2025,"area_km2":84307.8,"population_density":151.6,"all_players":1,"players_per_million":0.08,"player_ids":["golf:wwgr:6919"],"label":"St. Gallen","country":"Switzerland"},"geometry":{"type":"Polygon","coordinates":[[[9.251571,48.534678],[8.645314,46.977068],[10.343213,45.921928],[12.677318,46.406957],[13.374348,47.965938],[11.648396,49.039345],[9.251571,48.534678]]]}},{"type":"Feature","properties":{"hex_id":"821f97fffffffff","population":9069390,"population_year":2025,"area_km2":81458.9,"population_density":111.3,"all_players":2,"players_per_million":0.22,"player_ids":["golf:owgr:adriensaddier-france","golf:wwgr:9546"],"label":"Annemasse","country":"France"},"geometry":{"type":"Polygon","coordinates":[[[2.458902,46.763731],[2.026569,45.184249],[3.696702,44.221235],[5.848477,44.82547],[6.371339,46.417017],[4.652435,47.393027],[2.458902,46.763731]]]}},{"type":"Feature","properties":{"hex_id":"821fa7fffffffff","population":28149582,"population_year":2025,"area_km2":76219.8,"population_density":369.3,"all_players":2,"players_per_million":0.07,"player_ids":["golf:owgr:thomasdetry-belgium","golf:wwgr:4570"],"label":"Brussels","country":"Belgium"},"geometry":{"type":"Polygon","coordinates":[[[3.881134,51.360376],[3.384772,49.85377],[5.163511,48.943764],[7.489806,49.526212],[8.088631,51.039696],[6.259687,51.96477],[3.881134,51.360376]]]}},{"type":"Feature","properties":{"hex_id":"821faffffffffff","population":20512004,"population_year":2025,"area_km2":79647.5,"population_density":257.5,"all_players":1,"players_per_million":0.05,"player_ids":["golf:wwgr:10344"],"label":"Nürtingen","country":"Germany"},"geometry":{"type":"Polygon","coordinates":[[[8.088631,51.039696],[7.489806,49.526212],[9.251571,48.534678],[11.648396,49.039345],[12.345747,50.554275],[10.549623,51.56399],[8.088631,51.039696]]]}},{"type":"Feature","properties":{"hex_id":"821fb7fffffffff","population":17326098,"population_year":2025,"area_km2":77926.1,"population_density":222.3,"all_players":1,"players_per_million":0.06,"player_ids":["golf:wwgr:4029"],"label":"Clamart","country":"France"},"geometry":{"type":"Polygon","coordinates":[[[1.18851,49.470279],[0.764026,47.90745],[2.458902,46.763731],[4.652435,47.393027],[5.163511,48.943764],[3.384772,49.85377],[1.18851,49.470279]]]}},{"type":"Feature","properties":{"hex_id":"82266ffffffffff","population":4140731,"population_year":2025,"area_km2":82416.4,"population_density":50.2,"all_players":1,"players_per_million":0.24,"player_ids":["golf:owgr:justinthomas-unitedstates"],"label":"Louisville","country":"United States"},"geometry":{"type":"Polygon","coordinates":[[[-85.979328,39.596509],[-87.951382,39.014788],[-87.990764,37.382074],[-86.303213,36.434527],[-84.585167,37.099589],[-84.278055,38.60875],[-85.979328,39.596509]]]}},{"type":"Feature","properties":{"hex_id":"82268ffffffffff","population":3218622,"population_year":2025,"area_km2":95515.4,"population_density":33.7,"all_players":2,"players_per_million":0.62,"player_ids":["golf:owgr:wyndhamclark-unitedstates","golf:wwgr:6944"],"label":"Denver","country":"United States"},"geometry":{"type":"Polygon","coordinates":[[[-104.454816,36.494369],[-102.671357,37.471973],[-102.876807,39.164785],[-104.928668,39.882147],[-106.738368,38.891674],[-106.47056,37.197522],[-104.454816,36.494369]]]}},{"type":"Feature","properties":{"hex_id":"822697fffffffff","population":2718995,"population_year":2025,"area_km2":93159.0,"population_density":29.2,"all_players":1,"players_per_million":0.37,"player_ids":["golf:owgr:tonyfinau-unitedstates"],"label":"Salt Lake City","country":"United States"},"geometry":{"type":"Polygon","coordinates":[[[-110.584833,38.489935],[-108.818288,39.54349],[-109.131063,41.19652],[-111.27157,41.789209],[-113.046271,40.72062],[-112.673648,39.075149],[-110.584833,38.489935]]]}},{"type":"Feature","properties":{"hex_id":"8226c7fffffffff","population":1987377,"population_year":2025,"area_km2":95515.4,"population_density":20.8,"all_players":1,"players_per_million":0.5,"player_ids":["golf:owgr:maxmcgreevy-unitedstates"],"label":"Edmond","country":"United States"},"geometry":{"type":"Polygon","coordinates":[[[-98.622726,34.188046],[-96.863145,35.093055],[-96.968153,36.804751],[-98.893095,37.623022],[-100.6928,36.709267],[-100.527345,34.986722],[-98.622726,34.188046]]]}},{"type":"Feature","properties":{"hex_id":"8226cffffffffff","population":9574277,"population_year":2025,"area_km2":96323.1,"population_density":99.4,"all_players":2,"players_per_million":0.21,"player_ids":["golf:owgr:jordanspieth-unitedstates","golf:owgr:piercesoncoody-unitedstates"],"label":"Dallas","country":"United States"},"geometry":{"type":"Polygon","coordinates":[[[-96.66289,31.619531],[-94.945821,32.516906],[-95.017507,34.246081],[-96.863145,35.093055],[-98.622726,34.188046],[-98.493873,32.444355],[-96.66289,31.619531]]]}},{"type":"Feature","properties":{"hex_id":"822707fffffffff","population":1031042,"population_year":2025,"area_km2":95515.4,"population_density":10.8,"all_players":1,"players_per_million":0.97,"player_ids":["golf:owgr:nicktaylor-canada"],"label":"Winnipeg","country":"Canada"},"geometry":{"type":"Polygon","coordinates":[[[-95.791373,52.640531],[-98.16677,51.748943],[-97.993762,50.038615],[-95.644608,49.199829],[-93.345722,50.020134],[-93.317375,51.747798],[-95.791373,52.640531]]]}},{"type":"Feature","properties":{"hex_id":"822757fffffffff","population":3436263,"population_year":2025,"area_km2":91641.3,"population_density":37.5,"all_players":1,"players_per_million":0.29,"player_ids":["golf:wwgr:5486"],"label":"Minneapolis","country":"United States"},"geometry":{"type":"Polygon","coordinates":[[[-91.178447,47.383632],[-93.395849,46.63002],[-93.418118,44.972526],[-91.384239,44.06279],[-89.249838,44.754421],[-89.066565,46.415378],[-91.178447,47.383632]]]}},{"type":"Feature","properties":{"hex_id":"822817fffffffff","population":626076,"population_year":2025,"area_km2":87326.6,"population_density":7.2,"all_players":1,"players_per_million":1.6,"player_ids":["golf:owgr:kurtkitayama-unitedstates"],"label":"Chico","country":"United States"},"geometry":{"type":"Polygon","coordinates":[[[-120.625018,39.393868],[-119.002282,40.570572],[-119.474595,42.150515],[-121.616722,42.535325],[-123.21638,41.345253],[-122.699099,39.784231],[-120.625018,39.393868]]]}},{"type":"Feature","properties":{"hex_id":"822837fffffffff","population":14366819,"population_year":2025,"area_km2":89801.2,"population_density":160.0,"all_players":4,"players_per_million":0.28,"player_ids":["golf:owgr:brysondechambeau-unitedstates","golf:owgr:maverickmcnealy-unitedstates","golf:wwgr:5810","golf:wwgr:9009"],"label":"Portola Valley","country":"United States"},"geometry":{"type":"Polygon","coordinates":[[[-121.707157,36.574218],[-120.150308,37.778361],[-120.625018,39.393868],[-122.699099,39.784231],[-124.231246,38.566387],[-123.715986,36.972296],[-121.707157,36.574218]]]}},{"type":"Feature","properties":{"hex_id":"8229a7fffffffff","population":26139253,"population_year":2025,"area_km2":97556.0,"population_density":267.9,"all_players":10,"players_per_million":0.38,"player_ids":["golf:owgr:akshaybhatia-unitedstates","golf:owgr:collinmorikawa-unitedstates","golf:owgr:jjspaun-unitedstates","golf:owgr:patrickcantlay-unitedstates","golf:owgr:rickiefowler-unitedstates","golf:owgr:xanderschauffele-unitedstates","golf:wwgr:4497","golf:wwgr:4504","golf:wwgr:4598","golf:wwgr:8786"],"label":"Los Angeles","country":"United States"},"geometry":{"type":"Polygon","coordinates":[[[-116.838302,32.260383],[-115.254005,33.431536],[-115.644549,35.13856],[-117.666441,35.65712],[-119.240554,34.468622],[-118.804528,32.779438],[-116.838302,32.260383]]]}},{"type":"Feature","properties":{"hex_id":"822a17fffffffff","population":30364242,"population_year":2025,"area_km2":87326.6,"population_density":347.7,"all_players":4,"players_per_million":0.13,"player_ids":["golf:owgr:cameronyoung-unitedstates","golf:owgr:maxgreyserman-unitedstates","golf:owgr:scottiescheffler-unitedstates","golf:wwgr:9328"],"label":"Ridgewood","country":"United States"},"geometry":{"type":"Polygon","coordinates":[[[-73.076912,42.400493],[-75.333452,42.029564],[-75.960619,40.480497],[-74.442775,39.340569],[-72.307877,39.686062],[-71.573772,41.195725],[-73.076912,42.400493]]]}},{"type":"Feature","properties":{"hex_id":"822a37fffffffff","population":10409321,"population_year":2025,"area_km2":89801.2,"population_density":115.9,"all_players":1,"players_per_million":0.1,"player_ids":["golf:wwgr:4560"],"label":"Brockton","country":"United States"},"geometry":{"type":"Polygon","coordinates":[[[-69.955068,44.277849],[-72.323382,43.964363],[-73.076912,42.400493],[-71.573772,41.195725],[-69.342223,41.490681],[-68.482715,43.008011],[-69.955068,44.277849]]]}},{"type":"Feature","properties":{"hex_id":"822a8ffffffffff","population":6334016,"population_year":2025,"area_km2":80847.5,"population_density":78.3,"all_players":1,"players_per_million":0.16,"player_ids":["golf:owgr:bengriffin-unitedstates"],"label":"Chapel Hill","country":"United States"},"geometry":{"type":"Polygon","coordinates":[[[-78.619418,38.540002],[-80.651775,38.089298],[-81.068449,36.598719],[-79.557618,35.583567],[-77.618683,35.999192],[-77.099922,37.463561],[-78.619418,38.540002]]]}},{"type":"Feature","properties":{"hex_id":"822aaffffffffff","population":16213426,"population_year":2025,"area_km2":84307.8,"population_density":192.3,"all_players":4,"players_per_million":0.25,"player_ids":["golf:owgr:chrisgotterup-unitedstates","golf:owgr:dennymccarthy-unitedstates","golf:owgr:johnkeefer-unitedstates","golf:owgr:michaelbrennan-unitedstates"],"label":"Easton","country":"United States"},"geometry":{"type":"Polygon","coordinates":[[[-75.960619,40.480497],[-78.104271,40.06406],[-78.619418,38.540002],[-77.099922,37.463561],[-75.063317,37.849069],[-74.442775,39.340569],[-75.960619,40.480497]]]}},{"type":"Feature","properties":{"hex_id":"822ab7fffffffff","population":10815218,"population_year":2025,"area_km2":89440.6,"population_density":120.9,"all_players":2,"players_per_million":0.18,"player_ids":["golf:owgr:coreyconners-canada","golf:owgr:michaelthorbjornsen-unitedstates"],"label":"Listowel","country":"Canada"},"geometry":{"type":"Polygon","coordinates":[[[-80.982253,43.86012],[-83.224953,43.327485],[-83.600197,41.724215],[-81.867503,40.674246],[-79.734069,41.163834],[-79.227281,42.744533],[-80.982253,43.86012]]]}},{"type":"Feature","properties":{"hex_id":"822ad7fffffffff","population":3814677,"population_year":2025,"area_km2":76219.8,"population_density":50.0,"all_players":2,"players_per_million":0.52,"player_ids":["golf:owgr:andrewnovak-unitedstates","golf:owgr:ryangerard-unitedstates"],"label":"Raleigh","country":"United States"},"geometry":{"type":"Polygon","coordinates":[[[-77.618683,35.999192],[-79.557618,35.583567],[-79.985888,34.15372],[-78.568356,33.165261],[-76.715776,33.549278],[-76.1969,34.952047],[-77.618683,35.999192]]]}},{"type":"Feature","properties":{"hex_id":"822b87fffffffff","population":3438566,"population_year":2025,"area_km2":95515.4,"population_density":36.0,"all_players":1,"players_per_million":0.29,"player_ids":["golf:wwgr:4629"],"label":"Smiths Falls","country":"Canada"},"geometry":{"type":"Polygon","coordinates":[[[-74.929476,48.066013],[-77.471719,47.634566],[-78.100366,45.982432],[-76.33587,44.798413],[-73.944231,45.197835],[-73.17262,46.811656],[-74.929476,48.066013]]]}},{"type":"Feature","properties":{"hex_id":"822b8ffffffffff","population":3267276,"population_year":2025,"area_km2":91641.3,"population_density":35.7,"all_players":1,"players_per_million":0.31,"player_ids":["golf:owgr:keeganbradley-unitedstates"],"label":"Woodstock","country":"United States"},"geometry":{"type":"Polygon","coordinates":[[[-73.944231,45.197835],[-76.33587,44.798413],[-76.966258,43.195408],[-75.333452,42.029564],[-73.076912,42.400493],[-72.323382,43.964363],[-73.944231,45.197835]]]}},{"type":"Feature","properties":{"hex_id":"822b9ffffffffff","population":11744141,"population_year":2025,"area_km2":92775.6,"population_density":126.6,"all_players":2,"players_per_million":0.17,"player_ids":["golf:owgr:mackenziehughes-canada","golf:owgr:taylorpendrith-canada"],"label":"Richmond Hill","country":"Canada"},"geometry":{"type":"Polygon","coordinates":[[[-78.100366,45.982432],[-80.490261,45.49319],[-80.982253,43.86012],[-79.227281,42.744533],[-76.966258,43.195408],[-76.33587,44.798413],[-78.100366,45.982432]]]}},{"type":"Feature","properties":{"hex_id":"822e1ffffffffff","population":4250082,"population_year":2025,"area_km2":82705.0,"population_density":51.4,"all_players":1,"players_per_million":0.24,"player_ids":["golf:wwgr:5464"],"label":"Kitahiroshima","country":"Japan"},"geometry":{"type":"Polygon","coordinates":[[[143.841653,41.226082],[144.05802,42.901226],[142.305844,43.816095],[140.4084,43.04217],[140.284877,41.393622],[141.966983,40.491751],[143.841653,41.226082]]]}},{"type":"Feature","properties":{"hex_id":"822e2ffffffffff","population":5113664,"population_year":2025,"area_km2":82705.0,"population_density":61.8,"all_players":1,"players_per_million":0.2,"player_ids":["golf:wwgr:6781"],"label":"Kasama","country":"Japan"},"geometry":{"type":"Polygon","coordinates":[[[143.252469,36.192692],[143.43958,37.868877],[141.809657,38.825701],[140.055179,38.090666],[139.948213,36.441778],[141.516472,35.500079],[143.252469,36.192692]]]}},{"type":"Feature","properties":{"hex_id":"822e67fffffffff","population":29949728,"population_year":2025,"area_km2":74863.4,"population_density":400.1,"all_players":3,"players_per_million":0.1,"player_ids":["golf:wwgr:6081","golf:wwgr:7214","golf:wwgr:8434"],"label":"Neyagawa","country":"Japan"},"geometry":{"type":"Polygon","coordinates":[[[138.240188,34.090249],[138.304265,35.714832],[136.756542,36.594877],[135.209181,35.840284],[135.213088,34.249062],[136.697641,33.378798],[138.240188,34.090249]]]}},{"type":"Feature","properties":{"hex_id":"822e6ffffffffff","population":11126476,"population_year":2025,"area_km2":70058.2,"population_density":158.8,"all_players":3,"players_per_million":0.27,"player_ids":["golf:wwgr:3444","golf:wwgr:7247","golf:wwgr:9146"],"label":"Kobe","country":"Japan"},"geometry":{"type":"Polygon","coordinates":[[[135.213088,34.249062],[135.209181,35.840284],[133.690522,36.661487],[132.241949,35.885847],[132.308377,34.331159],[133.762313,33.515468],[135.213088,34.249062]]]}},{"type":"Feature","properties":{"hex_id":"822f5ffffffffff","population":40494200,"population_year":2025,"area_km2":79647.5,"population_density":508.4,"all_players":5,"players_per_million":0.12,"player_ids":["golf:owgr:keitanakajima-japan","golf:wwgr:6560","golf:wwgr:8632","golf:wwgr:8813","golf:wwgr:8814"],"label":"Saitama Prefecture","country":"Japan"},"geometry":{"type":"Polygon","coordinates":[[[141.379662,33.846135],[141.516472,35.500079],[139.948213,36.441778],[138.304265,35.714832],[138.240188,34.090249],[139.748325,33.162808],[141.379662,33.846135]]]}},{"type":"Feature","properties":{"hex_id":"8230c7fffffffff","population":17897330,"population_year":2025,"area_km2":63447.1,"population_density":282.1,"all_players":3,"players_per_million":0.17,"player_ids":["golf:wwgr:1615","golf:wwgr:5316","golf:wwgr:6925"],"label":"Yeongam County","country":"South Korea"},"geometry":{"type":"Polygon","coordinates":[[[126.253349,35.974736],[125.973267,34.659415],[127.394514,33.936306],[129.115986,34.537795],[129.409707,35.861246],[127.968639,36.57549],[126.253349,35.974736]]]}},{"type":"Feature","properties":{"hex_id":"8230d7fffffffff","population":716143,"population_year":2025,"area_km2":65961.6,"population_density":10.9,"all_players":2,"players_per_million":2.79,"player_ids":["golf:owgr:sungjaeim-southkorea","golf:wwgr:8562"],"label":"Jeju Island","country":"South Korea"},"geometry":{"type":"Polygon","coordinates":[[[124.290346,34.021808],[124.020556,32.661445],[125.41915,31.927643],[127.110454,32.565288],[127.394514,33.936306],[125.973267,34.659415],[124.290346,34.021808]]]}},{"type":"Feature","properties":{"hex_id":"8230e7fffffffff","population":32628938,"population_year":2025,"area_km2":59429.4,"population_density":549.0,"all_players":10,"players_per_million":0.31,"player_ids":["golf:owgr:byeonghunan-southkorea","golf:owgr:michaelkim-unitedstates","golf:owgr:siwookim-southkorea","golf:wwgr:2418","golf:wwgr:3279","golf:wwgr:3837","golf:wwgr:4006","golf:wwgr:4110","golf:wwgr:4532","golf:wwgr:9694"],"label":"Seoul","country":"South Korea"},"geometry":{"type":"Polygon","coordinates":[[[125.111877,37.903324],[124.835996,36.642936],[126.253349,35.974736],[127.968639,36.57549],[127.809941,38.077868],[126.346943,38.738746],[125.111877,37.903324]]]}},{"type":"Feature","properties":{"hex_id":"8230effffffffff","population":2546796,"population_year":2025,"area_km2":63447.1,"population_density":40.1,"all_players":1,"players_per_million":0.39,"player_ids":["golf:wwgr:3625"],"label":"Wonju","country":"South Korea"},"geometry":{"type":"Polygon","coordinates":[[[130.759352,36.651654],[130.657533,38.194564],[129.147431,38.906411],[127.809941,38.077868],[127.968639,36.57549],[129.409707,35.861246],[130.759352,36.651654]]]}},{"type":"Feature","properties":{"hex_id":"8231affffffffff","population":24565282,"population_year":2025,"area_km2":61279.2,"population_density":400.9,"all_players":1,"players_per_million":0.04,"player_ids":["golf:wwgr:4391"],"label":"Beijing","country":"People's Republic of China"},"geometry":{"type":"Polygon","coordinates":[[[116.49,42.082486],[115.673001,40.681885],[116.607976,39.554439],[118.297194,39.800882],[119.13691,41.148271],[118.26752,42.301514],[116.49,42.082486]]]}},{"type":"Feature","properties":{"hex_id":"824037fffffffff","population":24740242,"population_year":2025,"area_km2":82705.0,"population_density":299.1,"all_players":1,"players_per_million":0.04,"player_ids":["golf:owgr:haotongli-china"],"label":"Hunan","country":"People's Republic of China"},"geometry":{"type":"Polygon","coordinates":[[[113.703767,25.199133],[113.931331,26.766212],[112.515328,27.835285],[110.85,27.33619],[110.633188,25.751332],[112.070422,24.683011],[113.703767,25.199133]]]}},{"type":"Feature","properties":{"hex_id":"824077fffffffff","population":21927824,"population_year":2025,"area_km2":91641.3,"population_density":239.3,"all_players":1,"players_per_million":0.05,"player_ids":["golf:wwgr:6803"],"label":"Kunming","country":"People's Republic of China"},"geometry":{"type":"Polygon","coordinates":[[[105.568,24.011141],[105.76175,25.659356],[104.231425,26.681239],[102.49922,26.053266],[102.321132,24.395174],[103.859139,23.374448],[105.568,24.011141]]]}},{"type":"Feature","properties":{"hex_id":"82411ffffffffff","population":84435088,"population_year":2025,"area_km2":84307.8,"population_density":1001.5,"all_players":1,"players_per_million":0.01,"player_ids":["golf:wwgr:5511"],"label":"Shenzhen","country":"People's Republic of China"},"geometry":{"type":"Polygon","coordinates":[[[114.855932,22.520124],[115.085055,24.116355],[113.703767,25.199133],[112.070422,24.683011],[111.851065,23.06606],[113.254772,21.985685],[114.855932,22.520124]]]}},{"type":"Feature","properties":{"hex_id":"82441ffffffffff","population":5165806,"population_year":2025,"area_km2":82705.0,"population_density":62.5,"all_players":1,"players_per_million":0.19,"player_ids":["golf:wwgr:5394"],"label":"Bradenton","country":"United States"},"geometry":{"type":"Polygon","coordinates":[[[-83.616841,26.242156],[-82.084301,26.984013],[-81.966494,28.631807],[-83.420798,29.571467],[-85.007143,28.83498],[-85.084348,27.153536],[-83.616841,26.242156]]]}},{"type":"Feature","properties":{"hex_id":"82444ffffffffff","population":1823298,"population_year":2025,"area_km2":93159.0,"population_density":19.6,"all_players":1,"players_per_million":0.55,"player_ids":["golf:owgr:samburns-unitedstates"],"label":"Shreveport","country":"United States"},"geometry":{"type":"Polygon","coordinates":[[[-93.177711,31.651131],[-91.474426,32.491469],[-91.490847,34.200716],[-93.265212,35.090108],[-95.017507,34.246081],[-94.945821,32.516906],[-93.177711,31.651131]]]}},{"type":"Feature","properties":{"hex_id":"8244a7fffffffff","population":5328381,"population_year":2025,"area_km2":75672.4,"population_density":70.4,"all_players":3,"players_per_million":0.56,"player_ids":["golf:owgr:danielberger-unitedstates","golf:wwgr:2611","golf:wwgr:3007"],"label":"Plantation","country":"United States"},"geometry":{"type":"Polygon","coordinates":[[[-79.508242,23.533066],[-78.073265,24.24011],[-77.908907,25.835601],[-79.211732,26.761492],[-80.698565,26.062694],[-80.82969,24.429618],[-79.508242,23.533066]]]}},{"type":"Feature","properties":{"hex_id":"8244affffffffff","population":7848067,"population_year":2025,"area_km2":77902.3,"population_density":100.7,"all_players":2,"players_per_million":0.25,"player_ids":["golf:owgr:billyhorschel-unitedstates","golf:wwgr:9329"],"label":"Grant-Valkaria","country":"United States"},"geometry":{"type":"Polygon","coordinates":[[[-80.698565,26.062694],[-79.211732,26.761492],[-79.057436,28.372892],[-80.425375,29.321821],[-81.966494,28.631807],[-82.084301,26.984013],[-80.698565,26.062694]]]}},{"type":"Feature","properties":{"hex_id":"8244c7fffffffff","population":6948496,"population_year":2025,"area_km2":80847.5,"population_density":85.9,"all_players":3,"players_per_million":0.43,"player_ids":["golf:owgr:davisthompson-unitedstates","golf:owgr:russellhenley-unitedstates","golf:wwgr:11283"],"label":"Macon","country":"United States"},"geometry":{"type":"Polygon","coordinates":[[[-83.318504,31.226884],[-81.720688,31.908012],[-81.592393,33.531156],[-83.104736,34.505705],[-84.761579,33.833075],[-84.845862,32.177532],[-83.318504,31.226884]]]}},{"type":"Feature","properties":{"hex_id":"8244cffffffffff","population":5279881,"population_year":2025,"area_km2":81458.9,"population_density":64.8,"all_players":1,"players_per_million":0.19,"player_ids":["golf:owgr:chriskirk-unitedstates"],"label":"Knoxville","country":"United States"},"geometry":{"type":"Polygon","coordinates":[[[-84.761579,33.833075],[-83.104736,34.505705],[-82.992984,36.123996],[-84.585167,37.099589],[-86.303213,36.434527],[-86.366648,34.786557],[-84.761579,33.833075]]]}},{"type":"Feature","properties":{"hex_id":"8244d7fffffffff","population":1889865,"population_year":2025,"area_km2":76219.8,"population_density":24.8,"all_players":1,"players_per_million":0.53,"player_ids":["golf:owgr:brianharman-unitedstates"],"label":"Savannah","country":"United States"},"geometry":{"type":"Polygon","coordinates":[[[-80.283005,30.942583],[-78.735928,31.57726],[-78.568356,33.165261],[-79.985888,34.15372],[-81.592393,33.531156],[-81.720688,31.908012],[-80.283005,30.942583]]]}},{"type":"Feature","properties":{"hex_id":"8244dffffffffff","population":7412190,"population_year":2025,"area_km2":77926.1,"population_density":95.1,"all_players":4,"players_per_million":0.54,"player_ids":["golf:owgr:jacobbridgeman-unitedstates","golf:owgr:jtposton-unitedstates","golf:owgr:lucasglover-unitedstates","golf:owgr:tomhoge-unitedstates"],"label":"Hickory","country":"United States"},"geometry":{"type":"Polygon","coordinates":[[[-81.592393,33.531156],[-79.985888,34.15372],[-79.557618,35.583567],[-81.068449,36.598719],[-82.992984,36.123996],[-83.104736,34.505705],[-81.592393,33.531156]]]}},{"type":"Feature","properties":{"hex_id":"8244f7fffffffff","population":4583226,"population_year":2025,"area_km2":79647.5,"population_density":57.5,"all_players":2,"players_per_million":0.44,"player_ids":["golf:owgr:budcauley-unitedstates","golf:owgr:harrisenglish-unitedstates"],"label":"Valdosta","country":"United States"},"geometry":{"type":"Polygon","coordinates":[[[-81.966494,28.631807],[-80.425375,29.321821],[-80.283005,30.942583],[-81.720688,31.908012],[-83.318504,31.226884],[-83.420798,29.571467],[-81.966494,28.631807]]]}},{"type":"Feature","properties":{"hex_id":"82464ffffffffff","population":1076096,"population_year":2025,"area_km2":98815.5,"population_density":10.9,"all_players":1,"players_per_million":0.93,"player_ids":["golf:wwgr:6892"],"label":"Honolulu","country":"United States"},"geometry":{"type":"Polygon","coordinates":[[[-159.133129,23.438175],[-160.24133,22.005854],[-159.475161,20.422209],[-157.606849,20.259692],[-156.478386,21.691033],[-157.237348,23.285729],[-159.133129,23.438175]]]}},{"type":"Feature","properties":{"hex_id":"82489ffffffffff","population":6429694,"population_year":2025,"area_km2":99241.3,"population_density":64.8,"all_players":1,"players_per_million":0.16,"player_ids":["golf:owgr:patrickreed-unitedstates"],"label":"San Antonio","country":"United States"},"geometry":{"type":"Polygon","coordinates":[[[-98.247879,28.919834],[-96.567347,29.863731],[-96.66289,31.619531],[-98.493873,32.444355],[-100.211784,31.489938],[-100.061215,29.721882],[-98.247879,28.919834]]]}},{"type":"Feature","properties":{"hex_id":"8248effffffffff","population":7170957,"population_year":2025,"area_km2":101417.2,"population_density":70.7,"all_players":2,"players_per_million":0.28,"player_ids":["golf:owgr:mattmccarty-unitedstates","golf:wwgr:7101"],"label":"Scottsdale","country":"United States"},"geometry":{"type":"Polygon","coordinates":[[[-110.973266,30.491571],[-109.334035,31.601966],[-109.632511,33.353313],[-111.622726,33.985325],[-113.268008,32.856905],[-112.918132,31.115173],[-110.973266,30.491571]]]}},{"type":"Feature","properties":{"hex_id":"824997fffffffff","population":36941748,"population_year":2025,"area_km2":99241.3,"population_density":372.2,"all_players":1,"players_per_million":0.03,"player_ids":["golf:wwgr:3516"],"label":"Mexico City","country":"Mexico"},"geometry":{"type":"Polygon","coordinates":[[[-97.591937,18.289686],[-96.05021,19.269007],[-96.130285,21.025118],[-97.798077,21.815236],[-99.372387,20.819245],[-99.246183,19.050422],[-97.591937,18.289686]]]}},{"type":"Feature","properties":{"hex_id":"824b67fffffffff","population":7712336,"population_year":2025,"area_km2":70058.2,"population_density":110.1,"all_players":5,"players_per_million":0.65,"player_ids":["golf:owgr:hidekimatsuyama-japan","golf:wwgr:10450","golf:wwgr:10959","golf:wwgr:4655","golf:wwgr:9307"],"label":"Matsuyama","country":"Japan"},"geometry":{"type":"Polygon","coordinates":[[[130.557843,33.768644],[130.260732,32.389001],[131.702216,31.564914],[133.45368,32.12931],[133.762313,33.515468],[132.308377,34.331159],[130.557843,33.768644]]]}},{"type":"Feature","properties":{"hex_id":"824b77fffffffff","population":1762532,"population_year":2025,"area_km2":73030.9,"population_density":24.1,"all_players":1,"players_per_million":0.57,"player_ids":["golf:wwgr:4471"],"label":"Kagoshima","country":"Japan"},"geometry":{"type":"Polygon","coordinates":[[[128.534469,31.786712],[128.246663,30.359872],[129.672315,29.525999],[131.401974,30.12918],[131.702216,31.564914],[130.260732,32.389001],[128.534469,31.786712]]]}},{"type":"Feature","properties":{"hex_id":"825f4ffffffffff","population":3228470,"population_year":2025,"area_km2":76219.8,"population_density":42.4,"all_players":1,"players_per_million":0.31,"player_ids":["golf:owgr:jhonattanvegas-venezuela"],"label":"Maturín","country":"Venezuela"},"geometry":{"type":"Polygon","coordinates":[[[-63.543565,8.076966],[-62.322702,9.16751],[-62.542405,10.713529],[-63.969049,11.14894],[-65.161151,10.067792],[-64.955386,8.542069],[-63.543565,8.076966]]]}},{"type":"Feature","properties":{"hex_id":"826487fffffffff","population":6498934,"population_year":2025,"area_km2":101417.2,"population_density":64.1,"all_players":1,"players_per_million":0.15,"player_ids":["golf:wwgr:9935"],"label":"Chiang Mai","country":"Thailand"},"geometry":{"type":"Polygon","coordinates":[[[99.938788,16.794916],[100.100258,18.555033],[98.557403,19.571163],[96.855428,18.823256],[96.71134,17.059222],[98.251544,16.046518],[99.938788,16.794916]]]}},{"type":"Feature","properties":{"hex_id":"8264a7fffffffff","population":26373493,"population_year":2025,"area_km2":102761.2,"population_density":256.6,"all_players":4,"players_per_million":0.15,"player_ids":["golf:wwgr:3079","golf:wwgr:6198","golf:wwgr:7330","golf:wwgr:7331"],"label":"Bangkok","country":"Thailand"},"geometry":{"type":"Polygon","coordinates":[[[101.291897,13.985209],[101.458892,15.760959],[99.938788,16.794916],[98.251544,16.046518],[98.101118,14.26415],[99.621042,13.236333],[101.291897,13.985209]]]}},{"type":"Feature","properties":{"hex_id":"82661ffffffffff","population":7780378,"population_year":2025,"area_km2":89801.2,"population_density":86.6,"all_players":1,"players_per_million":0.13,"player_ids":["golf:owgr:nicolasechavarria-colombia"],"label":"Medellín","country":"Colombia"},"geometry":{"type":"Polygon","coordinates":[[[-76.209101,8.107689],[-77.602263,7.212914],[-77.440699,5.563142],[-75.87276,4.821344],[-74.485771,5.737922],[-74.660215,7.374064],[-76.209101,8.107689]]]}},{"type":"Feature","properties":{"hex_id":"826947fffffffff","population":24404068,"population_year":2025,"area_km2":85294.5,"population_density":286.1,"all_players":1,"players_per_million":0.04,"player_ids":["golf:owgr:richardhoey-philippines"],"label":"Manila","country":"Philippines"},"geometry":{"type":"Polygon","coordinates":[[[118.334184,16.013184],[118.102539,14.37128],[119.389559,13.411731],[120.936616,14.106],[121.18304,15.773842],[119.867722,16.72154],[118.334184,16.013184]]]}},{"type":"Feature","properties":{"hex_id":"82a727fffffffff","population":1275914,"population_year":2025,"area_km2":68186.6,"population_density":18.7,"all_players":3,"players_per_million":2.35,"player_ids":["golf:owgr:minwoolee-australia","golf:wwgr:4139","golf:wwgr:4449"],"label":"Perth","country":"Australia"},"geometry":{"type":"Polygon","coordinates":[[[116.156806,-31.717896],[115.365356,-30.470522],[113.5891,-30.27389],[112.519247,-31.318696],[113.256895,-32.609931],[115.121218,-32.812717],[116.156806,-31.717896]]]}},{"type":"Feature","properties":{"hex_id":"82bb57fffffffff","population":2517968,"population_year":2025,"area_km2":91641.3,"population_density":27.5,"all_players":1,"players_per_million":0.4,"player_ids":["golf:owgr:ryanfox-newzealand"],"label":"Auckland","country":"New Zealand"},"geometry":{"type":"Polygon","coordinates":[[[176.688659,-37.499409],[176.415194,-35.801656],[174.557652,-35.124424],[172.898106,-36.141695],[173.101494,-37.871743],[175.036544,-38.552712],[176.688659,-37.499409]]]}},{"type":"Feature","properties":{"hex_id":"82bc47fffffffff","population":993544,"population_year":2025,"area_km2":85294.5,"population_density":11.6,"all_players":1,"players_per_million":1.01,"player_ids":["golf:owgr:aldrichpotgieter-southafrica"],"label":"Mossel Bay","country":"South Africa"},"geometry":{"type":"Polygon","coordinates":[[[24.349756,-34.732415],[25.142967,-33.300837],[23.935738,-31.99438],[21.953505,-32.121567],[21.149655,-33.54865],[22.337303,-34.853247],[24.349756,-34.732415]]]}},{"type":"Feature","properties":{"hex_id":"82bcc7fffffffff","population":16401038,"population_year":2025,"area_km2":95515.4,"population_density":171.7,"all_players":4,"players_per_million":0.24,"player_ids":["golf:owgr:christiaanbezuidenhout-southafrica","golf:owgr:garrickhiggo-southafrica","golf:owgr:jaydenschaper-southafrica","golf:owgr:justinrose-england"],"label":"Johannesburg","country":"South Africa"},"geometry":{"type":"Polygon","coordinates":[[[29.424697,-28.585894],[30.161044,-27.015106],[28.952033,-25.669244],[27.013681,-25.892672],[26.259296,-27.461202],[27.460057,-28.808795],[29.424697,-28.585894]]]}},{"type":"Feature","properties":{"hex_id":"82bcd7fffffffff","population":7346406,"population_year":2025,"area_km2":97556.0,"population_density":75.3,"all_players":1,"players_per_million":0.14,"player_ids":["golf:owgr:thristonlawrence-southafrica"],"label":"Mbombela","country":"South Africa"},"geometry":{"type":"Polygon","coordinates":[[[32.103888,-26.751237],[32.812319,-25.145186],[31.600697,-23.802778],[29.682092,-24.063211],[28.952033,-25.669244],[30.161044,-27.015106],[32.103888,-26.751237]]]}},{"type":"Feature","properties":{"hex_id":"82be0ffffffffff","population":6793674,"population_year":2025,"area_km2":104135.0,"population_density":65.2,"all_players":2,"players_per_million":0.29,"player_ids":["golf:wwgr:6290","golf:wwgr:8711"],"label":"Sydney","country":"Australia"},"geometry":{"type":"Polygon","coordinates":[[[152.177285,-35.125129],[152.420459,-33.332138],[150.704674,-32.253721],[148.729494,-32.935272],[148.409969,-34.714468],[150.140595,-35.826845],[152.177285,-35.125129]]]}},{"type":"Feature","properties":{"hex_id":"82bef7fffffffff","population":374361,"population_year":2025,"area_km2":102761.2,"population_density":3.6,"all_players":1,"players_per_million":2.67,"player_ids":["golf:owgr:jasonday-australia"],"label":"Beaudesert","country":"Australia"},"geometry":{"type":"Polygon","coordinates":[[[152.877292,-29.753699],[153.092109,-27.975349],[151.46847,-26.924893],[149.613583,-27.617724],[149.330579,-29.383365],[150.969593,-30.469788],[152.877292,-29.753699]]]}}]}