{"type":"FeatureCollection","metadata":{"population_source":"WorldPop Global 2 R2025A","population_source_url":"https://hub.worldpop.org/project/categories?id=3","population_license":"CC BY 4.0","population_year":2025,"raster_resolution":"1km","h3_resolution":1,"population_method":"official_country_rasters","occupied_cells":58,"mapped_players":994},"features":[{"type":"Feature","properties":{"hex_id":"81083ffffffffff","population":933100,"population_year":2025,"area_km2":328434.6,"population_density":2.8,"all_players":2,"players_per_million":2.14,"player_ids":["nhl:8479421","nhl:8484392"],"label":"Trondheim","country":"Norway"},"geometry":{"type":"Polygon","coordinates":[[[4.012621,63.327061],[8.644221,61.890838],[11.08066,61.540515],[15.771774,62.889968],[17.535446,63.800793],[16.433697,66.327262],[14.813659,67.351769],[8.130261,67.468428],[5.239259,67.015633],[3.699933,64.525608],[4.012621,63.327061]]]}},{"type":"Feature","properties":{"hex_id":"8108bffffffffff","population":9413392,"population_year":2025,"area_km2":447684.2,"population_density":21.0,"all_players":99,"players_per_million":10.52,"player_ids":["nhl:8474150","nhl:8474593","nhl:8475167","nhl:8475218","nhl:8475287","nhl:8475714","nhl:8476341","nhl:8476448","nhl:8476455","nhl:8476459","nhl:8476463","nhl:8476469","nhl:8476483","nhl:8476887","nhl:8476914","nhl:8476979","nhl:8477405","nhl:8477406","nhl:8477424","nhl:8477476","nhl:8477499","nhl:8477505","nhl:8477960","nhl:8477971","nhl:8477992","nhl:8477996","nhl:8478055","nhl:8478109","nhl:8478420","nhl:8478427","nhl:8478449","nhl:8478493","nhl:8478831","nhl:8479339","nhl:8479407","nhl:8479533","nhl:8480003","nhl:8480009","nhl:8480012","nhl:8480036","nhl:8480045","nhl:8480188","nhl:8480245","nhl:8480829","nhl:8480839","nhl:8480840","nhl:8480842","nhl:8480871","nhl:8480873","nhl:8480874","nhl:8480995","nhl:8481013","nhl:8481035","nhl:8481547","nhl:8481554","nhl:8481572","nhl:8481575","nhl:8481598","nhl:8481599","nhl:8481600","nhl:8481601","nhl:8481607","nhl:8481704","nhl:8481711","nhl:8481726","nhl:8481732","nhl:8482113","nhl:8482125","nhl:8482126","nhl:8482162","nhl:8482451","nhl:8482476","nhl:8482482","nhl:8482496","nhl:8482661","nhl:8482667","nhl:8482761","nhl:8482765","nhl:8482766","nhl:8482775","nhl:8482911","nhl:8483463","nhl:8483476","nhl:8483497","nhl:8483499","nhl:8483500","nhl:8483678","nhl:8483686","nhl:8483712","nhl:8484153","nhl:8484188","nhl:8484240","nhl:8484321","nhl:8484380","nhl:8484797","nhl:8484910","nhl:8485388","nhl:8485391","nhl:8486166"],"label":"Stockholm","country":"Sweden"},"geometry":{"type":"Polygon","coordinates":[[[11.08066,61.540515],[11.555978,58.130531],[18.275236,56.632953],[25.082722,58.401545],[24.517172,62.478113],[17.535446,63.800793],[15.771774,62.889968],[11.08066,61.540515]]]}},{"type":"Feature","properties":{"hex_id":"8108fffffffffff","population":1665418,"population_year":2025,"area_km2":447684.2,"population_density":3.7,"all_players":22,"players_per_million":13.21,"player_ids":["nhl:8475798","nhl:8476457","nhl:8476897","nhl:8477496","nhl:8477969","nhl:8478042","nhl:8478859","nhl:8479336","nhl:8479406","nhl:8480035","nhl:8480806","nhl:8480878","nhl:8481020","nhl:8482447","nhl:8482691","nhl:8482758","nhl:8483445","nhl:8483510","nhl:8483668","nhl:8484177","nhl:8484223","nhl:8484938"],"label":"Oulu","country":"Sweden"},"geometry":{"type":"Polygon","coordinates":[[[17.535446,63.800793],[24.517172,62.478113],[31.517537,64.873037],[31.83128,68.929958],[20.597244,70.052152],[14.813659,67.351769],[16.433697,66.327262],[17.535446,63.800793]]]}},{"type":"Feature","properties":{"hex_id":"8109bffffffffff","population":4354591,"population_year":2025,"area_km2":447684.2,"population_density":9.7,"all_players":3,"players_per_million":0.69,"player_ids":["nhl:8475692","nhl:8482929","nhl:8484794"],"label":"Oslo","country":"Norway"},"geometry":{"type":"Polygon","coordinates":[[[4.012621,63.327061],[-2.297526,61.54551],[-0.931587,57.689497],[5.523647,55.706768],[11.555978,58.130531],[11.08066,61.540515],[8.644221,61.890838],[4.012621,63.327061]]]}},{"type":"Feature","properties":{"hex_id":"810bbffffffffff","population":8932382,"population_year":2025,"area_km2":666617.1,"population_density":13.4,"all_players":9,"players_per_million":1.01,"player_ids":["nhl:8475200","nhl:8475683","nhl:8478009","nhl:8478864","nhl:8480193","nhl:8480830","nhl:8480893","nhl:8481721","nhl:8482947"],"label":"Novokuznetsk","country":"Russia"},"geometry":{"type":"Polygon","coordinates":[[[77.086922,58.009332],[80.202852,53.696279],[87.772964,52.654203],[93.387021,55.707268],[91.709638,60.139795],[82.82708,61.436708],[77.086922,58.009332]]]}},{"type":"Feature","properties":{"hex_id":"810c7ffffffffff","population":533626,"population_year":2025,"area_km2":510516.1,"population_density":1.0,"all_players":1,"players_per_million":1.87,"player_ids":["nhl:8480280"],"label":"Anchorage","country":"United States"},"geometry":{"type":"Polygon","coordinates":[[[-149.202517,63.948243],[-155.360739,60.701203],[-152.702606,57.141857],[-145.612516,56.566979],[-139.683593,59.169483],[-140.412111,62.920062],[-149.202517,63.948243]]]}},{"type":"Feature","properties":{"hex_id":"810d7ffffffffff","population":122421,"population_year":2025,"area_km2":565620.1,"population_density":0.2,"all_players":1,"players_per_million":8.17,"player_ids":["nhl:8477831"],"label":"North Pole","country":"United States"},"geometry":{"type":"Polygon","coordinates":[[[-142.919373,71.083959],[-152.088489,67.932376],[-149.202517,63.948243],[-140.412111,62.920062],[-136.546429,64.175123],[-132.520489,65.059255],[-131.708839,69.371341],[-142.919373,71.083959]]]}},{"type":"Feature","properties":{"hex_id":"810efffffffffff","population":62397,"population_year":2025,"area_km2":707475.0,"population_density":0.1,"all_players":1,"players_per_million":16.03,"player_ids":["nhl:8473512"],"label":"Hearst","country":"Canada"},"geometry":{"type":"Polygon","coordinates":[[[-84.540033,57.523646],[-90.651446,54.300916],[-88.654124,49.812423],[-81.919627,48.295316],[-76.057729,50.990211],[-76.558908,55.680396],[-84.540033,57.523646]]]}},{"type":"Feature","properties":{"hex_id":"81103ffffffffff","population":7260528,"population_year":2025,"area_km2":595741.2,"population_density":12.2,"all_players":9,"players_per_million":1.24,"player_ids":["nhl:8475765","nhl:8477402","nhl:8478500","nhl:8478882","nhl:8482949","nhl:8483467","nhl:8483703","nhl:8484386","nhl:8484388"],"label":"Yaroslavl","country":"Russia"},"geometry":{"type":"Polygon","coordinates":[[[37.661108,58.480663],[43.547482,55.820804],[51.151314,57.156372],[53.982547,61.440921],[47.556244,64.441746],[38.741468,62.771655],[37.661108,58.480663]]]}},{"type":"Feature","properties":{"hex_id":"8110bffffffffff","population":17682128,"population_year":2025,"area_km2":647632.6,"population_density":27.3,"all_players":6,"players_per_million":0.34,"player_ids":["nhl:8479410","nhl:8481611","nhl:8482515","nhl:8482768","nhl:8484234","nhl:8484994"],"label":"Kazan","country":"Russia"},"geometry":{"type":"Polygon","coordinates":[[[42.136829,51.409437],[47.038223,48.339942],[53.670494,49.372118],[56.286118,53.745323],[51.151314,57.156372],[43.547482,55.820804],[42.136829,51.409437]]]}},{"type":"Feature","properties":{"hex_id":"8110fffffffffff","population":15835980,"population_year":2025,"area_km2":666617.1,"population_density":23.8,"all_players":13,"players_per_million":0.82,"player_ids":["nhl:8474149","nhl:8476883","nhl:8477501","nhl:8478508","nhl:8478550","nhl:8481178","nhl:8481604","nhl:8482166","nhl:8482168","nhl:8483525","nhl:8483733","nhl:8484387","nhl:8485702"],"label":"Chelyabinsk","country":"Russia"},"geometry":{"type":"Polygon","coordinates":[[[51.151314,57.156372],[56.286118,53.745323],[64.158618,54.257565],[68.256323,58.319104],[63.444622,62.11439],[53.982547,61.440921],[51.151314,57.156372]]]}},{"type":"Feature","properties":{"hex_id":"81113ffffffffff","population":12600486,"population_year":2025,"area_km2":510516.1,"population_density":24.7,"all_players":12,"players_per_million":0.95,"player_ids":["nhl:8476874","nhl:8476882","nhl:8476902","nhl:8477953","nhl:8478024","nhl:8480001","nhl:8480185","nhl:8480947","nhl:8481641","nhl:8482873","nhl:8483465","nhl:8483471"],"label":"Helsinki","country":"Finland"},"geometry":{"type":"Polygon","coordinates":[[[25.082722,58.401545],[31.095814,56.470005],[37.661108,58.480663],[38.741468,62.771655],[31.517537,64.873037],[24.517172,62.478113],[25.082722,58.401545]]]}},{"type":"Feature","properties":{"hex_id":"81117ffffffffff","population":1086228,"population_year":2025,"area_km2":523941.7,"population_density":2.1,"all_players":1,"players_per_million":0.92,"player_ids":["nhl:8482165"],"label":"Murmansk","country":"Russia"},"geometry":{"type":"Polygon","coordinates":[[[31.517537,64.873037],[38.741468,62.771655],[47.556244,64.441746],[50.524201,68.529879],[46.472291,69.828553],[41.097497,70.96472],[31.83128,68.929958],[31.517537,64.873037]]]}},{"type":"Feature","properties":{"hex_id":"8111bffffffffff","population":41364282,"population_year":2025,"area_km2":565620.1,"population_density":73.1,"all_players":21,"players_per_million":0.51,"player_ids":["nhl:8471214","nhl:8475179","nhl:8476480","nhl:8477507","nhl:8477964","nhl:8478048","nhl:8480281","nhl:8480950","nhl:8481014","nhl:8481617","nhl:8482100","nhl:8482167","nhl:8482177","nhl:8482624","nhl:8482787","nhl:8483490","nhl:8483526","nhl:8483567","nhl:8483746","nhl:8484958","nhl:8484984"],"label":"Moscow","country":"Russia"},"geometry":{"type":"Polygon","coordinates":[[[30.654128,52.413789],[36.116724,49.779343],[42.136829,51.409437],[43.547482,55.820804],[37.661108,58.480663],[31.095814,56.470005],[31.017704,54.340219],[30.654128,52.413789]]]}},{"type":"Feature","properties":{"hex_id":"81123ffffffffff","population":259045,"population_year":2025,"area_km2":595741.2,"population_density":0.4,"all_players":1,"players_per_million":3.86,"player_ids":["nhl:8483039"],"label":"Fort St. John","country":"Canada"},"geometry":{"type":"Polygon","coordinates":[[[-125.340792,62.233521],[-126.852536,58.04535],[-121.442455,54.91665],[-114.22928,55.478388],[-110.956309,59.515942],[-116.446531,63.195772],[-125.340792,62.233521]]]}},{"type":"Feature","properties":{"hex_id":"81127ffffffffff","population":908704,"population_year":2025,"area_km2":647632.6,"population_density":1.4,"all_players":16,"players_per_million":17.61,"player_ids":["nhl:8474568","nhl:8475170","nhl:8475311","nhl:8476905","nhl:8478136","nhl:8478967","nhl:8478971","nhl:8479542","nhl:8480980","nhl:8482073","nhl:8482074","nhl:8482259","nhl:8483466","nhl:8484242","nhl:8484759","nhl:8484800"],"label":"Saskatoon","country":"Canada"},"geometry":{"type":"Polygon","coordinates":[[[-110.956309,59.515942],[-114.22928,55.478388],[-109.994611,51.754866],[-102.902298,51.556776],[-98.561848,55.218551],[-102.119965,59.471859],[-110.956309,59.515942]]]}},{"type":"Feature","properties":{"hex_id":"8112fffffffffff","population":5303773,"population_year":2025,"area_km2":565620.1,"population_density":9.4,"all_players":66,"players_per_million":12.44,"player_ids":["nhl:8474716","nhl:8475413","nhl:8475755","nhl:8475791","nhl:8475848","nhl:8476892","nhl:8476967","nhl:8476988","nhl:8477369","nhl:8477419","nhl:8477480","nhl:8477504","nhl:8477508","nhl:8477939","nhl:8477979","nhl:8478010","nhl:8478211","nhl:8478498","nhl:8478888","nhl:8479351","nhl:8479370","nhl:8479372","nhl:8479387","nhl:8479393","nhl:8479394","nhl:8479402","nhl:8479973","nhl:8480069","nhl:8480313","nhl:8480448","nhl:8480879","nhl:8481133","nhl:8481491","nhl:8481517","nhl:8481522","nhl:8481523","nhl:8481524","nhl:8481525","nhl:8481719","nhl:8482077","nhl:8482087","nhl:8482089","nhl:8482092","nhl:8482103","nhl:8482105","nhl:8482107","nhl:8482460","nhl:8482699","nhl:8482702","nhl:8482703","nhl:8482803","nhl:8482858","nhl:8482859","nhl:8482953","nhl:8483406","nhl:8483435","nhl:8483512","nhl:8483513","nhl:8483532","nhl:8483728","nhl:8484160","nhl:8484406","nhl:8484471","nhl:8485251","nhl:8485385","nhl:8486056"],"label":"Calgary","country":"Canada"},"geometry":{"type":"Polygon","coordinates":[[[-121.442455,54.91665],[-123.122866,50.984711],[-120.907545,49.395034],[-119.232215,47.804097],[-112.788004,48.011188],[-109.994611,51.754866],[-114.22928,55.478388],[-121.442455,54.91665]]]}},{"type":"Feature","properties":{"hex_id":"81137ffffffffff","population":23114,"population_year":2025,"area_km2":666617.1,"population_density":0.0,"all_players":1,"players_per_million":43.26,"player_ids":["nhl:8482187"],"label":"Yellowknife","country":"Canada"},"geometry":{"type":"Polygon","coordinates":[[[-112.535759,67.413217],[-116.446531,63.195772],[-110.956309,59.515942],[-102.119965,59.471859],[-96.445263,63.251731],[-100.82187,67.535924],[-112.535759,67.413217]]]}},{"type":"Feature","properties":{"hex_id":"8113bffffffffff","population":85150,"population_year":2025,"area_km2":523941.7,"population_density":0.2,"all_players":1,"players_per_million":11.74,"player_ids":["nhl:8481528"],"label":"Whitehorse","country":"Canada"},"geometry":{"type":"Polygon","coordinates":[[[-140.412111,62.920062],[-139.683593,59.169483],[-133.521093,56.759266],[-126.852536,58.04535],[-125.340792,62.233521],[-132.520489,65.059255],[-136.546429,64.175123],[-140.412111,62.920062]]]}},{"type":"Feature","properties":{"hex_id":"8114fffffffffff","population":1113587,"population_year":2025,"area_km2":565620.1,"population_density":2.0,"all_players":1,"players_per_million":0.9,"player_ids":["nhl:8482245"],"label":"Khabarovsk","country":"Russia"},"geometry":{"type":"Polygon","coordinates":[[[131.306406,51.820419],[134.763936,48.418018],[137.965723,48.304388],[140.81932,47.943535],[145.328516,51.128254],[142.769061,54.986762],[134.931079,55.37457],[131.306406,51.820419]]]}},{"type":"Feature","properties":{"hex_id":"81157ffffffffff","population":726333,"population_year":2025,"area_km2":666617.1,"population_density":1.1,"all_players":1,"players_per_million":1.38,"player_ids":["nhl:8483808"],"label":"Yakutsk","country":"Russia"},"geometry":{"type":"Polygon","coordinates":[[[115.450927,61.840988],[121.890193,58.63844],[130.59503,59.102261],[135.198558,62.994515],[129.384261,66.949156],[117.812925,66.203286],[115.450927,61.840988]]]}},{"type":"Feature","properties":{"hex_id":"81187ffffffffff","population":21776966,"population_year":2025,"area_km2":595741.2,"population_density":36.6,"all_players":1,"players_per_million":0.05,"player_ids":["nhl:8480870"],"label":"Rouen","country":"France"},"geometry":{"type":"Polygon","coordinates":[[[-4.88976,51.223728],[-9.724736,48.430094],[-8.101589,44.050631],[-2.417796,42.54048],[2.026569,45.184249],[1.18851,49.470279],[-4.88976,51.223728]]]}},{"type":"Feature","properties":{"hex_id":"81197ffffffffff","population":88036357,"population_year":2025,"area_km2":523941.7,"population_density":168.0,"all_players":1,"players_per_million":0.01,"player_ids":["nhl:8477573"],"label":"Cardiff","country":"United Kingdom"},"geometry":{"type":"Polygon","coordinates":[[[-0.931587,57.689497],[-6.436337,55.37739],[-4.88976,51.223728],[1.18851,49.470279],[3.630009,50.610463],[6.259687,51.96477],[5.523647,55.706768],[-0.931587,57.689497]]]}},{"type":"Feature","properties":{"hex_id":"811abffffffffff","population":351118,"population_year":2025,"area_km2":602082.0,"population_density":0.6,"all_players":3,"players_per_million":8.54,"player_ids":["nhl:8481618","nhl:8482110","nhl:8483450"],"label":"St. John's","country":"Canada"},"geometry":{"type":"Polygon","coordinates":[[[-51.288437,49.261646],[-57.837872,47.957631],[-59.172925,43.654244],[-54.879013,40.975558],[-49.467374,41.862322],[-47.213797,46.049312],[-48.463955,47.166397],[-51.288437,49.261646]]]}},{"type":"Feature","properties":{"hex_id":"811e3ffffffffff","population":71057199,"population_year":2025,"area_km2":595741.2,"population_density":119.3,"all_players":39,"players_per_million":0.55,"player_ids":["nhl:8471685","nhl:8475462","nhl:8475852","nhl:8476292","nhl:8476881","nhl:8476889","nhl:8477444","nhl:8477931","nhl:8477956","nhl:8477970","nhl:8478401","nhl:8478416","nhl:8478435","nhl:8478872","nhl:8479425","nhl:8479496","nhl:8480039","nhl:8480078","nhl:8480144","nhl:8480238","nhl:8480796","nhl:8480843","nhl:8481028","nhl:8481712","nhl:8482487","nhl:8482877","nhl:8483460","nhl:8483468","nhl:8483495","nhl:8483515","nhl:8483609","nhl:8483630","nhl:8483669","nhl:8483687","nhl:8483930","nhl:8484164","nhl:8484180","nhl:8484933","nhl:8485493"],"label":"Praha","country":"Czechia"},"geometry":{"type":"Polygon","coordinates":[[[12.345747,50.554275],[12.677318,46.406957],[18.31474,44.47068],[24.013384,46.595885],[24.329,50.776322],[18.289963,52.819052],[12.345747,50.554275]]]}},{"type":"Feature","properties":{"hex_id":"811f3ffffffffff","population":49754999,"population_year":2025,"area_km2":510516.1,"population_density":97.5,"all_players":22,"players_per_million":0.44,"player_ids":["nhl:8474189","nhl:8474578","nhl:8474679","nhl:8475149","nhl:8475171","nhl:8475883","nhl:8475906","nhl:8476854","nhl:8477320","nhl:8477416","nhl:8477940","nhl:8478397","nhl:8480007","nhl:8480043","nhl:8481024","nhl:8481544","nhl:8481725","nhl:8482078","nhl:8482762","nhl:8482821","nhl:8484168","nhl:8484230"],"label":"Gothenburg","country":"Sweden"},"geometry":{"type":"Polygon","coordinates":[[[5.523647,55.706768],[6.259687,51.96477],[12.345747,50.554275],[18.289963,52.819052],[18.275236,56.632953],[11.555978,58.130531],[5.523647,55.706768]]]}},{"type":"Feature","properties":{"hex_id":"811f7ffffffffff","population":25290714,"population_year":2025,"area_km2":523941.7,"population_density":48.3,"all_players":15,"players_per_million":0.59,"player_ids":["nhl:8476878","nhl:8476927","nhl:8478007","nhl:8479022","nhl:8481068","nhl:8481609","nhl:8481656","nhl:8481668","nhl:8482470","nhl:8482783","nhl:8483771","nhl:8484268","nhl:8484304","nhl:8484783","nhl:8484999"],"label":"Riga","country":"Belarus"},"geometry":{"type":"Polygon","coordinates":[[[18.275236,56.632953],[18.289963,52.819052],[24.329,50.776322],[30.654128,52.413789],[31.017704,54.340219],[31.095814,56.470005],[25.082722,58.401545],[18.275236,56.632953]]]}},{"type":"Feature","properties":{"hex_id":"811fbffffffffff","population":119418410,"population_year":2025,"area_km2":565620.1,"population_density":211.1,"all_players":25,"players_per_million":0.21,"player_ids":["nhl:8474600","nhl:8475799","nhl:8475831","nhl:8477934","nhl:8477942","nhl:8478399","nhl:8478414","nhl:8480002","nhl:8480074","nhl:8480459","nhl:8480798","nhl:8481033","nhl:8481477","nhl:8481542","nhl:8482076","nhl:8482079","nhl:8482116","nhl:8482117","nhl:8482175","nhl:8482655","nhl:8482745","nhl:8483425","nhl:8483464","nhl:8484220","nhl:8484509"],"label":"Zurich","country":"Switzerland"},"geometry":{"type":"Polygon","coordinates":[[[1.18851,49.470279],[2.026569,45.184249],[7.509948,43.786609],[12.677318,46.406957],[12.345747,50.554275],[6.259687,51.96477],[3.630009,50.610463],[1.18851,49.470279]]]}},{"type":"Feature","properties":{"hex_id":"8120bffffffffff","population":103642617,"population_year":2025,"area_km2":707475.0,"population_density":146.5,"all_players":1,"players_per_million":0.01,"player_ids":["nhl:8481560"],"label":"Tashkent","country":"Uzbekistan"},"geometry":{"type":"Polygon","coordinates":[[[65.030331,37.894404],[67.98289,33.902397],[73.592618,33.705753],[76.945351,37.477284],[74.436338,41.761837],[68.048608,41.985775],[65.030331,37.894404]]]}},{"type":"Feature","properties":{"hex_id":"81213ffffffffff","population":3926618,"population_year":2025,"area_km2":707475.0,"population_density":5.6,"all_players":1,"players_per_million":0.25,"player_ids":["nhl:8471215"],"label":"Magnitogorsk","country":"Russia"},"geometry":{"type":"Polygon","coordinates":[[[53.670494,49.372118],[57.92568,45.709642],[64.65954,46.076794],[68.13563,50.235864],[64.158618,54.257565],[56.286118,53.745323],[53.670494,49.372118]]]}},{"type":"Feature","properties":{"hex_id":"81217ffffffffff","population":6571788,"population_year":2025,"area_km2":707475.0,"population_density":9.3,"all_players":4,"players_per_million":0.61,"player_ids":["nhl:8481624","nhl:8482137","nhl:8482475","nhl:8484860"],"label":"Omsk","country":"Russia"},"geometry":{"type":"Polygon","coordinates":[[[64.158618,54.257565],[68.13563,50.235864],[75.550129,49.975877],[80.202852,53.696279],[77.086922,58.009332],[68.256323,58.319104],[64.158618,54.257565]]]}},{"type":"Feature","properties":{"hex_id":"81257ffffffffff","population":4712572,"population_year":2025,"area_km2":565620.1,"population_density":8.3,"all_players":1,"players_per_million":0.21,"player_ids":["nhl:8481716"],"label":"Angarsk","country":"Russia"},"geometry":{"type":"Polygon","coordinates":[[[100.363977,53.907861],[100.985874,49.434628],[106.499377,47.463169],[111.70886,49.606695],[111.933609,51.732178],[112.463708,53.643972],[106.403496,56.210611],[100.363977,53.907861]]]}},{"type":"Feature","properties":{"hex_id":"81263ffffffffff","population":10240947,"population_year":2025,"area_km2":614937.0,"population_density":16.7,"all_players":51,"players_per_million":4.98,"player_ids":["nhl:8474151","nhl:8475181","nhl:8475314","nhl:8475324","nhl:8475718","nhl:8475752","nhl:8475760","nhl:8476372","nhl:8476425","nhl:8476869","nhl:8477220","nhl:8477380","nhl:8477404","nhl:8478438","nhl:8478444","nhl:8478840","nhl:8479292","nhl:8479324","nhl:8479362","nhl:8479979","nhl:8479998","nhl:8479999","nhl:8480068","nhl:8480145","nhl:8480220","nhl:8480246","nhl:8480817","nhl:8481481","nhl:8481553","nhl:8481563","nhl:8481605","nhl:8482062","nhl:8482072","nhl:8482095","nhl:8482122","nhl:8482176","nhl:8482634","nhl:8482641","nhl:8482652","nhl:8482698","nhl:8482809","nhl:8483455","nhl:8483487","nhl:8483506","nhl:8483516","nhl:8483531","nhl:8483570","nhl:8483731","nhl:8483756","nhl:8484197","nhl:8484258"],"label":"Lakeville","country":"United States"},"geometry":{"type":"Polygon","coordinates":[[[-99.917049,47.471519],[-102.323756,45.197628],[-103.535954,44.08338],[-101.04033,40.088597],[-95.246862,39.326803],[-92.81941,41.451207],[-91.476262,42.44496],[-93.395849,46.63002],[-99.917049,47.471519]]]}},{"type":"Feature","properties":{"hex_id":"81267ffffffffff","population":25791718,"population_year":2025,"area_km2":602082.0,"population_density":42.8,"all_players":13,"players_per_million":0.5,"player_ids":["nhl:8476391","nhl:8476392","nhl:8476429","nhl:8477541","nhl:8479316","nhl:8479343","nhl:8479361","nhl:8479365","nhl:8479550","nhl:8482090","nhl:8482623","nhl:8484287","nhl:8484873"],"label":"St. Louis","country":"United States"},"geometry":{"type":"Polygon","coordinates":[[[-88.065886,34.059836],[-84.585167,37.099589],[-85.703199,41.161269],[-91.476262,42.44496],[-92.81941,41.451207],[-95.246862,39.326803],[-93.265212,35.090108],[-88.065886,34.059836]]]}},{"type":"Feature","properties":{"hex_id":"8126bffffffffff","population":8947665,"population_year":2025,"area_km2":647632.6,"population_density":13.8,"all_players":9,"players_per_million":1.01,"player_ids":["nhl:8476958","nhl:8478443","nhl:8478873","nhl:8479591","nhl:8481004","nhl:8481518","nhl:8482178","nhl:8483573","nhl:8484821"],"label":"Denver","country":"United States"},"geometry":{"type":"Polygon","coordinates":[[[-104.454816,36.494369],[-101.04033,40.088597],[-103.535954,44.08338],[-109.788387,44.413071],[-113.046271,40.72062],[-110.257485,36.800197],[-104.454816,36.494369]]]}},{"type":"Feature","properties":{"hex_id":"8126fffffffffff","population":17160726,"population_year":2025,"area_km2":666617.1,"population_density":25.7,"all_players":6,"players_per_million":0.35,"player_ids":["nhl:8476399","nhl:8476474","nhl:8477495","nhl:8478452","nhl:8482726","nhl:8482785"],"label":"Plano","country":"United States"},"geometry":{"type":"Polygon","coordinates":[[[-96.66289,31.619531],[-93.265212,35.090108],[-95.246862,39.326803],[-101.04033,40.088597],[-104.454816,36.494369],[-102.093235,32.268747],[-96.66289,31.619531]]]}},{"type":"Feature","properties":{"hex_id":"81273ffffffffff","population":1973811,"population_year":2025,"area_km2":666617.1,"population_density":3.0,"all_players":24,"players_per_million":12.16,"player_ids":["nhl:8471817","nhl:8473604","nhl:8475754","nhl:8475795","nhl:8475913","nhl:8476441","nhl:8476921","nhl:8477503","nhl:8477506","nhl:8477993","nhl:8478434","nhl:8479312","nhl:8479996","nhl:8480727","nhl:8480981","nhl:8481527","nhl:8481529","nhl:8482093","nhl:8482094","nhl:8482411","nhl:8482781","nhl:8482896","nhl:8483485","nhl:8483503"],"label":"Winnipeg","country":"Canada"},"geometry":{"type":"Polygon","coordinates":[[[-98.561848,55.218551],[-102.902298,51.556776],[-99.917049,47.471519],[-93.395849,46.63002],[-88.654124,49.812423],[-90.651446,54.300916],[-98.561848,55.218551]]]}},{"type":"Feature","properties":{"hex_id":"81277ffffffffff","population":23070026,"population_year":2025,"area_km2":647632.6,"population_density":35.6,"all_players":43,"players_per_million":1.86,"player_ids":["nhl:8473533","nhl:8475158","nhl:8475762","nhl:8475810","nhl:8475857","nhl:8476312","nhl:8476422","nhl:8476525","nhl:8476822","nhl:8476899","nhl:8476931","nhl:8476952","nhl:8476994","nhl:8477401","nhl:8477456","nhl:8477946","nhl:8477951","nhl:8477990","nhl:8478020","nhl:8478406","nhl:8478891","nhl:8479942","nhl:8480064","nhl:8480831","nhl:8480834","nhl:8481006","nhl:8481043","nhl:8481056","nhl:8481070","nhl:8481532","nhl:8481540","nhl:8481568","nhl:8482067","nhl:8482070","nhl:8482172","nhl:8482802","nhl:8483433","nhl:8483457","nhl:8483768","nhl:8484255","nhl:8484262","nhl:8484305","nhl:8485511"],"label":"Thunder Bay","country":"United States"},"geometry":{"type":"Polygon","coordinates":[[[-88.654124,49.812423],[-93.395849,46.63002],[-91.476262,42.44496],[-85.703199,41.161269],[-80.982253,43.86012],[-81.919627,48.295316],[-88.654124,49.812423]]]}},{"type":"Feature","properties":{"hex_id":"8127bffffffffff","population":1471275,"population_year":2025,"area_km2":602082.0,"population_density":2.4,"all_players":8,"players_per_million":5.44,"player_ids":["nhl:8474586","nhl:8475188","nhl:8476856","nhl:8476923","nhl:8477938","nhl:8479661","nhl:8479985","nhl:8481167"],"label":"Estevan","country":"Canada"},"geometry":{"type":"Polygon","coordinates":[[[-109.994611,51.754866],[-112.788004,48.011188],[-109.788387,44.413071],[-103.535954,44.08338],[-102.323756,45.197628],[-99.917049,47.471519],[-102.902298,51.556776],[-109.994611,51.754866]]]}},{"type":"Feature","properties":{"hex_id":"81283ffffffffff","population":15759816,"population_year":2025,"area_km2":595741.2,"population_density":26.5,"all_players":3,"players_per_million":0.19,"player_ids":["nhl:8479318","nhl:8481692","nhl:8482445"],"label":"Los Gatos","country":"United States"},"geometry":{"type":"Polygon","coordinates":[[[-121.707157,36.574218],[-119.002282,40.570572],[-122.134831,44.057691],[-127.958662,43.419208],[-130.222638,39.442424],[-127.138101,36.079796],[-121.707157,36.574218]]]}},{"type":"Feature","properties":{"hex_id":"8128bffffffffff","population":4004885,"population_year":2025,"area_km2":595741.2,"population_density":6.7,"all_players":1,"players_per_million":0.25,"player_ids":["nhl:8479977"],"label":"Spokane","country":"United States"},"geometry":{"type":"Polygon","coordinates":[[[-113.046271,40.72062],[-109.788387,44.413071],[-112.788004,48.011188],[-119.232215,47.804097],[-122.134831,44.057691],[-119.002282,40.570572],[-113.046271,40.72062]]]}},{"type":"Feature","properties":{"hex_id":"8128fffffffffff","population":14259378,"population_year":2025,"area_km2":523941.7,"population_density":27.2,"all_players":43,"players_per_million":3.02,"player_ids":["nhl:8473994","nhl:8475169","nhl:8475455","nhl:8476316","nhl:8476454","nhl:8476853","nhl:8476925","nhl:8477021","nhl:8477447","nhl:8477465","nhl:8477933","nhl:8478038","nhl:8478046","nhl:8478062","nhl:8478445","nhl:8478450","nhl:8478454","nhl:8478499","nhl:8479359","nhl:8479371","nhl:8479383","nhl:8479395","nhl:8479442","nhl:8479639","nhl:8479992","nhl:8480860","nhl:8481065","nhl:8481161","nhl:8482088","nhl:8482193","nhl:8482201","nhl:8482660","nhl:8482861","nhl:8483114","nhl:8483395","nhl:8483489","nhl:8483709","nhl:8484144","nhl:8484145","nhl:8484152","nhl:8484241","nhl:8484801","nhl:8485414"],"label":"Vancouver","country":"Canada"},"geometry":{"type":"Polygon","coordinates":[[[-122.134831,44.057691],[-119.232215,47.804097],[-120.907545,49.395034],[-123.122866,50.984711],[-128.909854,50.154512],[-131.290159,46.416948],[-127.958662,43.419208],[-122.134831,44.057691]]]}},{"type":"Feature","properties":{"hex_id":"8129bffffffffff","population":31485482,"population_year":2025,"area_km2":666617.1,"population_density":47.2,"all_players":9,"players_per_million":0.29,"player_ids":["nhl:8475722","nhl:8479675","nhl:8480027","nhl:8481030","nhl:8481546","nhl:8481564","nhl:8481582","nhl:8482153","nhl:8482804"],"label":"Newport Beach","country":"United States"},"geometry":{"type":"Polygon","coordinates":[[[-113.268008,32.856905],[-110.257485,36.800197],[-113.046271,40.72062],[-119.002282,40.570572],[-121.707157,36.574218],[-118.804528,32.779438],[-113.268008,32.856905]]]}},{"type":"Feature","properties":{"hex_id":"812a3ffffffffff","population":39671228,"population_year":2025,"area_km2":595741.2,"population_density":66.6,"all_players":69,"players_per_million":1.74,"player_ids":["nhl:8471734","nhl:8474037","nhl:8474590","nhl:8475151","nhl:8475184","nhl:8475208","nhl:8475763","nhl:8476278","nhl:8476473","nhl:8476891","nhl:8476932","nhl:8477365","nhl:8477454","nhl:8477463","nhl:8477488","nhl:8477839","nhl:8477845","nhl:8477947","nhl:8477950","nhl:8477987","nhl:8478366","nhl:8478396","nhl:8478569","nhl:8478854","nhl:8478856","nhl:8478874","nhl:8478916","nhl:8479193","nhl:8479291","nhl:8479323","nhl:8479325","nhl:8479525","nhl:8479944","nhl:8480113","nhl:8480762","nhl:8480807","nhl:8480828","nhl:8480835","nhl:8480887","nhl:8481077","nhl:8481237","nhl:8481519","nhl:8481533","nhl:8481557","nhl:8481562","nhl:8481567","nhl:8481569","nhl:8481593","nhl:8481596","nhl:8481754","nhl:8482055","nhl:8482118","nhl:8482123","nhl:8482132","nhl:8482155","nhl:8482665","nhl:8482666","nhl:8482679","nhl:8482684","nhl:8482713","nhl:8482715","nhl:8482941","nhl:8483548","nhl:8483553","nhl:8484169","nhl:8484186","nhl:8484227","nhl:8484911","nhl:8485395"],"label":"Boston","country":"United States"},"geometry":{"type":"Polygon","coordinates":[[[-69.955068,44.277849],[-75.333452,42.029564],[-75.063317,37.849069],[-70.311412,35.933887],[-65.448142,37.822091],[-64.835193,41.948534],[-69.955068,44.277849]]]}},{"type":"Feature","properties":{"hex_id":"812abffffffffff","population":54889027,"population_year":2025,"area_km2":595741.2,"population_density":92.1,"all_players":102,"players_per_million":1.86,"player_ids":["nhl:8473422","nhl:8473507","nhl:8474013","nhl:8474141","nhl:8474563","nhl:8474641","nhl:8475172","nhl:8475220","nhl:8475279","nhl:8475764","nhl:8476331","nhl:8476374","nhl:8476389","nhl:8476432","nhl:8476434","nhl:8476438","nhl:8476460","nhl:8476468","nhl:8476871","nhl:8476872","nhl:8476873","nhl:8476885","nhl:8476907","nhl:8476981","nhl:8477425","nhl:8477429","nhl:8477446","nhl:8477484","nhl:8477498","nhl:8477500","nhl:8477851","nhl:8477932","nhl:8477955","nhl:8477968","nhl:8477986","nhl:8478043","nhl:8478057","nhl:8478173","nhl:8478424","nhl:8478439","nhl:8478458","nhl:8478460","nhl:8478502","nhl:8478841","nhl:8478904","nhl:8478911","nhl:8478970","nhl:8479337","nhl:8479368","nhl:8479378","nhl:8479414","nhl:8479644","nhl:8479980","nhl:8479982","nhl:8480018","nhl:8480021","nhl:8480022","nhl:8480051","nhl:8480084","nhl:8480192","nhl:8480196","nhl:8480208","nhl:8480259","nhl:8480748","nhl:8480803","nhl:8480825","nhl:8480876","nhl:8481032","nhl:8481556","nhl:8481655","nhl:8481715","nhl:8482408","nhl:8482479","nhl:8482516","nhl:8482663","nhl:8482705","nhl:8482733","nhl:8482807","nhl:8482964","nhl:8482982","nhl:8482993","nhl:8483431","nhl:8483448","nhl:8483452","nhl:8483493","nhl:8483524","nhl:8483690","nhl:8483752","nhl:8483760","nhl:8483766","nhl:8483890","nhl:8484136","nhl:8484158","nhl:8484185","nhl:8484214","nhl:8484221","nhl:8484403","nhl:8484779","nhl:8485366","nhl:8485402","nhl:8485405","nhl:8485512"],"label":"London","country":"Canada"},"geometry":{"type":"Polygon","coordinates":[[[-80.982253,43.86012],[-85.703199,41.161269],[-84.585167,37.099589],[-79.557618,35.583567],[-75.063317,37.849069],[-75.333452,42.029564],[-80.982253,43.86012]]]}},{"type":"Feature","properties":{"hex_id":"812afffffffffff","population":6566236,"population_year":2025,"area_km2":523941.7,"population_density":12.5,"all_players":1,"players_per_million":0.15,"player_ids":["nhl:8480291"],"label":"Raleigh","country":"United States"},"geometry":{"type":"Polygon","coordinates":[[[-75.063317,37.849069],[-79.557618,35.583567],[-79.270109,33.659462],[-78.735928,31.57726],[-74.640468,30.219492],[-70.449419,32.12169],[-70.311412,35.933887],[-75.063317,37.849069]]]}},{"type":"Feature","properties":{"hex_id":"812b3ffffffffff","population":2964922,"population_year":2025,"area_km2":647632.6,"population_density":4.6,"all_players":19,"players_per_million":6.41,"player_ids":["nhl:8471675","nhl:8473419","nhl:8473986","nhl:8474596","nhl:8475717","nhl:8477070","nhl:8477435","nhl:8477492","nhl:8477527","nhl:8479026","nhl:8479705","nhl:8479772","nhl:8480289","nhl:8480426","nhl:8480865","nhl:8481551","nhl:8482111","nhl:8482874","nhl:8484901"],"label":"Halifax","country":"Canada"},"geometry":{"type":"Polygon","coordinates":[[[-63.200774,50.770503],[-69.719479,48.757432],[-69.955068,44.277849],[-64.835193,41.948534],[-59.172925,43.654244],[-57.837872,47.957631],[-63.200774,50.770503]]]}},{"type":"Feature","properties":{"hex_id":"812bbffffffffff","population":23927662,"population_year":2025,"area_km2":666617.1,"population_density":35.9,"all_players":161,"players_per_million":6.73,"player_ids":["nhl:8470613","nhl:8470621","nhl:8471724","nhl:8474090","nhl:8474102","nhl:8474564","nhl:8474567","nhl:8475166","nhl:8475191","nhl:8475231","nhl:8475253","nhl:8475690","nhl:8475784","nhl:8475786","nhl:8475790","nhl:8475794","nhl:8475809","nhl:8475842","nhl:8476393","nhl:8476412","nhl:8476419","nhl:8476456","nhl:8476458","nhl:8476462","nhl:8476467","nhl:8476479","nhl:8476624","nhl:8476826","nhl:8476867","nhl:8476875","nhl:8476879","nhl:8476880","nhl:8476917","nhl:8477015","nhl:8477018","nhl:8477073","nhl:8477149","nhl:8477346","nhl:8477407","nhl:8477409","nhl:8477426","nhl:8477450","nhl:8477479","nhl:8477497","nhl:8477511","nhl:8477810","nhl:8477919","nhl:8477949","nhl:8477952","nhl:8477998","nhl:8478013","nhl:8478104","nhl:8478133","nhl:8478147","nhl:8478178","nhl:8478233","nhl:8478402","nhl:8478407","nhl:8478409","nhl:8478413","nhl:8478421","nhl:8478440","nhl:8478462","nhl:8478463","nhl:8478468","nhl:8478469","nhl:8478470","nhl:8478472","nhl:8478476","nhl:8478483","nhl:8478519","nhl:8478542","nhl:8478851","nhl:8478975","nhl:8479066","nhl:8479293","nhl:8479385","nhl:8479388","nhl:8479390","nhl:8479398","nhl:8479543","nhl:8479576","nhl:8479619","nhl:8479638","nhl:8479718","nhl:8479941","nhl:8479981","nhl:8479983","nhl:8480014","nhl:8480015","nhl:8480023","nhl:8480028","nhl:8480058","nhl:8480075","nhl:8480336","nhl:8480434","nhl:8480797","nhl:8480802","nhl:8480813","nhl:8480848","nhl:8480849","nhl:8480855","nhl:8480990","nhl:8481093","nhl:8481122","nhl:8481219","nhl:8481534","nhl:8481577","nhl:8481580","nhl:8481581","nhl:8481591","nhl:8481592","nhl:8481594","nhl:8481789","nhl:8481806","nhl:8481848","nhl:8482097","nhl:8482124","nhl:8482131","nhl:8482142","nhl:8482145","nhl:8482146","nhl:8482148","nhl:8482149","nhl:8482157","nhl:8482159","nhl:8482174","nhl:8482192","nhl:8482206","nhl:8482209","nhl:8482525","nhl:8482671","nhl:8482673","nhl:8482730","nhl:8482731","nhl:8482737","nhl:8482740","nhl:8482742","nhl:8482747","nhl:8482751","nhl:8483424","nhl:8483444","nhl:8483472","nhl:8483482","nhl:8483505","nhl:8483546","nhl:8483676","nhl:8483696","nhl:8483699","nhl:8483841","nhl:8484142","nhl:8484148","nhl:8484210","nhl:8484428","nhl:8484529","nhl:8484762","nhl:8484768","nhl:8484793","nhl:8484806","nhl:8485406","nhl:8485467"],"label":"Toronto","country":"Canada"},"geometry":{"type":"Polygon","coordinates":[[[-76.057729,50.990211],[-81.919627,48.295316],[-80.982253,43.86012],[-75.333452,42.029564],[-69.955068,44.277849],[-69.719479,48.757432],[-76.057729,50.990211]]]}},{"type":"Feature","properties":{"hex_id":"812d7ffffffffff","population":24372623,"population_year":2025,"area_km2":602082.0,"population_density":40.5,"all_players":1,"players_per_million":0.04,"player_ids":["nhl:8476453"],"label":"Maykop","country":"Russia"},"geometry":{"type":"Polygon","coordinates":[[[35.197789,45.672385],[39.938746,42.736298],[41.788831,43.124283],[45.504839,43.945519],[47.038223,48.339942],[42.136829,51.409437],[36.116724,49.779343],[35.197789,45.672385]]]}},{"type":"Feature","properties":{"hex_id":"81317ffffffffff","population":34330554,"population_year":2025,"area_km2":447684.2,"population_density":76.7,"all_players":1,"players_per_million":0.03,"player_ids":["nhl:8483491"],"label":"Ussuriysk","country":"Russia"},"geometry":{"type":"Polygon","coordinates":[[[133.570126,41.410447],[131.774401,45.253613],[125.981142,45.096434],[123.984121,41.999374],[125.085829,41.118552],[126.346943,38.738746],[130.657533,38.194564],[133.570126,41.410447]]]}},{"type":"Feature","properties":{"hex_id":"81443ffffffffff","population":10265740,"population_year":2025,"area_km2":595741.2,"population_density":17.2,"all_players":2,"players_per_million":0.19,"player_ids":["nhl:8477903","nhl:8484149"],"label":"Fort Myers","country":"United States"},"geometry":{"type":"Polygon","coordinates":[[[-83.891248,21.244199],[-80.82969,24.429618],[-81.966494,28.631807],[-86.545778,29.759287],[-89.807712,26.426478],[-88.2959,22.120731],[-83.891248,21.244199]]]}},{"type":"Feature","properties":{"hex_id":"81447ffffffffff","population":18780862,"population_year":2025,"area_km2":647632.6,"population_density":29.0,"all_players":4,"players_per_million":0.21,"player_ids":["nhl:8474574","nhl:8479671","nhl:8481186","nhl:8482511"],"label":"Baton Rouge","country":"United States"},"geometry":{"type":"Polygon","coordinates":[[[-89.807712,26.426478],[-86.545778,29.759287],[-88.065886,34.059836],[-93.265212,35.090108],[-96.66289,31.619531],[-94.743568,27.264006],[-89.807712,26.426478]]]}},{"type":"Feature","properties":{"hex_id":"8144bffffffffff","population":13618822,"population_year":2025,"area_km2":510516.1,"population_density":26.7,"all_players":9,"players_per_million":0.66,"player_ids":["nhl:8476906","nhl:8477034","nhl:8479345","nhl:8479369","nhl:8479520","nhl:8480800","nhl:8481559","nhl:8483429","nhl:8484170"],"label":"Orlando","country":"United States"},"geometry":{"type":"Polygon","coordinates":[[[-76.831217,23.342863],[-73.868279,26.190449],[-74.640468,30.219492],[-78.735928,31.57726],[-81.966494,28.631807],[-80.82969,24.429618],[-76.831217,23.342863]]]}},{"type":"Feature","properties":{"hex_id":"8144fffffffffff","population":31558550,"population_year":2025,"area_km2":565620.1,"population_density":55.8,"all_players":3,"players_per_million":0.1,"player_ids":["nhl:8475343","nhl:8477451","nhl:8480891"],"label":"Florence","country":"United States"},"geometry":{"type":"Polygon","coordinates":[[[-81.966494,28.631807],[-78.735928,31.57726],[-79.270109,33.659462],[-79.557618,35.583567],[-84.585167,37.099589],[-88.065886,34.059836],[-86.545778,29.759287],[-81.966494,28.631807]]]}},{"type":"Feature","properties":{"hex_id":"81487ffffffffff","population":7407980,"population_year":2025,"area_km2":707475.0,"population_density":10.5,"all_players":2,"players_per_million":0.27,"player_ids":["nhl:8477967","nhl:8484798"],"label":"San Diego","country":"United States"},"geometry":{"type":"Polygon","coordinates":[[[-113.460448,24.671634],[-110.662618,28.72381],[-113.268008,32.856905],[-118.804528,32.779438],[-121.336628,28.653019],[-118.632643,24.676155],[-113.460448,24.671634]]]}},{"type":"Feature","properties":{"hex_id":"8148fffffffffff","population":14949273,"population_year":2025,"area_km2":707475.0,"population_density":21.1,"all_players":8,"players_per_million":0.54,"player_ids":["nhl:8476461","nhl:8479314","nhl:8479420","nhl:8480355","nhl:8480801","nhl:8482659","nhl:8482720","nhl:8486169"],"label":"Phoenix","country":"United States"},"geometry":{"type":"Polygon","coordinates":[[[-105.250678,28.43866],[-102.093235,32.268747],[-104.454816,36.494369],[-110.257485,36.800197],[-113.268008,32.856905],[-110.662618,28.72381],[-105.250678,28.43866]]]}},{"type":"Feature","properties":{"hex_id":"81bcfffffffffff","population":54771011,"population_year":2025,"area_km2":666617.1,"population_density":82.2,"all_players":1,"players_per_million":0.02,"player_ids":["nhl:8484839"],"label":"Johannesburg","country":"South Africa"},"geometry":{"type":"Polygon","coordinates":[[[32.620327,-29.624454],[32.812319,-25.145186],[28.491882,-22.684204],[23.910011,-24.696711],[23.533518,-29.166646],[27.918941,-31.644147],[32.620327,-29.624454]]]}},{"type":"Feature","properties":{"hex_id":"81be3ffffffffff","population":7422285,"population_year":2025,"area_km2":729486.9,"population_density":10.2,"all_players":1,"players_per_million":0.13,"player_ids":["nhl:8481606"],"label":"Manly","country":"Australia"},"geometry":{"type":"Polygon","coordinates":[[[159.810679,-35.59178],[158.196039,-31.026208],[152.877292,-29.753699],[148.729494,-32.935272],[149.839959,-37.608844],[155.640338,-39.007712],[159.810679,-35.59178]]]}}]}