{"type":"FeatureCollection","metadata":{"population_source":"WorldPop Global 2 R2025A","population_source_url":"https://hub.worldpop.org/project/categories?id=3","population_license":"CC BY 4.0","population_year":2025,"raster_resolution":"1km","h3_resolution":2,"population_method":"official_country_rasters","occupied_cells":134,"mapped_players":994},"features":[{"type":"Feature","properties":{"hex_id":"820817fffffffff","population":476534,"population_year":2025,"area_km2":56786.6,"population_density":8.4,"all_players":2,"players_per_million":4.2,"player_ids":["nhl:8479421","nhl:8484392"],"label":"Trondheim","country":"Norway"},"geometry":{"type":"Polygon","coordinates":[[[9.693861,63.519707],[8.89917,62.303935],[11.08066,61.540515],[14.102102,61.963541],[15.046207,63.166721],[12.823919,63.960727],[9.693861,63.519707]]]}},{"type":"Feature","properties":{"hex_id":"820887fffffffff","population":3462230,"population_year":2025,"area_km2":63447.1,"population_density":54.6,"all_players":40,"players_per_million":11.55,"player_ids":["nhl:8474150","nhl:8474593","nhl:8475714","nhl:8476448","nhl:8476455","nhl:8476459","nhl:8476483","nhl:8476887","nhl:8477406","nhl:8477505","nhl:8477971","nhl:8477992","nhl:8478831","nhl:8479407","nhl:8480873","nhl:8480995","nhl:8481013","nhl:8481547","nhl:8481599","nhl:8481600","nhl:8482125","nhl:8482482","nhl:8482496","nhl:8482661","nhl:8482667","nhl:8482761","nhl:8482765","nhl:8483476","nhl:8483499","nhl:8483500","nhl:8483678","nhl:8483686","nhl:8483712","nhl:8484188","nhl:8484240","nhl:8484380","nhl:8484910","nhl:8485388","nhl:8485391","nhl:8486166"],"label":"Stockholm","country":"Sweden"},"geometry":{"type":"Polygon","coordinates":[[[16.213285,61.104087],[15.277419,59.851205],[17.2862,58.926343],[20.235913,59.22587],[21.289182,60.46251],[19.280999,61.41675],[16.213285,61.104087]]]}},{"type":"Feature","properties":{"hex_id":"82088ffffffffff","population":1060279,"population_year":2025,"area_km2":63447.1,"population_density":16.7,"all_players":13,"players_per_million":12.26,"player_ids":["nhl:8475287","nhl:8476469","nhl:8476914","nhl:8477996","nhl:8478427","nhl:8478449","nhl:8479339","nhl:8479533","nhl:8480829","nhl:8481572","nhl:8481575","nhl:8482162","nhl:8484797"],"label":"Pori","country":"Finland"},"geometry":{"type":"Polygon","coordinates":[[[19.280999,61.41675],[21.289182,60.46251],[23.838471,60.96689],[24.517172,62.478113],[22.407229,63.469342],[19.718783,62.910504],[19.280999,61.41675]]]}},{"type":"Feature","properties":{"hex_id":"820897fffffffff","population":132553,"population_year":2025,"area_km2":68186.6,"population_density":1.9,"all_players":2,"players_per_million":15.09,"player_ids":["nhl:8476979","nhl:8482126"],"label":"Nynashamn","country":"Sweden"},"geometry":{"type":"Polygon","coordinates":[[[17.2862,58.926343],[16.36093,57.622703],[18.275236,56.632953],[21.114076,56.920734],[22.144282,58.209221],[20.235913,59.22587],[17.2862,58.926343]]]}},{"type":"Feature","properties":{"hex_id":"82089ffffffffff","population":2635076,"population_year":2025,"area_km2":65980.3,"population_density":39.9,"all_players":18,"players_per_million":6.83,"player_ids":["nhl:8476882","nhl:8476902","nhl:8477424","nhl:8477476","nhl:8477499","nhl:8478024","nhl:8478420","nhl:8480009","nhl:8480036","nhl:8480045","nhl:8480947","nhl:8481554","nhl:8481641","nhl:8481711","nhl:8482113","nhl:8482451","nhl:8483463","nhl:8484321"],"label":"Espoo","country":"Finland"},"geometry":{"type":"Polygon","coordinates":[[[20.235913,59.22587],[22.144282,58.209221],[25.082722,58.401545],[25.77412,59.916287],[23.838471,60.96689],[21.289182,60.46251],[20.235913,59.22587]]]}},{"type":"Feature","properties":{"hex_id":"8208a7fffffffff","population":799956,"population_year":2025,"area_km2":61279.2,"population_density":13.1,"all_players":5,"players_per_million":6.25,"player_ids":["nhl:8475218","nhl:8480003","nhl:8480871","nhl:8481035","nhl:8482476"],"label":"Falun","country":"Sweden"},"geometry":{"type":"Polygon","coordinates":[[[11.08066,61.540515],[10.279089,60.275949],[12.360313,59.444957],[15.277419,59.851205],[16.213285,61.104087],[14.102102,61.963541],[11.08066,61.540515]]]}},{"type":"Feature","properties":{"hex_id":"8208affffffffff","population":377824,"population_year":2025,"area_km2":59429.4,"population_density":6.4,"all_players":8,"players_per_million":21.17,"player_ids":["nhl:8475167","nhl:8476341","nhl:8477960","nhl:8478109","nhl:8480012","nhl:8480842","nhl:8482766","nhl:8482775"],"label":"Ornskoldsvik","country":"Sweden"},"geometry":{"type":"Polygon","coordinates":[[[14.102102,61.963541],[16.213285,61.104087],[19.280999,61.41675],[19.718783,62.910504],[17.535446,63.800793],[15.046207,63.166721],[14.102102,61.963541]]]}},{"type":"Feature","properties":{"hex_id":"8208b7fffffffff","population":2250279,"population_year":2025,"area_km2":65961.6,"population_density":34.1,"all_players":16,"players_per_million":7.11,"player_ids":["nhl:8476463","nhl:8477405","nhl:8478055","nhl:8478493","nhl:8480188","nhl:8480839","nhl:8480840","nhl:8480874","nhl:8481598","nhl:8481601","nhl:8481607","nhl:8481726","nhl:8481732","nhl:8482911","nhl:8484153","nhl:8484230"],"label":"Karlstad","country":"Sweden"},"geometry":{"type":"Polygon","coordinates":[[[12.360313,59.444957],[11.555978,58.130531],[13.543636,57.232114],[16.36093,57.622703],[17.2862,58.926343],[15.277419,59.851205],[12.360313,59.444957]]]}},{"type":"Feature","properties":{"hex_id":"8208c7fffffffff","population":288188,"population_year":2025,"area_km2":63447.1,"population_density":4.5,"all_players":2,"players_per_million":6.94,"player_ids":["nhl:8476897","nhl:8477496"],"label":"Boden","country":"Sweden"},"geometry":{"type":"Polygon","coordinates":[[[20.745683,65.897363],[23.060012,64.971629],[26.107236,65.493326],[27.046021,66.991393],[24.610963,67.960676],[21.353092,67.385691],[20.745683,65.897363]]]}},{"type":"Feature","properties":{"hex_id":"8208d7fffffffff","population":665473,"population_year":2025,"area_km2":65961.6,"population_density":10.1,"all_players":10,"players_per_million":15.03,"player_ids":["nhl:8475798","nhl:8478859","nhl:8480035","nhl:8481020","nhl:8482447","nhl:8482691","nhl:8482758","nhl:8483668","nhl:8484177","nhl:8484938"],"label":"Oulu","country":"Finland"},"geometry":{"type":"Polygon","coordinates":[[[22.407229,63.469342],[24.517172,62.478113],[27.374489,62.947785],[28.306772,64.458481],[26.107236,65.493326],[23.060012,64.971629],[22.407229,63.469342]]]}},{"type":"Feature","properties":{"hex_id":"8208e7fffffffff","population":48238,"population_year":2025,"area_km2":59429.4,"population_density":0.8,"all_players":2,"players_per_million":41.46,"player_ids":["nhl:8480806","nhl:8484223"],"label":"Gallivare","country":"Sweden"},"geometry":{"type":"Polygon","coordinates":[[[15.52329,66.103485],[17.90901,65.283241],[20.745683,65.897363],[21.353092,67.385691],[17.780068,68.047781],[14.813659,67.351769],[15.52329,66.103485]]]}},{"type":"Feature","properties":{"hex_id":"8208f7fffffffff","population":323529,"population_year":2025,"area_km2":61279.2,"population_density":5.3,"all_players":8,"players_per_million":24.73,"player_ids":["nhl:8476457","nhl:8477969","nhl:8478042","nhl:8479336","nhl:8479406","nhl:8480878","nhl:8483445","nhl:8483510"],"label":"Skelleftea","country":"Sweden"},"geometry":{"type":"Polygon","coordinates":[[[17.535446,63.800793],[19.718783,62.910504],[22.407229,63.469342],[23.060012,64.971629],[20.745683,65.897363],[17.90901,65.283241],[17.535446,63.800793]]]}},{"type":"Feature","properties":{"hex_id":"82099ffffffffff","population":2587703,"population_year":2025,"area_km2":63447.1,"population_density":40.8,"all_players":3,"players_per_million":1.16,"player_ids":["nhl:8475692","nhl:8482929","nhl:8484794"],"label":"Oslo","country":"Norway"},"geometry":{"type":"Polygon","coordinates":[[[7.438464,59.76718],[6.766113,58.447096],[8.799628,57.640256],[11.555978,58.130531],[12.360313,59.444957],[10.279089,60.275949],[7.438464,59.76718]]]}},{"type":"Feature","properties":{"hex_id":"820b97fffffffff","population":2307395,"population_year":2025,"area_km2":96323.1,"population_density":24.0,"all_players":5,"players_per_million":2.17,"player_ids":["nhl:8475200","nhl:8475683","nhl:8478009","nhl:8478864","nhl:8480193"],"label":"Novokuznetsk","country":"Russia"},"geometry":{"type":"Polygon","coordinates":[[[85.45179,55.383011],[85.343121,53.637138],[87.772964,52.654203],[90.356682,53.365663],[90.656161,55.086997],[88.185607,56.123457],[85.45179,55.383011]]]}},{"type":"Feature","properties":{"hex_id":"820b9ffffffffff","population":1776390,"population_year":2025,"area_km2":92775.6,"population_density":19.1,"all_players":1,"players_per_million":0.56,"player_ids":["nhl:8481721"],"label":"Krasnoyarsk","country":"Russia"},"geometry":{"type":"Polygon","coordinates":[[[88.417425,57.832602],[88.185607,56.123457],[90.656161,55.086997],[93.387021,55.707268],[93.821625,57.385984],[91.329458,58.476866],[88.417425,57.832602]]]}},{"type":"Feature","properties":{"hex_id":"820bb7fffffffff","population":3589729,"population_year":2025,"area_km2":98815.5,"population_density":36.3,"all_players":3,"players_per_million":0.84,"player_ids":["nhl:8480830","nhl:8480893","nhl:8482947"],"label":"Barnaul","country":"Russia"},"geometry":{"type":"Polygon","coordinates":[[[80.108857,55.454754],[80.202852,53.696279],[82.780147,52.811986],[85.343121,53.637138],[85.45179,55.383011],[82.796651,56.318697],[80.108857,55.454754]]]}},{"type":"Feature","properties":{"hex_id":"820c77fffffffff","population":442048,"population_year":2025,"area_km2":77902.3,"population_density":5.7,"all_players":1,"players_per_million":2.26,"player_ids":["nhl:8480280"],"label":"Anchorage","country":"United States"},"geometry":{"type":"Polygon","coordinates":[[[-149.202517,63.948243],[-152.41831,63.127542],[-152.502076,61.583335],[-149.734494,60.884637],[-146.754537,61.634869],[-146.313176,63.149544],[-149.202517,63.948243]]]}},{"type":"Feature","properties":{"hex_id":"820d5ffffffffff","population":109047,"population_year":2025,"area_km2":79647.5,"population_density":1.4,"all_players":1,"players_per_million":9.17,"player_ids":["nhl:8477831"],"label":"North Pole","country":"United States"},"geometry":{"type":"Polygon","coordinates":[[[-145.242986,66.257958],[-148.881174,65.522659],[-149.202517,63.948243],[-146.313176,63.149544],[-142.996221,63.820432],[-142.262221,65.349437],[-145.242986,66.257958]]]}},{"type":"Feature","properties":{"hex_id":"820ecffffffffff","population":81173,"population_year":2025,"area_km2":99241.3,"population_density":0.8,"all_players":1,"players_per_million":12.32,"player_ids":["nhl:8473512"],"label":"Hearst","country":"Canada"},"geometry":{"type":"Polygon","coordinates":[[[-80.861523,51.713011],[-83.54839,51.1332],[-83.981312,49.41325],[-81.919627,48.295316],[-79.388156,48.827345],[-78.768436,50.522629],[-80.861523,51.713011]]]}},{"type":"Feature","properties":{"hex_id":"821037fffffffff","population":2147857,"population_year":2025,"area_km2":82705.0,"population_density":26.0,"all_players":8,"players_per_million":3.72,"player_ids":["nhl:8475765","nhl:8478500","nhl:8478882","nhl:8482949","nhl:8483467","nhl:8483703","nhl:8484386","nhl:8484388"],"label":"Yaroslavl","country":"Russia"},"geometry":{"type":"Polygon","coordinates":[[[37.661108,58.480663],[39.236041,57.141268],[42.124277,57.248783],[43.646892,58.725519],[42.11654,60.119668],[39.007636,59.981273],[37.661108,58.480663]]]}},{"type":"Feature","properties":{"hex_id":"821087fffffffff","population":3828605,"population_year":2025,"area_km2":92775.6,"population_density":41.3,"all_players":1,"players_per_million":0.26,"player_ids":["nhl:8482768"],"label":"Togliatti","country":"Russia"},"geometry":{"type":"Polygon","coordinates":[[[46.15294,52.857013],[47.346013,51.327847],[50.006843,51.196513],[51.649132,52.608933],[50.540162,54.190111],[47.695719,54.306703],[46.15294,52.857013]]]}},{"type":"Feature","properties":{"hex_id":"8210a7fffffffff","population":2366100,"population_year":2025,"area_km2":88726.5,"population_density":26.7,"all_players":2,"players_per_million":0.85,"player_ids":["nhl:8481611","nhl:8484994"],"label":"Penza","country":"Russia"},"geometry":{"type":"Polygon","coordinates":[[[42.130975,54.34055],[43.461053,52.88535],[46.15294,52.857013],[47.695719,54.306703],[46.429777,55.815863],[43.547482,55.820804],[42.130975,54.34055]]]}},{"type":"Feature","properties":{"hex_id":"8210affffffffff","population":5121080,"population_year":2025,"area_km2":91641.3,"population_density":55.9,"all_players":3,"players_per_million":0.59,"player_ids":["nhl:8479410","nhl:8482515","nhl:8484234"],"label":"Kazan","country":"Russia"},"geometry":{"type":"Polygon","coordinates":[[[46.429777,55.815863],[47.695719,54.306703],[50.540162,54.190111],[52.317891,55.595312],[51.151314,57.156372],[48.096497,57.260274],[46.429777,55.815863]]]}},{"type":"Feature","properties":{"hex_id":"8210c7fffffffff","population":3597273,"population_year":2025,"area_km2":95515.4,"population_density":37.7,"all_players":1,"players_per_million":0.28,"player_ids":["nhl:8481604"],"label":"Nizhny Tagil","country":"Russia"},"geometry":{"type":"Polygon","coordinates":[[[56.287512,58.324135],[57.314915,56.715607],[60.388277,56.376181],[62.649517,57.633408],[61.802513,59.28217],[58.501755,59.634853],[56.287512,58.324135]]]}},{"type":"Feature","properties":{"hex_id":"8210d7fffffffff","population":2978355,"population_year":2025,"area_km2":97556.0,"population_density":30.5,"all_players":1,"players_per_million":0.34,"player_ids":["nhl:8482166"],"label":"Ufa","country":"Russia"},"geometry":{"type":"Polygon","coordinates":[[[55.293774,55.374495],[56.286118,53.745323],[59.158974,53.414627],[61.229857,54.705431],[60.388277,56.376181],[57.314915,56.715607],[55.293774,55.374495]]]}},{"type":"Feature","properties":{"hex_id":"8210dffffffffff","population":3902687,"population_year":2025,"area_km2":98815.5,"population_density":39.5,"all_players":9,"players_per_million":2.31,"player_ids":["nhl:8474149","nhl:8476883","nhl:8477501","nhl:8478508","nhl:8478550","nhl:8481178","nhl:8483525","nhl:8484860","nhl:8485702"],"label":"Chelyabinsk","country":"Russia"},"geometry":{"type":"Polygon","coordinates":[[[60.388277,56.376181],[61.229857,54.705431],[64.158618,54.257565],[66.431592,55.460835],[65.773216,57.164207],[62.649517,57.633408],[60.388277,56.376181]]]}},{"type":"Feature","properties":{"hex_id":"8210effffffffff","population":314292,"population_year":2025,"area_km2":92775.6,"population_density":3.4,"all_players":1,"players_per_million":3.18,"player_ids":["nhl:8483733"],"label":"Serov","country":"Russia"},"geometry":{"type":"Polygon","coordinates":[[[57.440949,61.216399],[58.501755,59.634853],[61.802513,59.28217],[64.287027,60.49396],[63.444622,62.11439],[59.884785,62.485941],[57.440949,61.216399]]]}},{"type":"Feature","properties":{"hex_id":"8210f7fffffffff","population":4730156,"population_year":2025,"area_km2":93933.6,"population_density":50.4,"all_players":2,"players_per_million":0.42,"player_ids":["nhl:8482168","nhl:8484387"],"label":"Perm","country":"Russia"},"geometry":{"type":"Polygon","coordinates":[[[51.151314,57.156372],[52.317891,55.595312],[55.293774,55.374495],[57.314915,56.715607],[56.287512,58.324135],[53.087576,58.544695],[51.151314,57.156372]]]}},{"type":"Feature","properties":{"hex_id":"82111ffffffffff","population":618808,"population_year":2025,"area_km2":77902.3,"population_density":7.9,"all_players":1,"players_per_million":1.62,"player_ids":["nhl:8477402"],"label":"Cherepovets","country":"Russia"},"geometry":{"type":"Polygon","coordinates":[[[33.088007,59.508536],[34.802815,58.263078],[37.661108,58.480663],[39.007636,59.981273],[37.301767,61.279926],[34.230386,61.023294],[33.088007,59.508536]]]}},{"type":"Feature","properties":{"hex_id":"821127fffffffff","population":1543517,"population_year":2025,"area_km2":68186.6,"population_density":22.6,"all_players":6,"players_per_million":3.89,"player_ids":["nhl:8476874","nhl:8481704","nhl:8482873","nhl:8483465","nhl:8483471","nhl:8483497"],"label":"Lahti","country":"Finland"},"geometry":{"type":"Polygon","coordinates":[[[23.838471,60.96689],[25.77412,59.916287],[28.460566,60.334788],[29.377404,61.853155],[27.374489,62.947785],[24.517172,62.478113],[23.838471,60.96689]]]}},{"type":"Feature","properties":{"hex_id":"82112ffffffffff","population":359044,"population_year":2025,"area_km2":70782.3,"population_density":5.1,"all_players":3,"players_per_million":8.36,"player_ids":["nhl:8477953","nhl:8480001","nhl:8480185"],"label":"Kuopio","country":"Finland"},"geometry":{"type":"Polygon","coordinates":[[[27.374489,62.947785],[29.377404,61.853155],[32.364306,62.22127],[33.562997,63.728363],[31.517537,64.873037],[28.306772,64.458481],[27.374489,62.947785]]]}},{"type":"Feature","properties":{"hex_id":"821167fffffffff","population":502729,"population_year":2025,"area_km2":70058.2,"population_density":7.2,"all_players":1,"players_per_million":1.99,"player_ids":["nhl:8482165"],"label":"Murmansk","country":"Russia"},"geometry":{"type":"Polygon","coordinates":[[[30.513875,67.453223],[32.775118,66.367187],[36.382243,66.701436],[38.05104,68.158205],[35.780975,69.303255],[31.83128,68.929958],[30.513875,67.453223]]]}},{"type":"Feature","properties":{"hex_id":"821187fffffffff","population":6709919,"population_year":2025,"area_km2":80847.5,"population_density":83.0,"all_players":1,"players_per_million":0.15,"player_ids":["nhl:8482100"],"label":"Orel","country":"Russia"},"geometry":{"type":"Polygon","coordinates":[[[34.259287,53.948258],[35.733455,52.627433],[38.242666,52.766684],[39.434182,54.264707],[37.971643,55.638414],[35.299111,55.46002],[34.259287,53.948258]]]}},{"type":"Feature","properties":{"hex_id":"82118ffffffffff","population":5039192,"population_year":2025,"area_km2":84307.8,"population_density":59.8,"all_players":2,"players_per_million":0.4,"player_ids":["nhl:8476480","nhl:8483567"],"label":"Ryazan","country":"Russia"},"geometry":{"type":"Polygon","coordinates":[[[37.971643,55.638414],[39.434182,54.264707],[42.130975,54.34055],[43.547482,55.820804],[42.124277,57.248783],[39.236041,57.141268],[37.971643,55.638414]]]}},{"type":"Feature","properties":{"hex_id":"821197fffffffff","population":5411512,"population_year":2025,"area_km2":81458.9,"population_density":66.4,"all_players":1,"players_per_million":0.18,"player_ids":["nhl:8482167"],"label":"Voronezh","country":"Russia"},"geometry":{"type":"Polygon","coordinates":[[[34.739692,51.127123],[36.116724,49.779343],[38.481259,49.879789],[39.607695,51.365697],[38.242666,52.766684],[35.733455,52.627433],[34.739692,51.127123]]]}},{"type":"Feature","properties":{"hex_id":"82119ffffffffff","population":2585180,"population_year":2025,"area_km2":85294.5,"population_density":30.3,"all_players":1,"players_per_million":0.39,"player_ids":["nhl:8475179"],"label":"Lipetsk","country":"Russia"},"geometry":{"type":"Polygon","coordinates":[[[38.242666,52.766684],[39.607695,51.365697],[42.136829,51.409437],[43.461053,52.88535],[42.130975,54.34055],[39.434182,54.264707],[38.242666,52.766684]]]}},{"type":"Feature","properties":{"hex_id":"8211affffffffff","population":18096890,"population_year":2025,"area_km2":79647.5,"population_density":227.2,"all_players":16,"players_per_million":0.88,"player_ids":["nhl:8471214","nhl:8477507","nhl:8477964","nhl:8478048","nhl:8480281","nhl:8480950","nhl:8481014","nhl:8481617","nhl:8482177","nhl:8482624","nhl:8482787","nhl:8483490","nhl:8483526","nhl:8483746","nhl:8484958","nhl:8484984"],"label":"Moscow","country":"Russia"},"geometry":{"type":"Polygon","coordinates":[[[33.713464,56.746598],[35.299111,55.46002],[37.971643,55.638414],[39.236041,57.141268],[37.661108,58.480663],[34.802815,58.263078],[33.713464,56.746598]]]}},{"type":"Feature","properties":{"hex_id":"82121ffffffffff","population":195109,"population_year":2025,"area_km2":82705.0,"population_density":2.4,"all_players":1,"players_per_million":5.13,"player_ids":["nhl:8483039"],"label":"Fort St. John","country":"Canada"},"geometry":{"type":"Polygon","coordinates":[[[-121.048551,57.710851],[-122.653511,56.419906],[-121.442455,54.91665],[-118.746973,54.632578],[-117.037574,55.861631],[-118.114758,57.436873],[-121.048551,57.710851]]]}},{"type":"Feature","properties":{"hex_id":"82124ffffffffff","population":106971,"population_year":2025,"area_km2":93159.0,"population_density":1.1,"all_players":1,"players_per_million":9.35,"player_ids":["nhl:8480980"],"label":"The Pas","country":"Canada"},"geometry":{"type":"Polygon","coordinates":[[[-103.728472,54.960907],[-105.96116,53.910447],[-105.449038,52.229056],[-102.902298,51.556776],[-100.696411,52.530899],[-101.003636,54.251386],[-103.728472,54.960907]]]}},{"type":"Feature","properties":{"hex_id":"82125ffffffffff","population":549473,"population_year":2025,"area_km2":89440.6,"population_density":6.1,"all_players":12,"players_per_million":21.84,"player_ids":["nhl:8474568","nhl:8475170","nhl:8475311","nhl:8476905","nhl:8478967","nhl:8478971","nhl:8479542","nhl:8482073","nhl:8482074","nhl:8483466","nhl:8484242","nhl:8484800"],"label":"Saskatoon","country":"Canada"},"geometry":{"type":"Polygon","coordinates":[[[-108.678607,54.501948],[-110.686347,53.386336],[-109.994611,51.754866],[-107.466262,51.18753],[-105.449038,52.229056],[-105.96116,53.910447],[-108.678607,54.501948]]]}},{"type":"Feature","properties":{"hex_id":"821277fffffffff","population":75350,"population_year":2025,"area_km2":91641.3,"population_density":0.8,"all_players":1,"players_per_million":13.27,"player_ids":["nhl:8484759"],"label":"Fort McMurray","country":"Canada"},"geometry":{"type":"Polygon","coordinates":[[[-110.956309,59.515942],[-113.158547,58.30968],[-112.259581,56.66737],[-109.368403,56.171176],[-107.133634,57.299534],[-107.808712,59.000304],[-110.956309,59.515942]]]}},{"type":"Feature","properties":{"hex_id":"8212c7fffffffff","population":109513,"population_year":2025,"area_km2":80847.5,"population_density":1.4,"all_players":2,"players_per_million":18.26,"player_ids":["nhl:8480879","nhl:8481491"],"label":"Canmore","country":"Canada"},"geometry":{"type":"Polygon","coordinates":[[[-117.728822,53.087334],[-119.284605,51.895658],[-118.32059,50.385511],[-115.913157,50.003546],[-114.293343,51.131925],[-115.135928,52.705407],[-117.728822,53.087334]]]}},{"type":"Feature","properties":{"hex_id":"8212cffffffffff","population":1447775,"population_year":2025,"area_km2":81458.9,"population_density":17.8,"all_players":25,"players_per_million":17.27,"player_ids":["nhl:8475413","nhl:8475791","nhl:8477504","nhl:8477939","nhl:8478010","nhl:8479402","nhl:8480069","nhl:8480313","nhl:8481133","nhl:8481517","nhl:8481522","nhl:8481719","nhl:8482077","nhl:8482089","nhl:8482092","nhl:8482103","nhl:8482105","nhl:8482460","nhl:8482803","nhl:8482858","nhl:8482953","nhl:8483435","nhl:8484471","nhl:8485251","nhl:8486056"],"label":"Calgary","country":"Canada"},"geometry":{"type":"Polygon","coordinates":[[[-114.293343,51.131925],[-115.913157,50.003546],[-115.101052,48.471845],[-112.788004,48.011188],[-111.127907,49.073528],[-111.813584,50.661988],[-114.293343,51.131925]]]}},{"type":"Feature","properties":{"hex_id":"8212d7fffffffff","population":626499,"population_year":2025,"area_km2":76219.8,"population_density":8.2,"all_players":3,"players_per_million":4.79,"player_ids":["nhl:8477508","nhl:8482702","nhl:8483406"],"label":"Kamloops","country":"Canada"},"geometry":{"type":"Polygon","coordinates":[[[-121.777262,52.190065],[-123.122866,50.984711],[-122.065326,49.540804],[-119.747324,49.236416],[-118.32059,50.385511],[-119.284605,51.895658],[-121.777262,52.190065]]]}},{"type":"Feature","properties":{"hex_id":"8212dffffffffff","population":1026503,"population_year":2025,"area_km2":77926.1,"population_density":13.2,"all_players":3,"players_per_million":2.92,"player_ids":["nhl:8478211","nhl:8479977","nhl:8481524"],"label":"Cranbrook","country":"Canada"},"geometry":{"type":"Polygon","coordinates":[[[-118.32059,50.385511],[-119.747324,49.236416],[-119.232215,47.804097],[-116.945809,47.422734],[-115.101052,48.471845],[-115.913157,50.003546],[-118.32059,50.385511]]]}},{"type":"Feature","properties":{"hex_id":"8212e7fffffffff","population":237667,"population_year":2025,"area_km2":84307.8,"population_density":2.8,"all_players":3,"players_per_million":12.62,"player_ids":["nhl:8477419","nhl:8477979","nhl:8483532"],"label":"Drayton Valley","country":"Canada"},"geometry":{"type":"Polygon","coordinates":[[[-117.037574,55.861631],[-118.746973,54.632578],[-117.728822,53.087334],[-115.135928,52.705407],[-113.357086,53.867769],[-114.22928,55.478388],[-117.037574,55.861631]]]}},{"type":"Feature","properties":{"hex_id":"8212effffffffff","population":2419420,"population_year":2025,"area_km2":85294.5,"population_density":28.4,"all_players":33,"players_per_million":13.64,"player_ids":["nhl:8474716","nhl:8475755","nhl:8475848","nhl:8476892","nhl:8476967","nhl:8476988","nhl:8477369","nhl:8477480","nhl:8478136","nhl:8478498","nhl:8478888","nhl:8479351","nhl:8479370","nhl:8479372","nhl:8479387","nhl:8479393","nhl:8479394","nhl:8479973","nhl:8480448","nhl:8481523","nhl:8481525","nhl:8482087","nhl:8482107","nhl:8482259","nhl:8482699","nhl:8482703","nhl:8482859","nhl:8483512","nhl:8483513","nhl:8483728","nhl:8484160","nhl:8484406","nhl:8485385"],"label":"Edmonton","country":"Canada"},"geometry":{"type":"Polygon","coordinates":[[[-113.357086,53.867769],[-115.135928,52.705407],[-114.293343,51.131925],[-111.813584,50.661988],[-109.994611,51.754866],[-110.686347,53.386336],[-113.357086,53.867769]]]}},{"type":"Feature","properties":{"hex_id":"821357fffffffff","population":24558,"population_year":2025,"area_km2":91641.3,"population_density":0.3,"all_players":1,"players_per_million":40.72,"player_ids":["nhl:8482187"],"label":"Yellowknife","country":"Canada"},"geometry":{"type":"Polygon","coordinates":[[[-114.036353,64.489936],[-116.446531,63.195772],[-115.23743,61.578155],[-111.87575,61.183813],[-109.385238,62.395734],[-110.312737,64.082505],[-114.036353,64.489936]]]}},{"type":"Feature","properties":{"hex_id":"821387fffffffff","population":36251,"population_year":2025,"area_km2":74863.4,"population_density":0.5,"all_players":1,"players_per_million":27.59,"player_ids":["nhl:8481528"],"label":"Whitehorse","country":"Canada"},"geometry":{"type":"Polygon","coordinates":[[[-135.005156,62.161511],[-136.048816,60.736738],[-134.197774,59.440431],[-131.328112,59.489502],[-130.054647,60.880673],[-131.865545,62.25878],[-135.005156,62.161511]]]}},{"type":"Feature","properties":{"hex_id":"8214d7fffffffff","population":956376,"population_year":2025,"area_km2":76219.8,"population_density":12.5,"all_players":1,"players_per_million":1.05,"player_ids":["nhl:8482245"],"label":"Khabarovsk","country":"Russia"},"geometry":{"type":"Polygon","coordinates":[[[134.317225,49.855479],[134.763936,48.418018],[137.012302,47.877991],[138.943203,48.726226],[138.66931,50.187809],[136.287787,50.779625],[134.317225,49.855479]]]}},{"type":"Feature","properties":{"hex_id":"82155ffffffffff","population":492766,"population_year":2025,"area_km2":93933.6,"population_density":5.2,"all_players":1,"players_per_million":2.03,"player_ids":["nhl:8483808"],"label":"Yakutsk","country":"Russia"},"geometry":{"type":"Polygon","coordinates":[[[126.242494,61.146718],[127.318426,59.543348],[130.59503,59.102261],[133.101486,60.221129],[132.341957,61.881412],[128.740537,62.369458],[126.242494,61.146718]]]}},{"type":"Feature","properties":{"hex_id":"821867fffffffff","population":5245763,"population_year":2025,"area_km2":80847.5,"population_density":64.9,"all_players":1,"players_per_million":0.19,"player_ids":["nhl:8480870"],"label":"Rouen","country":"France"},"geometry":{"type":"Polygon","coordinates":[[[-0.631095,50.601911],[-2.906528,50.142292],[-3.243656,48.547301],[-1.396608,47.443512],[0.764026,47.90745],[1.18851,49.470279],[-0.631095,50.601911]]]}},{"type":"Feature","properties":{"hex_id":"82195ffffffffff","population":22721748,"population_year":2025,"area_km2":79647.5,"population_density":285.3,"all_players":1,"players_per_million":0.04,"player_ids":["nhl:8477573"],"label":"Cardiff","country":"United Kingdom"},"geometry":{"type":"Polygon","coordinates":[[[-2.178886,53.251551],[-4.578382,52.792439],[-4.88976,51.223728],[-2.906528,50.142292],[-0.631095,50.601911],[-0.219137,52.141681],[-2.178886,53.251551]]]}},{"type":"Feature","properties":{"hex_id":"821aa7fffffffff","population":332818,"population_year":2025,"area_km2":88726.5,"population_density":3.8,"all_players":3,"players_per_million":9.01,"player_ids":["nhl:8481618","nhl:8482110","nhl:8483450"],"label":"St. John's","country":"Canada"},"geometry":{"type":"Polygon","coordinates":[[[-51.288437,49.261646],[-53.851558,49.368031],[-55.305918,47.947641],[-54.238896,46.493141],[-51.83863,46.417012],[-50.349843,47.766522],[-51.288437,49.261646]]]}},{"type":"Feature","properties":{"hex_id":"821e07fffffffff","population":15880792,"population_year":2025,"area_km2":85294.5,"population_density":186.2,"all_players":15,"players_per_million":0.94,"player_ids":["nhl:8475852","nhl:8476292","nhl:8476889","nhl:8477956","nhl:8478401","nhl:8480078","nhl:8480796","nhl:8480843","nhl:8481028","nhl:8482487","nhl:8483495","nhl:8483669","nhl:8483930","nhl:8484164","nhl:8484180"],"label":"Ostrava","country":"Czechia"},"geometry":{"type":"Polygon","coordinates":[[[16.606047,49.899182],[15.817384,48.388123],[17.489488,47.234679],[19.952961,47.57214],[20.822886,49.074367],[19.15135,50.248654],[16.606047,49.899182]]]}},{"type":"Feature","properties":{"hex_id":"821e0ffffffffff","population":6622895,"population_year":2025,"area_km2":87326.6,"population_density":75.8,"all_players":3,"players_per_million":0.45,"player_ids":["nhl:8478416","nhl:8483515","nhl:8483630"],"label":"Kosice","country":"Slovakia"},"geometry":{"type":"Polygon","coordinates":[[[20.822886,49.074367],[19.952961,47.57214],[21.555106,46.342738],[24.013384,46.595885],[24.952412,48.084867],[23.367705,49.334469],[20.822886,49.074367]]]}},{"type":"Feature","properties":{"hex_id":"821e17fffffffff","population":8258126,"population_year":2025,"area_km2":87326.6,"population_density":94.6,"all_players":2,"players_per_million":0.24,"player_ids":["nhl:8471685","nhl:8477444"],"label":"Klagenfurt","country":"Austria"},"geometry":{"type":"Polygon","coordinates":[[[13.374348,47.965938],[12.677318,46.406957],[14.337206,45.273432],[16.708897,45.679719],[17.489488,47.234679],[15.817384,48.388123],[13.374348,47.965938]]]}},{"type":"Feature","properties":{"hex_id":"821e27fffffffff","population":12111129,"population_year":2025,"area_km2":80544.7,"population_density":150.4,"all_players":1,"players_per_million":0.08,"player_ids":["nhl:8482877"],"label":"Nove Mesto nad Metuji","country":"Czechia"},"geometry":{"type":"Polygon","coordinates":[[[15.658506,52.45677],[14.863027,50.992748],[16.606047,49.899182],[19.15135,50.248654],[20.036282,51.703743],[18.289963,52.819052],[15.658506,52.45677]]]}},{"type":"Feature","properties":{"hex_id":"821e37fffffffff","population":10279073,"population_year":2025,"area_km2":82705.0,"population_density":124.3,"all_players":18,"players_per_million":1.75,"player_ids":["nhl:8475462","nhl:8476881","nhl:8477931","nhl:8477970","nhl:8478435","nhl:8478872","nhl:8479425","nhl:8479496","nhl:8480039","nhl:8480144","nhl:8480238","nhl:8481712","nhl:8483460","nhl:8483468","nhl:8483609","nhl:8483687","nhl:8484933","nhl:8485493"],"label":"Praha","country":"Czechia"},"geometry":{"type":"Polygon","coordinates":[[[12.345747,50.554275],[11.648396,49.039345],[13.374348,47.965938],[15.817384,48.388123],[16.606047,49.899182],[14.863027,50.992748],[12.345747,50.554275]]]}},{"type":"Feature","properties":{"hex_id":"821f07fffffffff","population":6981829,"population_year":2025,"area_km2":73030.9,"population_density":95.6,"all_players":2,"players_per_million":0.29,"player_ids":["nhl:8474189","nhl:8478397"],"label":"Malmo","country":"Sweden"},"geometry":{"type":"Polygon","coordinates":[[[10.065692,55.394879],[9.374531,53.975514],[11.24517,53.03204],[13.839529,53.487245],[14.640207,54.902182],[12.739823,55.867327],[10.065692,55.394879]]]}},{"type":"Feature","properties":{"hex_id":"821f27fffffffff","population":4146711,"population_year":2025,"area_km2":68186.6,"population_density":60.8,"all_players":14,"players_per_million":3.38,"player_ids":["nhl:8474679","nhl:8475883","nhl:8475906","nhl:8476854","nhl:8477320","nhl:8477416","nhl:8477940","nhl:8480007","nhl:8481544","nhl:8481725","nhl:8482078","nhl:8482762","nhl:8482821","nhl:8484168"],"label":"Gothenburg","country":"Sweden"},"geometry":{"type":"Polygon","coordinates":[[[8.799628,57.640256],[8.115982,56.270471],[10.065692,55.394879],[12.739823,55.867327],[13.543636,57.232114],[11.555978,58.130531],[8.799628,57.640256]]]}},{"type":"Feature","properties":{"hex_id":"821f2ffffffffff","population":1311700,"population_year":2025,"area_km2":70782.3,"population_density":18.5,"all_players":6,"players_per_million":4.57,"player_ids":["nhl:8474578","nhl:8475149","nhl:8475171","nhl:8480043","nhl:8480245","nhl:8481024"],"label":"Landsbro","country":"Sweden"},"geometry":{"type":"Polygon","coordinates":[[[13.543636,57.232114],[12.739823,55.867327],[14.640207,54.902182],[17.362293,55.278144],[18.275236,56.632953],[16.36093,57.622703],[13.543636,57.232114]]]}},{"type":"Feature","properties":{"hex_id":"821f4ffffffffff","population":4575430,"population_year":2025,"area_km2":76219.8,"population_density":60.0,"all_players":6,"players_per_million":1.31,"player_ids":["nhl:8481068","nhl:8481609","nhl:8482470","nhl:8482783","nhl:8484268","nhl:8484783"],"label":"Minsk","country":"Belarus"},"geometry":{"type":"Polygon","coordinates":[[[27.453627,54.866734],[26.370175,53.543763],[27.993406,52.327164],[30.654128,52.413789],[31.795225,53.716817],[30.223065,54.953382],[27.453627,54.866734]]]}},{"type":"Feature","properties":{"hex_id":"821f67fffffffff","population":1840881,"population_year":2025,"area_km2":70058.2,"population_density":26.3,"all_players":7,"players_per_million":3.8,"player_ids":["nhl:8476878","nhl:8476927","nhl:8478007","nhl:8479022","nhl:8481668","nhl:8483771","nhl:8484304"],"label":"Riga","country":"Latvia"},"geometry":{"type":"Polygon","coordinates":[[[22.144282,58.209221],[21.114076,56.920734],[22.931053,55.842561],[25.752737,56.027899],[26.868471,57.29788],[25.082722,58.401545],[22.144282,58.209221]]]}},{"type":"Feature","properties":{"hex_id":"821f6ffffffffff","population":1293793,"population_year":2025,"area_km2":72289.7,"population_density":17.9,"all_players":2,"players_per_million":1.55,"player_ids":["nhl:8481656","nhl:8484999"],"label":"Vitebsk","country":"Belarus"},"geometry":{"type":"Polygon","coordinates":[[[26.868471,57.29788],[25.752737,56.027899],[27.453627,54.866734],[30.223065,54.953382],[31.095814,56.470005],[29.401091,57.66587],[26.868471,57.29788]]]}},{"type":"Feature","properties":{"hex_id":"821f87fffffffff","population":16111686,"population_year":2025,"area_km2":80847.5,"population_density":199.3,"all_players":9,"players_per_million":0.56,"player_ids":["nhl:8474600","nhl:8478399","nhl:8480459","nhl:8480798","nhl:8481033","nhl:8481542","nhl:8482655","nhl:8482745","nhl:8483425"],"label":"Zurich","country":"Switzerland"},"geometry":{"type":"Polygon","coordinates":[[[5.163511,48.943764],[4.652435,47.393027],[6.371339,46.417017],[8.645314,46.977068],[9.251571,48.534678],[7.489806,49.526212],[5.163511,48.943764]]]}},{"type":"Feature","properties":{"hex_id":"821f8ffffffffff","population":12778297,"population_year":2025,"area_km2":84307.8,"population_density":151.6,"all_players":11,"players_per_million":0.86,"player_ids":["nhl:8475799","nhl:8475831","nhl:8477942","nhl:8478414","nhl:8481477","nhl:8482076","nhl:8482079","nhl:8482175","nhl:8483464","nhl:8484220","nhl:8484509"],"label":"Munich","country":"Germany"},"geometry":{"type":"Polygon","coordinates":[[[9.251571,48.534678],[8.645314,46.977068],[10.343213,45.921928],[12.677318,46.406957],[13.374348,47.965938],[11.648396,49.039345],[9.251571,48.534678]]]}},{"type":"Feature","properties":{"hex_id":"821f97fffffffff","population":9069390,"population_year":2025,"area_km2":81458.9,"population_density":111.3,"all_players":1,"players_per_million":0.11,"player_ids":["nhl:8480074"],"label":"Saint-Martin-d'Hères","country":"France"},"geometry":{"type":"Polygon","coordinates":[[[2.458902,46.763731],[2.026569,45.184249],[3.696702,44.221235],[5.848477,44.82547],[6.371339,46.417017],[4.652435,47.393027],[2.458902,46.763731]]]}},{"type":"Feature","properties":{"hex_id":"821f9ffffffffff","population":16398717,"population_year":2025,"area_km2":85294.5,"population_density":192.3,"all_players":1,"players_per_million":0.06,"player_ids":["nhl:8480002"],"label":"Naters","country":"Switzerland"},"geometry":{"type":"Polygon","coordinates":[[[6.371339,46.417017],[5.848477,44.82547],[7.509948,43.786609],[9.731941,44.323805],[10.343213,45.921928],[8.645314,46.977068],[6.371339,46.417017]]]}},{"type":"Feature","properties":{"hex_id":"821fa7fffffffff","population":28149582,"population_year":2025,"area_km2":76219.8,"population_density":369.3,"all_players":2,"players_per_million":0.07,"player_ids":["nhl:8477934","nhl:8482116"],"label":"Cologne","country":"Germany"},"geometry":{"type":"Polygon","coordinates":[[[3.881134,51.360376],[3.384772,49.85377],[5.163511,48.943764],[7.489806,49.526212],[8.088631,51.039696],[6.259687,51.96477],[3.881134,51.360376]]]}},{"type":"Feature","properties":{"hex_id":"821faffffffffff","population":20512004,"population_year":2025,"area_km2":79647.5,"population_density":257.5,"all_players":1,"players_per_million":0.05,"player_ids":["nhl:8482117"],"label":"Nürnberg","country":"Germany"},"geometry":{"type":"Polygon","coordinates":[[[8.088631,51.039696],[7.489806,49.526212],[9.251571,48.534678],[11.648396,49.039345],[12.345747,50.554275],[10.549623,51.56399],[8.088631,51.039696]]]}},{"type":"Feature","properties":{"hex_id":"8220a7fffffffff","population":19151502,"population_year":2025,"area_km2":102761.2,"population_density":186.4,"all_players":1,"players_per_million":0.05,"player_ids":["nhl:8481560"],"label":"Tashkent","country":"Uzbekistan"},"geometry":{"type":"Polygon","coordinates":[[[66.248113,40.813541],[66.718397,39.067301],[68.880863,38.470904],[70.665594,39.592304],[70.306377,41.359581],[68.048608,41.985775],[66.248113,40.813541]]]}},{"type":"Feature","properties":{"hex_id":"822127fffffffff","population":2170687,"population_year":2025,"area_km2":98815.5,"population_density":22.0,"all_players":1,"players_per_million":0.46,"player_ids":["nhl:8471215"],"label":"Magnitogorsk","country":"Russia"},"geometry":{"type":"Polygon","coordinates":[[[54.429209,52.384556],[55.386315,50.741939],[58.081496,50.416383],[59.988729,51.7291],[59.158974,53.414627],[56.286118,53.745323],[54.429209,52.384556]]]}},{"type":"Feature","properties":{"hex_id":"822147fffffffff","population":1727927,"population_year":2025,"area_km2":101417.2,"population_density":17.0,"all_players":3,"players_per_million":1.74,"player_ids":["nhl:8481624","nhl:8482137","nhl:8482475"],"label":"Omsk","country":"Russia"},"geometry":{"type":"Polygon","coordinates":[[[69.370124,54.88873],[69.865511,53.143471],[72.619065,52.483279],[75.015593,53.532332],[74.716814,55.290587],[71.820755,55.989082],[69.370124,54.88873]]]}},{"type":"Feature","properties":{"hex_id":"822577fffffffff","population":1518561,"population_year":2025,"area_km2":85294.5,"population_density":17.8,"all_players":1,"players_per_million":0.66,"player_ids":["nhl:8481716"],"label":"Angarsk","country":"Russia"},"geometry":{"type":"Polygon","coordinates":[[[100.363977,53.907861],[99.746435,52.264429],[101.60365,51.075474],[104.035533,51.485289],[104.773507,53.079677],[102.966879,54.313757],[100.363977,53.907861]]]}},{"type":"Feature","properties":{"hex_id":"822607fffffffff","population":801807,"population_year":2025,"area_km2":86328.2,"population_density":9.3,"all_players":1,"players_per_million":1.25,"player_ids":["nhl:8482652"],"label":"Sioux Falls","country":"United States"},"geometry":{"type":"Polygon","coordinates":[[[-97.551209,45.038257],[-99.490649,44.209999],[-99.333552,42.604335],[-97.30469,41.807241],[-95.412903,42.599409],[-95.464507,44.208686],[-97.551209,45.038257]]]}},{"type":"Feature","properties":{"hex_id":"82260ffffffffff","population":2387088,"population_year":2025,"area_km2":87326.6,"population_density":27.3,"all_players":3,"players_per_million":1.26,"player_ids":["nhl:8477404","nhl:8480145","nhl:8483487"],"label":"Omaha","country":"United States"},"geometry":{"type":"Polygon","coordinates":[[[-95.246862,39.326803],[-93.407414,40.114355],[-93.458032,41.743249],[-95.412903,42.599409],[-97.30469,41.807241],[-97.188746,40.164276],[-95.246862,39.326803]]]}},{"type":"Feature","properties":{"hex_id":"822627fffffffff","population":1660249,"population_year":2025,"area_km2":89801.2,"population_density":18.5,"all_players":11,"players_per_million":6.63,"player_ids":["nhl:8475324","nhl:8477220","nhl:8478840","nhl:8480246","nhl:8482062","nhl:8482095","nhl:8482122","nhl:8482641","nhl:8482809","nhl:8483531","nhl:8483570"],"label":"Fargo","country":"United States"},"geometry":{"type":"Polygon","coordinates":[[[-95.579863,47.511001],[-97.687441,46.680814],[-97.551209,45.038257],[-95.464507,44.208686],[-93.418118,44.972526],[-93.395849,46.63002],[-95.579863,47.511001]]]}},{"type":"Feature","properties":{"hex_id":"82262ffffffffff","population":2511826,"population_year":2025,"area_km2":87326.6,"population_density":28.8,"all_players":20,"players_per_million":7.96,"player_ids":["nhl:8475181","nhl:8475314","nhl:8475718","nhl:8476372","nhl:8476425","nhl:8476869","nhl:8478444","nhl:8479292","nhl:8479324","nhl:8479979","nhl:8479999","nhl:8480068","nhl:8481553","nhl:8481563","nhl:8481605","nhl:8482072","nhl:8483506","nhl:8483731","nhl:8483756","nhl:8484258"],"label":"Lakeville","country":"United States"},"geometry":{"type":"Polygon","coordinates":[[[-93.418118,44.972526],[-95.464507,44.208686],[-95.412903,42.599409],[-93.458032,41.743249],[-91.476262,42.44496],[-91.384239,44.06279],[-93.418118,44.972526]]]}},{"type":"Feature","properties":{"hex_id":"822647fffffffff","population":4073203,"population_year":2025,"area_km2":85294.5,"population_density":47.8,"all_players":11,"players_per_million":2.7,"player_ids":["nhl:8476392","nhl:8476429","nhl:8477541","nhl:8479316","nhl:8479343","nhl:8479361","nhl:8479365","nhl:8482090","nhl:8482623","nhl:8484287","nhl:8484873"],"label":"St. Louis","country":"United States"},"geometry":{"type":"Polygon","coordinates":[[[-89.748537,36.65876],[-87.990764,37.382074],[-87.951382,39.014788],[-89.726216,39.947222],[-91.54335,39.225656],[-91.525283,37.57043],[-89.748537,36.65876]]]}},{"type":"Feature","properties":{"hex_id":"82264ffffffffff","population":4363740,"population_year":2025,"area_km2":85627.7,"population_density":51.0,"all_players":1,"players_per_million":0.23,"player_ids":["nhl:8475343"],"label":"Huntsville","country":"United States"},"geometry":{"type":"Polygon","coordinates":[[[-88.065886,34.059836],[-86.366648,34.786557],[-86.303213,36.434527],[-87.990764,37.382074],[-89.748537,36.65876],[-89.759172,34.984893],[-88.065886,34.059836]]]}},{"type":"Feature","properties":{"hex_id":"822667fffffffff","population":11642346,"population_year":2025,"area_km2":85294.5,"population_density":136.5,"all_players":10,"players_per_million":0.86,"player_ids":["nhl:8476312","nhl:8476391","nhl:8476422","nhl:8476994","nhl:8477401","nhl:8479550","nhl:8481056","nhl:8481070","nhl:8481532","nhl:8481568"],"label":"Chicago","country":"United States"},"geometry":{"type":"Polygon","coordinates":[[[-87.526255,42.152917],[-89.578398,41.518555],[-89.726216,39.947222],[-87.951382,39.014788],[-85.979328,39.596509],[-85.703199,41.161269],[-87.526255,42.152917]]]}},{"type":"Feature","properties":{"hex_id":"822687fffffffff","population":1387619,"population_year":2025,"area_km2":92775.6,"population_density":15.0,"all_players":2,"players_per_million":1.44,"player_ids":["nhl:8481004","nhl:8484821"],"label":"Lafayette","country":"United States"},"geometry":{"type":"Polygon","coordinates":[[[-106.738368,38.891674],[-104.928668,39.882147],[-105.177534,41.537334],[-107.300929,42.200724],[-109.131063,41.19652],[-108.818288,39.54349],[-106.738368,38.891674]]]}},{"type":"Feature","properties":{"hex_id":"82268ffffffffff","population":3218622,"population_year":2025,"area_km2":95515.4,"population_density":33.7,"all_players":6,"players_per_million":1.86,"player_ids":["nhl:8476958","nhl:8478443","nhl:8478873","nhl:8479591","nhl:8481518","nhl:8483573"],"label":"Denver","country":"United States"},"geometry":{"type":"Polygon","coordinates":[[[-104.454816,36.494369],[-102.671357,37.471973],[-102.876807,39.164785],[-104.928668,39.882147],[-106.738368,38.891674],[-106.47056,37.197522],[-104.454816,36.494369]]]}},{"type":"Feature","properties":{"hex_id":"822697fffffffff","population":2718995,"population_year":2025,"area_km2":93159.0,"population_density":29.2,"all_players":1,"players_per_million":0.37,"player_ids":["nhl:8482178"],"label":"Salt Lake City","country":"United States"},"geometry":{"type":"Polygon","coordinates":[[[-110.584833,38.489935],[-108.818288,39.54349],[-109.131063,41.19652],[-111.27157,41.789209],[-113.046271,40.72062],[-112.673648,39.075149],[-110.584833,38.489935]]]}},{"type":"Feature","properties":{"hex_id":"8226cffffffffff","population":9574277,"population_year":2025,"area_km2":96323.1,"population_density":99.4,"all_players":6,"players_per_million":0.63,"player_ids":["nhl:8476399","nhl:8476474","nhl:8477495","nhl:8478452","nhl:8482726","nhl:8482785"],"label":"Plano","country":"United States"},"geometry":{"type":"Polygon","coordinates":[[[-96.66289,31.619531],[-94.945821,32.516906],[-95.017507,34.246081],[-96.863145,35.093055],[-98.622726,34.188046],[-98.493873,32.444355],[-96.66289,31.619531]]]}},{"type":"Feature","properties":{"hex_id":"822707fffffffff","population":1031042,"population_year":2025,"area_km2":95515.4,"population_density":10.8,"all_players":11,"players_per_million":10.67,"player_ids":["nhl:8471817","nhl:8473604","nhl:8475795","nhl:8475913","nhl:8477503","nhl:8477993","nhl:8479996","nhl:8480981","nhl:8482093","nhl:8482781","nhl:8483485"],"label":"Winnipeg","country":"Canada"},"geometry":{"type":"Polygon","coordinates":[[[-95.791373,52.640531],[-98.16677,51.748943],[-97.993762,50.038615],[-95.644608,49.199829],[-93.345722,50.020134],[-93.317375,51.747798],[-95.791373,52.640531]]]}},{"type":"Feature","properties":{"hex_id":"82270ffffffffff","population":250362,"population_year":2025,"area_km2":93933.6,"population_density":2.7,"all_players":3,"players_per_million":11.98,"player_ids":["nhl:8475754","nhl:8479312","nhl:8482411"],"label":"Baudette","country":"United States"},"geometry":{"type":"Polygon","coordinates":[[[-93.345722,50.020134],[-95.644608,49.199829],[-95.579863,47.511001],[-93.395849,46.63002],[-91.178447,47.383632],[-91.062897,49.082357],[-93.345722,50.020134]]]}},{"type":"Feature","properties":{"hex_id":"822717fffffffff","population":261207,"population_year":2025,"area_km2":92775.6,"population_density":2.8,"all_players":9,"players_per_million":34.46,"player_ids":["nhl:8476441","nhl:8476921","nhl:8477506","nhl:8478434","nhl:8480727","nhl:8481527","nhl:8481529","nhl:8482094","nhl:8482896"],"label":"Brandon","country":"Canada"},"geometry":{"type":"Polygon","coordinates":[[[-100.696411,52.530899],[-102.902298,51.556776],[-102.539288,49.876702],[-100.155963,49.138168],[-97.993762,50.038615],[-98.16677,51.748943],[-100.696411,52.530899]]]}},{"type":"Feature","properties":{"hex_id":"82271ffffffffff","population":352971,"population_year":2025,"area_km2":91641.3,"population_density":3.9,"all_players":1,"players_per_million":2.83,"player_ids":["nhl:8483503"],"label":"St. Adolphe","country":"Canada"},"geometry":{"type":"Polygon","coordinates":[[[-97.993762,50.038615],[-100.155963,49.138168],[-99.917049,47.471519],[-97.687441,46.680814],[-95.579863,47.511001],[-95.644608,49.199829],[-97.993762,50.038615]]]}},{"type":"Feature","properties":{"hex_id":"822747fffffffff","population":1114372,"population_year":2025,"area_km2":92775.6,"population_density":12.0,"all_players":3,"players_per_million":2.69,"player_ids":["nhl:8475857","nhl:8477990","nhl:8478891"],"label":"Green Bay","country":"United States"},"geometry":{"type":"Polygon","coordinates":[[[-86.763856,47.084746],[-89.066565,46.415378],[-89.249838,44.754421],[-87.290551,43.768738],[-85.090138,44.382483],[-84.748614,46.035179],[-86.763856,47.084746]]]}},{"type":"Feature","properties":{"hex_id":"82274ffffffffff","population":6546722,"population_year":2025,"area_km2":89440.6,"population_density":73.2,"all_players":16,"players_per_million":2.44,"player_ids":["nhl:8473507","nhl:8474013","nhl:8476822","nhl:8477429","nhl:8477946","nhl:8478970","nhl:8479942","nhl:8481032","nhl:8482070","nhl:8482172","nhl:8482802","nhl:8483457","nhl:8483690","nhl:8483752","nhl:8484255","nhl:8484262"],"label":"Ann Arbor","country":"United States"},"geometry":{"type":"Polygon","coordinates":[[[-85.090138,44.382483],[-87.290551,43.768738],[-87.526255,42.152917],[-85.703199,41.161269],[-83.600197,41.724215],[-83.224953,43.327485],[-85.090138,44.382483]]]}},{"type":"Feature","properties":{"hex_id":"822757fffffffff","population":3436263,"population_year":2025,"area_km2":91641.3,"population_density":37.5,"all_players":22,"players_per_million":6.4,"player_ids":["nhl:8474151","nhl:8475752","nhl:8475760","nhl:8475762","nhl:8476931","nhl:8476952","nhl:8477380","nhl:8478438","nhl:8479362","nhl:8479998","nhl:8480220","nhl:8480817","nhl:8480834","nhl:8481043","nhl:8481481","nhl:8481540","nhl:8482176","nhl:8482634","nhl:8482698","nhl:8483455","nhl:8483516","nhl:8484197"],"label":"St. Paul","country":"United States"},"geometry":{"type":"Polygon","coordinates":[[[-91.178447,47.383632],[-93.395849,46.63002],[-93.418118,44.972526],[-91.384239,44.06279],[-89.249838,44.754421],[-89.066565,46.415378],[-91.178447,47.383632]]]}},{"type":"Feature","properties":{"hex_id":"82275ffffffffff","population":7416006,"population_year":2025,"area_km2":88726.5,"population_density":83.6,"all_players":6,"players_per_million":0.81,"player_ids":["nhl:8477456","nhl:8477951","nhl:8482067","nhl:8483433","nhl:8484305","nhl:8485511"],"label":"Delafield","country":"United States"},"geometry":{"type":"Polygon","coordinates":[[[-89.249838,44.754421],[-91.384239,44.06279],[-91.476262,42.44496],[-89.578398,41.518555],[-87.526255,42.152917],[-87.290551,43.768738],[-89.249838,44.754421]]]}},{"type":"Feature","properties":{"hex_id":"822767fffffffff","population":140652,"population_year":2025,"area_km2":96323.1,"population_density":1.5,"all_players":2,"players_per_million":14.22,"player_ids":["nhl:8476525","nhl:8478020"],"label":"Sault Ste. Marie","country":"Canada"},"geometry":{"type":"Polygon","coordinates":[[[-83.981312,49.41325],[-86.468393,48.78046],[-86.763856,47.084746],[-84.748614,46.035179],[-82.388064,46.615408],[-81.919627,48.295316],[-83.981312,49.41325]]]}},{"type":"Feature","properties":{"hex_id":"822777fffffffff","population":202032,"population_year":2025,"area_km2":95515.4,"population_density":2.1,"all_players":5,"players_per_million":24.75,"player_ids":["nhl:8473533","nhl:8476899","nhl:8478406","nhl:8481006","nhl:8483768"],"label":"Thunder Bay","country":"Canada"},"geometry":{"type":"Polygon","coordinates":[[[-88.654124,49.812423],[-91.062897,49.082357],[-91.178447,47.383632],[-89.066565,46.415378],[-86.763856,47.084746],[-86.468393,48.78046],[-88.654124,49.812423]]]}},{"type":"Feature","properties":{"hex_id":"8227a7fffffffff","population":419537,"population_year":2025,"area_km2":89440.6,"population_density":4.7,"all_players":4,"players_per_million":9.53,"player_ids":["nhl:8474586","nhl:8475188","nhl:8476856","nhl:8476923"],"label":"Regina","country":"Canada"},"geometry":{"type":"Polygon","coordinates":[[[-105.449038,52.229056],[-107.466262,51.18753],[-106.930953,49.548823],[-104.544555,48.90848],[-102.539288,49.876702],[-102.902298,51.556776],[-105.449038,52.229056]]]}},{"type":"Feature","properties":{"hex_id":"8227affffffffff","population":222666,"population_year":2025,"area_km2":88726.5,"population_density":2.5,"all_players":4,"players_per_million":17.96,"player_ids":["nhl:8477938","nhl:8479661","nhl:8479985","nhl:8481167"],"label":"Estevan","country":"Canada"},"geometry":{"type":"Polygon","coordinates":[[[-102.539288,49.876702],[-104.544555,48.90848],[-104.143305,47.275028],[-101.894822,46.57467],[-99.917049,47.471519],[-100.155963,49.138168],[-102.539288,49.876702]]]}},{"type":"Feature","properties":{"hex_id":"822837fffffffff","population":14366819,"population_year":2025,"area_km2":89801.2,"population_density":160.0,"all_players":3,"players_per_million":0.21,"player_ids":["nhl:8479318","nhl:8481692","nhl:8482445"],"label":"Los Gatos","country":"United States"},"geometry":{"type":"Polygon","coordinates":[[[-121.707157,36.574218],[-120.150308,37.778361],[-120.625018,39.393868],[-122.699099,39.784231],[-124.231246,38.566387],[-123.715986,36.972296],[-121.707157,36.574218]]]}},{"type":"Feature","properties":{"hex_id":"8228d7fffffffff","population":6638102,"population_year":2025,"area_km2":76219.8,"population_density":87.1,"all_players":10,"players_per_million":1.51,"player_ids":["nhl:8473994","nhl:8477447","nhl:8478038","nhl:8478046","nhl:8478062","nhl:8479395","nhl:8482193","nhl:8482201","nhl:8483709","nhl:8484145"],"label":"Victoria","country":"Canada"},"geometry":{"type":"Polygon","coordinates":[[[-120.980657,46.691537],[-119.232215,47.804097],[-119.747324,49.236416],[-122.065326,49.540804],[-123.785414,48.414997],[-123.218544,46.998589],[-120.980657,46.691537]]]}},{"type":"Feature","properties":{"hex_id":"8228dffffffffff","population":3121728,"population_year":2025,"area_km2":72289.7,"population_density":43.2,"all_players":33,"players_per_million":10.57,"player_ids":["nhl:8475169","nhl:8475455","nhl:8476316","nhl:8476454","nhl:8476853","nhl:8476925","nhl:8477021","nhl:8477465","nhl:8477933","nhl:8478445","nhl:8478450","nhl:8478454","nhl:8478499","nhl:8479359","nhl:8479371","nhl:8479383","nhl:8479442","nhl:8479639","nhl:8479992","nhl:8480860","nhl:8481065","nhl:8481161","nhl:8482088","nhl:8482660","nhl:8482861","nhl:8483114","nhl:8483395","nhl:8483489","nhl:8484144","nhl:8484152","nhl:8484241","nhl:8484801","nhl:8485414"],"label":"Vancouver","country":"Canada"},"geometry":{"type":"Polygon","coordinates":[[[-123.785414,48.414997],[-122.065326,49.540804],[-123.122866,50.984711],[-125.501019,51.20399],[-126.653646,49.99834],[-126.038043,48.646404],[-123.785414,48.414997]]]}},{"type":"Feature","properties":{"hex_id":"8229a7fffffffff","population":26139253,"population_year":2025,"area_km2":97556.0,"population_density":267.9,"all_players":11,"players_per_million":0.42,"player_ids":["nhl:8475722","nhl:8477967","nhl:8479675","nhl:8480027","nhl:8481030","nhl:8481546","nhl:8481564","nhl:8481582","nhl:8482153","nhl:8482804","nhl:8484798"],"label":"Newport Beach","country":"United States"},"geometry":{"type":"Polygon","coordinates":[[[-116.838302,32.260383],[-115.254005,33.431536],[-115.644549,35.13856],[-117.666441,35.65712],[-119.240554,34.468622],[-118.804528,32.779438],[-116.838302,32.260383]]]}},{"type":"Feature","properties":{"hex_id":"822a17fffffffff","population":30364242,"population_year":2025,"area_km2":87326.6,"population_density":347.7,"all_players":35,"players_per_million":1.15,"player_ids":["nhl:8471734","nhl:8474037","nhl:8475151","nhl:8476932","nhl:8477365","nhl:8477454","nhl:8477463","nhl:8477488","nhl:8477845","nhl:8477947","nhl:8479323","nhl:8479325","nhl:8479525","nhl:8479944","nhl:8480113","nhl:8480762","nhl:8480807","nhl:8480835","nhl:8481077","nhl:8481237","nhl:8481519","nhl:8481533","nhl:8481562","nhl:8481569","nhl:8481596","nhl:8481754","nhl:8482055","nhl:8482155","nhl:8482666","nhl:8482679","nhl:8482713","nhl:8482715","nhl:8483548","nhl:8484169","nhl:8485395"],"label":"Darien","country":"United States"},"geometry":{"type":"Polygon","coordinates":[[[-73.076912,42.400493],[-75.333452,42.029564],[-75.960619,40.480497],[-74.442775,39.340569],[-72.307877,39.686062],[-71.573772,41.195725],[-73.076912,42.400493]]]}},{"type":"Feature","properties":{"hex_id":"822a37fffffffff","population":10409321,"population_year":2025,"area_km2":89801.2,"population_density":115.9,"all_players":33,"players_per_million":3.17,"player_ids":["nhl:8474590","nhl:8475184","nhl:8475208","nhl:8475763","nhl:8476278","nhl:8476473","nhl:8476891","nhl:8477839","nhl:8477987","nhl:8478366","nhl:8478396","nhl:8478569","nhl:8478854","nhl:8478856","nhl:8478874","nhl:8478916","nhl:8479193","nhl:8479291","nhl:8480828","nhl:8480887","nhl:8481557","nhl:8481567","nhl:8481593","nhl:8482118","nhl:8482123","nhl:8482132","nhl:8482665","nhl:8482684","nhl:8482941","nhl:8483553","nhl:8484186","nhl:8484227","nhl:8484911"],"label":"Boston","country":"United States"},"geometry":{"type":"Polygon","coordinates":[[[-69.955068,44.277849],[-72.323382,43.964363],[-73.076912,42.400493],[-71.573772,41.195725],[-69.342223,41.490681],[-68.482715,43.008011],[-69.955068,44.277849]]]}},{"type":"Feature","properties":{"hex_id":"822a87fffffffff","population":4299023,"population_year":2025,"area_km2":85294.5,"population_density":50.4,"all_players":5,"players_per_million":1.16,"player_ids":["nhl:8476389","nhl:8476434","nhl:8476438","nhl:8476468","nhl:8483431"],"label":"Pittsburgh","country":"United States"},"geometry":{"type":"Polygon","coordinates":[[[-79.734069,41.163834],[-81.867503,40.674246],[-82.267059,39.125451],[-80.651775,38.089298],[-78.619418,38.540002],[-78.104271,40.06406],[-79.734069,41.163834]]]}},{"type":"Feature","properties":{"hex_id":"822a97fffffffff","population":8425121,"population_year":2025,"area_km2":85627.7,"population_density":98.4,"all_players":5,"players_per_million":0.59,"player_ids":["nhl:8478458","nhl:8480208","nhl:8480748","nhl:8482705","nhl:8483766"],"label":"Columbus","country":"United States"},"geometry":{"type":"Polygon","coordinates":[[[-83.600197,41.724215],[-85.703199,41.161269],[-85.979328,39.596509],[-84.278055,38.60875],[-82.267059,39.125451],[-81.867503,40.674246],[-83.600197,41.724215]]]}},{"type":"Feature","properties":{"hex_id":"822aa7fffffffff","population":3417567,"population_year":2025,"area_km2":88726.5,"population_density":38.5,"all_players":3,"players_per_million":0.88,"player_ids":["nhl:8478043","nhl:8481556","nhl:8483760"],"label":"Elmira","country":"United States"},"geometry":{"type":"Polygon","coordinates":[[[-76.966258,43.195408],[-79.227281,42.744533],[-79.734069,41.163834],[-78.104271,40.06406],[-75.960619,40.480497],[-75.333452,42.029564],[-76.966258,43.195408]]]}},{"type":"Feature","properties":{"hex_id":"822aaffffffffff","population":16213426,"population_year":2025,"area_km2":84307.8,"population_density":192.3,"all_players":2,"players_per_million":0.12,"player_ids":["nhl:8477950","nhl:8480825"],"label":"Sewell","country":"United States"},"geometry":{"type":"Polygon","coordinates":[[[-75.960619,40.480497],[-78.104271,40.06406],[-78.619418,38.540002],[-77.099922,37.463561],[-75.063317,37.849069],[-74.442775,39.340569],[-75.960619,40.480497]]]}},{"type":"Feature","properties":{"hex_id":"822ab7fffffffff","population":10815218,"population_year":2025,"area_km2":89440.6,"population_density":120.9,"all_players":55,"players_per_million":5.09,"player_ids":["nhl:8474563","nhl:8474641","nhl:8475158","nhl:8475172","nhl:8475764","nhl:8475810","nhl:8476331","nhl:8476432","nhl:8476460","nhl:8476871","nhl:8476885","nhl:8476907","nhl:8477446","nhl:8477500","nhl:8477851","nhl:8477932","nhl:8477955","nhl:8477968","nhl:8477986","nhl:8478057","nhl:8478173","nhl:8478424","nhl:8478439","nhl:8478460","nhl:8478841","nhl:8478904","nhl:8478911","nhl:8479337","nhl:8479368","nhl:8479378","nhl:8479414","nhl:8479980","nhl:8480018","nhl:8480021","nhl:8480022","nhl:8480051","nhl:8480064","nhl:8480196","nhl:8480259","nhl:8480831","nhl:8481655","nhl:8481715","nhl:8482516","nhl:8482663","nhl:8482733","nhl:8482982","nhl:8482993","nhl:8483452","nhl:8483493","nhl:8483890","nhl:8484136","nhl:8484158","nhl:8484779","nhl:8485405","nhl:8485512"],"label":"London","country":"Canada"},"geometry":{"type":"Polygon","coordinates":[[[-80.982253,43.86012],[-83.224953,43.327485],[-83.600197,41.724215],[-81.867503,40.674246],[-79.734069,41.163834],[-79.227281,42.744533],[-80.982253,43.86012]]]}},{"type":"Feature","properties":{"hex_id":"822ad7fffffffff","population":3814677,"population_year":2025,"area_km2":76219.8,"population_density":50.0,"all_players":2,"players_per_million":0.52,"player_ids":["nhl:8480291","nhl:8480891"],"label":"Florence","country":"United States"},"geometry":{"type":"Polygon","coordinates":[[[-77.618683,35.999192],[-79.557618,35.583567],[-79.985888,34.15372],[-78.568356,33.165261],[-76.715776,33.549278],[-76.1969,34.952047],[-77.618683,35.999192]]]}},{"type":"Feature","properties":{"hex_id":"822b07fffffffff","population":801699,"population_year":2025,"area_km2":92775.6,"population_density":8.6,"all_players":5,"players_per_million":6.24,"player_ids":["nhl:8475717","nhl:8477527","nhl:8479026","nhl:8479772","nhl:8480865"],"label":"Charlottetown","country":"Canada"},"geometry":{"type":"Polygon","coordinates":[[[-62.962865,47.807221],[-65.535701,47.644896],[-66.585251,46.088503],[-65.162942,44.754772],[-62.755621,44.916521],[-61.612904,46.412467],[-62.962865,47.807221]]]}},{"type":"Feature","properties":{"hex_id":"822b0ffffffffff","population":550997,"population_year":2025,"area_km2":88726.5,"population_density":6.2,"all_players":9,"players_per_million":16.33,"player_ids":["nhl:8471675","nhl:8473419","nhl:8473986","nhl:8477070","nhl:8477492","nhl:8480289","nhl:8482111","nhl:8482874","nhl:8484901"],"label":"Halifax","country":"Canada"},"geometry":{"type":"Polygon","coordinates":[[[-62.755621,44.916521],[-65.162942,44.754772],[-66.159126,43.241648],[-64.835193,41.948534],[-62.573477,42.109998],[-61.496538,43.564806],[-62.755621,44.916521]]]}},{"type":"Feature","properties":{"hex_id":"822b17fffffffff","population":496146,"population_year":2025,"area_km2":95515.4,"population_density":5.2,"all_players":3,"players_per_million":6.05,"player_ids":["nhl:8479705","nhl:8480426","nhl:8482673"],"label":"Rimouski","country":"Canada"},"geometry":{"type":"Polygon","coordinates":[[[-67.071751,49.013089],[-69.719479,48.757432],[-70.65056,47.146099],[-69.060562,45.844655],[-66.585251,46.088503],[-65.535701,47.644896],[-67.071751,49.013089]]]}},{"type":"Feature","properties":{"hex_id":"822b1ffffffffff","population":827144,"population_year":2025,"area_km2":91641.3,"population_density":9.0,"all_players":2,"players_per_million":2.42,"player_ids":["nhl:8474596","nhl:8477435"],"label":"Fredericton","country":"Canada"},"geometry":{"type":"Polygon","coordinates":[[[-66.585251,46.088503],[-69.060562,45.844655],[-69.955068,44.277849],[-68.482715,43.008011],[-66.159126,43.241648],[-65.162942,44.754772],[-66.585251,46.088503]]]}},{"type":"Feature","properties":{"hex_id":"822b2ffffffffff","population":165871,"population_year":2025,"area_km2":89440.6,"population_density":1.9,"all_players":1,"players_per_million":6.03,"player_ids":["nhl:8481551"],"label":"Whycocomagh","country":"Canada"},"geometry":{"type":"Polygon","coordinates":[[[-59.13452,46.492537],[-61.612904,46.412467],[-62.755621,44.916521],[-61.496538,43.564806],[-59.172925,43.654244],[-57.960688,45.086432],[-59.13452,46.492537]]]}},{"type":"Feature","properties":{"hex_id":"822b87fffffffff","population":3438566,"population_year":2025,"area_km2":95515.4,"population_density":36.0,"all_players":17,"players_per_million":4.94,"player_ids":["nhl:8475790","nhl:8476419","nhl:8476456","nhl:8476879","nhl:8477149","nhl:8477346","nhl:8480075","nhl:8481591","nhl:8482097","nhl:8482131","nhl:8482148","nhl:8482730","nhl:8482731","nhl:8483546","nhl:8484148","nhl:8484529","nhl:8485467"],"label":"Ottawa","country":"Canada"},"geometry":{"type":"Polygon","coordinates":[[[-74.929476,48.066013],[-77.471719,47.634566],[-78.100366,45.982432],[-76.33587,44.798413],[-73.944231,45.197835],[-73.17262,46.811656],[-74.929476,48.066013]]]}},{"type":"Feature","properties":{"hex_id":"822b8ffffffffff","population":3267276,"population_year":2025,"area_km2":91641.3,"population_density":35.7,"all_players":8,"players_per_million":2.45,"player_ids":["nhl:8474567","nhl:8477018","nhl:8477949","nhl:8478413","nhl:8480014","nhl:8480797","nhl:8481581","nhl:8481789"],"label":"Syracuse","country":"United States"},"geometry":{"type":"Polygon","coordinates":[[[-73.944231,45.197835],[-76.33587,44.798413],[-76.966258,43.195408],[-75.333452,42.029564],[-73.076912,42.400493],[-72.323382,43.964363],[-73.944231,45.197835]]]}},{"type":"Feature","properties":{"hex_id":"822b97fffffffff","population":412548,"population_year":2025,"area_km2":96323.1,"population_density":4.3,"all_players":3,"players_per_million":7.27,"player_ids":["nhl:8476867","nhl:8477479","nhl:8479638"],"label":"Sudbury","country":"Canada"},"geometry":{"type":"Polygon","coordinates":[[[-79.388156,48.827345],[-81.919627,48.295316],[-82.388064,46.615408],[-80.490261,45.49319],[-78.100366,45.982432],[-77.471719,47.634566],[-79.388156,48.827345]]]}},{"type":"Feature","properties":{"hex_id":"822b9ffffffffff","population":11744141,"population_year":2025,"area_km2":92775.6,"population_density":126.6,"all_players":117,"players_per_million":9.96,"player_ids":["nhl:8470613","nhl:8470621","nhl:8473422","nhl:8474090","nhl:8474141","nhl:8474564","nhl:8475166","nhl:8475191","nhl:8475220","nhl:8475231","nhl:8475253","nhl:8475279","nhl:8475690","nhl:8475784","nhl:8475786","nhl:8475794","nhl:8475809","nhl:8475842","nhl:8476374","nhl:8476393","nhl:8476412","nhl:8476458","nhl:8476462","nhl:8476467","nhl:8476624","nhl:8476872","nhl:8476873","nhl:8476880","nhl:8476917","nhl:8476981","nhl:8477015","nhl:8477409","nhl:8477425","nhl:8477426","nhl:8477450","nhl:8477484","nhl:8477497","nhl:8477498","nhl:8477810","nhl:8477952","nhl:8477998","nhl:8478013","nhl:8478133","nhl:8478178","nhl:8478233","nhl:8478402","nhl:8478407","nhl:8478440","nhl:8478476","nhl:8478483","nhl:8478502","nhl:8478519","nhl:8478542","nhl:8478975","nhl:8479066","nhl:8479293","nhl:8479385","nhl:8479388","nhl:8479390","nhl:8479543","nhl:8479619","nhl:8479644","nhl:8479941","nhl:8479981","nhl:8479982","nhl:8479983","nhl:8480015","nhl:8480023","nhl:8480028","nhl:8480084","nhl:8480192","nhl:8480336","nhl:8480434","nhl:8480802","nhl:8480803","nhl:8480848","nhl:8480849","nhl:8480855","nhl:8480876","nhl:8480990","nhl:8481577","nhl:8481580","nhl:8482124","nhl:8482142","nhl:8482146","nhl:8482149","nhl:8482157","nhl:8482159","nhl:8482192","nhl:8482206","nhl:8482209","nhl:8482408","nhl:8482479","nhl:8482525","nhl:8482671","nhl:8482740","nhl:8482747","nhl:8482751","nhl:8482807","nhl:8482964","nhl:8483424","nhl:8483448","nhl:8483505","nhl:8483524","nhl:8483676","nhl:8483696","nhl:8484142","nhl:8484185","nhl:8484214","nhl:8484221","nhl:8484403","nhl:8484762","nhl:8484768","nhl:8484806","nhl:8485366","nhl:8485402","nhl:8485406"],"label":"Toronto","country":"Canada"},"geometry":{"type":"Polygon","coordinates":[[[-78.100366,45.982432],[-80.490261,45.49319],[-80.982253,43.86012],[-79.227281,42.744533],[-76.966258,43.195408],[-76.33587,44.798413],[-78.100366,45.982432]]]}},{"type":"Feature","properties":{"hex_id":"822ba7fffffffff","population":326761,"population_year":2025,"area_km2":97556.0,"population_density":3.3,"all_players":2,"players_per_million":6.12,"player_ids":["nhl:8479398","nhl:8481093"],"label":"Roberval","country":"Canada"},"geometry":{"type":"Polygon","coordinates":[[[-71.446376,50.082738],[-74.142303,49.724417],[-74.929476,48.066013],[-73.17262,46.811656],[-70.65056,47.146099],[-69.719479,48.757432],[-71.446376,50.082738]]]}},{"type":"Feature","properties":{"hex_id":"822baffffffffff","population":6643169,"population_year":2025,"area_km2":93933.6,"population_density":70.7,"all_players":41,"players_per_million":6.17,"player_ids":["nhl:8471724","nhl:8474102","nhl:8476479","nhl:8476826","nhl:8476875","nhl:8477073","nhl:8477407","nhl:8477511","nhl:8477919","nhl:8478104","nhl:8478147","nhl:8478409","nhl:8478421","nhl:8478463","nhl:8478469","nhl:8478470","nhl:8478472","nhl:8478851","nhl:8479576","nhl:8479718","nhl:8480058","nhl:8480813","nhl:8481122","nhl:8481219","nhl:8481534","nhl:8481592","nhl:8481594","nhl:8481806","nhl:8481848","nhl:8482145","nhl:8482174","nhl:8482737","nhl:8482742","nhl:8483444","nhl:8483472","nhl:8483482","nhl:8483699","nhl:8483841","nhl:8484210","nhl:8484428","nhl:8484793"],"label":"Montréal","country":"Canada"},"geometry":{"type":"Polygon","coordinates":[[[-70.65056,47.146099],[-73.17262,46.811656],[-73.944231,45.197835],[-72.323382,43.964363],[-69.955068,44.277849],[-69.060562,45.844655],[-70.65056,47.146099]]]}},{"type":"Feature","properties":{"hex_id":"822bb7fffffffff","population":99637,"population_year":2025,"area_km2":98815.5,"population_density":1.0,"all_players":2,"players_per_million":20.07,"player_ids":["nhl:8478462","nhl:8478468"],"label":"Amos","country":"Canada"},"geometry":{"type":"Polygon","coordinates":[[[-76.057729,50.990211],[-78.768436,50.522629],[-79.388156,48.827345],[-77.471719,47.634566],[-74.929476,48.066013],[-74.142303,49.724417],[-76.057729,50.990211]]]}},{"type":"Feature","properties":{"hex_id":"822d57fffffffff","population":4982574,"population_year":2025,"area_km2":85321.7,"population_density":58.4,"all_players":1,"players_per_million":0.2,"player_ids":["nhl:8476453"],"label":"Maykop","country":"Russia"},"geometry":{"type":"Polygon","coordinates":[[[38.777546,44.198571],[39.938746,42.736298],[42.150674,42.631271],[43.258395,44.047542],[42.146575,45.539505],[39.897167,45.559577],[38.777546,44.198571]]]}},{"type":"Feature","properties":{"hex_id":"822ecffffffffff","population":756179,"population_year":2025,"area_km2":70058.2,"population_density":10.8,"all_players":1,"players_per_million":1.32,"player_ids":["nhl:8483491"],"label":"Ussuriysk","country":"Russia"},"geometry":{"type":"Polygon","coordinates":[[[135.186742,43.839886],[135.181571,45.431107],[133.431382,46.137636],[131.774401,45.253613],[131.861724,43.699224],[133.526114,42.991792],[135.186742,43.839886]]]}},{"type":"Feature","properties":{"hex_id":"824417fffffffff","population":1532020,"population_year":2025,"area_km2":80544.7,"population_density":19.0,"all_players":2,"players_per_million":1.31,"player_ids":["nhl:8477903","nhl:8484149"],"label":"Fort Myers","country":"United States"},"geometry":{"type":"Polygon","coordinates":[[[-82.310403,23.682659],[-80.82969,24.429618],[-80.698565,26.062694],[-82.084301,26.984013],[-83.616841,26.242156],[-83.710823,24.573869],[-82.310403,23.682659]]]}},{"type":"Feature","properties":{"hex_id":"824447fffffffff","population":3715636,"population_year":2025,"area_km2":92775.6,"population_density":40.0,"all_players":1,"players_per_million":0.27,"player_ids":["nhl:8482511"],"label":"Baton Rouge","country":"United States"},"geometry":{"type":"Polygon","coordinates":[[[-91.44306,29.038514],[-89.789168,29.876068],[-89.779473,31.590738],[-91.474426,32.491469],[-93.177711,31.651131],[-93.135951,29.913303],[-91.44306,29.038514]]]}},{"type":"Feature","properties":{"hex_id":"824457fffffffff","population":2432844,"population_year":2025,"area_km2":88726.5,"population_density":27.4,"all_players":1,"players_per_million":0.41,"player_ids":["nhl:8479671"],"label":"Biloxi","country":"United States"},"geometry":{"type":"Polygon","coordinates":[[[-88.170272,28.973403],[-86.545778,29.759287],[-86.487848,31.44625],[-88.101738,32.375354],[-89.779473,31.590738],[-89.789168,29.876068],[-88.170272,28.973403]]]}},{"type":"Feature","properties":{"hex_id":"82446ffffffffff","population":9292440,"population_year":2025,"area_km2":96323.1,"population_density":96.5,"all_players":2,"players_per_million":0.22,"player_ids":["nhl:8474574","nhl:8481186"],"label":"Missouri City","country":"United States"},"geometry":{"type":"Polygon","coordinates":[[[-94.808948,29.022702],[-93.135951,29.913303],[-93.177711,31.651131],[-94.945821,32.516906],[-96.66289,31.619531],[-96.567347,29.863731],[-94.808948,29.022702]]]}},{"type":"Feature","properties":{"hex_id":"8244a7fffffffff","population":5328381,"population_year":2025,"area_km2":75672.4,"population_density":70.4,"all_players":3,"players_per_million":0.56,"player_ids":["nhl:8476906","nhl:8477034","nhl:8483429"],"label":"Pembroke Pines","country":"United States"},"geometry":{"type":"Polygon","coordinates":[[[-79.508242,23.533066],[-78.073265,24.24011],[-77.908907,25.835601],[-79.211732,26.761492],[-80.698565,26.062694],[-80.82969,24.429618],[-79.508242,23.533066]]]}},{"type":"Feature","properties":{"hex_id":"8244affffffffff","population":7848067,"population_year":2025,"area_km2":77902.3,"population_density":100.7,"all_players":6,"players_per_million":0.76,"player_ids":["nhl:8479345","nhl:8479369","nhl:8479520","nhl:8480800","nhl:8481559","nhl:8484170"],"label":"Orlando","country":"United States"},"geometry":{"type":"Polygon","coordinates":[[[-80.698565,26.062694],[-79.211732,26.761492],[-79.057436,28.372892],[-80.425375,29.321821],[-81.966494,28.631807],[-82.084301,26.984013],[-80.698565,26.062694]]]}},{"type":"Feature","properties":{"hex_id":"8244d7fffffffff","population":1889865,"population_year":2025,"area_km2":76219.8,"population_density":24.8,"all_players":1,"players_per_million":0.53,"player_ids":["nhl:8477451"],"label":"Hilton Head Island","country":"United States"},"geometry":{"type":"Polygon","coordinates":[[[-80.283005,30.942583],[-78.735928,31.57726],[-78.568356,33.165261],[-79.985888,34.15372],[-81.592393,33.531156],[-81.720688,31.908012],[-80.283005,30.942583]]]}},{"type":"Feature","properties":{"hex_id":"8248effffffffff","population":7170957,"population_year":2025,"area_km2":101417.2,"population_density":70.7,"all_players":8,"players_per_million":1.12,"player_ids":["nhl:8476461","nhl:8479314","nhl:8479420","nhl:8480355","nhl:8480801","nhl:8482659","nhl:8482720","nhl:8486169"],"label":"Phoenix","country":"United States"},"geometry":{"type":"Polygon","coordinates":[[[-110.973266,30.491571],[-109.334035,31.601966],[-109.632511,33.353313],[-111.622726,33.985325],[-113.268008,32.856905],[-112.918132,31.115173],[-110.973266,30.491571]]]}},{"type":"Feature","properties":{"hex_id":"82bcc7fffffffff","population":16401038,"population_year":2025,"area_km2":95515.4,"population_density":171.7,"all_players":1,"players_per_million":0.06,"player_ids":["nhl:8484839"],"label":"Johannesburg","country":"South Africa"},"geometry":{"type":"Polygon","coordinates":[[[29.424697,-28.585894],[30.161044,-27.015106],[28.952033,-25.669244],[27.013681,-25.892672],[26.259296,-27.461202],[27.460057,-28.808795],[29.424697,-28.585894]]]}},{"type":"Feature","properties":{"hex_id":"82be0ffffffffff","population":6793674,"population_year":2025,"area_km2":104135.0,"population_density":65.2,"all_players":1,"players_per_million":0.15,"player_ids":["nhl:8481606"],"label":"Manly","country":"Australia"},"geometry":{"type":"Polygon","coordinates":[[[152.177285,-35.125129],[152.420459,-33.332138],[150.704674,-32.253721],[148.729494,-32.935272],[148.409969,-34.714468],[150.140595,-35.826845],[152.177285,-35.125129]]]}}]}