{"type":"FeatureCollection","metadata":{"population_source":"WorldPop Global 2 R2025A","population_source_url":"https://hub.worldpop.org/project/categories?id=3","population_license":"CC BY 4.0","population_year":2025,"raster_resolution":"1km","h3_resolution":3,"population_method":"official_country_rasters","occupied_cells":144,"mapped_players":388},"features":[{"type":"Feature","properties":{"hex_id":"831825fffffffff","population":616884,"population_year":2025,"area_km2":11308.9,"population_density":54.5,"all_players":2,"players_per_million":3.24,"player_ids":["cricket:cricsheet:66498395","cricket:cricsheet:bd0a4a7d"],"label":"Derry","country":"United Kingdom"},"geometry":{"type":"Polygon","coordinates":[[[-7.446442,55.596185],[-8.206991,55.227804],[-7.94931,54.644476],[-6.952147,54.429814],[-6.199841,54.79442],[-6.436337,55.37739],[-7.446442,55.596185]]]}},{"type":"Feature","properties":{"hex_id":"83182cfffffffff","population":2322217,"population_year":2025,"area_km2":11583.9,"population_density":200.5,"all_players":19,"players_per_million":8.18,"player_ids":["cricket:cricsheet:0348f9a5","cricket:cricsheet:07248d8e","cricket:cricsheet:0b69a844","cricket:cricsheet:1a448be0","cricket:cricsheet:1b1c23bb","cricket:cricsheet:1b9d1579","cricket:cricsheet:33b3d2df","cricket:cricsheet:3766056b","cricket:cricsheet:3979b5e0","cricket:cricsheet:43f4087c","cricket:cricsheet:4f86926b","cricket:cricsheet:59ea70a4","cricket:cricsheet:9061a703","cricket:cricsheet:99cddc5e","cricket:cricsheet:b4f73b44","cricket:cricsheet:def7b1bb","cricket:cricsheet:e3fe4b49","cricket:cricsheet:ef2bcebf","cricket:cricsheet:f888a374"],"label":"Dublin","country":"Ireland"},"geometry":{"type":"Polygon","coordinates":[[[-6.713499,53.841054],[-7.451495,53.466543],[-7.210985,52.872185],[-6.252288,52.652997],[-5.522484,53.023946],[-5.743092,53.617578],[-6.713499,53.841054]]]}},{"type":"Feature","properties":{"hex_id":"831942fffffffff","population":7293042,"population_year":2025,"area_km2":10924.8,"population_density":667.6,"all_players":5,"players_per_million":0.69,"player_ids":["cricket:cricsheet:249d60c9","cricket:cricsheet:4ae1755b","cricket:cricsheet:4ba0289e","cricket:cricsheet:65b6943c","cricket:cricsheet:989889ff"],"label":"بریڈفورڈ","country":"United Kingdom"},"geometry":{"type":"Polygon","coordinates":[[[-1.609057,54.177066],[-2.359345,53.842543],[-2.178886,53.251551],[-1.268165,52.996914],[-0.529171,53.3287],[-0.689598,53.917795],[-1.609057,54.177066]]]}},{"type":"Feature","properties":{"hex_id":"831943fffffffff","population":3138363,"population_year":2025,"area_km2":10924.8,"population_density":287.3,"all_players":2,"players_per_million":0.64,"player_ids":["cricket:cricsheet:0ecb4de6","cricket:cricsheet:78fd864b"],"label":"Nottingham","country":"United Kingdom"},"geometry":{"type":"Polygon","coordinates":[[[-0.529171,53.3287],[-1.268165,52.996914],[-1.103494,52.402317],[-0.219137,52.141681],[0.508374,52.470966],[0.362999,53.063327],[-0.529171,53.3287]]]}},{"type":"Feature","properties":{"hex_id":"831946fffffffff","population":1540753,"population_year":2025,"area_km2":10691.6,"population_density":144.1,"all_players":1,"players_per_million":0.65,"player_ids":["cricket:cricsheet:894b2d25"],"label":"Sunderland","country":"United Kingdom"},"geometry":{"type":"Polygon","coordinates":[[[-1.021902,55.086581],[-1.785543,54.762388],[-1.609057,54.177066],[-0.689598,53.917795],[0.062038,54.239312],[-0.093784,54.822708],[-1.021902,55.086581]]]}},{"type":"Feature","properties":{"hex_id":"831948fffffffff","population":1353290,"population_year":2025,"area_km2":10891.0,"population_density":124.3,"all_players":2,"players_per_million":1.48,"player_ids":["cricket:cricsheet:b2664905","cricket:cricsheet:ff154ecd"],"label":"Margate","country":"United Kingdom"},"geometry":{"type":"Polygon","coordinates":[[[1.505381,51.605101],[0.789471,51.278095],[0.925401,50.677831],[1.759362,50.407376],[2.463609,50.732311],[2.345517,51.329719],[1.505381,51.605101]]]}},{"type":"Feature","properties":{"hex_id":"83194afffffffff","population":6871941,"population_year":2025,"area_km2":11131.6,"population_density":617.3,"all_players":8,"players_per_million":1.16,"player_ids":["cricket:cricsheet:3a9e9cb2","cricket:cricsheet:5f26f677","cricket:cricsheet:70d57519","cricket:cricsheet:910dd54e","cricket:cricsheet:abc9f8a4","cricket:cricsheet:c834c290","cricket:cricsheet:cb9b8664","cricket:cricsheet:e5b17517"],"label":"Farnborough","country":"United Kingdom"},"geometry":{"type":"Polygon","coordinates":[[[-0.069294,51.543996],[-0.785076,51.204689],[-0.631095,50.601911],[0.220599,50.340898],[0.925401,50.677831],[0.789471,51.278095],[-0.069294,51.543996]]]}},{"type":"Feature","properties":{"hex_id":"831951fffffffff","population":5457858,"population_year":2025,"area_km2":11149.1,"population_density":489.5,"all_players":2,"players_per_million":0.37,"player_ids":["cricket:cricsheet:3d284ca3","cricket:cricsheet:cdb82f1c"],"label":"Bodelwyddan","country":"United Kingdom"},"geometry":{"type":"Polygon","coordinates":[[[-3.297175,54.090428],[-4.044754,53.742706],[-3.844199,53.150199],[-2.916127,52.906861],[-2.178886,53.251551],[-2.359345,53.842543],[-3.297175,54.090428]]]}},{"type":"Feature","properties":{"hex_id":"831952fffffffff","population":1386449,"population_year":2025,"area_km2":11344.9,"population_density":122.2,"all_players":6,"players_per_million":4.33,"player_ids":["cricket:cricsheet:2c54c49b","cricket:cricsheet:4ec96094","cricket:cricsheet:5a50471c","cricket:cricsheet:cf494ffe","cricket:cricsheet:e8fa03ed","cricket:cricsheet:fc55ec67"],"label":"Belfast","country":"United Kingdom"},"geometry":{"type":"Polygon","coordinates":[[[-6.199841,54.79442],[-6.952147,54.429814],[-6.713499,53.841054],[-5.743092,53.617578],[-4.999608,53.978646],[-5.21762,54.566658],[-6.199841,54.79442]]]}},{"type":"Feature","properties":{"hex_id":"831955fffffffff","population":646976,"population_year":2025,"area_km2":10913.5,"population_density":59.3,"all_players":1,"players_per_million":1.55,"player_ids":["cricket:cricsheet:50c6bc2b"],"label":"Barrow-in-Furness","country":"United Kingdom"},"geometry":{"type":"Polygon","coordinates":[[[-2.733111,55.014799],[-3.494429,54.677292],[-3.297175,54.090428],[-2.359345,53.842543],[-1.609057,54.177066],[-1.785543,54.762388],[-2.733111,55.014799]]]}},{"type":"Feature","properties":{"hex_id":"831958fffffffff","population":4033735,"population_year":2025,"area_km2":11381.2,"population_density":354.4,"all_players":3,"players_per_million":0.74,"player_ids":["cricket:cricsheet:31adb911","cricket:cricsheet:38b4583c","cricket:cricsheet:4a461c24"],"label":"Swindon","country":"United Kingdom"},"geometry":{"type":"Polygon","coordinates":[[[-2.732038,52.310399],[-3.456535,51.955725],[-3.269136,51.354012],[-2.376039,51.108741],[-1.661533,51.460545],[-1.830112,52.060429],[-2.732038,52.310399]]]}},{"type":"Feature","properties":{"hex_id":"831959fffffffff","population":2822038,"population_year":2025,"area_km2":11369.1,"population_density":248.2,"all_players":1,"players_per_million":0.35,"player_ids":["cricket:cricsheet:d405c0d5"],"label":"Bournemouth","country":"United Kingdom"},"geometry":{"type":"Polygon","coordinates":[[[-1.661533,51.460545],[-2.376039,51.108741],[-2.20387,50.503806],[-1.335378,50.252773],[-0.631095,50.601911],[-0.785076,51.204689],[-1.661533,51.460545]]]}},{"type":"Feature","properties":{"hex_id":"83195afffffffff","population":1195403,"population_year":2025,"area_km2":11608.9,"population_density":103.0,"all_players":1,"players_per_million":0.84,"player_ids":["cricket:cricsheet:59559bc2"],"label":"Barnstaple","country":"United Kingdom"},"geometry":{"type":"Polygon","coordinates":[[[-4.374849,52.194492],[-5.095975,51.826891],[-4.88976,51.223728],[-3.981187,50.989554],[-3.269136,51.354012],[-3.456535,51.955725],[-4.374849,52.194492]]]}},{"type":"Feature","properties":{"hex_id":"83195bfffffffff","population":1404618,"population_year":2025,"area_km2":11602.6,"population_density":121.1,"all_players":2,"players_per_million":1.42,"player_ids":["cricket:cricsheet:78c12883","cricket:cricsheet:99b75528"],"label":"Taunton","country":"United Kingdom"},"geometry":{"type":"Polygon","coordinates":[[[-3.269136,51.354012],[-3.981187,50.989554],[-3.790778,50.382829],[-2.906528,50.142292],[-2.20387,50.503806],[-2.376039,51.108741],[-3.269136,51.354012]]]}},{"type":"Feature","properties":{"hex_id":"83195cfffffffff","population":7086124,"population_year":2025,"area_km2":11155.0,"population_density":635.2,"all_players":5,"players_per_million":0.71,"player_ids":["cricket:cricsheet:0f6db197","cricket:cricsheet:a139c379","cricket:cricsheet:b05e45e4","cricket:cricsheet:b34e0c77","cricket:cricsheet:c6625a26"],"label":"Birmingham","country":"United Kingdom"},"geometry":{"type":"Polygon","coordinates":[[[-2.178886,53.251551],[-2.916127,52.906861],[-2.732038,52.310399],[-1.830112,52.060429],[-1.103494,52.402317],[-1.268165,52.996914],[-2.178886,53.251551]]]}},{"type":"Feature","properties":{"hex_id":"83195dfffffffff","population":9049238,"population_year":2025,"area_km2":11149.1,"population_density":811.7,"all_players":5,"players_per_million":0.55,"player_ids":["cricket:cricsheet:25f7b7d6","cricket:cricsheet:340202b0","cricket:cricsheet:9caf69a1","cricket:cricsheet:c2554b59","cricket:cricsheet:e94915e6"],"label":"Northampton","country":"United Kingdom"},"geometry":{"type":"Polygon","coordinates":[[[-1.103494,52.402317],[-1.830112,52.060429],[-1.661533,51.460545],[-0.785076,51.204689],[-0.069294,51.543996],[-0.219137,52.141681],[-1.103494,52.402317]]]}},{"type":"Feature","properties":{"hex_id":"831973fffffffff","population":1485946,"population_year":2025,"area_km2":10675.2,"population_density":139.2,"all_players":1,"players_per_million":0.67,"player_ids":["cricket:cricsheet:8d92a2c3"],"label":"Ashington","country":"United Kingdom"},"geometry":{"type":"Polygon","coordinates":[[[-2.151313,55.922966],[-2.926718,55.595835],[-2.733111,55.014799],[-1.785543,54.762388],[-1.021902,55.086581],[-1.194049,55.666051],[-2.151313,55.922966]]]}},{"type":"Feature","properties":{"hex_id":"832093fffffffff","population":4576416,"population_year":2025,"area_km2":14045.3,"population_density":325.8,"all_players":1,"players_per_million":0.22,"player_ids":["cricket:cricsheet:45a7e761"],"label":"Khyber District","country":"Pakistan"},"geometry":{"type":"Polygon","coordinates":[[[70.010587,34.426597],[70.389905,33.849247],[71.191921,33.821122],[71.628646,34.369856],[71.25737,34.953252],[70.441122,34.981877],[70.010587,34.426597]]]}},{"type":"Feature","properties":{"hex_id":"832099fffffffff","population":394535,"population_year":2025,"area_km2":14227.8,"population_density":27.7,"all_players":1,"players_per_million":2.53,"player_ids":["cricket:cricsheet:a51e6c6e"],"label":"Gilgit","country":"Pakistan"},"geometry":{"type":"Polygon","coordinates":[[[73.812031,35.972511],[74.165199,35.377766],[74.982682,35.323993],[75.461394,35.863219],[75.118298,36.463216],[74.286207,36.518761],[73.812031,35.972511]]]}},{"type":"Feature","properties":{"hex_id":"83209efffffffff","population":9626691,"population_year":2025,"area_km2":14123.1,"population_density":681.6,"all_players":1,"players_per_million":0.1,"player_ids":["cricket:cricsheet:9c9af282"],"label":"Lower Dir District","country":"Pakistan"},"geometry":{"type":"Polygon","coordinates":[[[71.25737,34.953252],[71.628646,34.369856],[72.436532,34.333518],[72.88733,34.879674],[72.524769,35.468877],[71.702486,35.506132],[71.25737,34.953252]]]}},{"type":"Feature","properties":{"hex_id":"8328defffffffff","population":2910777,"population_year":2025,"area_km2":10449.9,"population_density":278.5,"all_players":1,"players_per_million":0.34,"player_ids":["cricket:cricsheet:24ad97e7"],"label":"Vancouver","country":"Canada"},"geometry":{"type":"Polygon","coordinates":[[[-122.483019,49.023551],[-122.065326,49.540804],[-122.693479,49.991247],[-123.537049,49.895381],[-123.603627,49.715402],[-123.874258,49.369796],[-123.38243,48.938973],[-122.483019,49.023551]]]}},{"type":"Feature","properties":{"hex_id":"832a10fffffffff","population":17834994,"population_year":2025,"area_km2":12479.4,"population_density":1429.2,"all_players":1,"players_per_million":0.06,"player_ids":["cricket:cricsheet:a6bab2a9"],"label":"The Bronx","country":"United States"},"geometry":{"type":"Polygon","coordinates":[[[-73.803296,41.465407],[-74.532183,41.140409],[-74.501617,40.535843],[-73.761104,40.255982],[-73.041153,40.572801],[-73.052763,41.177546],[-73.803296,41.465407]]]}},{"type":"Feature","properties":{"hex_id":"832f5afffffffff","population":24486504,"population_year":2025,"area_km2":11478.7,"population_density":2133.2,"all_players":1,"players_per_million":0.04,"player_ids":["cricket:cricsheet:f3a18a0c"],"label":"Tokyo","country":"Japan"},"geometry":{"type":"Polygon","coordinates":[[[140.827794,35.672072],[140.638685,36.278739],[139.948213,36.441778],[139.458427,36.000295],[139.653549,35.399825],[140.332575,35.234652],[140.827794,35.672072]]]}},{"type":"Feature","properties":{"hex_id":"833c19fffffffff","population":14198901,"population_year":2025,"area_km2":12870.5,"population_density":1103.2,"all_players":3,"players_per_million":0.21,"player_ids":["cricket:cricsheet:721e0199","cricket:cricsheet:7b51bfa4","cricket:cricsheet:bb34fd31"],"label":"Panchagarh District","country":"Bangladesh"},"geometry":{"type":"Polygon","coordinates":[[[89.397877,26.287853],[89.199167,26.879845],[88.499811,27.005878],[88.002552,26.541295],[88.202516,25.950246],[88.898534,25.822817],[89.397877,26.287853]]]}},{"type":"Feature","properties":{"hex_id":"833c1bfffffffff","population":14173928,"population_year":2025,"area_km2":13050.9,"population_density":1086.1,"all_players":2,"players_per_million":0.14,"player_ids":["cricket:cricsheet:0404d43c","cricket:cricsheet:f2670a3d"],"label":"Dinajpur","country":"Bangladesh"},"geometry":{"type":"Polygon","coordinates":[[[89.096899,25.224827],[88.898534,25.822817],[88.202516,25.950246],[87.708253,25.481127],[87.907814,24.884189],[88.600489,24.755298],[89.096899,25.224827]]]}},{"type":"Feature","properties":{"hex_id":"833c93fffffffff","population":4912626,"population_year":2025,"area_km2":13520.8,"population_density":363.3,"all_players":1,"players_per_million":0.2,"player_ids":["cricket:cricsheet:aad0c365"],"label":"Visakhapatnam","country":"India"},"geometry":{"type":"Polygon","coordinates":[[[83.921451,17.596565],[83.723314,18.217323],[83.062958,18.343835],[82.60436,17.852004],[82.802842,17.233667],[83.45962,17.10473],[83.921451,17.596565]]]}},{"type":"Feature","properties":{"hex_id":"833cc2fffffffff","population":10803514,"population_year":2025,"area_km2":13816.5,"population_density":781.9,"all_players":1,"players_per_million":0.09,"player_ids":["cricket:cricsheet:489aaf0a"],"label":"Chattogram","country":"Bangladesh"},"geometry":{"type":"Polygon","coordinates":[[[92.656717,22.19763],[92.465639,22.820435],[91.770268,22.97215],[91.268903,22.501846],[91.461709,21.879741],[92.154198,21.72722],[92.656717,22.19763]]]}},{"type":"Feature","properties":{"hex_id":"833cc4fffffffff","population":13110834,"population_year":2025,"area_km2":13472.5,"population_density":973.2,"all_players":1,"players_per_million":0.08,"player_ids":["cricket:cricsheet:cd56a813"],"label":"Habiganj District","country":"Bangladesh"},"geometry":{"type":"Polygon","coordinates":[[[92.081327,24.055227],[91.888094,24.666951],[91.189067,24.812022],[90.686309,24.346284],[90.881202,23.735249],[91.577241,23.589241],[92.081327,24.055227]]]}},{"type":"Feature","properties":{"hex_id":"833cc6fffffffff","population":19089952,"population_year":2025,"area_km2":13642.7,"population_density":1399.3,"all_players":2,"players_per_million":0.1,"player_ids":["cricket:cricsheet:80ad39ac","cricket:cricsheet:b3a28446"],"label":"Lakshmipur","country":"Bangladesh"},"geometry":{"type":"Polygon","coordinates":[[[91.770268,22.97215],[91.577241,23.589241],[90.881202,23.735249],[90.381239,23.265128],[90.575866,22.648836],[91.268903,22.501846],[91.770268,22.97215]]]}},{"type":"Feature","properties":{"hex_id":"833cd5fffffffff","population":4038278,"population_year":2025,"area_km2":13799.7,"population_density":292.6,"all_players":1,"players_per_million":0.25,"player_ids":["cricket:cricsheet:426eaf06"],"label":"Patuakhali","country":"Bangladesh"},"geometry":{"type":"Polygon","coordinates":[[[91.461709,21.879741],[91.268903,22.501846],[90.575866,22.648836],[90.078698,22.174728],[90.273044,21.55354],[90.963065,21.405524],[91.461709,21.879741]]]}},{"type":"Feature","properties":{"hex_id":"833ce2fffffffff","population":12415989,"population_year":2025,"area_km2":13282.4,"population_density":934.8,"all_players":1,"players_per_million":0.08,"player_ids":["cricket:cricsheet:89895ae1"],"label":"Jamalpur","country":"Bangladesh"},"geometry":{"type":"Polygon","coordinates":[[[91.189067,24.812022],[90.99392,25.417464],[90.294441,25.556407],[89.793264,25.090986],[89.989937,24.486326],[90.686309,24.346284],[91.189067,24.812022]]]}},{"type":"Feature","properties":{"hex_id":"833ce3fffffffff","population":6867989,"population_year":2025,"area_km2":13290.2,"population_density":516.8,"all_players":3,"players_per_million":0.44,"player_ids":["cricket:cricsheet:0b0cc297","cricket:cricsheet:37654b75","cricket:cricsheet:5dbdecf1"],"label":"Sylhet","country":"Bangladesh"},"geometry":{"type":"Polygon","coordinates":[[[92.394898,25.128232],[92.201472,25.734258],[91.499473,25.878441],[90.99392,25.417464],[91.189067,24.812022],[91.888094,24.666951],[92.394898,25.128232]]]}},{"type":"Feature","properties":{"hex_id":"833ce6fffffffff","population":12826510,"population_year":2025,"area_km2":13081.4,"population_density":980.5,"all_players":3,"players_per_million":0.23,"player_ids":["cricket:cricsheet:5935d694","cricket:cricsheet:84fdd3cf","cricket:cricsheet:94de63bf"],"label":"Rangpur","country":"Bangladesh"},"geometry":{"type":"Polygon","coordinates":[[[90.294441,25.556407],[90.097467,26.155264],[89.397877,26.287853],[88.898534,25.822817],[89.096899,25.224827],[89.793264,25.090986],[90.294441,25.556407]]]}},{"type":"Feature","properties":{"hex_id":"833cf1fffffffff","population":39714760,"population_year":2025,"area_km2":13456.5,"population_density":2951.3,"all_players":3,"players_per_million":0.08,"player_ids":["cricket:cricsheet:5bf87532","cricket:cricsheet:7923a51d","cricket:cricsheet:ef18b66e"],"label":"Faridpur","country":"Bangladesh"},"geometry":{"type":"Polygon","coordinates":[[[90.881202,23.735249],[90.686309,24.346284],[89.989937,24.486326],[89.491627,24.016463],[89.687988,23.40632],[90.381239,23.265128],[90.881202,23.735249]]]}},{"type":"Feature","properties":{"hex_id":"833cf2fffffffff","population":28935484,"population_year":2025,"area_km2":13577.5,"population_density":2131.1,"all_players":1,"players_per_million":0.03,"player_ids":["cricket:cricsheet:0a8fce53"],"label":"Satkhira District","country":"Bangladesh"},"geometry":{"type":"Polygon","coordinates":[[[89.388577,22.317121],[89.192541,22.932403],[88.50265,23.068922],[88.012091,22.59156],[88.209347,21.977493],[88.895989,21.839554],[89.388577,22.317121]]]}},{"type":"Feature","properties":{"hex_id":"833cf3fffffffff","population":13350085,"population_year":2025,"area_km2":13618.2,"population_density":980.3,"all_players":5,"players_per_million":0.37,"player_ids":["cricket:cricsheet:9dad0f2e","cricket:cricsheet:aa467af0","cricket:cricsheet:aaf037b1","cricket:cricsheet:c58b0108","cricket:cricsheet:d365d463"],"label":"Khulna","country":"Bangladesh"},"geometry":{"type":"Polygon","coordinates":[[[90.575866,22.648836],[90.381239,23.265128],[89.687988,23.40632],[89.192541,22.932403],[89.388577,22.317121],[90.078698,22.174728],[90.575866,22.648836]]]}},{"type":"Feature","properties":{"hex_id":"833cf4fffffffff","population":13673326,"population_year":2025,"area_km2":13220.0,"population_density":1034.3,"all_players":2,"players_per_million":0.15,"player_ids":["cricket:cricsheet:1274d7ab","cricket:cricsheet:5318ee68"],"label":"Chapai Nawabganj","country":"Bangladesh"},"geometry":{"type":"Polygon","coordinates":[[[88.798495,24.151615],[88.600489,24.755298],[87.907814,24.884189],[87.416541,24.410902],[87.615687,23.808387],[88.305014,23.677971],[88.798495,24.151615]]]}},{"type":"Feature","properties":{"hex_id":"833cf5fffffffff","population":16278256,"population_year":2025,"area_km2":13258.9,"population_density":1227.7,"all_players":2,"players_per_million":0.12,"player_ids":["cricket:cricsheet:80fe764d","cricket:cricsheet:9e52a414"],"label":"Bogura","country":"Bangladesh"},"geometry":{"type":"Polygon","coordinates":[[[89.989937,24.486326],[89.793264,25.090986],[89.096899,25.224827],[88.600489,24.755298],[88.798495,24.151615],[89.491627,24.016463],[89.989937,24.486326]]]}},{"type":"Feature","properties":{"hex_id":"833d10fffffffff","population":6107556,"population_year":2025,"area_km2":13258.9,"population_density":460.6,"all_players":2,"players_per_million":0.33,"player_ids":["cricket:cricsheet:7298db76","cricket:cricsheet:c4c374d9"],"label":"Shimla","country":"India"},"geometry":{"type":"Polygon","coordinates":[[[76.764684,30.689263],[77.063587,30.114406],[77.811311,30.049046],[78.271988,30.556006],[77.982549,31.135441],[77.222815,31.203375],[76.764684,30.689263]]]}},{"type":"Feature","properties":{"hex_id":"833d14fffffffff","population":8406166,"population_year":2025,"area_km2":13424.6,"population_density":626.2,"all_players":2,"players_per_million":0.24,"player_ids":["cricket:cricsheet:3664712e","cricket:cricsheet:9565fda6"],"label":"Mohali","country":"India"},"geometry":{"type":"Polygon","coordinates":[[[75.695319,31.326181],[76.00706,30.749546],[76.764684,30.689263],[77.222815,31.203375],[76.920398,31.784839],[76.150362,31.847396],[75.695319,31.326181]]]}},{"type":"Feature","properties":{"hex_id":"833d32fffffffff","population":9528134,"population_year":2025,"area_km2":13577.5,"population_density":701.8,"all_players":1,"players_per_million":0.1,"player_ids":["cricket:cricsheet:f29185a1"],"label":"Amritsar","country":"India"},"geometry":{"type":"Polygon","coordinates":[[[74.603236,31.958828],[74.928073,31.380935],[75.695319,31.326181],[76.150362,31.847396],[75.834673,32.43037],[75.05462,32.487078],[74.603236,31.958828]]]}},{"type":"Feature","properties":{"hex_id":"833d36fffffffff","population":17116978,"population_year":2025,"area_km2":13716.7,"population_density":1247.9,"all_players":4,"players_per_million":0.23,"player_ids":["cricket:cricsheet:26d041c4","cricket:cricsheet:2911de16","cricket:cricsheet:a86a37ab","cricket:cricsheet:fa8a3eb0"],"label":"Sialkot","country":"Pakistan"},"geometry":{"type":"Polygon","coordinates":[[[73.488523,32.586211],[73.826692,32.007599],[74.603236,31.958828],[75.05462,32.487078],[74.725385,33.07102],[73.935651,33.121406],[73.488523,32.586211]]]}},{"type":"Feature","properties":{"hex_id":"833d80fffffffff","population":3598306,"population_year":2025,"area_km2":12188.8,"population_density":295.2,"all_players":1,"players_per_million":0.28,"player_ids":["cricket:cricsheet:86e80bff"],"label":"Gwalior","country":"India"},"geometry":{"type":"Polygon","coordinates":[[[77.17843,25.820906],[77.452825,25.278128],[78.147277,25.218647],[78.577535,25.699486],[78.311405,26.246706],[77.606631,26.30868],[77.17843,25.820906]]]}},{"type":"Feature","properties":{"hex_id":"833d82fffffffff","population":2536181,"population_year":2025,"area_km2":11948.5,"population_density":212.3,"all_players":1,"players_per_million":0.39,"player_ids":["cricket:cricsheet:244048f6"],"label":"Guna","country":"India"},"geometry":{"type":"Polygon","coordinates":[[[77.032068,24.795874],[77.303591,24.261029],[77.988009,24.20395],[78.410821,24.679348],[78.147277,25.218647],[77.452825,25.278128],[77.032068,24.795874]]]}},{"type":"Feature","properties":{"hex_id":"833d85fffffffff","population":11214959,"population_year":2025,"area_km2":12423.2,"population_density":902.7,"all_players":2,"players_per_million":0.18,"player_ids":["cricket:cricsheet:201fef33","cricket:cricsheet:bcf325d2"],"label":"Agra","country":"India"},"geometry":{"type":"Polygon","coordinates":[[[77.329317,26.859219],[77.606631,26.30868],[78.311405,26.246706],[78.749361,26.732729],[78.480615,27.287694],[77.765218,27.352248],[77.329317,26.859219]]]}},{"type":"Feature","properties":{"hex_id":"833d8cfffffffff","population":11138421,"population_year":2025,"area_km2":12257.0,"population_density":908.7,"all_players":1,"players_per_million":0.09,"player_ids":["cricket:cricsheet:8d2c70ad"],"label":"Kanpur","country":"India"},"geometry":{"type":"Polygon","coordinates":[[[79.455192,26.66448],[79.712677,26.113064],[80.408791,26.041513],[80.857496,26.518284],[80.609023,27.073634],[79.902717,27.148323],[79.455192,26.66448]]]}},{"type":"Feature","properties":{"hex_id":"833d9cfffffffff","population":2904623,"population_year":2025,"area_km2":11937.9,"population_density":243.3,"all_players":1,"players_per_million":0.34,"player_ids":["cricket:cricsheet:4d622fee"],"label":"Ghuwara","country":"India"},"geometry":{"type":"Polygon","coordinates":[[[79.283137,24.03391],[79.079202,24.606202],[78.753942,24.648355],[78.410821,24.679348],[77.988009,24.20395],[78.191598,23.633906],[78.837213,23.547311],[79.283137,24.03391]]]}},{"type":"Feature","properties":{"hex_id":"833da1fffffffff","population":46376060,"population_year":2025,"area_km2":12833.4,"population_density":3613.7,"all_players":1,"players_per_million":0.02,"player_ids":["cricket:cricsheet:77b1aa15"],"label":"Gheora","country":"India"},"geometry":{"type":"Polygon","coordinates":[[[76.4681,28.531645],[76.760165,27.970817],[77.484942,27.910359],[77.928813,28.408353],[77.645527,28.973819],[76.90945,29.036687],[76.4681,28.531645]]]}},{"type":"Feature","properties":{"hex_id":"833da5fffffffff","population":7341786,"population_year":2025,"area_km2":13005.4,"population_density":564.5,"all_players":1,"players_per_million":0.14,"player_ids":["cricket:cricsheet:d8f59089"],"label":"Rohtak","country":"India"},"geometry":{"type":"Polygon","coordinates":[[[75.43007,29.15069],[75.734167,28.587597],[76.4681,28.531645],[76.90945,29.036687],[76.613997,29.604657],[75.868402,29.662739],[75.43007,29.15069]]]}},{"type":"Feature","properties":{"hex_id":"833dacfffffffff","population":13852435,"population_year":2025,"area_km2":12870.5,"population_density":1076.3,"all_players":2,"players_per_million":0.14,"player_ids":["cricket:cricsheet:711249d1","cricket:cricsheet:8cf9814c"],"label":"Amroha","country":"India"},"geometry":{"type":"Polygon","coordinates":[[[77.645527,28.973819],[77.928813,28.408353],[78.655144,28.341127],[79.10931,28.836643],[78.835242,29.406476],[78.097651,29.476465],[77.645527,28.973819]]]}},{"type":"Feature","properties":{"hex_id":"833daefffffffff","population":11493675,"population_year":2025,"area_km2":12650.8,"population_density":908.5,"all_players":1,"players_per_million":0.09,"player_ids":["cricket:cricsheet:0a509d6b"],"label":"Aligarh","country":"India"},"geometry":{"type":"Polygon","coordinates":[[[77.484942,27.910359],[77.765218,27.352248],[78.480615,27.287694],[78.926536,27.778616],[78.655144,28.341127],[77.928813,28.408353],[77.484942,27.910359]]]}},{"type":"Feature","properties":{"hex_id":"83411cfffffffff","population":32618370,"population_year":2025,"area_km2":12027.7,"population_density":2711.9,"all_players":1,"players_per_million":0.03,"player_ids":["cricket:cricsheet:7fa12533"],"label":"Hong Kong","country":"People's Republic of China"},"geometry":{"type":"Polygon","coordinates":[[[114.855932,22.520124],[114.726111,23.133955],[114.10474,23.370163],[113.612713,22.990107],[113.74641,22.372984],[114.368265,22.139203],[114.855932,22.520124]]]}},{"type":"Feature","properties":{"hex_id":"834241fffffffff","population":10540593,"population_year":2025,"area_km2":13361.1,"population_density":788.9,"all_players":1,"players_per_million":0.09,"player_ids":["cricket:cricsheet:9ff1e91e"],"label":"Multan","country":"Pakistan"},"geometry":{"type":"Polygon","coordinates":[[[71.0086,30.485117],[71.35756,29.923964],[72.112539,29.891007],[72.530957,30.418411],[72.189483,30.985372],[71.421934,31.019133],[71.0086,30.485117]]]}},{"type":"Feature","properties":{"hex_id":"834245fffffffff","population":3730942,"population_year":2025,"area_km2":13472.5,"population_density":276.9,"all_players":1,"players_per_million":0.27,"player_ids":["cricket:cricsheet:26a8b2fe"],"label":"Layyah","country":"Pakistan"},"geometry":{"type":"Polygon","coordinates":[[[69.88498,31.073027],[70.246457,30.511842],[71.0086,30.485117],[71.421934,31.019133],[71.067646,31.586344],[70.292659,31.61352],[69.88498,31.073027]]]}},{"type":"Feature","properties":{"hex_id":"834248fffffffff","population":7081894,"population_year":2025,"area_km2":13313.8,"population_density":531.9,"all_players":1,"players_per_million":0.14,"player_ids":["cricket:cricsheet:b4b99816"],"label":"Fazilka","country":"India"},"geometry":{"type":"Polygon","coordinates":[[[73.290637,30.378477],[73.619459,29.812297],[74.370885,29.766605],[74.80568,30.285601],[74.485135,30.857134],[73.721354,30.90434],[73.290637,30.378477]]]}},{"type":"Feature","properties":{"hex_id":"834249fffffffff","population":9250064,"population_year":2025,"area_km2":13376.9,"population_density":691.5,"all_players":2,"players_per_million":0.22,"player_ids":["cricket:cricsheet:53cd8da6","cricket:cricsheet:641ac5ff"],"label":"Ludhiana","country":"India"},"geometry":{"type":"Polygon","coordinates":[[[74.485135,30.857134],[74.80568,30.285601],[75.560524,30.232739],[76.00706,30.749546],[75.695319,31.326181],[74.928073,31.380935],[74.485135,30.857134]]]}},{"type":"Feature","properties":{"hex_id":"83424cfffffffff","population":15752932,"population_year":2025,"area_km2":13448.5,"population_density":1171.4,"all_players":2,"players_per_million":0.13,"player_ids":["cricket:cricsheet:53bb50f0","cricket:cricsheet:8e554b6b"],"label":"Faisalabad","country":"Pakistan"},"geometry":{"type":"Polygon","coordinates":[[[72.189483,30.985372],[72.530957,30.418411],[73.290637,30.378477],[73.721354,30.90434],[73.38792,31.476889],[72.615558,31.518004],[72.189483,30.985372]]]}},{"type":"Feature","properties":{"hex_id":"83424dfffffffff","population":24354225,"population_year":2025,"area_km2":13520.8,"population_density":1801.2,"all_players":9,"players_per_million":0.37,"player_ids":["cricket:cricsheet:0d56e9a5","cricket:cricsheet:72c9ad99","cricket:cricsheet:7ab1eab7","cricket:cricsheet:89c16049","cricket:cricsheet:8a75e999","cricket:cricsheet:9656afbf","cricket:cricsheet:bb4b445b","cricket:cricsheet:bd4ea627","cricket:cricsheet:c981d3c2"],"label":"Lahore","country":"Pakistan"},"geometry":{"type":"Polygon","coordinates":[[[73.38792,31.476889],[73.721354,30.90434],[74.485135,30.857134],[74.928073,31.380935],[74.603236,31.958828],[73.826692,32.007599],[73.38792,31.476889]]]}},{"type":"Feature","properties":{"hex_id":"83425afffffffff","population":3602697,"population_year":2025,"area_km2":12543.2,"population_density":287.2,"all_players":1,"players_per_million":0.28,"player_ids":["cricket:cricsheet:df064e1a"],"label":"Jodhpur","country":"India"},"geometry":{"type":"Polygon","coordinates":[[[71.896152,26.681628],[72.218797,26.141689],[72.931624,26.106099],[73.332831,26.609432],[73.017142,27.154906],[72.293148,27.191527],[71.896152,26.681628]]]}},{"type":"Feature","properties":{"hex_id":"834261fffffffff","population":1741384,"population_year":2025,"area_km2":13766.4,"population_density":126.5,"all_players":1,"players_per_million":0.57,"player_ids":["cricket:cricsheet:9e9af5f2"],"label":"North Waziristan","country":"Pakistan"},"geometry":{"type":"Polygon","coordinates":[[[68.763186,32.76668],[69.143472,32.200622],[69.925423,32.180434],[70.340447,32.726218],[69.967267,33.298527],[69.171766,33.318803],[68.763186,32.76668]]]}},{"type":"Feature","properties":{"hex_id":"834268fffffffff","population":3617884,"population_year":2025,"area_km2":13766.4,"population_density":262.8,"all_players":2,"players_per_million":0.55,"player_ids":["cricket:cricsheet:9de62878","cricket:cricsheet:ee95065d"],"label":"Mianwali","country":"Pakistan"},"geometry":{"type":"Polygon","coordinates":[[[71.128718,32.698575],[71.488496,32.125623],[72.269038,32.091031],[72.703051,32.628546],[72.351339,33.207317],[71.55736,33.242768],[71.128718,32.698575]]]}},{"type":"Feature","properties":{"hex_id":"834269fffffffff","population":11190924,"population_year":2025,"area_km2":13841.6,"population_density":808.5,"all_players":5,"players_per_million":0.45,"player_ids":["cricket:cricsheet:22d73540","cricket:cricsheet:24bb1c2f","cricket:cricsheet:2904b4b6","cricket:cricsheet:3086f7a4","cricket:cricsheet:4277234d"],"label":"Rawalpindi","country":"Pakistan"},"geometry":{"type":"Polygon","coordinates":[[[72.351339,33.207317],[72.703051,32.628546],[73.488523,32.586211],[73.935651,33.121406],[73.592618,33.705753],[72.793589,33.749348],[72.351339,33.207317]]]}},{"type":"Feature","properties":{"hex_id":"83426bfffffffff","population":9813913,"population_year":2025,"area_km2":13650.9,"population_density":718.9,"all_players":2,"players_per_million":0.2,"player_ids":["cricket:cricsheet:4357f6f8","cricket:cricsheet:792d0178"],"label":"Sargodha","country":"Pakistan"},"geometry":{"type":"Polygon","coordinates":[[[72.269038,32.091031],[72.615558,31.518004],[73.38792,31.476889],[73.826692,32.007599],[73.488523,32.586211],[72.703051,32.628546],[72.269038,32.091031]]]}},{"type":"Feature","properties":{"hex_id":"83426cfffffffff","population":4824710,"population_year":2025,"area_km2":13866.8,"population_density":347.9,"all_players":1,"players_per_million":0.21,"player_ids":["cricket:cricsheet:fce581b5"],"label":"Bannu","country":"Pakistan"},"geometry":{"type":"Polygon","coordinates":[[[69.967267,33.298527],[70.340447,32.726218],[71.128718,32.698575],[71.55736,33.242768],[71.191921,33.821122],[70.389905,33.849247],[69.967267,33.298527]]]}},{"type":"Feature","properties":{"hex_id":"83426dfffffffff","population":16318095,"population_year":2025,"area_km2":13951.3,"population_density":1169.6,"all_players":4,"players_per_million":0.25,"player_ids":["cricket:cricsheet:1777c020","cricket:cricsheet:1aba45cd","cricket:cricsheet:2cec2a92","cricket:cricsheet:ff3f6fc1"],"label":"Peshawar","country":"Pakistan"},"geometry":{"type":"Polygon","coordinates":[[[71.191921,33.821122],[71.55736,33.242768],[72.351339,33.207317],[72.793589,33.749348],[72.436532,34.333518],[71.628646,34.369856],[71.191921,33.821122]]]}},{"type":"Feature","properties":{"hex_id":"8342cefffffffff","population":6461034,"population_year":2025,"area_km2":11534.2,"population_density":560.2,"all_players":2,"players_per_million":0.31,"player_ids":["cricket:cricsheet:2e171977","cricket:cricsheet:462411b3"],"label":"Nadiad","country":"India"},"geometry":{"type":"Polygon","coordinates":[[[71.63738,22.592648],[71.94312,22.083007],[72.614498,22.051193],[72.989925,22.52814],[72.690259,23.043157],[72.008973,23.075865],[71.63738,22.592648]]]}},{"type":"Feature","properties":{"hex_id":"8342d9fffffffff","population":7569463,"population_year":2025,"area_km2":11218.7,"population_density":674.7,"all_players":1,"players_per_million":0.13,"player_ids":["cricket:cricsheet:dbe50b21"],"label":"Surat","country":"India"},"geometry":{"type":"Polygon","coordinates":[[[73.77545,20.94468],[73.575594,21.508843],[72.9104,21.544144],[72.540917,21.074218],[72.638814,20.907483],[72.771323,20.532972],[73.37087,20.456234],[73.77545,20.94468]]]}},{"type":"Feature","properties":{"hex_id":"8342e4fffffffff","population":19754414,"population_year":2025,"area_km2":12148.2,"population_density":1626.1,"all_players":7,"players_per_million":0.35,"player_ids":["cricket:cricsheet:0b78b7c1","cricket:cricsheet:33609a8c","cricket:cricsheet:86fdf668","cricket:cricsheet:abb7c76c","cricket:cricsheet:bafb9238","cricket:cricsheet:ea9c54de","cricket:cricsheet:f8e3c0f8"],"label":"Karachi","country":"Pakistan"},"geometry":{"type":"Polygon","coordinates":[[[66.519251,25.262825],[66.87532,24.745966],[67.572907,24.736059],[67.925068,25.24353],[67.573852,25.766685],[66.865487,25.776066],[66.519251,25.262825]]]}},{"type":"Feature","properties":{"hex_id":"835355fffffffff","population":4183474,"population_year":2025,"area_km2":11935.4,"population_density":350.5,"all_players":1,"players_per_million":0.24,"player_ids":["cricket:cricsheet:bb95564b"],"label":"Riyadh","country":"Saudi Arabia"},"geometry":{"type":"Polygon","coordinates":[[[46.662153,24.698053],[46.506901,24.078963],[46.974377,23.660858],[47.593191,23.85787],[47.752524,24.471401],[47.289039,24.893471],[46.662153,24.698053]]]}},{"type":"Feature","properties":{"hex_id":"835e42fffffffff","population":3715,"population_year":2025,"area_km2":10503.5,"population_density":0.4,"all_players":1,"players_per_million":269.18,"player_ids":["cricket:cricsheet:58c2fac4"],"label":"Marigot","country":"Dominica"},"geometry":{"type":"Polygon","coordinates":[[[-60.572362,14.877728],[-60.249688,15.395155],[-60.525074,15.869734],[-61.119647,15.827447],[-61.439419,15.31352],[-61.167541,14.838397],[-60.572362,14.877728]]]}},{"type":"Feature","properties":{"hex_id":"835e46fffffffff","population":463991,"population_year":2025,"area_km2":10691.6,"population_density":43.4,"all_players":4,"players_per_million":8.62,"player_ids":["cricket:cricsheet:09a9d073","cricket:cricsheet:4b167ede","cricket:cricsheet:816af623","cricket:cricsheet:d6164dc0"],"label":"Castries","country":"Saint Lucia"},"geometry":{"type":"Polygon","coordinates":[[[-60.619774,13.873863],[-60.296727,14.395691],[-60.572362,14.877728],[-61.167541,14.838397],[-61.48767,14.320083],[-61.215559,13.837604],[-60.619774,13.873863]]]}},{"type":"Feature","properties":{"hex_id":"835e4afffffffff","population":46883,"population_year":2025,"area_km2":9808.2,"population_density":4.8,"all_players":1,"players_per_million":21.33,"player_ids":["cricket:cricsheet:e22f8ec1"],"label":"Sandy Point Town","country":"Saint Kitts and Nevis"},"geometry":{"type":"Polygon","coordinates":[[[-62.247005,16.710016],[-61.930574,17.215794],[-62.198208,17.668849],[-62.778672,17.616787],[-63.09203,17.114567],[-62.828015,16.66087],[-62.247005,16.710016]]]}},{"type":"Feature","properties":{"hex_id":"835e5dfffffffff","population":62735,"population_year":2025,"area_km2":10059.1,"population_density":6.2,"all_players":1,"players_per_million":15.94,"player_ids":["cricket:cricsheet:b0946605"],"label":"Antigua","country":"Antigua and Barbuda"},"geometry":{"type":"Polygon","coordinates":[[[-61.391292,16.29508],[-61.071877,16.804379],[-61.343288,17.264407],[-61.930574,17.215794],[-62.247005,16.710016],[-61.979153,16.249349],[-61.391292,16.29508]]]}},{"type":"Feature","properties":{"hex_id":"835e66fffffffff","population":110875,"population_year":2025,"area_km2":10958.8,"population_density":10.1,"all_players":1,"players_per_million":9.02,"player_ids":["cricket:cricsheet:42d9dd09"],"label":"Saint Andrew Parish","country":"Grenada"},"geometry":{"type":"Polygon","coordinates":[[[-61.633175,11.272633],[-61.31197,11.80248],[-61.584548,12.299191],[-62.174713,12.266173],[-62.492858,11.739888],[-62.223917,11.243079],[-61.633175,11.272633]]]}},{"type":"Feature","properties":{"hex_id":"835e70fffffffff","population":143711,"population_year":2025,"area_km2":11131.6,"population_density":12.9,"all_players":8,"players_per_million":55.67,"player_ids":["cricket:cricsheet:0f721006","cricket:cricsheet:1fc6ef83","cricket:cricsheet:3c55c703","cricket:cricsheet:4175d211","cricket:cricsheet:4b0e3049","cricket:cricsheet:5574750c","cricket:cricsheet:73c18486","cricket:cricsheet:83d17bbc"],"label":"Bridgetown","country":"Barbados"},"geometry":{"type":"Polygon","coordinates":[[[-59.788142,12.391848],[-59.461896,12.921265],[-59.741491,13.417422],[-60.343891,13.384515],[-60.66731,12.858556],[-60.391179,12.362064],[-59.788142,12.391848]]]}},{"type":"Feature","properties":{"hex_id":"835e72fffffffff","population":138848,"population_year":2025,"area_km2":11202.0,"population_density":12.4,"all_players":1,"players_per_million":7.2,"player_ids":["cricket:cricsheet:3feda4fa"],"label":"Christ Church","country":"Barbados"},"geometry":{"type":"Polygon","coordinates":[[[-58.853053,12.950828],[-58.524498,13.479511],[-58.807457,13.975216],[-59.415633,13.942707],[-59.741491,13.417422],[-59.461896,12.921265],[-58.853053,12.950828]]]}},{"type":"Feature","properties":{"hex_id":"835f08fffffffff","population":154195,"population_year":2025,"area_km2":12679.7,"population_density":12.2,"all_players":2,"players_per_million":12.97,"player_ids":["cricket:cricsheet:97290faf","cricket:cricsheet:a7cd72b2"],"label":"Baracara","country":"Guyana"},"geometry":{"type":"Polygon","coordinates":[[[-57.310907,5.509444],[-56.974726,6.064089],[-57.266576,6.611265],[-57.89137,6.603547],[-58.225018,6.051922],[-57.936434,5.505008],[-57.310907,5.509444]]]}},{"type":"Feature","properties":{"hex_id":"835f09fffffffff","population":494945,"population_year":2025,"area_km2":12437.2,"population_density":39.8,"all_players":5,"players_per_million":10.1,"player_ids":["cricket:cricsheet:97bdec3d","cricket:cricsheet:a811cb83","cricket:cricsheet:b9fec7a5","cricket:cricsheet:c5aef772","cricket:cricsheet:fb9a8cc3"],"label":"Georgetown","country":"Guyana"},"geometry":{"type":"Polygon","coordinates":[[[-58.225018,6.051922],[-57.89137,6.603547],[-58.179658,7.14495],[-58.798252,7.134462],[-59.129234,6.585959],[-58.844314,6.044836],[-58.225018,6.051922]]]}},{"type":"Feature","properties":{"hex_id":"835f0bfffffffff","population":21530,"population_year":2025,"area_km2":12543.2,"population_density":1.7,"all_players":1,"players_per_million":46.45,"player_ids":["cricket:cricsheet:d014d5ac"],"label":"Enmore","country":"Guyana"},"geometry":{"type":"Polygon","coordinates":[[[-57.266576,6.611265],[-56.930831,7.16361],[-57.222369,7.705139],[-57.846431,7.694211],[-58.179658,7.14495],[-57.89137,6.603547],[-57.266576,6.611265]]]}},{"type":"Feature","properties":{"hex_id":"835f2bfffffffff","population":1646,"population_year":2025,"area_km2":12679.7,"population_density":0.1,"all_players":2,"players_per_million":1215.07,"player_ids":["cricket:cricsheet:48a1d7b7","cricket:cricsheet:c35739a1"],"label":"East Berbice-Corentyne","country":"Guyana"},"geometry":{"type":"Polygon","coordinates":[[[-58.316115,3.844173],[-57.981623,4.399325],[-58.270504,4.951415],[-58.890503,4.947801],[-59.222299,4.395623],[-58.936818,3.844097],[-58.316115,3.844173]]]}},{"type":"Feature","properties":{"hex_id":"835f58fffffffff","population":1066217,"population_year":2025,"area_km2":11381.2,"population_density":93.7,"all_players":2,"players_per_million":1.88,"player_ids":["cricket:cricsheet:321c980e","cricket:cricsheet:af5b6464"],"label":"Biche","country":"Trinidad and Tobago"},"geometry":{"type":"Polygon","coordinates":[[[-60.810672,9.748704],[-60.48613,10.285268],[-60.762759,10.795466],[-61.360364,10.769087],[-61.681928,10.235997],[-61.408884,9.725829],[-60.810672,9.748704]]]}},{"type":"Feature","properties":{"hex_id":"835f59fffffffff","population":355302,"population_year":2025,"area_km2":11119.9,"population_density":32.0,"all_players":3,"players_per_million":8.44,"player_ids":["cricket:cricsheet:0ebfb1ad","cricket:cricsheet:4d7f517e","cricket:cricsheet:88626ed2"],"label":"Port of Spain","country":"Trinidad and Tobago"},"geometry":{"type":"Polygon","coordinates":[[[-61.681928,10.235997],[-61.360364,10.769087],[-61.633175,11.272633],[-62.223917,11.243079],[-62.542405,10.713529],[-62.273246,10.210012],[-61.681928,10.235997]]]}},{"type":"Feature","properties":{"hex_id":"836026fffffffff","population":7919568,"population_year":2025,"area_km2":12716.0,"population_density":622.8,"all_players":1,"players_per_million":0.13,"player_ids":["cricket:cricsheet:a4cc73aa"],"label":"Thiruvananthapuram","country":"India"},"geometry":{"type":"Polygon","coordinates":[[[77.905629,8.403562],[77.712122,9.02148],[77.103844,9.158976],[76.692675,8.681706],[76.885698,8.067798],[77.490405,7.927155],[77.905629,8.403562]]]}},{"type":"Feature","properties":{"hex_id":"836084fffffffff","population":3169150,"population_year":2025,"area_km2":12423.2,"population_density":255.1,"all_players":1,"players_per_million":0.32,"player_ids":["cricket:cricsheet:5b7ab5a9"],"label":"Bidar","country":"India"},"geometry":{"type":"Polygon","coordinates":[[[77.861832,17.564441],[77.662486,18.162471],[77.036194,18.265794],[76.613073,17.774577],[76.811898,17.179685],[77.434399,17.072867],[77.861832,17.564441]]]}},{"type":"Feature","properties":{"hex_id":"83608bfffffffff","population":11284694,"population_year":2025,"area_km2":11308.9,"population_density":997.9,"all_players":4,"players_per_million":0.35,"player_ids":["cricket:cricsheet:271f83cd","cricket:cricsheet:6c3aef71","cricket:cricsheet:a4e37e47","cricket:cricsheet:cb08b611"],"label":"Mumbai","country":"India"},"geometry":{"type":"Polygon","coordinates":[[[73.366312,18.827693],[73.168224,19.399666],[72.57251,19.480498],[72.178712,18.993494],[72.375716,18.424848],[72.967629,18.339877],[73.366312,18.827693]]]}},{"type":"Feature","properties":{"hex_id":"836090fffffffff","population":3251266,"population_year":2025,"area_km2":12236.4,"population_density":265.7,"all_players":1,"players_per_million":0.31,"player_ids":["cricket:cricsheet:800d2d97"],"label":"Amravati","country":"India"},"geometry":{"type":"Polygon","coordinates":[[[78.562006,20.82242],[78.360358,21.409186],[77.722545,21.502288],[77.290281,21.01197],[77.491491,20.427894],[78.125439,20.331438],[78.562006,20.82242]]]}},{"type":"Feature","properties":{"hex_id":"8360a2fffffffff","population":8385942,"population_year":2025,"area_km2":12650.8,"population_density":662.9,"all_players":2,"players_per_million":0.24,"player_ids":["cricket:cricsheet:b0482a1d","cricket:cricsheet:eadc8924"],"label":"Hyderabad","country":"India"},"geometry":{"type":"Polygon","coordinates":[[[78.691032,16.851081],[78.492046,17.455223],[77.861832,17.564441],[77.434399,17.072867],[77.632977,16.47186],[78.25943,16.359287],[78.691032,16.851081]]]}},{"type":"Feature","properties":{"hex_id":"8360abfffffffff","population":6032264,"population_year":2025,"area_km2":11818.4,"population_density":510.4,"all_players":1,"players_per_million":0.17,"player_ids":["cricket:cricsheet:5d2eda89"],"label":"Sangli","country":"India"},"geometry":{"type":"Polygon","coordinates":[[[74.758181,16.406768],[74.560798,16.994969],[73.959078,17.091747],[73.55853,16.604282],[73.755007,16.019619],[74.352965,15.918884],[74.758181,16.406768]]]}},{"type":"Feature","properties":{"hex_id":"836102fffffffff","population":4618966,"population_year":2025,"area_km2":13361.1,"population_density":345.7,"all_players":2,"players_per_million":0.43,"player_ids":["cricket:cricsheet:5750bcb4","cricket:cricsheet:ecbcfef6"],"label":"Ratnapura","country":"Sri Lanka"},"geometry":{"type":"Polygon","coordinates":[[[81.384353,6.4152],[81.192097,7.04569],[80.566973,7.196939],[80.137586,6.720092],[80.329817,6.093288],[80.951495,5.939644],[81.384353,6.4152]]]}},{"type":"Feature","properties":{"hex_id":"836103fffffffff","population":2256559,"population_year":2025,"area_km2":13142.7,"population_density":171.7,"all_players":10,"players_per_million":4.43,"player_ids":["cricket:cricsheet:08548b13","cricket:cricsheet:318a4039","cricket:cricsheet:732c038e","cricket:cricsheet:8dd02a98","cricket:cricsheet:8ee36b18","cricket:cricsheet:9550470d","cricket:cricsheet:a61850e6","cricket:cricsheet:a97c8ec2","cricket:cricsheet:c34a15e6","cricket:cricsheet:f0b4294e"],"label":"Galle","country":"Sri Lanka"},"geometry":{"type":"Polygon","coordinates":[[[80.329817,6.093288],[80.137586,6.720092],[79.518918,6.870084],[79.095988,6.395835],[79.288053,5.772882],[79.903248,5.62033],[80.329817,6.093288]]]}},{"type":"Feature","properties":{"hex_id":"836111fffffffff","population":2882070,"population_year":2025,"area_km2":13448.5,"population_density":214.3,"all_players":3,"players_per_million":1.04,"player_ids":["cricket:cricsheet:550373ea","cricket:cricsheet:64839cb3","cricket:cricsheet:a5c48ed1"],"label":"Kandy","country":"Sri Lanka"},"geometry":{"type":"Polygon","coordinates":[[[81.627776,7.524867],[81.434911,8.156447],[80.806324,8.305263],[80.3741,7.824931],[80.566973,7.196939],[81.192097,7.04569],[81.627776,7.524867]]]}},{"type":"Feature","properties":{"hex_id":"83611cfffffffff","population":8088999,"population_year":2025,"area_km2":13235.5,"population_density":611.2,"all_players":21,"players_per_million":2.6,"player_ids":["cricket:cricsheet:327b58d3","cricket:cricsheet:3ff033bb","cricket:cricsheet:53068b45","cricket:cricsheet:5838cb64","cricket:cricsheet:58431ca0","cricket:cricsheet:5d1e7582","cricket:cricsheet:65cebd5d","cricket:cricsheet:6c882e9a","cricket:cricsheet:736123bb","cricket:cricsheet:84212ffb","cricket:cricsheet:85021bcd","cricket:cricsheet:ac56b5a7","cricket:cricsheet:aceb7654","cricket:cricsheet:b55fb828","cricket:cricsheet:ba603555","cricket:cricsheet:c1fdfb46","cricket:cricsheet:dabbd0ae","cricket:cricsheet:ec691a5b","cricket:cricsheet:f21043a5","cricket:cricsheet:f24c6701","cricket:cricsheet:fb3e0d39"],"label":"Colombo","country":"Sri Lanka"},"geometry":{"type":"Polygon","coordinates":[[[80.566973,7.196939],[80.3741,7.824931],[79.751941,7.972321],[79.32618,7.494321],[79.518918,6.870084],[80.137586,6.720092],[80.566973,7.196939]]]}},{"type":"Feature","properties":{"hex_id":"83611efffffffff","population":1576904,"population_year":2025,"area_km2":13313.8,"population_density":118.4,"all_players":1,"players_per_million":0.63,"player_ids":["cricket:cricsheet:ee1b6c27"],"label":"Thalawa Divisional Secretariat","country":"Sri Lanka"},"geometry":{"type":"Polygon","coordinates":[[[80.806324,8.305263],[80.612812,8.934],[79.987145,9.078752],[79.558534,8.597405],[79.751941,7.972321],[80.3741,7.824931],[80.806324,8.305263]]]}},{"type":"Feature","properties":{"hex_id":"83618cfffffffff","population":8799252,"population_year":2025,"area_km2":13282.4,"population_density":662.5,"all_players":1,"players_per_million":0.11,"player_ids":["cricket:cricsheet:f19ccfad"],"label":"Chennai","country":"India"},"geometry":{"type":"Polygon","coordinates":[[[80.706075,12.414518],[80.510014,13.038512],[79.876752,13.170329],[79.443191,12.681031],[79.639129,12.060379],[80.268788,11.92568],[80.706075,12.414518]]]}},{"type":"Feature","properties":{"hex_id":"8361adfffffffff","population":890727,"population_year":2025,"area_km2":13376.9,"population_density":66.6,"all_players":1,"players_per_million":1.12,"player_ids":["cricket:cricsheet:03a83c50"],"label":"Jaffna","country":"Sri Lanka"},"geometry":{"type":"Polygon","coordinates":[[[81.047892,9.4174],[80.853745,10.046427],[80.224554,10.188516],[79.793071,9.70424],[79.987145,9.078752],[80.612812,8.934],[81.047892,9.4174]]]}},{"type":"Feature","properties":{"hex_id":"836520fffffffff","population":2095333,"population_year":2025,"area_km2":14123.1,"population_density":148.4,"all_players":1,"players_per_million":0.48,"player_ids":["cricket:cricsheet:f1f99156"],"label":"Singapore","country":"Singapore"},"geometry":{"type":"Polygon","coordinates":[[[103.858047,1.093918],[103.70324,1.733964],[103.065132,1.910322],[102.582945,1.4441],[102.740558,0.803667],[103.377579,0.62982],[103.858047,1.093918]]]}},{"type":"Feature","properties":{"hex_id":"836732fffffffff","population":1350242,"population_year":2025,"area_km2":10173.5,"population_density":132.7,"all_players":5,"players_per_million":3.7,"player_ids":["cricket:cricsheet:650d5e49","cricket:cricsheet:7fca84b7","cricket:cricsheet:92cf79a8","cricket:cricsheet:b52ffbbd","cricket:cricsheet:bbd41817"],"label":"Kingston","country":"Jamaica"},"geometry":{"type":"Polygon","coordinates":[[[-77.077591,18.147356],[-77.440592,17.734561],[-77.180408,17.235914],[-76.556909,17.152691],[-76.195921,17.567912],[-76.45638,18.063927],[-77.077591,18.147356]]]}},{"type":"Feature","properties":{"hex_id":"839708fffffffff","population":709032,"population_year":2025,"area_km2":14687.7,"population_density":48.3,"all_players":1,"players_per_million":1.41,"player_ids":["cricket:cricsheet:36dfa62e"],"label":"Kwekwe","country":"Zimbabwe"},"geometry":{"type":"Polygon","coordinates":[[[30.53457,-19.762583],[30.567353,-19.089117],[29.963603,-18.725623],[29.325363,-19.034835],[29.288996,-19.708417],[29.894444,-20.072699],[30.53457,-19.762583]]]}},{"type":"Feature","properties":{"hex_id":"83970afffffffff","population":1168784,"population_year":2025,"area_km2":14752.7,"population_density":79.2,"all_players":2,"players_per_million":1.71,"player_ids":["cricket:cricsheet:8d25271a","cricket:cricsheet:fbcfa528"],"label":"Chitungwiza","country":"Zimbabwe"},"geometry":{"type":"Polygon","coordinates":[[[31.203539,-18.775855],[31.234254,-18.100211],[30.632357,-17.73753],[29.997885,-18.049709],[29.963603,-18.725623],[30.567353,-19.089117],[31.203539,-18.775855]]]}},{"type":"Feature","properties":{"hex_id":"83970bfffffffff","population":674398,"population_year":2025,"area_km2":14771.4,"population_density":45.7,"all_players":1,"players_per_million":1.48,"player_ids":["cricket:cricsheet:06fc82b8"],"label":"Kadoma","country":"Zimbabwe"},"geometry":{"type":"Polygon","coordinates":[[[29.963603,-18.725623],[29.997885,-18.049709],[29.397475,-17.683007],[28.761238,-17.991301],[28.723418,-18.667186],[29.325363,-19.034835],[29.963603,-18.725623]]]}},{"type":"Feature","properties":{"hex_id":"839719fffffffff","population":3851120,"population_year":2025,"area_km2":14799.5,"population_density":260.2,"all_players":12,"players_per_million":3.12,"player_ids":["cricket:cricsheet:3560a786","cricket:cricsheet:3d5d51a5","cricket:cricsheet:449f4e3c","cricket:cricsheet:4bc0a378","cricket:cricsheet:53597be1","cricket:cricsheet:6e3f5a5c","cricket:cricsheet:9f0270e0","cricket:cricsheet:a879b92c","cricket:cricsheet:d1d83db3","cricket:cricsheet:d96165b5","cricket:cricsheet:e7e86505","cricket:cricsheet:eaa36b2a"],"label":"Harare","country":"Zimbabwe"},"geometry":{"type":"Polygon","coordinates":[[[31.866373,-17.784272],[31.895047,-17.106944],[31.295156,-16.745102],[30.66458,-17.059777],[30.632357,-17.73753],[31.234254,-18.100211],[31.866373,-17.784272]]]}},{"type":"Feature","properties":{"hex_id":"83971dfffffffff","population":702265,"population_year":2025,"area_km2":14715.5,"population_density":47.7,"all_players":1,"players_per_million":1.42,"player_ids":["cricket:cricsheet:b08252b8"],"label":"Marondera","country":"Zimbabwe"},"geometry":{"type":"Polygon","coordinates":[[[32.442069,-18.817841],[32.469195,-18.142765],[31.866373,-17.784272],[31.234254,-18.100211],[31.203539,-18.775855],[31.808529,-19.135021],[32.442069,-18.817841]]]}},{"type":"Feature","properties":{"hex_id":"839772fffffffff","population":977625,"population_year":2025,"area_km2":14604.7,"population_density":66.9,"all_players":3,"players_per_million":3.07,"player_ids":["cricket:cricsheet:5feead83","cricket:cricsheet:afe57f7a","cricket:cricsheet:edf62a25"],"label":"Bulawayo","country":"Zimbabwe"},"geometry":{"type":"Polygon","coordinates":[[[28.608651,-20.684965],[28.647126,-20.014199],[28.04381,-19.645632],[27.400805,-19.946973],[27.358776,-20.617412],[27.963293,-20.986867],[28.608651,-20.684965]]]}},{"type":"Feature","properties":{"hex_id":"839d51fffffffff","population":185,"population_year":2025,"area_km2":13012.9,"population_density":0.0,"all_players":1,"players_per_million":5405.41,"player_ids":["cricket:cricsheet:72166006"],"label":"Queensland","country":"Australia"},"geometry":{"type":"Polygon","coordinates":[[[143.785199,-20.323177],[143.691747,-19.702043],[143.061238,-19.487699],[142.519708,-19.889382],[142.604744,-20.510244],[143.239743,-20.729746],[143.785199,-20.323177]]]}},{"type":"Feature","properties":{"hex_id":"83a726fffffffff","population":1846194,"population_year":2025,"area_km2":9765.8,"population_density":189.0,"all_players":6,"players_per_million":3.25,"player_ids":["cricket:cricsheet:39086549","cricket:cricsheet:3d8feaf8","cricket:cricsheet:d9273ee7","cricket:cricsheet:e66732f8","cricket:cricsheet:eaa76d3c","cricket:cricsheet:fe366f34"],"label":"Perth","country":"Australia"},"geometry":{"type":"Polygon","coordinates":[[[116.156806,-31.717896],[115.668386,-31.333698],[115.004431,-31.434051],[114.818313,-31.922938],[115.307453,-32.314951],[115.982101,-32.210194],[116.156806,-31.717896]]]}},{"type":"Feature","properties":{"hex_id":"83ad36fffffffff","population":5535663,"population_year":2025,"area_km2":11735.1,"population_density":471.7,"all_players":5,"players_per_million":0.9,"player_ids":["cricket:cricsheet:91cd48e0","cricket:cricsheet:9a2fc964","cricket:cricsheet:a1d95bd8","cricket:cricsheet:e5437608","cricket:cricsheet:e60f81c9"],"label":"Cape Town","country":"South Africa"},"geometry":{"type":"Polygon","coordinates":[[[19.103997,-34.207935],[19.172477,-33.623556],[18.564036,-33.250257],[17.888565,-33.460973],[17.816737,-34.043796],[18.423695,-34.417486],[19.103997,-34.207935]]]}},{"type":"Feature","properties":{"hex_id":"83b916fffffffff","population":1368696,"population_year":2025,"area_km2":13841.6,"population_density":98.9,"all_players":5,"players_per_million":3.65,"player_ids":["cricket:cricsheet:12b610c2","cricket:cricsheet:17608a6f","cricket:cricsheet:2e81be88","cricket:cricsheet:3b53243a","cricket:cricsheet:ca5acfa4"],"label":"Adelaide","country":"Australia"},"geometry":{"type":"Polygon","coordinates":[[[139.200573,-34.751633],[139.129671,-34.088237],[138.420784,-33.809579],[137.778412,-34.188927],[137.837784,-34.850139],[138.551045,-35.134235],[139.200573,-34.751633]]]}},{"type":"Feature","properties":{"hex_id":"83bb08fffffffff","population":166592,"population_year":2025,"area_km2":12679.7,"population_density":13.1,"all_players":2,"players_per_million":12.01,"player_ids":["cricket:cricsheet:c8b0b64c","cricket:cricsheet:d5eb8b84"],"label":"Hastings","country":"New Zealand"},"geometry":{"type":"Polygon","coordinates":[[[177.75966,-39.210775],[177.398429,-38.643671],[176.616053,-38.618824],[176.182758,-39.164654],[176.541203,-39.737336],[177.335885,-39.758591],[177.75966,-39.210775]]]}},{"type":"Feature","properties":{"hex_id":"83bb29fffffffff","population":461339,"population_year":2025,"area_km2":13005.4,"population_density":35.5,"all_players":7,"players_per_million":15.17,"player_ids":["cricket:cricsheet:575494db","cricket:cricsheet:5d664346","cricket:cricsheet:7673c908","cricket:cricsheet:9af58032","cricket:cricsheet:ba5e1069","cricket:cricsheet:de69af96","cricket:cricsheet:e1891e00"],"label":"Wellington","country":"New Zealand"},"geometry":{"type":"Polygon","coordinates":[[[175.193758,-41.376538],[174.833731,-40.801156],[174.011406,-40.765707],[173.535818,-41.30856],[173.891657,-41.889247],[174.727458,-41.921765],[175.193758,-41.376538]]]}},{"type":"Feature","properties":{"hex_id":"83bb2bfffffffff","population":290967,"population_year":2025,"area_km2":12833.4,"population_density":22.7,"all_players":3,"players_per_million":10.31,"player_ids":["cricket:cricsheet:1f1ee021","cricket:cricsheet:350bb1b1","cricket:cricsheet:e38bce7a"],"label":"Masterton","country":"New Zealand"},"geometry":{"type":"Polygon","coordinates":[[[176.464003,-40.85409],[176.100448,-40.284113],[175.291773,-40.256026],[174.833731,-40.801156],[175.193758,-41.376538],[176.01553,-41.40137],[176.464003,-40.85409]]]}},{"type":"Feature","properties":{"hex_id":"83bb50fffffffff","population":1759286,"population_year":2025,"area_km2":13096.6,"population_density":134.3,"all_players":6,"players_per_million":3.41,"player_ids":["cricket:cricsheet:397369e0","cricket:cricsheet:68c56d09","cricket:cricsheet:80a0cd77","cricket:cricsheet:865eae1f","cricket:cricsheet:9219eff0","cricket:cricsheet:bf74b130"],"label":"Auckland","country":"New Zealand"},"geometry":{"type":"Polygon","coordinates":[[[175.568271,-36.884501],[175.227336,-36.30045],[174.454886,-36.252874],[174.011624,-36.792406],[174.349024,-37.382116],[175.133375,-37.426619],[175.568271,-36.884501]]]}},{"type":"Feature","properties":{"hex_id":"83bb54fffffffff","population":279861,"population_year":2025,"area_km2":13096.6,"population_density":21.4,"all_players":3,"players_per_million":10.72,"player_ids":["cricket:cricsheet:e4a0deae","cricket:cricsheet:eade4650","cricket:cricsheet:efb6cb2a"],"label":"Hamilton","country":"New Zealand"},"geometry":{"type":"Polygon","coordinates":[[[175.478897,-38.009138],[175.133375,-37.426619],[174.349024,-37.382116],[173.898088,-37.923168],[174.239926,-38.51126],[175.036544,-38.552712],[175.478897,-38.009138]]]}},{"type":"Feature","properties":{"hex_id":"83bb76fffffffff","population":49999,"population_year":2025,"area_km2":13050.9,"population_density":3.8,"all_players":1,"players_per_million":20.0,"player_ids":["cricket:cricsheet:4663bd23"],"label":"Whanganui","country":"New Zealand"},"geometry":{"type":"Polygon","coordinates":[[[175.291773,-40.256026],[174.93671,-39.677849],[174.127439,-39.639419],[173.660354,-40.182134],[174.011406,-40.765707],[174.833731,-40.801156],[175.291773,-40.256026]]]}},{"type":"Feature","properties":{"hex_id":"83bc09fffffffff","population":1219082,"population_year":2025,"area_km2":12486.5,"population_density":97.6,"all_players":3,"players_per_million":2.46,"player_ids":["cricket:cricsheet:212aeedd","cricket:cricsheet:34304210","cricket:cricsheet:9a46c4e5"],"label":"East London","country":"South Africa"},"geometry":{"type":"Polygon","coordinates":[[[28.473916,-33.194122],[28.515093,-32.590102],[27.876156,-32.254852],[27.19473,-32.523504],[27.14957,-33.127321],[27.789804,-33.462721],[28.473916,-33.194122]]]}},{"type":"Feature","properties":{"hex_id":"83bc1bfffffffff","population":2859128,"population_year":2025,"area_km2":13050.9,"population_density":219.1,"all_players":9,"players_per_million":3.15,"player_ids":["cricket:cricsheet:0b60eb09","cricket:cricsheet:172dff15","cricket:cricsheet:4d4605e6","cricket:cricsheet:588360ee","cricket:cricsheet:686362af","cricket:cricsheet:7dfb8890","cricket:cricsheet:b17a4a93","cricket:cricsheet:ebb74564","cricket:cricsheet:f834dcfc"],"label":"Durban","country":"South Africa"},"geometry":{"type":"Polygon","coordinates":[[[31.925523,-30.548532],[31.955702,-29.92542],[31.320534,-29.597031],[30.652925,-29.89183],[30.618766,-30.515339],[31.25619,-30.843684],[31.925523,-30.548532]]]}},{"type":"Feature","properties":{"hex_id":"83bc41fffffffff","population":174412,"population_year":2025,"area_km2":12134.7,"population_density":14.4,"all_players":1,"players_per_million":5.73,"player_ids":["cricket:cricsheet:6b9eb501"],"label":"Oudtshoorn","country":"South Africa"},"geometry":{"type":"Polygon","coordinates":[[[22.456426,-33.678338],[22.515462,-33.08381],[21.893171,-32.722439],[21.212322,-32.955246],[21.149655,-33.54865],[21.77144,-33.910402],[22.456426,-33.678338]]]}},{"type":"Feature","properties":{"hex_id":"83bc43fffffffff","population":55788,"population_year":2025,"area_km2":12374.3,"population_density":4.5,"all_players":1,"players_per_million":17.93,"player_ids":["cricket:cricsheet:d2b1f515"],"label":"Beaufort West","country":"South Africa"},"geometry":{"type":"Polygon","coordinates":[[[23.198396,-32.843888],[23.255072,-32.241964],[22.632499,-31.880983],[21.953505,-32.121567],[21.893171,-32.722439],[22.515462,-33.08381],[23.198396,-32.843888]]]}},{"type":"Feature","properties":{"hex_id":"83bc45fffffffff","population":492474,"population_year":2025,"area_km2":11948.5,"population_density":41.2,"all_players":1,"players_per_million":2.03,"player_ids":["cricket:cricsheet:85b3fab2"],"label":"Knysna","country":"South Africa"},"geometry":{"type":"Polygon","coordinates":[[[23.02634,-34.621836],[23.084032,-34.033899],[22.456426,-33.678338],[21.77144,-33.910402],[21.710037,-34.497342],[22.337303,-34.853247],[23.02634,-34.621836]]]}},{"type":"Feature","properties":{"hex_id":"83bc54fffffffff","population":326021,"population_year":2025,"area_km2":12479.4,"population_density":26.1,"all_players":1,"players_per_million":3.07,"player_ids":["cricket:cricsheet:0d518f89"],"label":"Mapped area","country":"South Africa"},"geometry":{"type":"Polygon","coordinates":[[[27.14957,-33.127321],[27.19473,-32.523504],[26.558915,-32.181523],[25.877023,-32.443167],[25.827944,-33.046566],[26.464658,-33.388772],[27.14957,-33.127321]]]}},{"type":"Feature","properties":{"hex_id":"83bc73fffffffff","population":1316374,"population_year":2025,"area_km2":12257.0,"population_density":107.4,"all_players":5,"players_per_million":3.8,"player_ids":["cricket:cricsheet:35f173a0","cricket:cricsheet:63e3b6b3","cricket:cricsheet:acdc62f5","cricket:cricsheet:cad40f5e","cricket:cricsheet:f892fcf9"],"label":"Gqeberha","country":"South Africa"},"geometry":{"type":"Polygon","coordinates":[[[26.417101,-33.985461],[26.464658,-33.388772],[25.827944,-33.046566],[25.142967,-33.300837],[25.091496,-33.89701],[25.728895,-34.239461],[26.417101,-33.985461]]]}},{"type":"Feature","properties":{"hex_id":"83bcc1fffffffff","population":830188,"population_year":2025,"area_km2":13642.7,"population_density":60.9,"all_players":2,"players_per_million":2.41,"player_ids":["cricket:cricsheet:06659caa","cricket:cricsheet:81c36ee9"],"label":"Klerksdorp","country":"South Africa"},"geometry":{"type":"Polygon","coordinates":[[[27.54641,-27.538068],[27.589205,-26.897137],[26.969404,-26.538665],[26.305822,-26.82072],[26.259296,-27.461202],[26.880067,-27.820109],[27.54641,-27.538068]]]}},{"type":"Feature","properties":{"hex_id":"83bcc3fffffffff","population":10165897,"population_year":2025,"area_km2":13816.5,"population_density":735.8,"all_players":11,"players_per_million":1.08,"player_ids":["cricket:cricsheet:107c26fb","cricket:cricsheet:130336c6","cricket:cricsheet:25550d06","cricket:cricsheet:372455c4","cricket:cricsheet:465aa633","cricket:cricsheet:478a63e7","cricket:cricsheet:6e28e586","cricket:cricsheet:844e79d1","cricket:cricsheet:d3a1c63d","cricket:cricsheet:df5a6881","cricket:cricsheet:e62dd25d"],"label":"Johannesburg","country":"South Africa"},"geometry":{"type":"Polygon","coordinates":[[[28.252135,-26.609142],[28.292681,-25.962826],[27.674042,-25.604797],[27.013681,-25.892672],[26.969404,-26.538665],[27.589205,-26.897137],[28.252135,-26.609142]]]}},{"type":"Feature","properties":{"hex_id":"83bcd1fffffffff","population":948763,"population_year":2025,"area_km2":13968.4,"population_density":67.9,"all_players":1,"players_per_million":1.05,"player_ids":["cricket:cricsheet:ce85fcaf"],"label":"Botshabelo","country":"South Africa"},"geometry":{"type":"Polygon","coordinates":[[[30.230769,-25.722531],[30.265323,-25.07129],[29.64597,-24.719138],[28.990355,-25.017922],[28.952033,-25.669244],[29.573086,-26.021731],[30.230769,-25.722531]]]}},{"type":"Feature","properties":{"hex_id":"83bcdcfffffffff","population":5083336,"population_year":2025,"area_km2":13976.9,"population_density":363.7,"all_players":8,"players_per_million":1.57,"player_ids":["cricket:cricsheet:6a26221c","cricket:cricsheet:6d76bc23","cricket:cricsheet:8c5775f3","cricket:cricsheet:972f217b","cricket:cricsheet:9948e262","cricket:cricsheet:9c821d2e","cricket:cricsheet:ea544967","cricket:cricsheet:f0af99a7"],"label":"Pretoria","country":"South Africa"},"geometry":{"type":"Polygon","coordinates":[[[28.952033,-25.669244],[28.990355,-25.017922],[28.373062,-24.660342],[27.716088,-24.953664],[27.674042,-25.604797],[28.292681,-25.962826],[28.952033,-25.669244]]]}},{"type":"Feature","properties":{"hex_id":"83bce9fffffffff","population":368230,"population_year":2025,"area_km2":13220.0,"population_density":27.9,"all_players":1,"players_per_million":2.72,"player_ids":["cricket:cricsheet:b8cc58c9"],"label":"Kimberley","country":"South Africa"},"geometry":{"type":"Polygon","coordinates":[[[24.823305,-29.26952],[24.874383,-28.64109],[24.25696,-28.27613],[23.588239,-28.539136],[23.533518,-29.166646],[24.151139,-29.5321],[24.823305,-29.26952]]]}},{"type":"Feature","properties":{"hex_id":"83bceefffffffff","population":831620,"population_year":2025,"area_km2":13282.4,"population_density":62.6,"all_players":1,"players_per_million":1.2,"player_ids":["cricket:cricsheet:996ed07c"],"label":"Bloemfontein","country":"South Africa"},"geometry":{"type":"Polygon","coordinates":[[[27.416495,-29.438346],[27.460057,-28.808795],[26.835002,-28.455298],[26.165419,-28.731042],[26.118064,-29.360153],[26.744068,-29.713991],[27.416495,-29.438346]]]}},{"type":"Feature","properties":{"hex_id":"83bcf5fffffffff","population":3546884,"population_year":2025,"area_km2":13258.9,"population_density":267.5,"all_players":1,"players_per_million":0.28,"player_ids":["cricket:cricsheet:d67d5f00"],"label":"Pietermaritzburg","country":"South Africa"},"geometry":{"type":"Polygon","coordinates":[[[31.320534,-29.597031],[31.352415,-28.967627],[30.720627,-28.632698],[30.054883,-28.927165],[30.01907,-29.556862],[30.652925,-29.89183],[31.320534,-29.597031]]]}},{"type":"Feature","properties":{"hex_id":"83be08fffffffff","population":3715576,"population_year":2025,"area_km2":14884.3,"population_density":249.6,"all_players":4,"players_per_million":1.08,"player_ids":["cricket:cricsheet:1a2676c5","cricket:cricsheet:9eb1455b","cricket:cricsheet:bc969efb","cricket:cricsheet:e1b9f3a9"],"label":"Kareela","country":"Australia"},"geometry":{"type":"Polygon","coordinates":[[[151.210157,-34.25249],[151.038963,-33.586023],[150.264159,-33.373537],[149.651925,-33.824078],[149.812161,-34.491757],[150.595673,-34.707733],[151.210157,-34.25249]]]}},{"type":"Feature","properties":{"hex_id":"83be0bfffffffff","population":136071,"population_year":2025,"area_km2":14837.1,"population_density":9.2,"all_players":1,"players_per_million":7.35,"player_ids":["cricket:cricsheet:4e6ef14f"],"label":"Orange","country":"Australia"},"geometry":{"type":"Polygon","coordinates":[[[150.264159,-33.373537],[150.102358,-32.706727],[149.339108,-32.489435],[148.729494,-32.935272],[148.880435,-33.603055],[149.651925,-33.824078],[150.264159,-33.373537]]]}},{"type":"Feature","properties":{"hex_id":"83be0cfffffffff","population":120630,"population_year":2025,"area_km2":14912.7,"population_density":8.1,"all_players":1,"players_per_million":8.29,"player_ids":["cricket:cricsheet:14f96089"],"label":"Shellharbour","country":"Australia"},"geometry":{"type":"Polygon","coordinates":[[[152.177285,-35.125129],[151.996416,-34.459593],[151.210157,-34.25249],[150.595673,-34.707733],[150.76551,-35.374724],[151.560957,-35.585066],[152.177285,-35.125129]]]}},{"type":"Feature","properties":{"hex_id":"83be0efffffffff","population":2059884,"population_year":2025,"area_km2":14922.2,"population_density":138.0,"all_players":1,"players_per_million":0.49,"player_ids":["cricket:cricsheet:be150fc8"],"label":"Wahroonga","country":"Australia"},"geometry":{"type":"Polygon","coordinates":[[[152.602318,-33.997],[152.420459,-33.332138],[151.64327,-33.128216],[151.038963,-33.586023],[151.210157,-34.25249],[151.996416,-34.459593],[152.602318,-33.997]]]}},{"type":"Feature","properties":{"hex_id":"83be44fffffffff","population":167185,"population_year":2025,"area_km2":14549.9,"population_density":11.5,"all_players":1,"players_per_million":5.98,"player_ids":["cricket:cricsheet:52d1dbc8"],"label":"Shepparton","country":"Australia"},"geometry":{"type":"Polygon","coordinates":[[[145.990588,-37.115507],[145.858074,-36.447021],[145.081124,-36.200464],[144.429303,-36.618048],[144.549504,-37.286204],[145.333886,-37.53716],[145.990588,-37.115507]]]}},{"type":"Feature","properties":{"hex_id":"83be45fffffffff","population":324743,"population_year":2025,"area_km2":14423.2,"population_density":22.5,"all_players":1,"players_per_million":3.08,"player_ids":["cricket:cricsheet:a90e53ec"],"label":"Ballarat","country":"Australia"},"geometry":{"type":"Polygon","coordinates":[[[144.549504,-37.286204],[144.429303,-36.618048],[143.659407,-36.362782],[143.002856,-36.771101],[143.110632,-37.438515],[143.887418,-37.698406],[144.549504,-37.286204]]]}},{"type":"Feature","properties":{"hex_id":"83be4afffffffff","population":23523,"population_year":2025,"area_km2":14184.0,"population_density":1.7,"all_players":1,"players_per_million":42.51,"player_ids":["cricket:cricsheet:69d03465"],"label":"Loxton","country":"Australia"},"geometry":{"type":"Polygon","coordinates":[[[141.949009,-34.50589],[141.85492,-33.839262],[141.12763,-33.574731],[140.488997,-33.971742],[140.571484,-34.636946],[141.304216,-34.906614],[141.949009,-34.50589]]]}},{"type":"Feature","properties":{"hex_id":"83be63fffffffff","population":5389912,"population_year":2025,"area_km2":14468.2,"population_density":372.5,"all_players":4,"players_per_million":0.74,"player_ids":["cricket:cricsheet:65d9b6b6","cricket:cricsheet:83558266","cricket:cricsheet:9b6e1b3f","cricket:cricsheet:b681e71e"],"label":"Kew","country":"Australia"},"geometry":{"type":"Polygon","coordinates":[[[145.46356,-38.204698],[145.333886,-37.53716],[144.549504,-37.286204],[143.887418,-37.698406],[144.004411,-38.36545],[144.796215,-38.620841],[145.46356,-38.204698]]]}},{"type":"Feature","properties":{"hex_id":"83be6efffffffff","population":56256,"population_year":2025,"area_km2":14333.8,"population_density":3.9,"all_players":1,"players_per_million":17.78,"player_ids":["cricket:cricsheet:f0b4e47d"],"label":"Terang","country":"Australia"},"geometry":{"type":"Polygon","coordinates":[[[144.004411,-38.36545],[143.887418,-37.698406],[143.110632,-37.438515],[142.444022,-37.841073],[142.548235,-38.507212],[143.331869,-38.771753],[144.004411,-38.36545]]]}},{"type":"Feature","properties":{"hex_id":"83be8dfffffffff","population":2791925,"population_year":2025,"area_km2":14604.7,"population_density":191.2,"all_players":1,"players_per_million":0.36,"player_ids":["cricket:cricsheet:7b953689"],"label":"Brisbane","country":"Australia"},"geometry":{"type":"Polygon","coordinates":[[[153.649162,-27.512988],[153.47258,-26.860017],[152.74788,-26.667264],[152.191761,-27.124384],[152.359327,-27.779455],[153.092109,-27.975349],[153.649162,-27.512988]]]}},{"type":"Feature","properties":{"hex_id":"83bee6fffffffff","population":81796,"population_year":2025,"area_km2":14799.5,"population_density":5.5,"all_players":1,"players_per_million":12.23,"player_ids":["cricket:cricsheet:03806cf8"],"label":"Tamworth","country":"Australia"},"geometry":{"type":"Polygon","coordinates":[[[151.134086,-31.133363],[150.969593,-30.469788],[150.222587,-30.259793],[149.632068,-30.709801],[149.786369,-31.374665],[150.541456,-31.58828],[151.134086,-31.133363]]]}},{"type":"Feature","properties":{"hex_id":"83bef2fffffffff","population":219113,"population_year":2025,"area_km2":14604.7,"population_density":15.0,"all_players":1,"players_per_million":4.56,"player_ids":["cricket:cricsheet:5c30d455"],"label":"Toowoomba","country":"Australia"},"geometry":{"type":"Polygon","coordinates":[[[152.359327,-27.779455],[152.191761,-27.124384],[151.46847,-26.924893],[150.905007,-27.377078],[151.063301,-28.033891],[151.794405,-28.236823],[152.359327,-27.779455]]]}},{"type":"Feature","properties":{"hex_id":"83bf4cfffffffff","population":253944,"population_year":2025,"area_km2":14333.8,"population_density":17.7,"all_players":1,"players_per_million":3.94,"player_ids":["cricket:cricsheet:f2c936d7"],"label":"Hobart","country":"Australia"},"geometry":{"type":"Polygon","coordinates":[[[148.853396,-42.894212],[148.684029,-42.237655],[147.831255,-42.006643],[147.138081,-42.428596],[147.29342,-43.085576],[148.156051,-43.32024],[148.853396,-42.894212]]]}},{"type":"Feature","properties":{"hex_id":"83da81fffffffff","population":41547,"population_year":2025,"area_km2":13361.1,"population_density":3.1,"all_players":1,"players_per_million":24.07,"player_ids":["cricket:cricsheet:dadbdb68"],"label":"Lumsden","country":"New Zealand"},"geometry":{"type":"Polygon","coordinates":[[[169.397004,-45.596241],[169.049652,-45.007891],[168.148031,-44.9406],[167.578363,-45.46296],[167.917904,-46.055866],[168.835164,-46.121865],[169.397004,-45.596241]]]}},{"type":"Feature","properties":{"hex_id":"83da84fffffffff","population":104290,"population_year":2025,"area_km2":13035.7,"population_density":8.0,"all_players":3,"players_per_million":28.77,"player_ids":["cricket:cricsheet:7693851c","cricket:cricsheet:89bbc67a","cricket:cricsheet:e4a71d18"],"label":"Dunedin","country":"New Zealand"},"geometry":{"type":"Polygon","coordinates":[[[172.101748,-45.74022],[171.736374,-45.165618],[170.844246,-45.120323],[170.302116,-45.651614],[170.661058,-46.231016],[171.568799,-46.274328],[172.101748,-45.74022]]]}},{"type":"Feature","properties":{"hex_id":"83da86fffffffff","population":76329,"population_year":2025,"area_km2":13142.7,"population_density":5.8,"all_players":2,"players_per_million":26.2,"player_ids":["cricket:cricsheet:4de0779a","cricket:cricsheet:57bdbc16"],"label":"Timaru","country":"New Zealand"},"geometry":{"type":"Polygon","coordinates":[[[172.258862,-44.629369],[171.898411,-44.050631],[171.021383,-44.003261],[170.489931,-44.536704],[170.844246,-45.120323],[171.736374,-45.165618],[172.258862,-44.629369]]]}},{"type":"Feature","properties":{"hex_id":"83dab3fffffffff","population":279060,"population_year":2025,"area_km2":13012.9,"population_density":21.4,"all_players":4,"players_per_million":14.33,"player_ids":["cricket:cricsheet:30f92334","cricket:cricsheet:60471339","cricket:cricsheet:732f711b","cricket:cricsheet:e84ac20c"],"label":"Christchurch","country":"New Zealand"},"geometry":{"type":"Polygon","coordinates":[[[173.640278,-44.124643],[173.274486,-43.55092],[172.410825,-43.512693],[171.898411,-44.050631],[172.258862,-44.629369],[173.137283,-44.665149],[173.640278,-44.124643]]]}}]}