{"type":"FeatureCollection","metadata":{"population_source":"WorldPop Global 2 R2025A","population_source_url":"https://hub.worldpop.org/project/categories?id=3","population_license":"CC BY 4.0","population_year":2025,"raster_resolution":"1km","h3_resolution":1,"population_method":"official_country_rasters","occupied_cells":42,"mapped_players":388},"features":[{"type":"Feature","properties":{"hex_id":"81183ffffffffff","population":6292474,"population_year":2025,"area_km2":595741.2,"population_density":10.6,"all_players":21,"players_per_million":3.34,"player_ids":["cricket:cricsheet:0348f9a5","cricket:cricsheet:07248d8e","cricket:cricsheet:0b69a844","cricket:cricsheet:1a448be0","cricket:cricsheet:1b1c23bb","cricket:cricsheet:1b9d1579","cricket:cricsheet:33b3d2df","cricket:cricsheet:3766056b","cricket:cricsheet:3979b5e0","cricket:cricsheet:43f4087c","cricket:cricsheet:4f86926b","cricket:cricsheet:59ea70a4","cricket:cricsheet:66498395","cricket:cricsheet:9061a703","cricket:cricsheet:99cddc5e","cricket:cricsheet:b4f73b44","cricket:cricsheet:bd0a4a7d","cricket:cricsheet:def7b1bb","cricket:cricsheet:e3fe4b49","cricket:cricsheet:ef2bcebf","cricket:cricsheet:f888a374"],"label":"Dublin","country":"Ireland"},"geometry":{"type":"Polygon","coordinates":[[[-13.791647,56.736324],[-18.841172,53.740207],[-16.382341,49.609269],[-9.724736,48.430094],[-4.88976,51.223728],[-6.436337,55.37739],[-13.791647,56.736324]]]}},{"type":"Feature","properties":{"hex_id":"81187ffffffffff","population":21776966,"population_year":2025,"area_km2":595741.2,"population_density":36.6,"all_players":1,"players_per_million":0.05,"player_ids":["cricket:cricsheet:78c12883"],"label":"Torbay","country":"United Kingdom"},"geometry":{"type":"Polygon","coordinates":[[[-4.88976,51.223728],[-9.724736,48.430094],[-8.101589,44.050631],[-2.417796,42.54048],[2.026569,45.184249],[1.18851,49.470279],[-4.88976,51.223728]]]}},{"type":"Feature","properties":{"hex_id":"81197ffffffffff","population":88036357,"population_year":2025,"area_km2":523941.7,"population_density":168.0,"all_players":44,"players_per_million":0.5,"player_ids":["cricket:cricsheet:0ecb4de6","cricket:cricsheet:0f6db197","cricket:cricsheet:249d60c9","cricket:cricsheet:25f7b7d6","cricket:cricsheet:2c54c49b","cricket:cricsheet:31adb911","cricket:cricsheet:340202b0","cricket:cricsheet:38b4583c","cricket:cricsheet:3a9e9cb2","cricket:cricsheet:3d284ca3","cricket:cricsheet:4a461c24","cricket:cricsheet:4ae1755b","cricket:cricsheet:4ba0289e","cricket:cricsheet:4ec96094","cricket:cricsheet:50c6bc2b","cricket:cricsheet:59559bc2","cricket:cricsheet:5a50471c","cricket:cricsheet:5f26f677","cricket:cricsheet:65b6943c","cricket:cricsheet:70d57519","cricket:cricsheet:78fd864b","cricket:cricsheet:894b2d25","cricket:cricsheet:8d92a2c3","cricket:cricsheet:910dd54e","cricket:cricsheet:989889ff","cricket:cricsheet:99b75528","cricket:cricsheet:9caf69a1","cricket:cricsheet:a139c379","cricket:cricsheet:abc9f8a4","cricket:cricsheet:b05e45e4","cricket:cricsheet:b2664905","cricket:cricsheet:b34e0c77","cricket:cricsheet:c2554b59","cricket:cricsheet:c6625a26","cricket:cricsheet:c834c290","cricket:cricsheet:cb9b8664","cricket:cricsheet:cdb82f1c","cricket:cricsheet:cf494ffe","cricket:cricsheet:d405c0d5","cricket:cricsheet:e5b17517","cricket:cricsheet:e8fa03ed","cricket:cricsheet:e94915e6","cricket:cricsheet:fc55ec67","cricket:cricsheet:ff154ecd"],"label":"Belfast","country":"United Kingdom"},"geometry":{"type":"Polygon","coordinates":[[[-0.931587,57.689497],[-6.436337,55.37739],[-4.88976,51.223728],[1.18851,49.470279],[3.630009,50.610463],[6.259687,51.96477],[5.523647,55.706768],[-0.931587,57.689497]]]}},{"type":"Feature","properties":{"hex_id":"8120bffffffffff","population":103642617,"population_year":2025,"area_km2":707475.0,"population_density":146.5,"all_players":7,"players_per_million":0.07,"player_ids":["cricket:cricsheet:1777c020","cricket:cricsheet:1aba45cd","cricket:cricsheet:2cec2a92","cricket:cricsheet:45a7e761","cricket:cricsheet:9c9af282","cricket:cricsheet:a51e6c6e","cricket:cricsheet:ff3f6fc1"],"label":"Peshawar","country":"Pakistan"},"geometry":{"type":"Polygon","coordinates":[[[65.030331,37.894404],[67.98289,33.902397],[73.592618,33.705753],[76.945351,37.477284],[74.436338,41.761837],[68.048608,41.985775],[65.030331,37.894404]]]}},{"type":"Feature","properties":{"hex_id":"8128fffffffffff","population":14259378,"population_year":2025,"area_km2":523941.7,"population_density":27.2,"all_players":1,"players_per_million":0.07,"player_ids":["cricket:cricsheet:24ad97e7"],"label":"Vancouver","country":"Canada"},"geometry":{"type":"Polygon","coordinates":[[[-122.134831,44.057691],[-119.232215,47.804097],[-120.907545,49.395034],[-123.122866,50.984711],[-128.909854,50.154512],[-131.290159,46.416948],[-127.958662,43.419208],[-122.134831,44.057691]]]}},{"type":"Feature","properties":{"hex_id":"812a3ffffffffff","population":39671228,"population_year":2025,"area_km2":595741.2,"population_density":66.6,"all_players":1,"players_per_million":0.03,"player_ids":["cricket:cricsheet:a6bab2a9"],"label":"The Bronx","country":"United States"},"geometry":{"type":"Polygon","coordinates":[[[-69.955068,44.277849],[-75.333452,42.029564],[-75.063317,37.849069],[-70.311412,35.933887],[-65.448142,37.822091],[-64.835193,41.948534],[-69.955068,44.277849]]]}},{"type":"Feature","properties":{"hex_id":"812f7ffffffffff","population":38419612,"population_year":2025,"area_km2":565620.1,"population_density":67.9,"all_players":1,"players_per_million":0.03,"player_ids":["cricket:cricsheet:f3a18a0c"],"label":"Tokyo","country":"Japan"},"geometry":{"type":"Polygon","coordinates":[[[145.91104,30.789834],[144.831325,35.18743],[139.948213,36.441778],[136.697641,33.378798],[137.3956,31.331749],[137.800087,29.424814],[142.433222,27.949606],[145.91104,30.789834]]]}},{"type":"Feature","properties":{"hex_id":"813c3ffffffffff","population":249963695,"population_year":2025,"area_km2":614937.0,"population_density":406.5,"all_players":5,"players_per_million":0.02,"player_ids":["cricket:cricsheet:0404d43c","cricket:cricsheet:721e0199","cricket:cricsheet:7b51bfa4","cricket:cricsheet:bb34fd31","cricket:cricsheet:f2670a3d"],"label":"Dinajpur","country":"Bangladesh"},"geometry":{"type":"Polygon","coordinates":[[[81.028378,29.173754],[82.168245,26.544149],[82.644974,25.201987],[87.416541,24.410902],[90.911168,27.664083],[89.98325,30.360711],[89.579772,31.726685],[84.479601,32.589943],[81.028378,29.173754]]]}},{"type":"Feature","properties":{"hex_id":"813cbffffffffff","population":190047760,"population_year":2025,"area_km2":647632.6,"population_density":293.4,"all_players":1,"players_per_million":0.01,"player_ids":["cricket:cricsheet:aad0c365"],"label":"Visakhapatnam","country":"India"},"geometry":{"type":"Polygon","coordinates":[[[88.797306,20.114256],[87.416541,24.410902],[82.644974,25.201987],[79.445503,21.802903],[80.850069,17.60337],[85.445337,16.70096],[88.797306,20.114256]]]}},{"type":"Feature","properties":{"hex_id":"813cfffffffffff","population":285984465,"population_year":2025,"area_km2":666617.1,"population_density":429.0,"all_players":25,"players_per_million":0.09,"player_ids":["cricket:cricsheet:0a8fce53","cricket:cricsheet:0b0cc297","cricket:cricsheet:1274d7ab","cricket:cricsheet:37654b75","cricket:cricsheet:426eaf06","cricket:cricsheet:489aaf0a","cricket:cricsheet:5318ee68","cricket:cricsheet:5935d694","cricket:cricsheet:5bf87532","cricket:cricsheet:5dbdecf1","cricket:cricsheet:7923a51d","cricket:cricsheet:80ad39ac","cricket:cricsheet:80fe764d","cricket:cricsheet:84fdd3cf","cricket:cricsheet:89895ae1","cricket:cricsheet:94de63bf","cricket:cricsheet:9dad0f2e","cricket:cricsheet:9e52a414","cricket:cricsheet:aa467af0","cricket:cricsheet:aaf037b1","cricket:cricsheet:b3a28446","cricket:cricsheet:c58b0108","cricket:cricsheet:cd56a813","cricket:cricsheet:d365d463","cricket:cricsheet:ef18b66e"],"label":"Sylhet","country":"Bangladesh"},"geometry":{"type":"Polygon","coordinates":[[[97.148502,22.297036],[95.855137,26.622305],[90.911168,27.664083],[87.416541,24.410902],[88.797306,20.114256],[93.60132,19.035204],[97.148502,22.297036]]]}},{"type":"Feature","properties":{"hex_id":"813d3ffffffffff","population":80376689,"population_year":2025,"area_km2":666617.1,"population_density":120.6,"all_players":9,"players_per_million":0.11,"player_ids":["cricket:cricsheet:26d041c4","cricket:cricsheet:3664712e","cricket:cricsheet:641ac5ff","cricket:cricsheet:7298db76","cricket:cricsheet:9565fda6","cricket:cricsheet:a86a37ab","cricket:cricsheet:c4c374d9","cricket:cricsheet:f29185a1","cricket:cricsheet:fa8a3eb0"],"label":"Sialkot","country":"India"},"geometry":{"type":"Polygon","coordinates":[[[73.592618,33.705753],[75.868402,29.662739],[81.028378,29.173754],[84.479601,32.589943],[82.728687,36.835377],[76.945351,37.477284],[73.592618,33.705753]]]}},{"type":"Feature","properties":{"hex_id":"813dbffffffffff","population":338594846,"population_year":2025,"area_km2":602082.0,"population_density":562.4,"all_players":11,"players_per_million":0.03,"player_ids":["cricket:cricsheet:0a509d6b","cricket:cricsheet:201fef33","cricket:cricsheet:244048f6","cricket:cricsheet:4d622fee","cricket:cricsheet:711249d1","cricket:cricsheet:77b1aa15","cricket:cricsheet:86e80bff","cricket:cricsheet:8cf9814c","cricket:cricsheet:8d2c70ad","cricket:cricsheet:bcf325d2","cricket:cricsheet:d8f59089"],"label":"Agra","country":"India"},"geometry":{"type":"Polygon","coordinates":[[[72.931624,26.106099],[75.010886,22.410566],[79.445503,21.802903],[82.644974,25.201987],[82.168245,26.544149],[81.028378,29.173754],[75.868402,29.662739],[72.931624,26.106099]]]}},{"type":"Feature","properties":{"hex_id":"81413ffffffffff","population":120800976,"population_year":2025,"area_km2":595741.2,"population_density":202.8,"all_players":1,"players_per_million":0.01,"player_ids":["cricket:cricsheet:7fa12533"],"label":"Hong Kong","country":"People's Republic of China"},"geometry":{"type":"Polygon","coordinates":[[[118.803002,19.252195],[117.990477,23.508952],[113.703767,25.199133],[110.205767,22.499632],[111.205113,18.077041],[115.517768,16.517912],[118.803002,19.252195]]]}},{"type":"Feature","properties":{"hex_id":"81427ffffffffff","population":198959790,"population_year":2025,"area_km2":647632.6,"population_density":307.2,"all_players":28,"players_per_million":0.14,"player_ids":["cricket:cricsheet:0d56e9a5","cricket:cricsheet:22d73540","cricket:cricsheet:24bb1c2f","cricket:cricsheet:26a8b2fe","cricket:cricsheet:2904b4b6","cricket:cricsheet:2911de16","cricket:cricsheet:3086f7a4","cricket:cricsheet:4277234d","cricket:cricsheet:4357f6f8","cricket:cricsheet:53bb50f0","cricket:cricsheet:53cd8da6","cricket:cricsheet:72c9ad99","cricket:cricsheet:792d0178","cricket:cricsheet:7ab1eab7","cricket:cricsheet:89c16049","cricket:cricsheet:8a75e999","cricket:cricsheet:8e554b6b","cricket:cricsheet:9656afbf","cricket:cricsheet:9de62878","cricket:cricsheet:9e9af5f2","cricket:cricsheet:9ff1e91e","cricket:cricsheet:b4b99816","cricket:cricsheet:bb4b445b","cricket:cricsheet:bd4ea627","cricket:cricsheet:c981d3c2","cricket:cricsheet:df064e1a","cricket:cricsheet:ee95065d","cricket:cricsheet:fce581b5"],"label":"Lahore","country":"Pakistan"},"geometry":{"type":"Polygon","coordinates":[[[65.31585,30.032245],[67.931507,26.281366],[72.931624,26.106099],[75.868402,29.662739],[73.592618,33.705753],[67.98289,33.902397],[65.31585,30.032245]]]}},{"type":"Feature","properties":{"hex_id":"8142fffffffffff","population":127932236,"population_year":2025,"area_km2":565620.1,"population_density":226.2,"all_players":10,"players_per_million":0.08,"player_ids":["cricket:cricsheet:0b78b7c1","cricket:cricsheet:2e171977","cricket:cricsheet:33609a8c","cricket:cricsheet:462411b3","cricket:cricsheet:86fdf668","cricket:cricsheet:abb7c76c","cricket:cricsheet:bafb9238","cricket:cricsheet:dbe50b21","cricket:cricsheet:ea9c54de","cricket:cricsheet:f8e3c0f8"],"label":"Karachi","country":"Pakistan"},"geometry":{"type":"Polygon","coordinates":[[[65.542467,22.742171],[67.89023,19.324159],[70.146166,19.258937],[72.178712,18.993494],[75.010886,22.410566],[72.931624,26.106099],[67.931507,26.281366],[65.542467,22.742171]]]}},{"type":"Feature","properties":{"hex_id":"81537ffffffffff","population":16988306,"population_year":2025,"area_km2":565620.1,"population_density":30.0,"all_players":1,"players_per_million":0.06,"player_ids":["cricket:cricsheet:bb95564b"],"label":"Riyadh","country":"Saudi Arabia"},"geometry":{"type":"Polygon","coordinates":[[[45.678762,27.848758],[44.621776,23.461153],[47.86784,20.598095],[51.981036,21.936732],[52.589722,23.991946],[53.353616,25.802498],[50.187904,29.089392],[45.678762,27.848758]]]}},{"type":"Feature","properties":{"hex_id":"815e7ffffffffff","population":1342935,"population_year":2025,"area_km2":510516.1,"population_density":2.6,"all_players":17,"players_per_million":12.66,"player_ids":["cricket:cricsheet:09a9d073","cricket:cricsheet:0f721006","cricket:cricsheet:1fc6ef83","cricket:cricsheet:3c55c703","cricket:cricsheet:3feda4fa","cricket:cricsheet:4175d211","cricket:cricsheet:42d9dd09","cricket:cricsheet:4b0e3049","cricket:cricsheet:4b167ede","cricket:cricsheet:5574750c","cricket:cricsheet:58c2fac4","cricket:cricsheet:73c18486","cricket:cricsheet:816af623","cricket:cricsheet:83d17bbc","cricket:cricsheet:b0946605","cricket:cricsheet:d6164dc0","cricket:cricsheet:e22f8ec1"],"label":"Bridgetown","country":"Barbados"},"geometry":{"type":"Polygon","coordinates":[[[-59.834917,11.355368],[-57.535307,15.054266],[-59.510088,18.366344],[-63.616,18.007411],[-65.768822,14.482401],[-63.969049,11.14894],[-59.834917,11.355368]]]}},{"type":"Feature","properties":{"hex_id":"815f3ffffffffff","population":1690028,"population_year":2025,"area_km2":647632.6,"population_density":2.6,"all_players":10,"players_per_million":5.92,"player_ids":["cricket:cricsheet:48a1d7b7","cricket:cricsheet:97290faf","cricket:cricsheet:97bdec3d","cricket:cricsheet:a7cd72b2","cricket:cricsheet:a811cb83","cricket:cricsheet:b9fec7a5","cricket:cricsheet:c35739a1","cricket:cricsheet:c5aef772","cricket:cricsheet:d014d5ac","cricket:cricsheet:fb9a8cc3"],"label":"Georgetown","country":"Guyana"},"geometry":{"type":"Polygon","coordinates":[[[-53.682044,-0.170178],[-51.252816,3.813395],[-53.403819,7.752291],[-57.846431,7.694211],[-60.165868,3.84262],[-58.16364,-0.07918],[-53.682044,-0.170178]]]}},{"type":"Feature","properties":{"hex_id":"815f7ffffffffff","population":6903837,"population_year":2025,"area_km2":565620.1,"population_density":12.2,"all_players":5,"players_per_million":0.72,"player_ids":["cricket:cricsheet:0ebfb1ad","cricket:cricsheet:321c980e","cricket:cricsheet:4d7f517e","cricket:cricsheet:88626ed2","cricket:cricsheet:af5b6464"],"label":"Port of Spain","country":"Trinidad and Tobago"},"geometry":{"type":"Polygon","coordinates":[[[-60.165868,3.84262],[-57.846431,7.694211],[-59.834917,11.355368],[-63.969049,11.14894],[-65.058471,9.308112],[-66.195256,7.728775],[-64.328272,3.824532],[-60.165868,3.84262]]]}},{"type":"Feature","properties":{"hex_id":"81603ffffffffff","population":130572120,"population_year":2025,"area_km2":595741.2,"population_density":219.2,"all_players":1,"players_per_million":0.01,"player_ids":["cricket:cricsheet:a4cc73aa"],"label":"Thiruvananthapuram","country":"India"},"geometry":{"type":"Polygon","coordinates":[[[79.170565,9.844673],[77.800917,14.162484],[73.552971,14.946524],[70.86173,11.593032],[72.193634,7.473864],[76.264085,6.511601],[79.170565,9.844673]]]}},{"type":"Feature","properties":{"hex_id":"8160bffffffffff","population":212304176,"population_year":2025,"area_km2":595741.2,"population_density":356.4,"all_players":9,"players_per_million":0.04,"player_ids":["cricket:cricsheet:271f83cd","cricket:cricsheet:5b7ab5a9","cricket:cricsheet:5d2eda89","cricket:cricsheet:6c3aef71","cricket:cricsheet:800d2d97","cricket:cricsheet:a4e37e47","cricket:cricsheet:b0482a1d","cricket:cricsheet:cb08b611","cricket:cricsheet:eadc8924"],"label":"Mumbai","country":"India"},"geometry":{"type":"Polygon","coordinates":[[[80.850069,17.60337],[79.445503,21.802903],[75.010886,22.410566],[72.178712,18.993494],[73.552971,14.946524],[77.800917,14.162484],[80.850069,17.60337]]]}},{"type":"Feature","properties":{"hex_id":"81613ffffffffff","population":23505288,"population_year":2025,"area_km2":647632.6,"population_density":36.3,"all_players":37,"players_per_million":1.57,"player_ids":["cricket:cricsheet:08548b13","cricket:cricsheet:318a4039","cricket:cricsheet:327b58d3","cricket:cricsheet:3ff033bb","cricket:cricsheet:53068b45","cricket:cricsheet:550373ea","cricket:cricsheet:5750bcb4","cricket:cricsheet:5838cb64","cricket:cricsheet:58431ca0","cricket:cricsheet:5d1e7582","cricket:cricsheet:64839cb3","cricket:cricsheet:65cebd5d","cricket:cricsheet:6c882e9a","cricket:cricsheet:732c038e","cricket:cricsheet:736123bb","cricket:cricsheet:84212ffb","cricket:cricsheet:85021bcd","cricket:cricsheet:8dd02a98","cricket:cricsheet:8ee36b18","cricket:cricsheet:9550470d","cricket:cricsheet:a5c48ed1","cricket:cricsheet:a61850e6","cricket:cricsheet:a97c8ec2","cricket:cricsheet:ac56b5a7","cricket:cricsheet:aceb7654","cricket:cricsheet:b55fb828","cricket:cricsheet:ba603555","cricket:cricsheet:c1fdfb46","cricket:cricsheet:c34a15e6","cricket:cricsheet:dabbd0ae","cricket:cricsheet:ec691a5b","cricket:cricsheet:ecbcfef6","cricket:cricsheet:ee1b6c27","cricket:cricsheet:f0b4294e","cricket:cricsheet:f21043a5","cricket:cricsheet:f24c6701","cricket:cricsheet:fb3e0d39"],"label":"Colombo","country":"Sri Lanka"},"geometry":{"type":"Polygon","coordinates":[[[84.929667,4.348487],[83.593158,8.820602],[79.170565,9.844673],[76.264085,6.511601],[77.598304,2.223344],[81.853074,1.084854],[84.929667,4.348487]]]}},{"type":"Feature","properties":{"hex_id":"8161bffffffffff","population":70051421,"population_year":2025,"area_km2":666617.1,"population_density":105.1,"all_players":2,"players_per_million":0.03,"player_ids":["cricket:cricsheet:03a83c50","cricket:cricsheet:f19ccfad"],"label":"Jaffna","country":"Sri Lanka"},"geometry":{"type":"Polygon","coordinates":[[[86.805421,12.238125],[85.445337,16.70096],[80.850069,17.60337],[77.800917,14.162484],[79.170565,9.844673],[83.593158,8.820602],[86.805421,12.238125]]]}},{"type":"Feature","properties":{"hex_id":"81653ffffffffff","population":56430944,"population_year":2025,"area_km2":707475.0,"population_density":79.8,"all_players":1,"players_per_million":0.02,"player_ids":["cricket:cricsheet:f1f99156"],"label":"Singapore","country":"Singapore"},"geometry":{"type":"Polygon","coordinates":[[[106.411683,2.770303],[105.357168,7.303219],[100.801361,8.618891],[97.373041,5.289412],[98.560859,0.741795],[103.053645,-0.468955],[106.411683,2.770303]]]}},{"type":"Feature","properties":{"hex_id":"81673ffffffffff","population":8373126,"population_year":2025,"area_km2":510516.1,"population_density":16.4,"all_players":5,"players_per_million":0.6,"player_ids":["cricket:cricsheet:650d5e49","cricket:cricsheet:7fca84b7","cricket:cricsheet:92cf79a8","cricket:cricsheet:b52ffbbd","cricket:cricsheet:bbd41817"],"label":"Kingston","country":"Jamaica"},"geometry":{"type":"Polygon","coordinates":[[[-75.998548,19.358823],[-78.539302,16.469566],[-76.701678,12.819508],[-72.317998,12.204723],[-69.89993,15.209504],[-71.730136,18.713931],[-75.998548,19.358823]]]}},{"type":"Feature","properties":{"hex_id":"81973ffffffffff","population":25257526,"population_year":2025,"area_km2":707475.0,"population_density":35.7,"all_players":17,"players_per_million":0.67,"player_ids":["cricket:cricsheet:06fc82b8","cricket:cricsheet:3560a786","cricket:cricsheet:36dfa62e","cricket:cricsheet:3d5d51a5","cricket:cricsheet:449f4e3c","cricket:cricsheet:4bc0a378","cricket:cricsheet:53597be1","cricket:cricsheet:6e3f5a5c","cricket:cricsheet:8d25271a","cricket:cricsheet:9f0270e0","cricket:cricsheet:a879b92c","cricket:cricsheet:b08252b8","cricket:cricsheet:d1d83db3","cricket:cricsheet:d96165b5","cricket:cricsheet:e7e86505","cricket:cricsheet:eaa36b2a","cricket:cricsheet:fbcfa528"],"label":"Harare","country":"Zimbabwe"},"geometry":{"type":"Polygon","coordinates":[[[37.281129,-22.885971],[37.372092,-18.233776],[33.173278,-15.790435],[28.761238,-17.991301],[28.491882,-22.684204],[32.812319,-25.145186],[37.281129,-22.885971]]]}},{"type":"Feature","properties":{"hex_id":"81977ffffffffff","population":4813685,"population_year":2025,"area_km2":707475.0,"population_density":6.8,"all_players":3,"players_per_million":0.62,"player_ids":["cricket:cricsheet:5feead83","cricket:cricsheet:afe57f7a","cricket:cricsheet:edf62a25"],"label":"Bulawayo","country":"Zimbabwe"},"geometry":{"type":"Polygon","coordinates":[[[28.491882,-22.684204],[28.761238,-17.991301],[24.619558,-15.359563],[20.192244,-17.370809],[19.75867,-22.005854],[23.910011,-24.696711],[28.491882,-22.684204]]]}},{"type":"Feature","properties":{"hex_id":"819d7ffffffffff","population":38786,"population_year":2025,"area_km2":647632.6,"population_density":0.1,"all_players":1,"players_per_million":25.78,"player_ids":["cricket:cricsheet:72166006"],"label":"Queensland","country":"Australia"},"geometry":{"type":"Polygon","coordinates":[[[146.846074,-23.721804],[146.041409,-19.302203],[141.660737,-17.838744],[137.872609,-20.552278],[138.247909,-24.941337],[142.844847,-26.664336],[146.846074,-23.721804]]]}},{"type":"Feature","properties":{"hex_id":"81a73ffffffffff","population":2011346,"population_year":2025,"area_km2":447684.2,"population_density":4.5,"all_players":6,"players_per_million":2.98,"player_ids":["cricket:cricsheet:39086549","cricket:cricsheet:3d8feaf8","cricket:cricsheet:d9273ee7","cricket:cricsheet:e66732f8","cricket:cricsheet:eaa76d3c","cricket:cricsheet:fe366f34"],"label":"Perth","country":"Australia"},"geometry":{"type":"Polygon","coordinates":[[[118.588203,-27.826272],[115.570257,-25.722246],[114.395275,-26.30569],[111.552066,-26.654916],[110.054805,-29.808573],[113.256895,-32.609931],[117.977474,-31.877886],[118.588203,-27.826272]]]}},{"type":"Feature","properties":{"hex_id":"81ad3ffffffffff","population":1212407,"population_year":2025,"area_km2":602082.0,"population_density":2.0,"all_players":3,"players_per_million":2.47,"player_ids":["cricket:cricsheet:91cd48e0","cricket:cricsheet:a1d95bd8","cricket:cricsheet:e5437608"],"label":"Cape Town","country":"South Africa"},"geometry":{"type":"Polygon","coordinates":[[[10.25427,-29.673903],[9.551546,-34.155187],[13.78958,-36.8927],[18.352922,-34.994007],[18.839987,-30.861032],[14.745412,-28.129236],[13.242963,-28.616915],[10.25427,-29.673903]]]}},{"type":"Feature","properties":{"hex_id":"81b93ffffffffff","population":1648815,"population_year":2025,"area_km2":647632.6,"population_density":2.5,"all_players":5,"players_per_million":3.03,"player_ids":["cricket:cricsheet:12b610c2","cricket:cricsheet:17608a6f","cricket:cricsheet:2e81be88","cricket:cricsheet:3b53243a","cricket:cricsheet:ca5acfa4"],"label":"Adelaide","country":"Australia"},"geometry":{"type":"Polygon","coordinates":[[[139.652226,-38.734209],[139.129671,-34.088237],[134.339984,-32.08928],[129.914908,-34.478008],[129.866095,-38.967618],[134.798626,-41.238933],[139.652226,-38.734209]]]}},{"type":"Feature","properties":{"hex_id":"81bb3ffffffffff","population":1275828,"population_year":2025,"area_km2":602082.0,"population_density":2.1,"all_players":13,"players_per_million":10.19,"player_ids":["cricket:cricsheet:1f1ee021","cricket:cricsheet:350bb1b1","cricket:cricsheet:4663bd23","cricket:cricsheet:575494db","cricket:cricsheet:5d664346","cricket:cricsheet:7673c908","cricket:cricsheet:9af58032","cricket:cricsheet:ba5e1069","cricket:cricsheet:c8b0b64c","cricket:cricsheet:d5eb8b84","cricket:cricsheet:de69af96","cricket:cricsheet:e1891e00","cricket:cricsheet:e38bce7a"],"label":"Wellington","country":"New Zealand"},"geometry":{"type":"MultiPolygon","coordinates":[[[[-180.0,-37.582832],[-179.761284,-37.588846],[-177.984745,-37.664358],[-175.131668,-41.580315],[-177.973431,-45.184249],[-180.0,-45.219479],[-180.0,-37.582832]]],[[[180.0,-45.219479],[176.129353,-45.286766],[173.535818,-41.30856],[176.688659,-37.499409],[180.0,-37.582832],[180.0,-45.219479]]]]}},{"type":"Feature","properties":{"hex_id":"81bb7ffffffffff","population":2835946,"population_year":2025,"area_km2":666617.1,"population_density":4.3,"all_players":9,"players_per_million":3.17,"player_ids":["cricket:cricsheet:397369e0","cricket:cricsheet:68c56d09","cricket:cricsheet:80a0cd77","cricket:cricsheet:865eae1f","cricket:cricsheet:9219eff0","cricket:cricsheet:bf74b130","cricket:cricsheet:e4a0deae","cricket:cricsheet:eade4650","cricket:cricsheet:efb6cb2a"],"label":"Auckland","country":"New Zealand"},"geometry":{"type":"Polygon","coordinates":[[[176.688659,-37.499409],[174.332728,-33.405709],[169.018604,-32.862675],[165.511402,-36.515279],[167.615873,-40.869133],[173.535818,-41.30856],[176.688659,-37.499409]]]}},{"type":"Feature","properties":{"hex_id":"81bc3ffffffffff","population":3173538,"population_year":2025,"area_km2":595741.2,"population_density":5.3,"all_players":3,"players_per_million":0.95,"player_ids":["cricket:cricsheet:212aeedd","cricket:cricsheet:34304210","cricket:cricsheet:9a46c4e5"],"label":"East London","country":"South Africa"},"geometry":{"type":"Polygon","coordinates":[[[36.984222,-35.929729],[37.087453,-31.777488],[32.620327,-29.624454],[27.918941,-31.644147],[27.613905,-35.822076],[32.210782,-37.965931],[36.984222,-35.929729]]]}},{"type":"Feature","properties":{"hex_id":"81bc7ffffffffff","population":10279782,"population_year":2025,"area_km2":595741.2,"population_density":17.3,"all_players":11,"players_per_million":1.07,"player_ids":["cricket:cricsheet:0d518f89","cricket:cricsheet:35f173a0","cricket:cricsheet:63e3b6b3","cricket:cricsheet:6b9eb501","cricket:cricsheet:85b3fab2","cricket:cricsheet:9a2fc964","cricket:cricsheet:acdc62f5","cricket:cricsheet:cad40f5e","cricket:cricsheet:d2b1f515","cricket:cricsheet:e60f81c9","cricket:cricsheet:f892fcf9"],"label":"Gqeberha","country":"South Africa"},"geometry":{"type":"Polygon","coordinates":[[[27.613905,-35.822076],[27.918941,-31.644147],[23.533518,-29.166646],[18.839987,-30.861032],[18.352922,-34.994007],[22.732651,-37.488282],[27.613905,-35.822076]]]}},{"type":"Feature","properties":{"hex_id":"81bcfffffffffff","population":54771011,"population_year":2025,"area_km2":666617.1,"population_density":82.2,"all_players":34,"players_per_million":0.62,"player_ids":["cricket:cricsheet:06659caa","cricket:cricsheet:0b60eb09","cricket:cricsheet:107c26fb","cricket:cricsheet:130336c6","cricket:cricsheet:172dff15","cricket:cricsheet:25550d06","cricket:cricsheet:372455c4","cricket:cricsheet:465aa633","cricket:cricsheet:478a63e7","cricket:cricsheet:4d4605e6","cricket:cricsheet:588360ee","cricket:cricsheet:686362af","cricket:cricsheet:6a26221c","cricket:cricsheet:6d76bc23","cricket:cricsheet:6e28e586","cricket:cricsheet:7dfb8890","cricket:cricsheet:81c36ee9","cricket:cricsheet:844e79d1","cricket:cricsheet:8c5775f3","cricket:cricsheet:972f217b","cricket:cricsheet:9948e262","cricket:cricsheet:996ed07c","cricket:cricsheet:9c821d2e","cricket:cricsheet:b17a4a93","cricket:cricsheet:b8cc58c9","cricket:cricsheet:ce85fcaf","cricket:cricsheet:d3a1c63d","cricket:cricsheet:d67d5f00","cricket:cricsheet:df5a6881","cricket:cricsheet:e62dd25d","cricket:cricsheet:ea544967","cricket:cricsheet:ebb74564","cricket:cricsheet:f0af99a7","cricket:cricsheet:f834dcfc"],"label":"Johannesburg","country":"South Africa"},"geometry":{"type":"Polygon","coordinates":[[[32.620327,-29.624454],[32.812319,-25.145186],[28.491882,-22.684204],[23.910011,-24.696711],[23.533518,-29.166646],[27.918941,-31.644147],[32.620327,-29.624454]]]}},{"type":"Feature","properties":{"hex_id":"81be3ffffffffff","population":7422285,"population_year":2025,"area_km2":729486.9,"population_density":10.2,"all_players":7,"players_per_million":0.94,"player_ids":["cricket:cricsheet:14f96089","cricket:cricsheet:1a2676c5","cricket:cricsheet:4e6ef14f","cricket:cricsheet:9eb1455b","cricket:cricsheet:bc969efb","cricket:cricsheet:be150fc8","cricket:cricsheet:e1b9f3a9"],"label":"Shellharbour","country":"Australia"},"geometry":{"type":"Polygon","coordinates":[[[159.810679,-35.59178],[158.196039,-31.026208],[152.877292,-29.753699],[148.729494,-32.935272],[149.839959,-37.608844],[155.640338,-39.007712],[159.810679,-35.59178]]]}},{"type":"Feature","properties":{"hex_id":"81be7ffffffffff","population":7973734,"population_year":2025,"area_km2":707475.0,"population_density":11.3,"all_players":8,"players_per_million":1.0,"player_ids":["cricket:cricsheet:52d1dbc8","cricket:cricsheet:65d9b6b6","cricket:cricsheet:69d03465","cricket:cricsheet:83558266","cricket:cricsheet:9b6e1b3f","cricket:cricsheet:a90e53ec","cricket:cricsheet:b681e71e","cricket:cricsheet:f0b4e47d"],"label":"Loxton","country":"Australia"},"geometry":{"type":"Polygon","coordinates":[[[149.839959,-37.608844],[148.729494,-32.935272],[143.536871,-31.277795],[139.129671,-34.088237],[139.652226,-38.734209],[145.182884,-40.615783],[149.839959,-37.608844]]]}},{"type":"Feature","properties":{"hex_id":"81bebffffffffff","population":4369258,"population_year":2025,"area_km2":707475.0,"population_density":6.2,"all_players":1,"players_per_million":0.23,"player_ids":["cricket:cricsheet:7b953689"],"label":"Brisbane","country":"Australia"},"geometry":{"type":"Polygon","coordinates":[[[161.882144,-27.596488],[160.312535,-23.16469],[155.419957,-21.999746],[151.703594,-25.170738],[152.877292,-29.753699],[158.196039,-31.026208],[161.882144,-27.596488]]]}},{"type":"Feature","properties":{"hex_id":"81befffffffffff","population":652227,"population_year":2025,"area_km2":707475.0,"population_density":0.9,"all_players":2,"players_per_million":3.07,"player_ids":["cricket:cricsheet:03806cf8","cricket:cricsheet:5c30d455"],"label":"Tamworth","country":"Australia"},"geometry":{"type":"Polygon","coordinates":[[[152.877292,-29.753699],[151.703594,-25.170738],[146.846074,-23.721804],[142.844847,-26.664336],[143.536871,-31.277795],[148.729494,-32.935272],[152.877292,-29.753699]]]}},{"type":"Feature","properties":{"hex_id":"81bf7ffffffffff","population":577472,"population_year":2025,"area_km2":707475.0,"population_density":0.8,"all_players":1,"players_per_million":1.73,"player_ids":["cricket:cricsheet:f2c936d7"],"label":"Hobart","country":"Australia"},"geometry":{"type":"Polygon","coordinates":[[[157.277742,-43.543726],[155.640338,-39.007712],[149.839959,-37.608844],[145.182884,-40.615783],[146.171275,-45.212216],[152.507077,-46.760277],[157.277742,-43.543726]]]}},{"type":"Feature","properties":{"hex_id":"81dabffffffffff","population":1120976,"population_year":2025,"area_km2":647632.6,"population_density":1.7,"all_players":10,"players_per_million":8.92,"player_ids":["cricket:cricsheet:30f92334","cricket:cricsheet:4de0779a","cricket:cricsheet:57bdbc16","cricket:cricsheet:60471339","cricket:cricsheet:732f711b","cricket:cricsheet:7693851c","cricket:cricsheet:89bbc67a","cricket:cricsheet:dadbdb68","cricket:cricsheet:e4a71d18","cricket:cricsheet:e84ac20c"],"label":"Christchurch","country":"New Zealand"},"geometry":{"type":"Polygon","coordinates":[[[176.129353,-45.286766],[173.535818,-41.30856],[167.615873,-40.869133],[163.614305,-44.491235],[165.865034,-48.699061],[172.539491,-49.056818],[176.129353,-45.286766]]]}}]}