{"type":"FeatureCollection","metadata":{"population_source":"WorldPop Global 2 R2025A","population_source_url":"https://hub.worldpop.org/project/categories?id=3","population_license":"CC BY 4.0","population_year":2025,"raster_resolution":"1km","h3_resolution":2,"population_method":"official_country_rasters","occupied_cells":89,"mapped_players":388},"features":[{"type":"Feature","properties":{"hex_id":"821827fffffffff","population":1306538,"population_year":2025,"area_km2":80544.7,"population_density":16.2,"all_players":2,"players_per_million":1.53,"player_ids":["cricket:cricsheet:66498395","cricket:cricsheet:bd0a4a7d"],"label":"Derry","country":"United Kingdom"},"geometry":{"type":"Polygon","coordinates":[[[-8.7409,56.382588],[-11.31933,55.81836],[-11.464478,54.262489],[-9.166993,53.289084],[-6.713499,53.841054],[-6.436337,55.37739],[-8.7409,56.382588]]]}},{"type":"Feature","properties":{"hex_id":"82182ffffffffff","population":4166502,"population_year":2025,"area_km2":82705.0,"population_density":50.4,"all_players":19,"players_per_million":4.56,"player_ids":["cricket:cricsheet:0348f9a5","cricket:cricsheet:07248d8e","cricket:cricsheet:0b69a844","cricket:cricsheet:1a448be0","cricket:cricsheet:1b1c23bb","cricket:cricsheet:1b9d1579","cricket:cricsheet:33b3d2df","cricket:cricsheet:3766056b","cricket:cricsheet:3979b5e0","cricket:cricsheet:43f4087c","cricket:cricsheet:4f86926b","cricket:cricsheet:59ea70a4","cricket:cricsheet:9061a703","cricket:cricsheet:99cddc5e","cricket:cricsheet:b4f73b44","cricket:cricsheet:def7b1bb","cricket:cricsheet:e3fe4b49","cricket:cricsheet:ef2bcebf","cricket:cricsheet:f888a374"],"label":"Dublin","country":"Ireland"},"geometry":{"type":"Polygon","coordinates":[[[-6.713499,53.841054],[-9.166993,53.289084],[-9.362891,51.696863],[-7.224494,50.679047],[-4.88976,51.223728],[-4.578382,52.792439],[-6.713499,53.841054]]]}},{"type":"Feature","properties":{"hex_id":"821877fffffffff","population":1812218,"population_year":2025,"area_km2":84307.8,"population_density":21.5,"all_players":1,"players_per_million":0.55,"player_ids":["cricket:cricsheet:78c12883"],"label":"Torbay","country":"United Kingdom"},"geometry":{"type":"Polygon","coordinates":[[[-4.88976,51.223728],[-7.224494,50.679047],[-7.460509,49.056818],[-5.466445,48.005645],[-3.243656,48.547301],[-2.906528,50.142292],[-4.88976,51.223728]]]}},{"type":"Feature","properties":{"hex_id":"821947fffffffff","population":12519310,"population_year":2025,"area_km2":74863.4,"population_density":167.2,"all_players":7,"players_per_million":0.56,"player_ids":["cricket:cricsheet:0ecb4de6","cricket:cricsheet:249d60c9","cricket:cricsheet:4ae1755b","cricket:cricsheet:65b6943c","cricket:cricsheet:78fd864b","cricket:cricsheet:989889ff","cricket:cricsheet:b34e0c77"],"label":"بریڈفورڈ","country":"United Kingdom"},"geometry":{"type":"Polygon","coordinates":[[[0.670759,55.133806],[-1.785543,54.762388],[-2.178886,53.251551],[-0.219137,52.141681],[2.101314,52.517134],[2.592789,53.997752],[0.670759,55.133806]]]}},{"type":"Feature","properties":{"hex_id":"82194ffffffffff","population":23325550,"population_year":2025,"area_km2":76219.8,"population_density":306.0,"all_players":11,"players_per_million":0.47,"player_ids":["cricket:cricsheet:3a9e9cb2","cricket:cricsheet:5f26f677","cricket:cricsheet:70d57519","cricket:cricsheet:910dd54e","cricket:cricsheet:abc9f8a4","cricket:cricsheet:b2664905","cricket:cricsheet:c2554b59","cricket:cricsheet:c834c290","cricket:cricsheet:cb9b8664","cricket:cricsheet:e5b17517","cricket:cricsheet:ff154ecd"],"label":"Farnborough","country":"United Kingdom"},"geometry":{"type":"Polygon","coordinates":[[[2.101314,52.517134],[-0.219137,52.141681],[-0.631095,50.601911],[1.18851,49.470279],[3.384772,49.85377],[3.881134,51.360376],[2.101314,52.517134]]]}},{"type":"Feature","properties":{"hex_id":"821957fffffffff","population":9970811,"population_year":2025,"area_km2":77902.3,"population_density":128.0,"all_players":10,"players_per_million":1.0,"player_ids":["cricket:cricsheet:2c54c49b","cricket:cricsheet:3d284ca3","cricket:cricsheet:4ba0289e","cricket:cricsheet:4ec96094","cricket:cricsheet:50c6bc2b","cricket:cricsheet:5a50471c","cricket:cricsheet:cdb82f1c","cricket:cricsheet:cf494ffe","cricket:cricsheet:e8fa03ed","cricket:cricsheet:fc55ec67"],"label":"Belfast","country":"United Kingdom"},"geometry":{"type":"Polygon","coordinates":[[[-3.903181,55.840606],[-6.436337,55.37739],[-6.713499,53.841054],[-4.578382,52.792439],[-2.178886,53.251551],[-1.785543,54.762388],[-3.903181,55.840606]]]}},{"type":"Feature","properties":{"hex_id":"82195ffffffffff","population":22721748,"population_year":2025,"area_km2":79647.5,"population_density":285.3,"all_players":14,"players_per_million":0.62,"player_ids":["cricket:cricsheet:0f6db197","cricket:cricsheet:25f7b7d6","cricket:cricsheet:31adb911","cricket:cricsheet:340202b0","cricket:cricsheet:38b4583c","cricket:cricsheet:4a461c24","cricket:cricsheet:59559bc2","cricket:cricsheet:99b75528","cricket:cricsheet:9caf69a1","cricket:cricsheet:a139c379","cricket:cricsheet:b05e45e4","cricket:cricsheet:c6625a26","cricket:cricsheet:d405c0d5","cricket:cricsheet:e94915e6"],"label":"Swindon","country":"United Kingdom"},"geometry":{"type":"Polygon","coordinates":[[[-2.178886,53.251551],[-4.578382,52.792439],[-4.88976,51.223728],[-2.906528,50.142292],[-0.631095,50.601911],[-0.219137,52.141681],[-2.178886,53.251551]]]}},{"type":"Feature","properties":{"hex_id":"821977fffffffff","population":4073107,"population_year":2025,"area_km2":73030.9,"population_density":55.8,"all_players":2,"players_per_million":0.49,"player_ids":["cricket:cricsheet:894b2d25","cricket:cricsheet:8d92a2c3"],"label":"Ashington","country":"United Kingdom"},"geometry":{"type":"Polygon","coordinates":[[[-0.931587,57.689497],[-3.536381,57.317288],[-3.903181,55.840606],[-1.785543,54.762388],[0.670759,55.133806],[1.152198,56.583354],[-0.931587,57.689497]]]}},{"type":"Feature","properties":{"hex_id":"822097fffffffff","population":19716092,"population_year":2025,"area_km2":98815.5,"population_density":199.5,"all_players":1,"players_per_million":0.05,"player_ids":["cricket:cricsheet:45a7e761"],"label":"Khyber District","country":"Pakistan"},"geometry":{"type":"Polygon","coordinates":[[[67.583884,35.608441],[67.98289,33.902397],[69.967267,33.298527],[71.628646,34.369856],[71.325185,36.094189],[69.262855,36.730185],[67.583884,35.608441]]]}},{"type":"Feature","properties":{"hex_id":"82209ffffffffff","population":22981393,"population_year":2025,"area_km2":99241.3,"population_density":231.6,"all_players":2,"players_per_million":0.09,"player_ids":["cricket:cricsheet:9c9af282","cricket:cricsheet:a51e6c6e"],"label":"Lower Dir District","country":"Pakistan"},"geometry":{"type":"Polygon","coordinates":[[[71.325185,36.094189],[71.628646,34.369856],[73.592618,33.705753],[75.321044,34.728978],[75.118298,36.463216],[73.085131,37.16575],[71.325185,36.094189]]]}},{"type":"Feature","properties":{"hex_id":"8228dffffffffff","population":3121728,"population_year":2025,"area_km2":72289.7,"population_density":43.2,"all_players":1,"players_per_million":0.32,"player_ids":["cricket:cricsheet:24ad97e7"],"label":"Vancouver","country":"Canada"},"geometry":{"type":"Polygon","coordinates":[[[-123.785414,48.414997],[-122.065326,49.540804],[-123.122866,50.984711],[-125.501019,51.20399],[-126.653646,49.99834],[-126.038043,48.646404],[-123.785414,48.414997]]]}},{"type":"Feature","properties":{"hex_id":"822a17fffffffff","population":30364242,"population_year":2025,"area_km2":87326.6,"population_density":347.7,"all_players":1,"players_per_million":0.03,"player_ids":["cricket:cricsheet:a6bab2a9"],"label":"The Bronx","country":"United States"},"geometry":{"type":"Polygon","coordinates":[[[-73.076912,42.400493],[-75.333452,42.029564],[-75.960619,40.480497],[-74.442775,39.340569],[-72.307877,39.686062],[-71.573772,41.195725],[-73.076912,42.400493]]]}},{"type":"Feature","properties":{"hex_id":"822f5ffffffffff","population":40494200,"population_year":2025,"area_km2":79647.5,"population_density":508.4,"all_players":1,"players_per_million":0.02,"player_ids":["cricket:cricsheet:f3a18a0c"],"label":"Tokyo","country":"Japan"},"geometry":{"type":"Polygon","coordinates":[[[141.379662,33.846135],[141.516472,35.500079],[139.948213,36.441778],[138.304265,35.714832],[138.240188,34.090249],[139.748325,33.162808],[141.379662,33.846135]]]}},{"type":"Feature","properties":{"hex_id":"823c1ffffffffff","population":88957100,"population_year":2025,"area_km2":89801.2,"population_density":990.6,"all_players":5,"players_per_million":0.06,"player_ids":["cricket:cricsheet:0404d43c","cricket:cricsheet:721e0199","cricket:cricsheet:7b51bfa4","cricket:cricsheet:bb34fd31","cricket:cricsheet:f2670a3d"],"label":"Dinajpur","country":"Bangladesh"},"geometry":{"type":"Polygon","coordinates":[[[89.096899,25.224827],[89.199167,26.879845],[87.600679,27.71005],[85.922218,26.891984],[85.840343,25.248334],[87.416541,24.410902],[89.096899,25.224827]]]}},{"type":"Feature","properties":{"hex_id":"823c97fffffffff","population":18482736,"population_year":2025,"area_km2":93159.0,"population_density":198.4,"all_players":1,"players_per_million":0.05,"player_ids":["cricket:cricsheet:aad0c365"],"label":"Visakhapatnam","country":"India"},"geometry":{"type":"Polygon","coordinates":[[[83.921451,17.596565],[83.989439,19.325573],[82.464222,20.179245],[80.899198,19.312037],[80.850069,17.60337],[82.347246,16.741282],[83.921451,17.596565]]]}},{"type":"Feature","properties":{"hex_id":"823cc7fffffffff","population":53717375,"population_year":2025,"area_km2":95515.4,"population_density":562.4,"all_players":4,"players_per_million":0.07,"player_ids":["cricket:cricsheet:489aaf0a","cricket:cricsheet:80ad39ac","cricket:cricsheet:b3a28446","cricket:cricsheet:cd56a813"],"label":"Lakshmipur","country":"Bangladesh"},"geometry":{"type":"Polygon","coordinates":[[[93.857073,22.506761],[93.987187,24.209804],[92.394898,25.128232],[90.686309,24.346284],[90.575866,22.648836],[92.154198,21.72722],[93.857073,22.506761]]]}},{"type":"Feature","properties":{"hex_id":"823cd7fffffffff","population":7302347,"population_year":2025,"area_km2":97556.0,"population_density":74.9,"all_players":1,"players_per_million":0.14,"player_ids":["cricket:cricsheet:426eaf06"],"label":"Patuakhali","country":"Bangladesh"},"geometry":{"type":"Polygon","coordinates":[[[92.035943,19.993488],[92.154198,21.72722],[90.575866,22.648836],[88.895989,21.839554],[88.797306,20.114256],[90.358842,19.189322],[92.035943,19.993488]]]}},{"type":"Feature","properties":{"hex_id":"823ce7fffffffff","population":50833902,"population_year":2025,"area_km2":91641.3,"population_density":554.7,"all_players":7,"players_per_million":0.14,"player_ids":["cricket:cricsheet:0b0cc297","cricket:cricsheet:37654b75","cricket:cricsheet:5935d694","cricket:cricsheet:5dbdecf1","cricket:cricsheet:84fdd3cf","cricket:cricsheet:89895ae1","cricket:cricsheet:94de63bf"],"label":"Sylhet","country":"Bangladesh"},"geometry":{"type":"Polygon","coordinates":[[[92.394898,25.128232],[92.517389,26.790488],[90.911168,27.664083],[89.199167,26.879845],[89.096899,25.224827],[90.686309,24.346284],[92.394898,25.128232]]]}},{"type":"Feature","properties":{"hex_id":"823cf7fffffffff","population":141631300,"population_year":2025,"area_km2":93933.6,"population_density":1507.8,"all_players":13,"players_per_million":0.09,"player_ids":["cricket:cricsheet:0a8fce53","cricket:cricsheet:1274d7ab","cricket:cricsheet:5318ee68","cricket:cricsheet:5bf87532","cricket:cricsheet:7923a51d","cricket:cricsheet:80fe764d","cricket:cricsheet:9dad0f2e","cricket:cricsheet:9e52a414","cricket:cricsheet:aa467af0","cricket:cricsheet:aaf037b1","cricket:cricsheet:c58b0108","cricket:cricsheet:d365d463","cricket:cricsheet:ef18b66e"],"label":"Khulna","country":"Bangladesh"},"geometry":{"type":"Polygon","coordinates":[[[90.575866,22.648836],[90.686309,24.346284],[89.096899,25.224827],[87.416541,24.410902],[87.326116,22.72356],[88.895989,21.839554],[90.575866,22.648836]]]}},{"type":"Feature","properties":{"hex_id":"823d17fffffffff","population":44536689,"population_year":2025,"area_km2":92775.6,"population_density":480.0,"all_players":5,"players_per_million":0.11,"player_ids":["cricket:cricsheet:3664712e","cricket:cricsheet:641ac5ff","cricket:cricsheet:7298db76","cricket:cricsheet:9565fda6","cricket:cricsheet:c4c374d9"],"label":"Ludhiana","country":"India"},"geometry":{"type":"Polygon","coordinates":[[[75.695319,31.326181],[75.868402,29.662739],[77.645527,28.973819],[79.297948,29.906253],[79.213236,31.570562],[77.387389,32.302945],[75.695319,31.326181]]]}},{"type":"Feature","properties":{"hex_id":"823d37fffffffff","population":40321516,"population_year":2025,"area_km2":96323.1,"population_density":418.6,"all_players":3,"players_per_million":0.07,"player_ids":["cricket:cricsheet:26d041c4","cricket:cricsheet:a86a37ab","cricket:cricsheet:fa8a3eb0"],"label":"Sialkot","country":"Pakistan"},"geometry":{"type":"Polygon","coordinates":[[[73.592618,33.705753],[73.826692,32.007599],[75.695319,31.326181],[77.387389,32.302945],[77.24794,34.006176],[75.321044,34.728978],[73.592618,33.705753]]]}},{"type":"Feature","properties":{"hex_id":"823d87fffffffff","population":32467132,"population_year":2025,"area_km2":85294.5,"population_density":380.6,"all_players":4,"players_per_million":0.12,"player_ids":["cricket:cricsheet:201fef33","cricket:cricsheet:244048f6","cricket:cricsheet:86e80bff","cricket:cricsheet:bcf325d2"],"label":"Agra","country":"India"},"geometry":{"type":"Polygon","coordinates":[[[76.189798,26.422657],[76.33926,24.849585],[77.988009,24.20395],[79.528294,25.090534],[79.455192,26.66448],[77.765218,27.352248],[76.189798,26.422657]]]}},{"type":"Feature","properties":{"hex_id":"823d8ffffffffff","population":82104400,"population_year":2025,"area_km2":85321.7,"population_density":962.3,"all_players":1,"players_per_million":0.01,"player_ids":["cricket:cricsheet:8d2c70ad"],"label":"Kanpur","country":"India"},"geometry":{"type":"Polygon","coordinates":[[[79.455192,26.66448],[79.528294,25.090534],[81.050122,24.335201],[82.644974,25.201987],[82.706686,26.830387],[81.065899,27.554873],[79.455192,26.66448]]]}},{"type":"Feature","properties":{"hex_id":"823d9ffffffffff","population":19916280,"population_year":2025,"area_km2":85294.5,"population_density":233.5,"all_players":1,"players_per_million":0.05,"player_ids":["cricket:cricsheet:4d622fee"],"label":"Ghuwara","country":"India"},"geometry":{"type":"Polygon","coordinates":[[[80.999214,22.680573],[81.050122,24.335201],[79.528294,25.090534],[77.988009,24.20395],[77.955905,22.571208],[79.445503,21.802903],[80.999214,22.680573]]]}},{"type":"Feature","properties":{"hex_id":"823da7fffffffff","population":87251784,"population_year":2025,"area_km2":89440.6,"population_density":975.5,"all_players":2,"players_per_million":0.02,"player_ids":["cricket:cricsheet:77b1aa15","cricket:cricsheet:d8f59089"],"label":"Gheora","country":"India"},"geometry":{"type":"Polygon","coordinates":[[[74.260301,28.687863],[74.461483,27.070669],[76.189798,26.422657],[77.765218,27.352248],[77.645527,28.973819],[75.868402,29.662739],[74.260301,28.687863]]]}},{"type":"Feature","properties":{"hex_id":"823daffffffffff","population":61932635,"population_year":2025,"area_km2":88726.5,"population_density":698.0,"all_players":3,"players_per_million":0.05,"player_ids":["cricket:cricsheet:0a509d6b","cricket:cricsheet:711249d1","cricket:cricsheet:8cf9814c"],"label":"Amroha","country":"India"},"geometry":{"type":"Polygon","coordinates":[[[77.645527,28.973819],[77.765218,27.352248],[79.455192,26.66448],[81.065899,27.554873],[81.028378,29.173754],[79.297948,29.906253],[77.645527,28.973819]]]}},{"type":"Feature","properties":{"hex_id":"824107fffffffff","population":18413,"population_year":2025,"area_km2":85294.5,"population_density":0.2,"all_players":1,"players_per_million":54.31,"player_ids":["cricket:cricsheet:7fa12533"],"label":"Hong Kong","country":"People's Republic of China"},"geometry":{"type":"Polygon","coordinates":[[[115.972568,19.8125],[116.202872,21.431221],[114.855932,22.520124],[113.254772,21.985685],[113.0333,20.343332],[114.403659,19.258865],[115.972568,19.8125]]]}},{"type":"Feature","properties":{"hex_id":"824247fffffffff","population":34041460,"population_year":2025,"area_km2":92775.6,"population_density":366.9,"all_players":2,"players_per_million":0.06,"player_ids":["cricket:cricsheet:26a8b2fe","cricket:cricsheet:9ff1e91e"],"label":"Layyah","country":"Pakistan"},"geometry":{"type":"Polygon","coordinates":[[[68.72159,30.551966],[69.064096,28.912826],[70.896194,28.318197],[72.449108,29.330412],[72.189483,30.985372],[70.292659,31.61352],[68.72159,30.551966]]]}},{"type":"Feature","properties":{"hex_id":"82424ffffffffff","population":72883696,"population_year":2025,"area_km2":93159.0,"population_density":782.4,"all_players":14,"players_per_million":0.19,"player_ids":["cricket:cricsheet:0d56e9a5","cricket:cricsheet:53bb50f0","cricket:cricsheet:53cd8da6","cricket:cricsheet:72c9ad99","cricket:cricsheet:7ab1eab7","cricket:cricsheet:89c16049","cricket:cricsheet:8a75e999","cricket:cricsheet:8e554b6b","cricket:cricsheet:9656afbf","cricket:cricsheet:b4b99816","cricket:cricsheet:bb4b445b","cricket:cricsheet:bd4ea627","cricket:cricsheet:c981d3c2","cricket:cricsheet:f29185a1"],"label":"Lahore","country":"Pakistan"},"geometry":{"type":"Polygon","coordinates":[[[72.189483,30.985372],[72.449108,29.330412],[74.260301,28.687863],[75.868402,29.662739],[75.695319,31.326181],[73.826692,32.007599],[72.189483,30.985372]]]}},{"type":"Feature","properties":{"hex_id":"82425ffffffffff","population":12080682,"population_year":2025,"area_km2":89440.6,"population_density":135.1,"all_players":1,"players_per_million":0.08,"player_ids":["cricket:cricsheet:df064e1a"],"label":"Jodhpur","country":"India"},"geometry":{"type":"Polygon","coordinates":[[[70.896194,28.318197],[71.176541,26.712329],[72.931624,26.106099],[74.461483,27.070669],[74.260301,28.687863],[72.449108,29.330412],[70.896194,28.318197]]]}},{"type":"Feature","properties":{"hex_id":"824267fffffffff","population":6023199,"population_year":2025,"area_km2":95515.4,"population_density":63.1,"all_players":1,"players_per_million":0.17,"player_ids":["cricket:cricsheet:9e9af5f2"],"label":"North Waziristan","country":"Pakistan"},"geometry":{"type":"Polygon","coordinates":[[[66.399972,32.790283],[66.811382,31.126022],[68.72159,30.551966],[70.292659,31.61352],[69.967267,33.298527],[67.98289,33.902397],[66.399972,32.790283]]]}},{"type":"Feature","properties":{"hex_id":"82426ffffffffff","population":51390613,"population_year":2025,"area_km2":96323.1,"population_density":533.5,"all_players":15,"players_per_million":0.29,"player_ids":["cricket:cricsheet:1777c020","cricket:cricsheet:1aba45cd","cricket:cricsheet:22d73540","cricket:cricsheet:24bb1c2f","cricket:cricsheet:2904b4b6","cricket:cricsheet:2911de16","cricket:cricsheet:2cec2a92","cricket:cricsheet:3086f7a4","cricket:cricsheet:4277234d","cricket:cricsheet:4357f6f8","cricket:cricsheet:792d0178","cricket:cricsheet:9de62878","cricket:cricsheet:ee95065d","cricket:cricsheet:fce581b5","cricket:cricsheet:ff3f6fc1"],"label":"Rawalpindi","country":"Pakistan"},"geometry":{"type":"Polygon","coordinates":[[[69.967267,33.298527],[70.292659,31.61352],[72.189483,30.985372],[73.826692,32.007599],[73.592618,33.705753],[71.628646,34.369856],[69.967267,33.298527]]]}},{"type":"Feature","properties":{"hex_id":"8242cffffffffff","population":38744212,"population_year":2025,"area_km2":81458.9,"population_density":475.6,"all_players":2,"players_per_million":0.05,"player_ids":["cricket:cricsheet:2e171977","cricket:cricsheet:462411b3"],"label":"Nadiad","country":"India"},"geometry":{"type":"Polygon","coordinates":[[[71.699171,23.593305],[71.94312,22.083007],[73.575594,21.508843],[75.010886,22.410566],[74.836158,23.930618],[73.156192,24.54037],[71.699171,23.593305]]]}},{"type":"Feature","properties":{"hex_id":"8242dffffffffff","population":20138540,"population_year":2025,"area_km2":77926.1,"population_density":258.4,"all_players":1,"players_per_million":0.05,"player_ids":["cricket:cricsheet:dbe50b21"],"label":"Surat","country":"India"},"geometry":{"type":"Polygon","coordinates":[[[70.553881,21.159402],[70.813809,19.707304],[72.178712,18.993494],[73.569841,19.887995],[73.575594,21.508843],[71.94312,22.083007],[70.553881,21.159402]]]}},{"type":"Feature","properties":{"hex_id":"8242e7fffffffff","population":35348262,"population_year":2025,"area_km2":84307.8,"population_density":419.3,"all_players":7,"players_per_million":0.2,"player_ids":["cricket:cricsheet:0b78b7c1","cricket:cricsheet:33609a8c","cricket:cricsheet:86fdf668","cricket:cricsheet:abb7c76c","cricket:cricsheet:bafb9238","cricket:cricsheet:ea9c54de","cricket:cricsheet:f8e3c0f8"],"label":"Karachi","country":"Pakistan"},"geometry":{"type":"Polygon","coordinates":[[[66.519251,25.262825],[66.884859,23.730153],[68.595509,23.195531],[69.998545,24.165755],[69.701515,25.717882],[67.931507,26.281366],[66.519251,25.262825]]]}},{"type":"Feature","properties":{"hex_id":"825357fffffffff","population":8114418,"population_year":2025,"area_km2":84307.8,"population_density":96.2,"all_players":1,"players_per_million":0.12,"player_ids":["cricket:cricsheet:bb95564b"],"label":"Riyadh","country":"Saudi Arabia"},"geometry":{"type":"Polygon","coordinates":[[[45.552415,24.919829],[44.621776,23.461153],[45.432854,22.013661],[47.124581,22.018703],[48.049055,23.440388],[47.289039,24.893471],[45.552415,24.919829]]]}},{"type":"Feature","properties":{"hex_id":"825e47fffffffff","population":576184,"population_year":2025,"area_km2":73030.9,"population_density":7.9,"all_players":5,"players_per_million":8.68,"player_ids":["cricket:cricsheet:09a9d073","cricket:cricsheet:4b167ede","cricket:cricsheet:58c2fac4","cricket:cricsheet:816af623","cricket:cricsheet:d6164dc0"],"label":"Castries","country":"Saint Lucia"},"geometry":{"type":"Polygon","coordinates":[[[-61.536047,13.315163],[-60.296727,14.395691],[-60.525074,15.869734],[-61.979153,16.249349],[-63.191495,15.181722],[-62.976789,13.721947],[-61.536047,13.315163]]]}},{"type":"Feature","properties":{"hex_id":"825e4ffffffffff","population":46883,"population_year":2025,"area_km2":68186.6,"population_density":0.7,"all_players":1,"players_per_million":21.33,"player_ids":["cricket:cricsheet:e22f8ec1"],"label":"Sandy Point Town","country":"Saint Kitts and Nevis"},"geometry":{"type":"Polygon","coordinates":[[[-63.191495,15.181722],[-61.979153,16.249349],[-62.198208,17.668849],[-63.616,18.007411],[-64.800426,16.953431],[-64.594997,15.54761],[-63.191495,15.181722]]]}},{"type":"Feature","properties":{"hex_id":"825e5ffffffffff","population":281447,"population_year":2025,"area_km2":70782.3,"population_density":4.0,"all_players":1,"players_per_million":3.55,"player_ids":["cricket:cricsheet:b0946605"],"label":"Antigua","country":"Antigua and Barbuda"},"geometry":{"type":"Polygon","coordinates":[[[-60.525074,15.869734],[-59.277584,16.935419],[-59.510088,18.366344],[-60.976707,18.720572],[-62.198208,17.668849],[-61.979153,16.249349],[-60.525074,15.869734]]]}},{"type":"Feature","properties":{"hex_id":"825e67fffffffff","population":116772,"population_year":2025,"area_km2":74863.4,"population_density":1.6,"all_players":1,"players_per_million":8.56,"player_ids":["cricket:cricsheet:42d9dd09"],"label":"Saint Andrew Parish","country":"Grenada"},"geometry":{"type":"Polygon","coordinates":[[[-62.542405,10.713529],[-61.31197,11.80248],[-61.536047,13.315163],[-62.976789,13.721947],[-64.179322,12.644368],[-63.969049,11.14894],[-62.542405,10.713529]]]}},{"type":"Feature","properties":{"hex_id":"825e77fffffffff","population":282559,"population_year":2025,"area_km2":77902.3,"population_density":3.6,"all_players":9,"players_per_million":31.85,"player_ids":["cricket:cricsheet:0f721006","cricket:cricsheet:1fc6ef83","cricket:cricsheet:3c55c703","cricket:cricsheet:3feda4fa","cricket:cricsheet:4175d211","cricket:cricsheet:4b0e3049","cricket:cricsheet:5574750c","cricket:cricsheet:73c18486","cricket:cricsheet:83d17bbc"],"label":"Bridgetown","country":"Barbados"},"geometry":{"type":"Polygon","coordinates":[[[-59.834917,11.355368],[-58.569813,12.447942],[-58.807457,13.975216],[-60.296727,14.395691],[-61.536047,13.315163],[-61.31197,11.80248],[-59.834917,11.355368]]]}},{"type":"Feature","properties":{"hex_id":"825f0ffffffffff","population":755775,"population_year":2025,"area_km2":88726.5,"population_density":8.5,"all_players":8,"players_per_million":10.59,"player_ids":["cricket:cricsheet:97290faf","cricket:cricsheet:97bdec3d","cricket:cricsheet:a7cd72b2","cricket:cricsheet:a811cb83","cricket:cricsheet:b9fec7a5","cricket:cricsheet:c5aef772","cricket:cricsheet:d014d5ac","cricket:cricsheet:fb9a8cc3"],"label":"Georgetown","country":"Guyana"},"geometry":{"type":"Polygon","coordinates":[[[-57.355362,4.400413],[-56.048636,5.516407],[-56.300826,7.171745],[-57.846431,7.694211],[-59.129234,6.585959],[-58.890503,4.947801],[-57.355362,4.400413]]]}},{"type":"Feature","properties":{"hex_id":"825f2ffffffffff","population":51517,"population_year":2025,"area_km2":89440.6,"population_density":0.6,"all_players":2,"players_per_million":38.82,"player_ids":["cricket:cricsheet:48a1d7b7","cricket:cricsheet:c35739a1"],"label":"East Berbice-Corentyne","country":"Guyana"},"geometry":{"type":"Polygon","coordinates":[[[-58.407717,1.612611],[-57.107152,2.722889],[-57.355362,4.400413],[-58.890503,4.947801],[-60.165868,3.84262],[-59.931418,2.185184],[-58.407717,1.612611]]]}},{"type":"Feature","properties":{"hex_id":"825f5ffffffffff","population":1559237,"population_year":2025,"area_km2":79647.5,"population_density":19.6,"all_players":5,"players_per_million":3.21,"player_ids":["cricket:cricsheet:0ebfb1ad","cricket:cricsheet:321c980e","cricket:cricsheet:4d7f517e","cricket:cricsheet:88626ed2","cricket:cricsheet:af5b6464"],"label":"Port of Spain","country":"Trinidad and Tobago"},"geometry":{"type":"Polygon","coordinates":[[[-60.858711,8.692541],[-59.60143,9.791751],[-59.834917,11.355368],[-61.31197,11.80248],[-62.542405,10.713529],[-62.322702,9.16751],[-60.858711,8.692541]]]}},{"type":"Feature","properties":{"hex_id":"826027fffffffff","population":16601562,"population_year":2025,"area_km2":87326.6,"population_density":190.1,"all_players":1,"players_per_million":0.06,"player_ids":["cricket:cricsheet:a4cc73aa"],"label":"Thiruvananthapuram","country":"India"},"geometry":{"type":"Polygon","coordinates":[[[77.683188,7.309851],[77.712122,9.02148],[76.30569,9.906049],[74.902157,9.084513],[74.889244,7.401735],[76.264085,6.511601],[77.683188,7.309851]]]}},{"type":"Feature","properties":{"hex_id":"826087fffffffff","population":27122784,"population_year":2025,"area_km2":85294.5,"population_density":318.0,"all_players":1,"players_per_million":0.04,"player_ids":["cricket:cricsheet:5b7ab5a9"],"label":"Bidar","country":"India"},"geometry":{"type":"Polygon","coordinates":[[[77.861832,17.564441],[77.892824,19.248933],[76.436317,20.030597],[74.982764,19.141001],[74.968945,17.484003],[76.391773,16.689016],[77.861832,17.564441]]]}},{"type":"Feature","properties":{"hex_id":"82608ffffffffff","population":42291232,"population_year":2025,"area_km2":80847.5,"population_density":523.1,"all_players":4,"players_per_million":0.09,"player_ids":["cricket:cricsheet:271f83cd","cricket:cricsheet:6c3aef71","cricket:cricsheet:a4e37e47","cricket:cricsheet:cb08b611"],"label":"Mumbai","country":"India"},"geometry":{"type":"Polygon","coordinates":[[[74.968945,17.484003],[74.982764,19.141001],[73.569841,19.887995],[72.178712,18.993494],[72.180916,17.366767],[73.55853,16.604282],[74.968945,17.484003]]]}},{"type":"Feature","properties":{"hex_id":"826097fffffffff","population":21922680,"population_year":2025,"area_km2":85627.7,"population_density":256.0,"all_players":1,"players_per_million":0.05,"player_ids":["cricket:cricsheet:800d2d97"],"label":"Amravati","country":"India"},"geometry":{"type":"Polygon","coordinates":[[[79.404839,20.129444],[79.445503,21.802903],[77.955905,22.571208],[76.458981,21.679237],[76.436317,20.030597],[77.892824,19.248933],[79.404839,20.129444]]]}},{"type":"Feature","properties":{"hex_id":"8260affffffffff","population":26554754,"population_year":2025,"area_km2":84307.8,"population_density":315.0,"all_players":1,"players_per_million":0.04,"player_ids":["cricket:cricsheet:5d2eda89"],"label":"Sangli","country":"India"},"geometry":{"type":"Polygon","coordinates":[[[76.369883,15.001448],[76.391773,16.689016],[74.968945,17.484003],[73.55853,16.604282],[73.552971,14.946524],[74.941776,14.138667],[76.369883,15.001448]]]}},{"type":"Feature","properties":{"hex_id":"8260b7fffffffff","population":35390576,"population_year":2025,"area_km2":89440.6,"population_density":395.7,"all_players":2,"players_per_million":0.06,"player_ids":["cricket:cricsheet:b0482a1d","cricket:cricsheet:eadc8924"],"label":"Hyderabad","country":"India"},"geometry":{"type":"Polygon","coordinates":[[[80.850069,17.60337],[80.899198,19.312037],[79.404839,20.129444],[77.892824,19.248933],[77.861832,17.564441],[79.32493,16.736093],[80.850069,17.60337]]]}},{"type":"Feature","properties":{"hex_id":"826107fffffffff","population":8074978,"population_year":2025,"area_km2":92775.6,"population_density":87.0,"all_players":13,"players_per_million":1.61,"player_ids":["cricket:cricsheet:08548b13","cricket:cricsheet:318a4039","cricket:cricsheet:5750bcb4","cricket:cricsheet:5d1e7582","cricket:cricsheet:732c038e","cricket:cricsheet:8dd02a98","cricket:cricsheet:8ee36b18","cricket:cricsheet:9550470d","cricket:cricsheet:a61850e6","cricket:cricsheet:a97c8ec2","cricket:cricsheet:c34a15e6","cricket:cricsheet:ecbcfef6","cricket:cricsheet:f0b4294e"],"label":"Galle","country":"Sri Lanka"},"geometry":{"type":"Polygon","coordinates":[[[81.958563,4.522993],[82.012203,6.260372],[80.566973,7.196939],[79.095988,6.395835],[79.059325,4.681533],[80.476834,3.745044],[81.958563,4.522993]]]}},{"type":"Feature","properties":{"hex_id":"826117fffffffff","population":5286453,"population_year":2025,"area_km2":95515.4,"population_density":55.3,"all_players":3,"players_per_million":0.57,"player_ids":["cricket:cricsheet:550373ea","cricket:cricsheet:64839cb3","cricket:cricsheet:a5c48ed1"],"label":"Kandy","country":"Sri Lanka"},"geometry":{"type":"Polygon","coordinates":[[[83.529737,7.062083],[83.593158,8.820602],[82.121327,9.756202],[80.612812,8.934],[80.566973,7.196939],[82.012203,6.260372],[83.529737,7.062083]]]}},{"type":"Feature","properties":{"hex_id":"82611ffffffffff","population":12396637,"population_year":2025,"area_km2":91641.3,"population_density":135.3,"all_players":21,"players_per_million":1.69,"player_ids":["cricket:cricsheet:327b58d3","cricket:cricsheet:3ff033bb","cricket:cricsheet:53068b45","cricket:cricsheet:5838cb64","cricket:cricsheet:58431ca0","cricket:cricsheet:65cebd5d","cricket:cricsheet:6c882e9a","cricket:cricsheet:736123bb","cricket:cricsheet:84212ffb","cricket:cricsheet:85021bcd","cricket:cricsheet:ac56b5a7","cricket:cricsheet:aceb7654","cricket:cricsheet:b55fb828","cricket:cricsheet:ba603555","cricket:cricsheet:c1fdfb46","cricket:cricsheet:dabbd0ae","cricket:cricsheet:ec691a5b","cricket:cricsheet:ee1b6c27","cricket:cricsheet:f21043a5","cricket:cricsheet:f24c6701","cricket:cricsheet:fb3e0d39"],"label":"Colombo","country":"Sri Lanka"},"geometry":{"type":"Polygon","coordinates":[[[80.566973,7.196939],[80.612812,8.934],[79.170565,9.844673],[77.712122,9.02148],[77.683188,7.309851],[79.095988,6.395835],[80.566973,7.196939]]]}},{"type":"Feature","properties":{"hex_id":"82618ffffffffff","population":37950208,"population_year":2025,"area_km2":91641.3,"population_density":414.1,"all_players":1,"players_per_million":0.03,"player_ids":["cricket:cricsheet:f19ccfad"],"label":"Chennai","country":"India"},"geometry":{"type":"Polygon","coordinates":[[[80.706075,12.414518],[80.753517,14.151558],[79.285668,15.021819],[77.800917,14.162484],[77.770981,12.450864],[79.208494,11.573007],[80.706075,12.414518]]]}},{"type":"Feature","properties":{"hex_id":"8261affffffffff","population":8843082,"population_year":2025,"area_km2":93933.6,"population_density":94.1,"all_players":1,"players_per_million":0.11,"player_ids":["cricket:cricsheet:03a83c50"],"label":"Jaffna","country":"Sri Lanka"},"geometry":{"type":"Polygon","coordinates":[[[82.121327,9.756202],[82.176832,11.50819],[80.706075,12.414518],[79.208494,11.573007],[79.170565,9.844673],[80.612812,8.934],[82.121327,9.756202]]]}},{"type":"Feature","properties":{"hex_id":"826527fffffffff","population":8679760,"population_year":2025,"area_km2":98815.5,"population_density":87.8,"all_players":1,"players_per_million":0.12,"player_ids":["cricket:cricsheet:f1f99156"],"label":"Singapore","country":"Singapore"},"geometry":{"type":"Polygon","coordinates":[[[104.644094,0.283939],[104.819754,2.022102],[103.391464,3.021473],[101.781836,2.264143],[101.620024,0.512277],[103.053645,-0.468955],[104.644094,0.283939]]]}},{"type":"Feature","properties":{"hex_id":"826737fffffffff","population":1800117,"population_year":2025,"area_km2":70058.2,"population_density":25.7,"all_players":5,"players_per_million":2.78,"player_ids":["cricket:cricsheet:650d5e49","cricket:cricsheet:7fca84b7","cricket:cricsheet:92cf79a8","cricket:cricsheet:b52ffbbd","cricket:cricsheet:bbd41817"],"label":"Kingston","country":"Jamaica"},"geometry":{"type":"Polygon","coordinates":[[[-75.998548,19.358823],[-77.336996,18.638235],[-77.180408,17.235914],[-75.673235,16.563292],[-74.340779,17.3045],[-74.509206,18.697242],[-75.998548,19.358823]]]}},{"type":"Feature","properties":{"hex_id":"82970ffffffffff","population":4593736,"population_year":2025,"area_km2":102761.2,"population_density":44.7,"all_players":4,"players_per_million":0.87,"player_ids":["cricket:cricsheet:06fc82b8","cricket:cricsheet:36dfa62e","cricket:cricsheet:5feead83","cricket:cricsheet:afe57f7a"],"label":"Bulawayo","country":"Zimbabwe"},"geometry":{"type":"Polygon","coordinates":[[[31.110325,-20.792947],[31.808529,-19.135021],[30.632357,-17.73753],[28.761238,-17.991301],[28.04381,-19.645632],[29.215631,-21.050014],[31.110325,-20.792947]]]}},{"type":"Feature","properties":{"hex_id":"82971ffffffffff","population":7694285,"population_year":2025,"area_km2":103215.8,"population_density":74.5,"all_players":15,"players_per_million":1.95,"player_ids":["cricket:cricsheet:3560a786","cricket:cricsheet:3d5d51a5","cricket:cricsheet:449f4e3c","cricket:cricsheet:4bc0a378","cricket:cricsheet:53597be1","cricket:cricsheet:6e3f5a5c","cricket:cricsheet:8d25271a","cricket:cricsheet:9f0270e0","cricket:cricsheet:a879b92c","cricket:cricsheet:b08252b8","cricket:cricsheet:d1d83db3","cricket:cricsheet:d96165b5","cricket:cricsheet:e7e86505","cricket:cricsheet:eaa36b2a","cricket:cricsheet:fbcfa528"],"label":"Harare","country":"Zimbabwe"},"geometry":{"type":"Polygon","coordinates":[[[33.678039,-18.851575],[34.348791,-17.178754],[33.173278,-15.790435],[31.325347,-16.066011],[30.632357,-17.73753],[31.808529,-19.135021],[33.678039,-18.851575]]]}},{"type":"Feature","properties":{"hex_id":"829777fffffffff","population":1287549,"population_year":2025,"area_km2":101417.2,"population_density":12.7,"all_players":1,"players_per_million":0.78,"player_ids":["cricket:cricsheet:edf62a25"],"label":"Bulilimamangwe District","country":"Zimbabwe"},"geometry":{"type":"Polygon","coordinates":[[[28.491882,-22.684204],[29.215631,-21.050014],[28.04381,-19.645632],[26.156656,-19.871128],[25.417111,-21.499615],[26.579358,-22.908516],[28.491882,-22.684204]]]}},{"type":"Feature","properties":{"hex_id":"829d57fffffffff","population":3492,"population_year":2025,"area_km2":91641.3,"population_density":0.0,"all_players":1,"players_per_million":286.37,"player_ids":["cricket:cricsheet:72166006"],"label":"Queensland","country":"Australia"},"geometry":{"type":"Polygon","coordinates":[[[145.721377,-20.964646],[146.041409,-19.302203],[144.666553,-18.275823],[142.973853,-18.8725],[142.604744,-20.510244],[143.976131,-21.576588],[145.721377,-20.964646]]]}},{"type":"Feature","properties":{"hex_id":"82a727fffffffff","population":1275914,"population_year":2025,"area_km2":68186.6,"population_density":18.7,"all_players":6,"players_per_million":4.7,"player_ids":["cricket:cricsheet:39086549","cricket:cricsheet:3d8feaf8","cricket:cricsheet:d9273ee7","cricket:cricsheet:e66732f8","cricket:cricsheet:eaa76d3c","cricket:cricsheet:fe366f34"],"label":"Perth","country":"Australia"},"geometry":{"type":"Polygon","coordinates":[[[116.156806,-31.717896],[115.365356,-30.470522],[113.5891,-30.27389],[112.519247,-31.318696],[113.256895,-32.609931],[115.121218,-32.812717],[116.156806,-31.717896]]]}},{"type":"Feature","properties":{"hex_id":"82ad37fffffffff","population":5629844,"population_year":2025,"area_km2":82416.4,"population_density":68.3,"all_players":5,"players_per_million":0.89,"player_ids":["cricket:cricsheet:91cd48e0","cricket:cricsheet:9a2fc964","cricket:cricsheet:a1d95bd8","cricket:cricsheet:e5437608","cricket:cricsheet:e60f81c9"],"label":"Cape Town","country":"South Africa"},"geometry":{"type":"Polygon","coordinates":[[[18.352922,-34.994007],[19.172477,-33.623556],[18.03101,-32.281494],[16.099481,-32.315582],[15.366054,-33.828537],[16.499817,-35.187102],[18.352922,-34.994007]]]}},{"type":"Feature","properties":{"hex_id":"82b917fffffffff","population":1613160,"population_year":2025,"area_km2":95515.4,"population_density":16.9,"all_players":5,"players_per_million":3.1,"player_ids":["cricket:cricsheet:12b610c2","cricket:cricsheet:17608a6f","cricket:cricsheet:2e81be88","cricket:cricsheet:3b53243a","cricket:cricsheet:ca5acfa4"],"label":"Adelaide","country":"Australia"},"geometry":{"type":"Polygon","coordinates":[[[138.617833,-35.797135],[139.129671,-34.088237],[137.662578,-32.868454],[135.707627,-33.326136],[135.142328,-34.999661],[136.582892,-36.251125],[138.617833,-35.797135]]]}},{"type":"Feature","properties":{"hex_id":"82bb0ffffffffff","population":580554,"population_year":2025,"area_km2":88726.5,"population_density":6.5,"all_players":3,"players_per_million":5.17,"player_ids":["cricket:cricsheet:350bb1b1","cricket:cricsheet:c8b0b64c","cricket:cricsheet:d5eb8b84"],"label":"Palmerston North","country":"New Zealand"},"geometry":{"type":"Polygon","coordinates":[[[178.908854,-39.784657],[178.583766,-38.115997],[176.688659,-37.499409],[175.036544,-38.552712],[175.291773,-40.256026],[177.271382,-40.871785],[178.908854,-39.784657]]]}},{"type":"Feature","properties":{"hex_id":"82bb2ffffffffff","population":699829,"population_year":2025,"area_km2":89440.6,"population_density":7.8,"all_players":9,"players_per_million":12.86,"player_ids":["cricket:cricsheet:1f1ee021","cricket:cricsheet:575494db","cricket:cricsheet:5d664346","cricket:cricsheet:7673c908","cricket:cricsheet:9af58032","cricket:cricsheet:ba5e1069","cricket:cricsheet:de69af96","cricket:cricsheet:e1891e00","cricket:cricsheet:e38bce7a"],"label":"Wellington","country":"New Zealand"},"geometry":{"type":"Polygon","coordinates":[[[177.582204,-42.54048],[177.271382,-40.871785],[175.291773,-40.256026],[173.535818,-41.30856],[173.768012,-43.009176],[175.837365,-43.625899],[177.582204,-42.54048]]]}},{"type":"Feature","properties":{"hex_id":"82bb57fffffffff","population":2517968,"population_year":2025,"area_km2":91641.3,"population_density":27.5,"all_players":9,"players_per_million":3.57,"player_ids":["cricket:cricsheet:397369e0","cricket:cricsheet:68c56d09","cricket:cricsheet:80a0cd77","cricket:cricsheet:865eae1f","cricket:cricsheet:9219eff0","cricket:cricsheet:bf74b130","cricket:cricsheet:e4a0deae","cricket:cricsheet:eade4650","cricket:cricsheet:efb6cb2a"],"label":"Auckland","country":"New Zealand"},"geometry":{"type":"Polygon","coordinates":[[[176.688659,-37.499409],[176.415194,-35.801656],[174.557652,-35.124424],[172.898106,-36.141695],[173.101494,-37.871743],[175.036544,-38.552712],[176.688659,-37.499409]]]}},{"type":"Feature","properties":{"hex_id":"82bb77fffffffff","population":202389,"population_year":2025,"area_km2":92775.6,"population_density":2.2,"all_players":1,"players_per_million":4.94,"player_ids":["cricket:cricsheet:4663bd23"],"label":"Whanganui","country":"New Zealand"},"geometry":{"type":"Polygon","coordinates":[[[175.291773,-40.256026],[175.036544,-38.552712],[173.101494,-37.871743],[171.342352,-38.889432],[171.519319,-40.6223],[173.535818,-41.30856],[175.291773,-40.256026]]]}},{"type":"Feature","properties":{"hex_id":"82bc0ffffffffff","population":2502935,"population_year":2025,"area_km2":87326.6,"population_density":28.7,"all_players":3,"players_per_million":1.2,"player_ids":["cricket:cricsheet:212aeedd","cricket:cricsheet:34304210","cricket:cricsheet:9a46c4e5"],"label":"East London","country":"South Africa"},"geometry":{"type":"Polygon","coordinates":[[[30.409378,-34.165167],[31.158191,-32.681712],[29.910322,-31.42137],[27.918941,-31.644147],[27.14957,-33.127321],[28.390803,-34.388251],[30.409378,-34.165167]]]}},{"type":"Feature","properties":{"hex_id":"82bc1ffffffffff","population":2351912,"population_year":2025,"area_km2":89801.2,"population_density":26.2,"all_players":9,"players_per_million":3.83,"player_ids":["cricket:cricsheet:0b60eb09","cricket:cricsheet:172dff15","cricket:cricsheet:4d4605e6","cricket:cricsheet:588360ee","cricket:cricsheet:686362af","cricket:cricsheet:7dfb8890","cricket:cricsheet:b17a4a93","cricket:cricsheet:ebb74564","cricket:cricsheet:f834dcfc"],"label":"Durban","country":"South Africa"},"geometry":{"type":"Polygon","coordinates":[[[33.150456,-32.410756],[33.868758,-30.8833],[32.620327,-29.624454],[30.652925,-29.89183],[29.910322,-31.42137],[31.158191,-32.681712],[33.150456,-32.410756]]]}},{"type":"Feature","properties":{"hex_id":"82bc47fffffffff","population":993544,"population_year":2025,"area_km2":85294.5,"population_density":11.6,"all_players":3,"players_per_million":3.02,"player_ids":["cricket:cricsheet:6b9eb501","cricket:cricsheet:85b3fab2","cricket:cricsheet:d2b1f515"],"label":"Oudtshoorn","country":"South Africa"},"geometry":{"type":"Polygon","coordinates":[[[24.349756,-34.732415],[25.142967,-33.300837],[23.935738,-31.99438],[21.953505,-32.121567],[21.149655,-33.54865],[22.337303,-34.853247],[24.349756,-34.732415]]]}},{"type":"Feature","properties":{"hex_id":"82bc57fffffffff","population":1260827,"population_year":2025,"area_km2":88726.5,"population_density":14.2,"all_players":1,"players_per_million":0.79,"player_ids":["cricket:cricsheet:0d518f89"],"label":"Mapped area","country":"South Africa"},"geometry":{"type":"Polygon","coordinates":[[[27.14957,-33.127321],[27.918941,-31.644147],[26.698194,-30.337265],[24.720244,-30.51421],[23.935738,-31.99438],[25.142967,-33.300837],[27.14957,-33.127321]]]}},{"type":"Feature","properties":{"hex_id":"82bc77fffffffff","population":1598094,"population_year":2025,"area_km2":84307.8,"population_density":19.0,"all_players":5,"players_per_million":3.13,"player_ids":["cricket:cricsheet:35f173a0","cricket:cricsheet:63e3b6b3","cricket:cricsheet:acdc62f5","cricket:cricsheet:cad40f5e","cricket:cricsheet:f892fcf9"],"label":"Gqeberha","country":"South Africa"},"geometry":{"type":"Polygon","coordinates":[[[27.613905,-35.822076],[28.390803,-34.388251],[27.14957,-33.127321],[25.142967,-33.300837],[24.349756,-34.732415],[25.578055,-35.992956],[27.613905,-35.822076]]]}},{"type":"Feature","properties":{"hex_id":"82bcc7fffffffff","population":16401038,"population_year":2025,"area_km2":95515.4,"population_density":171.7,"all_players":14,"players_per_million":0.85,"player_ids":["cricket:cricsheet:06659caa","cricket:cricsheet:107c26fb","cricket:cricsheet:130336c6","cricket:cricsheet:25550d06","cricket:cricsheet:372455c4","cricket:cricsheet:465aa633","cricket:cricsheet:478a63e7","cricket:cricsheet:6a26221c","cricket:cricsheet:6e28e586","cricket:cricsheet:81c36ee9","cricket:cricsheet:844e79d1","cricket:cricsheet:d3a1c63d","cricket:cricsheet:df5a6881","cricket:cricsheet:e62dd25d"],"label":"Johannesburg","country":"South Africa"},"geometry":{"type":"Polygon","coordinates":[[[29.424697,-28.585894],[30.161044,-27.015106],[28.952033,-25.669244],[27.013681,-25.892672],[26.259296,-27.461202],[27.460057,-28.808795],[29.424697,-28.585894]]]}},{"type":"Feature","properties":{"hex_id":"82bcd7fffffffff","population":7346406,"population_year":2025,"area_km2":97556.0,"population_density":75.3,"all_players":1,"players_per_million":0.14,"player_ids":["cricket:cricsheet:ce85fcaf"],"label":"Botshabelo","country":"South Africa"},"geometry":{"type":"Polygon","coordinates":[[[32.103888,-26.751237],[32.812319,-25.145186],[31.600697,-23.802778],[29.682092,-24.063211],[28.952033,-25.669244],[30.161044,-27.015106],[32.103888,-26.751237]]]}},{"type":"Feature","properties":{"hex_id":"82bcdffffffffff","population":7053790,"population_year":2025,"area_km2":98815.5,"population_density":71.4,"all_players":7,"players_per_million":0.99,"player_ids":["cricket:cricsheet:6d76bc23","cricket:cricsheet:8c5775f3","cricket:cricsheet:972f217b","cricket:cricsheet:9948e262","cricket:cricsheet:9c821d2e","cricket:cricsheet:ea544967","cricket:cricsheet:f0af99a7"],"label":"Pretoria","country":"South Africa"},"geometry":{"type":"Polygon","coordinates":[[[28.952033,-25.669244],[29.682092,-24.063211],[28.491882,-22.684204],[26.579358,-22.908516],[25.832416,-24.51073],[27.013681,-25.892672],[28.952033,-25.669244]]]}},{"type":"Feature","properties":{"hex_id":"82bceffffffffff","population":1842103,"population_year":2025,"area_km2":92775.6,"population_density":19.9,"all_players":2,"players_per_million":1.09,"player_ids":["cricket:cricsheet:996ed07c","cricket:cricsheet:b8cc58c9"],"label":"Kimberley","country":"South Africa"},"geometry":{"type":"Polygon","coordinates":[[[26.698194,-30.337265],[27.460057,-28.808795],[26.259296,-27.461202],[24.30941,-27.642326],[23.533518,-29.166646],[24.720244,-30.51421],[26.698194,-30.337265]]]}},{"type":"Feature","properties":{"hex_id":"82bcf7fffffffff","population":8910757,"population_year":2025,"area_km2":93933.6,"population_density":94.9,"all_players":1,"players_per_million":0.11,"player_ids":["cricket:cricsheet:d67d5f00"],"label":"Pietermaritzburg","country":"South Africa"},"geometry":{"type":"Polygon","coordinates":[[[32.620327,-29.624454],[33.333745,-28.054901],[32.103888,-26.751237],[30.161044,-27.015106],[29.424697,-28.585894],[30.652925,-29.89183],[32.620327,-29.624454]]]}},{"type":"Feature","properties":{"hex_id":"82be0ffffffffff","population":6793674,"population_year":2025,"area_km2":104135.0,"population_density":65.2,"all_players":7,"players_per_million":1.03,"player_ids":["cricket:cricsheet:14f96089","cricket:cricsheet:1a2676c5","cricket:cricsheet:4e6ef14f","cricket:cricsheet:9eb1455b","cricket:cricsheet:bc969efb","cricket:cricsheet:be150fc8","cricket:cricsheet:e1b9f3a9"],"label":"Shellharbour","country":"Australia"},"geometry":{"type":"Polygon","coordinates":[[[152.177285,-35.125129],[152.420459,-33.332138],[150.704674,-32.253721],[148.729494,-32.935272],[148.409969,-34.714468],[150.140595,-35.826845],[152.177285,-35.125129]]]}},{"type":"Feature","properties":{"hex_id":"82be1ffffffffff","population":705420,"population_year":2025,"area_km2":104135.0,"population_density":6.8,"all_players":1,"players_per_million":1.42,"player_ids":["cricket:cricsheet:03806cf8"],"label":"Tamworth","country":"Australia"},"geometry":{"type":"Polygon","coordinates":[[[154.381433,-32.591652],[154.572365,-30.798114],[152.877292,-29.753699],[150.969593,-30.469788],[150.704674,-32.253721],[152.420459,-33.332138],[154.381433,-32.591652]]]}},{"type":"Feature","properties":{"hex_id":"82be47fffffffff","population":671946,"population_year":2025,"area_km2":101417.2,"population_density":6.6,"all_players":2,"players_per_million":2.98,"player_ids":["cricket:cricsheet:52d1dbc8","cricket:cricsheet:a90e53ec"],"label":"Ballarat","country":"Australia"},"geometry":{"type":"Polygon","coordinates":[[[145.990588,-37.115507],[146.369194,-35.351443],[144.717645,-34.194236],[142.690336,-34.767932],[142.240937,-36.507338],[143.887418,-37.698406],[145.990588,-37.115507]]]}},{"type":"Feature","properties":{"hex_id":"82be4ffffffffff","population":167015,"population_year":2025,"area_km2":98815.5,"population_density":1.7,"all_players":1,"players_per_million":5.99,"player_ids":["cricket:cricsheet:69d03465"],"label":"Loxton","country":"Australia"},"geometry":{"type":"Polygon","coordinates":[[[142.240937,-36.507338],[142.690336,-34.767932],[141.12763,-33.574731],[139.129671,-34.088237],[138.617833,-35.797135],[140.163932,-37.023514],[142.240937,-36.507338]]]}},{"type":"Feature","properties":{"hex_id":"82be67fffffffff","population":5799918,"population_year":2025,"area_km2":101417.2,"population_density":57.2,"all_players":4,"players_per_million":0.69,"player_ids":["cricket:cricsheet:65d9b6b6","cricket:cricsheet:83558266","cricket:cricsheet:9b6e1b3f","cricket:cricsheet:b681e71e"],"label":"Kew","country":"Australia"},"geometry":{"type":"Polygon","coordinates":[[[147.365513,-40.022078],[147.728894,-38.261419],[145.990588,-37.115507],[143.887418,-37.698406],[143.445429,-39.437203],[145.182884,-40.615783],[147.365513,-40.022078]]]}},{"type":"Feature","properties":{"hex_id":"82be6ffffffffff","population":247222,"population_year":2025,"area_km2":99241.3,"population_density":2.5,"all_players":1,"players_per_million":4.04,"player_ids":["cricket:cricsheet:f0b4e47d"],"label":"Terang","country":"Australia"},"geometry":{"type":"Polygon","coordinates":[[[143.445429,-39.437203],[143.887418,-37.698406],[142.240937,-36.507338],[140.163932,-37.023514],[139.652226,-38.734209],[141.284579,-39.957429],[143.445429,-39.437203]]]}},{"type":"Feature","properties":{"hex_id":"82be8ffffffffff","population":3414014,"population_year":2025,"area_km2":101417.2,"population_density":33.7,"all_players":1,"players_per_million":0.29,"player_ids":["cricket:cricsheet:7b953689"],"label":"Brisbane","country":"Australia"},"geometry":{"type":"Polygon","coordinates":[[[154.931553,-27.234921],[155.100683,-25.47207],[153.49711,-24.457404],[151.703594,-25.170738],[151.46847,-26.924893],[153.092109,-27.975349],[154.931553,-27.234921]]]}},{"type":"Feature","properties":{"hex_id":"82bef7fffffffff","population":374361,"population_year":2025,"area_km2":102761.2,"population_density":3.6,"all_players":1,"players_per_million":2.67,"player_ids":["cricket:cricsheet:5c30d455"],"label":"Toowoomba","country":"Australia"},"geometry":{"type":"Polygon","coordinates":[[[152.877292,-29.753699],[153.092109,-27.975349],[151.46847,-26.924893],[149.613583,-27.617724],[149.330579,-29.383365],[150.969593,-30.469788],[152.877292,-29.753699]]]}},{"type":"Feature","properties":{"hex_id":"82bf4ffffffffff","population":580190,"population_year":2025,"area_km2":100537.4,"population_density":5.8,"all_players":1,"players_per_million":1.72,"player_ids":["cricket:cricsheet:f2c936d7"],"label":"Hobart","country":"Australia"},"geometry":{"type":"Polygon","coordinates":[[[148.853396,-42.894212],[149.197308,-41.145951],[147.365513,-40.022078],[145.182884,-40.615783],[144.751578,-42.345181],[146.587879,-43.500687],[148.853396,-42.894212]]]}},{"type":"Feature","properties":{"hex_id":"82da87fffffffff","population":347525,"population_year":2025,"area_km2":92775.6,"population_density":3.7,"all_players":6,"players_per_million":17.26,"player_ids":["cricket:cricsheet:4de0779a","cricket:cricsheet:57bdbc16","cricket:cricsheet:7693851c","cricket:cricsheet:89bbc67a","cricket:cricsheet:dadbdb68","cricket:cricsheet:e4a71d18"],"label":"Dunedin","country":"New Zealand"},"geometry":{"type":"Polygon","coordinates":[[[172.101748,-45.74022],[171.898411,-44.050631],[169.796781,-43.356947],[167.812345,-44.343676],[167.917904,-46.055866],[170.107835,-46.759699],[172.101748,-45.74022]]]}},{"type":"Feature","properties":{"hex_id":"82da97fffffffff","population":716376,"population_year":2025,"area_km2":93159.0,"population_density":7.7,"all_players":4,"players_per_million":5.58,"player_ids":["cricket:cricsheet:30f92334","cricket:cricsheet:60471339","cricket:cricsheet:732f711b","cricket:cricsheet:e84ac20c"],"label":"Christchurch","country":"New Zealand"},"geometry":{"type":"Polygon","coordinates":[[[173.768012,-43.009176],[173.535818,-41.30856],[171.519319,-40.6223],[169.652059,-41.63003],[169.796781,-43.356947],[171.898411,-44.050631],[173.768012,-43.009176]]]}}]}