{"type":"FeatureCollection","metadata":{"population_source":"WorldPop Global 2 R2025A","population_source_url":"https://hub.worldpop.org/project/categories?id=3","population_license":"CC BY 4.0","population_year":2025,"raster_resolution":"1km","h3_resolution":3,"population_method":"official_country_rasters","occupied_cells":78,"mapped_players":227},"features":[{"type":"Feature","properties":{"hex_id":"831825fffffffff","population":616884,"population_year":2025,"area_km2":11308.9,"population_density":54.5,"all_players":1,"players_per_million":1.62,"player_ids":["afl:12391"],"label":"County Tyrone","country":"United Kingdom"},"geometry":{"type":"Polygon","coordinates":[[[-7.446442,55.596185],[-8.206991,55.227804],[-7.94931,54.644476],[-6.952147,54.429814],[-6.199841,54.79442],[-6.436337,55.37739],[-7.446442,55.596185]]]}},{"type":"Feature","properties":{"hex_id":"83194afffffffff","population":6871941,"population_year":2025,"area_km2":11131.6,"population_density":617.3,"all_players":1,"players_per_million":0.15,"player_ids":["afl:12750"],"label":"London","country":"United Kingdom"},"geometry":{"type":"Polygon","coordinates":[[[-0.069294,51.543996],[-0.785076,51.204689],[-0.631095,50.601911],[0.220599,50.340898],[0.925401,50.677831],[0.789471,51.278095],[-0.069294,51.543996]]]}},{"type":"Feature","properties":{"hex_id":"831952fffffffff","population":1386449,"population_year":2025,"area_km2":11344.9,"population_density":122.2,"all_players":1,"players_per_million":0.72,"player_ids":["afl:12181"],"label":"Brockagh","country":"United Kingdom"},"geometry":{"type":"Polygon","coordinates":[[[-6.199841,54.79442],[-6.952147,54.429814],[-6.713499,53.841054],[-5.743092,53.617578],[-4.999608,53.978646],[-5.21762,54.566658],[-6.199841,54.79442]]]}},{"type":"Feature","properties":{"hex_id":"83195bfffffffff","population":1404618,"population_year":2025,"area_km2":11602.6,"population_density":121.1,"all_players":1,"players_per_million":0.71,"player_ids":["afl:12580"],"label":"Torquay","country":"United Kingdom"},"geometry":{"type":"Polygon","coordinates":[[[-3.269136,51.354012],[-3.981187,50.989554],[-3.790778,50.382829],[-2.906528,50.142292],[-2.20387,50.503806],[-2.376039,51.108741],[-3.269136,51.354012]]]}},{"type":"Feature","properties":{"hex_id":"83195dfffffffff","population":9049238,"population_year":2025,"area_km2":11149.1,"population_density":811.7,"all_players":1,"players_per_million":0.11,"player_ids":["afl:12912"],"label":"High Wycombe, England","country":"United Kingdom"},"geometry":{"type":"Polygon","coordinates":[[[-1.103494,52.402317],[-1.830112,52.060429],[-1.661533,51.460545],[-0.785076,51.204689],[-0.069294,51.543996],[-0.219137,52.141681],[-1.103494,52.402317]]]}},{"type":"Feature","properties":{"hex_id":"831f6bfffffffff","population":493383,"population_year":2025,"area_km2":10449.9,"population_density":47.2,"all_players":1,"players_per_million":2.03,"player_ids":["afl:12459"],"label":"Vitebsk","country":"Belarus"},"geometry":{"type":"Polygon","coordinates":[[[28.493035,55.617699],[28.40617,55.082315],[29.269771,54.751831],[30.223065,54.953382],[30.232703,55.559584],[29.409694,55.857751],[29.136477,55.754492],[28.493035,55.617699]]]}},{"type":"Feature","properties":{"hex_id":"8326c8fffffffff","population":4676776,"population_year":2025,"area_km2":13766.4,"population_density":339.7,"all_players":1,"players_per_million":0.21,"player_ids":["afl:12428"],"label":"Highland Village","country":"United States"},"geometry":{"type":"Polygon","coordinates":[[[-96.471973,32.747056],[-95.990106,33.251328],[-96.277437,33.86704],[-97.054564,33.978612],[-97.53754,33.471612],[-97.242365,32.855789],[-96.471973,32.747056]]]}},{"type":"Feature","properties":{"hex_id":"832b9bfffffffff","population":7907887,"population_year":2025,"area_km2":13050.9,"population_density":605.9,"all_players":1,"players_per_million":0.13,"player_ids":["afl:12491"],"label":"Mississauga","country":"Canada"},"geometry":{"type":"Polygon","coordinates":[[[-79.42239,43.984339],[-80.148592,43.614015],[-80.040798,42.99531],[-79.227281,42.744533],[-78.507232,43.105571],[-78.594427,43.726557],[-79.42239,43.984339]]]}},{"type":"Feature","properties":{"hex_id":"833e62fffffffff","population":32479140,"population_year":2025,"area_km2":14586.4,"population_density":2226.7,"all_players":2,"players_per_million":0.06,"player_ids":["afl:13019","afl:13086"],"label":"Cairo","country":"Egypt"},"geometry":{"type":"Polygon","coordinates":[[[30.608926,30.098179],[30.531842,29.424459],[31.156426,29.02702],[31.858904,29.299406],[31.944037,29.970681],[31.3187,30.372052],[30.608926,30.098179]]]}},{"type":"Feature","properties":{"hex_id":"836a0dfffffffff","population":359565,"population_year":2025,"area_km2":12270.7,"population_density":29.3,"all_players":1,"players_per_million":2.78,"player_ids":["afl:12801"],"label":"South Sudan","country":"South Sudan"},"geometry":{"type":"Polygon","coordinates":[[[30.054081,7.001414],[30.08469,7.598739],[29.544342,7.923279],[28.972105,7.653404],[28.93863,7.056326],[29.480252,6.728844],[30.054081,7.001414]]]}},{"type":"Feature","properties":{"hex_id":"836b6efffffffff","population":9319784,"population_year":2025,"area_km2":13448.5,"population_density":693.0,"all_players":2,"players_per_million":0.21,"player_ids":["afl:12485","afl:12900"],"label":"Sudan","country":"Sudan"},"geometry":{"type":"Polygon","coordinates":[[[31.531007,15.926959],[31.458258,15.285505],[32.002795,14.923199],[32.620458,15.197405],[32.699331,15.836218],[32.154457,16.203498],[31.531007,15.926959]]]}},{"type":"Feature","properties":{"hex_id":"83752efffffffff","population":737264,"population_year":2025,"area_km2":9468.7,"population_density":77.9,"all_players":1,"players_per_million":1.36,"player_ids":["afl:12914"],"label":"Ghana","country":"Ghana"},"geometry":{"type":"Polygon","coordinates":[[[-1.939563,8.007194],[-1.842301,7.462751],[-1.327949,7.200731],[-0.90509,7.482106],[-0.998719,8.030685],[-1.518883,8.293759],[-1.939563,8.007194]]]}},{"type":"Feature","properties":{"hex_id":"837a40fffffffff","population":2062576,"population_year":2025,"area_km2":13258.9,"population_density":155.6,"all_players":1,"players_per_million":0.48,"player_ids":["afl:12433"],"label":"Kenya","country":"Kenya"},"geometry":{"type":"Polygon","coordinates":[[[38.257825,0.033022],[38.267209,0.66837],[37.712758,1.014621],[37.145911,0.727368],[37.133495,0.09043],[37.690965,-0.257692],[38.257825,0.033022]]]}},{"type":"Feature","properties":{"hex_id":"837ad9fffffffff","population":726194,"population_year":2025,"area_km2":11218.7,"population_density":64.7,"all_players":1,"players_per_million":1.38,"player_ids":["afl:12752"],"label":"Ethiopia","country":"Ethiopia"},"geometry":{"type":"Polygon","coordinates":[[[39.574585,9.645929],[39.467791,9.061222],[40.000125,8.73327],[40.535189,8.977831],[40.536241,9.167972],[40.610455,9.555602],[40.148939,9.893776],[39.574585,9.645929]]]}},{"type":"Feature","properties":{"hex_id":"839450fffffffff","population":40681,"population_year":2025,"area_km2":12679.7,"population_density":3.2,"all_players":6,"players_per_million":147.49,"player_ids":["afl:11940","afl:12521","afl:12610","afl:12903","afl:12933","afl:12990"],"label":"Darwin, Northern Territory","country":"Australia"},"geometry":{"type":"Polygon","coordinates":[[[129.728405,-12.454694],[129.841647,-13.065481],[130.456922,-13.300821],[130.960851,-12.925749],[130.848006,-12.312909],[130.230813,-12.077175],[129.728405,-12.454694]]]}},{"type":"Feature","properties":{"hex_id":"839455fffffffff","population":2476,"population_year":2025,"area_km2":12915.2,"population_density":0.2,"all_players":2,"players_per_million":807.75,"player_ids":["afl:12403","afl:12606"],"label":"Tiwi Islands","country":"Australia"},"geometry":{"type":"Polygon","coordinates":[[[130.11754,-11.459798],[130.230813,-12.077175],[130.848006,-12.312909],[131.353774,-11.931625],[131.240931,-11.312237],[130.621867,-11.076125],[130.11754,-11.459798]]]}},{"type":"Feature","properties":{"hex_id":"839480fffffffff","population":15991,"population_year":2025,"area_km2":10435.0,"population_density":1.5,"all_players":2,"players_per_million":125.07,"player_ids":["afl:12236","afl:12588"],"label":"Broome, Western Australia","country":"Australia"},"geometry":{"type":"Polygon","coordinates":[[[121.407454,-17.746231],[121.519986,-18.305291],[122.09571,-18.551149],[122.561654,-18.237887],[122.448857,-17.675905],[121.870362,-17.430097],[121.407454,-17.746231]]]}},{"type":"Feature","properties":{"hex_id":"8394aafffffffff","population":3301,"population_year":2025,"area_km2":10874.1,"population_density":0.3,"all_players":1,"players_per_million":302.94,"player_ids":["afl:12414"],"label":"Derby","country":"Australia"},"geometry":{"type":"Polygon","coordinates":[[[122.804269,-16.785716],[122.917296,-17.35514],[123.501426,-17.5992],[123.975171,-17.273801],[123.861982,-16.701536],[123.27519,-16.457499],[122.804269,-16.785716]]]}},{"type":"Feature","properties":{"hex_id":"8394d5fffffffff","population":1807,"population_year":2025,"area_km2":11155.0,"population_density":0.2,"all_players":1,"players_per_million":553.4,"player_ids":["afl:12848"],"label":"Halls Creek, Western Australia","country":"Australia"},"geometry":{"type":"Polygon","coordinates":[[[127.434639,-18.137649],[127.547458,-18.704723],[128.150326,-18.937389],[128.642523,-18.603445],[128.529906,-18.034236],[127.924868,-17.801088],[127.434639,-18.137649]]]}},{"type":"Feature","properties":{"hex_id":"8394edfffffffff","population":10161,"population_year":2025,"area_km2":12437.2,"population_density":0.8,"all_players":1,"players_per_million":98.42,"player_ids":["afl:12838"],"label":"Katherine, Northern Territory","country":"Australia"},"geometry":{"type":"Polygon","coordinates":[[[131.186091,-14.139769],[131.298484,-14.740738],[131.915675,-14.970862],[132.422161,-14.600675],[132.310281,-13.997946],[131.69138,-13.767143],[131.186091,-14.139769]]]}},{"type":"Feature","properties":{"hex_id":"839c23fffffffff","population":231411,"population_year":2025,"area_km2":12607.6,"population_density":18.4,"all_players":1,"players_per_million":4.32,"player_ids":["afl:12499"],"label":"Cairns","country":"Australia"},"geometry":{"type":"Polygon","coordinates":[[[146.241656,-17.056865],[146.134272,-16.454725],[145.513074,-16.258876],[144.994471,-16.660534],[145.094061,-17.26319],[145.720074,-17.463721],[146.241656,-17.056865]]]}},{"type":"Feature","properties":{"hex_id":"839c9dfffffffff","population":421346,"population_year":2025,"area_km2":13675.5,"population_density":30.8,"all_players":1,"players_per_million":2.37,"player_ids":["afl:12729"],"label":"Papua New Guinea","country":"Papua New Guinea"},"geometry":{"type":"Polygon","coordinates":[[[146.171175,-6.015185],[146.270589,-6.656092],[146.883937,-6.874321],[147.397263,-6.454219],[147.299459,-5.814577],[146.686703,-5.59375],[146.171175,-6.015185]]]}},{"type":"Feature","properties":{"hex_id":"839caafffffffff","population":486428,"population_year":2025,"area_km2":13235.5,"population_density":36.8,"all_players":1,"players_per_million":2.06,"player_ids":["afl:13138"],"label":"Port Moresby","country":"Papua New Guinea"},"geometry":{"type":"Polygon","coordinates":[[[146.053855,-8.975478],[146.153013,-9.601512],[146.764182,-9.810229],[147.275608,-9.395546],[147.178039,-8.770561],[146.567439,-8.559185],[146.053855,-8.975478]]]}},{"type":"Feature","properties":{"hex_id":"839d51fffffffff","population":185,"population_year":2025,"area_km2":13012.9,"population_density":0.0,"all_players":2,"players_per_million":10810.81,"player_ids":["afl:11991","afl:12723"],"label":"Queensland","country":"Australia"},"geometry":{"type":"Polygon","coordinates":[[[143.785199,-20.323177],[143.691747,-19.702043],[143.061238,-19.487699],[142.519708,-19.889382],[142.604744,-20.510244],[143.239743,-20.729746],[143.785199,-20.323177]]]}},{"type":"Feature","properties":{"hex_id":"83a703fffffffff","population":37082,"population_year":2025,"area_km2":8833.8,"population_density":4.2,"all_players":2,"players_per_million":53.93,"player_ids":["afl:12976","afl:12999"],"label":"Northampton","country":"Australia"},"geometry":{"type":"Polygon","coordinates":[[[114.964192,-28.327673],[114.515326,-27.96227],[113.891295,-28.046759],[113.706653,-28.500308],[114.155696,-28.87291],[114.789299,-28.784707],[114.964192,-28.327673]]]}},{"type":"Feature","properties":{"hex_id":"83a726fffffffff","population":1846194,"population_year":2025,"area_km2":9765.8,"population_density":189.0,"all_players":17,"players_per_million":9.21,"player_ids":["afl:11798","afl:11919","afl:11937","afl:12028","afl:12282","afl:12321","afl:12537","afl:12601","afl:12655","afl:12778","afl:12779","afl:12797","afl:12820","afl:13053","afl:13071","afl:13114","afl:13132"],"label":"Perth, Western Australia","country":"Australia"},"geometry":{"type":"Polygon","coordinates":[[[116.156806,-31.717896],[115.668386,-31.333698],[115.004431,-31.434051],[114.818313,-31.922938],[115.307453,-32.314951],[115.982101,-32.210194],[116.156806,-31.717896]]]}},{"type":"Feature","properties":{"hex_id":"83a734fffffffff","population":4507,"population_year":2025,"area_km2":9571.3,"population_density":0.5,"all_players":1,"players_per_million":221.88,"player_ids":["afl:12831"],"label":"Tammin","country":"Australia"},"geometry":{"type":"Polygon","coordinates":[[[118.068397,-31.295725],[117.601926,-30.968345],[117.416889,-31.051988],[116.982853,-31.124281],[116.81919,-31.610898],[117.317241,-31.991569],[117.977474,-31.877886],[118.068397,-31.295725]]]}},{"type":"Feature","properties":{"hex_id":"83a7b5fffffffff","population":1,"population_year":2025,"area_km2":9709.8,"population_density":0.0,"all_players":1,"players_per_million":1000000.0,"player_ids":["afl:12494"],"label":"Western Australia","country":"Australia"},"geometry":{"type":"Polygon","coordinates":[[[121.359973,-25.857981],[121.423751,-25.277977],[120.954025,-24.990021],[120.422208,-25.276113],[120.352222,-25.850864],[120.820191,-26.144776],[121.359973,-25.857981]]]}},{"type":"Feature","properties":{"hex_id":"83b834fffffffff","population":3406,"population_year":2025,"area_km2":13005.4,"population_density":0.3,"all_players":1,"players_per_million":293.6,"player_ids":["afl:12756"],"label":"Charra, South Australia","country":"Australia"},"geometry":{"type":"Polygon","coordinates":[[[134.339984,-32.08928],[134.311139,-31.439071],[133.665479,-31.1483],[133.046357,-31.501836],[133.064943,-32.148694],[133.712867,-32.445403],[134.339984,-32.08928]]]}},{"type":"Feature","properties":{"hex_id":"83b8aefffffffff","population":182,"population_year":2025,"area_km2":12257.0,"population_density":0.0,"all_players":2,"players_per_million":10989.01,"player_ids":["afl:12372","afl:12692"],"label":"Australia","country":"Australia"},"geometry":{"type":"Polygon","coordinates":[[[133.469581,-25.399232],[133.449413,-24.772309],[132.859825,-24.507603],[132.288698,-24.863646],[132.30022,-25.487399],[132.891478,-25.758313],[133.469581,-25.399232]]]}},{"type":"Feature","properties":{"hex_id":"83b911fffffffff","population":23791,"population_year":2025,"area_km2":13448.5,"population_density":1.8,"all_players":2,"players_per_million":84.07,"player_ids":["afl:12771","afl:13204"],"label":"Port Lincoln, South Australia","country":"Australia"},"geometry":{"type":"Polygon","coordinates":[[[136.484571,-34.932714],[136.436635,-34.274048],[135.748857,-33.982442],[135.105696,-34.343893],[135.142328,-34.999661],[135.833393,-35.296918],[136.484571,-34.932714]]]}},{"type":"Feature","properties":{"hex_id":"83b916fffffffff","population":1368696,"population_year":2025,"area_km2":13841.6,"population_density":98.9,"all_players":16,"players_per_million":11.69,"player_ids":["afl:11891","afl:11947","afl:12302","afl:12371","afl:12589","afl:12704","afl:12798","afl:12813","afl:12892","afl:12895","afl:12946","afl:13007","afl:13016","afl:13150","afl:13175","afl:13230"],"label":"Adelaide, South Australia","country":"Australia"},"geometry":{"type":"Polygon","coordinates":[[[139.200573,-34.751633],[139.129671,-34.088237],[138.420784,-33.809579],[137.778412,-34.188927],[137.837784,-34.850139],[138.551045,-35.134235],[139.200573,-34.751633]]]}},{"type":"Feature","properties":{"hex_id":"83b98dfffffffff","population":21,"population_year":2025,"area_km2":13081.4,"population_density":0.0,"all_players":11,"players_per_million":523809.52,"player_ids":["afl:12165","afl:12217","afl:12367","afl:12405","afl:12516","afl:12794","afl:12810","afl:12876","afl:12956","afl:13027","afl:13156"],"label":"South Australia","country":"Australia"},"geometry":{"type":"Polygon","coordinates":[[[135.511205,-30.060762],[135.47376,-29.412085],[134.833115,-29.133244],[134.227298,-29.497147],[134.254807,-30.142844],[134.898036,-30.427657],[135.511205,-30.060762]]]}},{"type":"Feature","properties":{"hex_id":"83b9a1fffffffff","population":19692,"population_year":2025,"area_km2":13766.4,"population_density":1.4,"all_players":1,"players_per_million":50.78,"player_ids":["afl:12697"],"label":"Port Augusta","country":"Australia"},"geometry":{"type":"Polygon","coordinates":[[[138.991345,-32.763387],[138.923863,-32.102291],[138.233279,-31.828129],[137.60607,-32.209545],[137.662578,-32.868454],[138.357257,-33.148181],[138.991345,-32.763387]]]}},{"type":"Feature","properties":{"hex_id":"83b9a6fffffffff","population":18761,"population_year":2025,"area_km2":14105.7,"population_density":1.3,"all_players":2,"players_per_million":106.6,"player_ids":["afl:11713","afl:12629"],"label":"Broken Hill, New South Wales","country":"Australia"},"geometry":{"type":"Polygon","coordinates":[[[141.671339,-32.507901],[141.581774,-31.843535],[140.873422,-31.582363],[140.249551,-31.980337],[140.328063,-32.643256],[141.041506,-32.909699],[141.671339,-32.507901]]]}},{"type":"Feature","properties":{"hex_id":"83b9adfffffffff","population":1249,"population_year":2025,"area_km2":13376.9,"population_density":0.1,"all_players":1,"players_per_million":800.64,"player_ids":["afl:12653"],"label":"Wudinna, South Australia, Australia","country":"Australia"},"geometry":{"type":"Polygon","coordinates":[[[136.343108,-32.958671],[136.297481,-32.302306],[135.627159,-32.01625],[134.99935,-32.380825],[135.034221,-33.034305],[135.707627,-33.326136],[136.343108,-32.958671]]]}},{"type":"Feature","properties":{"hex_id":"83bb50fffffffff","population":1759286,"population_year":2025,"area_km2":13096.6,"population_density":134.3,"all_players":1,"players_per_million":0.57,"player_ids":["afl:13113"],"label":"Auckland, New Zealand","country":"New Zealand"},"geometry":{"type":"Polygon","coordinates":[[[175.568271,-36.884501],[175.227336,-36.30045],[174.454886,-36.252874],[174.011624,-36.792406],[174.349024,-37.382116],[175.133375,-37.426619],[175.568271,-36.884501]]]}},{"type":"Feature","properties":{"hex_id":"83bb72fffffffff","population":122612,"population_year":2025,"area_km2":13081.4,"population_density":9.4,"all_players":1,"players_per_million":8.16,"player_ids":["afl:12564"],"label":"Taranaki, New Zealand","country":"New Zealand"},"geometry":{"type":"Polygon","coordinates":[[[175.386773,-39.133271],[175.036544,-38.552712],[174.239926,-38.51126],[173.781053,-39.053375],[174.127439,-39.639419],[174.93671,-39.677849],[175.386773,-39.133271]]]}},{"type":"Feature","properties":{"hex_id":"83bcc3fffffffff","population":10165897,"population_year":2025,"area_km2":13816.5,"population_density":735.8,"all_players":2,"players_per_million":0.2,"player_ids":["afl:12122","afl:12966"],"label":"Johannesburg, South Africa","country":"South Africa"},"geometry":{"type":"Polygon","coordinates":[[[28.252135,-26.609142],[28.292681,-25.962826],[27.674042,-25.604797],[27.013681,-25.892672],[26.969404,-26.538665],[27.589205,-26.897137],[28.252135,-26.609142]]]}},{"type":"Feature","properties":{"hex_id":"83be08fffffffff","population":3715576,"population_year":2025,"area_km2":14884.3,"population_density":249.6,"all_players":2,"players_per_million":0.54,"player_ids":["afl:12904","afl:12942"],"label":"Pennant Hills, New South Wales","country":"Australia"},"geometry":{"type":"Polygon","coordinates":[[[151.210157,-34.25249],[151.038963,-33.586023],[150.264159,-33.373537],[149.651925,-33.824078],[149.812161,-34.491757],[150.595673,-34.707733],[151.210157,-34.25249]]]}},{"type":"Feature","properties":{"hex_id":"83be0efffffffff","population":2059884,"population_year":2025,"area_km2":14922.2,"population_density":138.0,"all_players":10,"players_per_million":4.85,"player_ids":["afl:12140","afl:12177","afl:12273","afl:12408","afl:12413","afl:12768","afl:12802","afl:12818","afl:12862","afl:12934"],"label":"Sydney, New South Wales","country":"Australia"},"geometry":{"type":"Polygon","coordinates":[[[152.602318,-33.997],[152.420459,-33.332138],[151.64327,-33.128216],[151.038963,-33.586023],[151.210157,-34.25249],[151.996416,-34.459593],[152.602318,-33.997]]]}},{"type":"Feature","properties":{"hex_id":"83be1dfffffffff","population":537541,"population_year":2025,"area_km2":14912.7,"population_density":36.0,"all_players":1,"players_per_million":1.86,"player_ids":["afl:12326"],"label":"Maitland","country":"Australia"},"geometry":{"type":"Polygon","coordinates":[[[153.016202,-32.867447],[152.833486,-32.203758],[152.065246,-32.002959],[151.470866,-32.462772],[151.64327,-33.128216],[152.420459,-33.332138],[153.016202,-32.867447]]]}},{"type":"Feature","properties":{"hex_id":"83be40fffffffff","population":55678,"population_year":2025,"area_km2":14495.3,"population_density":3.8,"all_players":3,"players_per_million":53.88,"player_ids":["afl:12150","afl:12700","afl:13111"],"label":"Moama","country":"Australia"},"geometry":{"type":"Polygon","coordinates":[[[145.081124,-36.200464],[144.957927,-35.531688],[144.19495,-35.281015],[143.548289,-35.694579],[143.659407,-36.362782],[144.429303,-36.618048],[145.081124,-36.200464]]]}},{"type":"Feature","properties":{"hex_id":"83be44fffffffff","population":167185,"population_year":2025,"area_km2":14549.9,"population_density":11.5,"all_players":3,"players_per_million":17.94,"player_ids":["afl:12502","afl:12636","afl:12953"],"label":"Shepparton, Victoria, Australia","country":"Australia"},"geometry":{"type":"Polygon","coordinates":[[[145.990588,-37.115507],[145.858074,-36.447021],[145.081124,-36.200464],[144.429303,-36.618048],[144.549504,-37.286204],[145.333886,-37.53716],[145.990588,-37.115507]]]}},{"type":"Feature","properties":{"hex_id":"83be45fffffffff","population":324743,"population_year":2025,"area_km2":14423.2,"population_density":22.5,"all_players":12,"players_per_million":36.95,"player_ids":["afl:11751","afl:11966","afl:12167","afl:12258","afl:12268","afl:12422","afl:12573","afl:12927","afl:12943","afl:12952","afl:13159","afl:13165"],"label":"Victoria","country":"Australia"},"geometry":{"type":"Polygon","coordinates":[[[144.549504,-37.286204],[144.429303,-36.618048],[143.659407,-36.362782],[143.002856,-36.771101],[143.110632,-37.438515],[143.887418,-37.698406],[144.549504,-37.286204]]]}},{"type":"Feature","properties":{"hex_id":"83be46fffffffff","population":62360,"population_year":2025,"area_km2":14613.9,"population_density":4.3,"all_players":1,"players_per_million":16.04,"player_ids":["afl:12782"],"label":"Katandra, Victoria","country":"Australia"},"geometry":{"type":"Polygon","coordinates":[[[146.504345,-36.020384],[146.369194,-35.351443],[145.599676,-35.109248],[144.957927,-35.531688],[145.081124,-36.200464],[145.858074,-36.447021],[146.504345,-36.020384]]]}},{"type":"Feature","properties":{"hex_id":"83be49fffffffff","population":133422,"population_year":2025,"area_km2":13951.3,"population_density":9.6,"all_players":2,"players_per_million":14.99,"player_ids":["afl:12932","afl:12994"],"label":"Mount Barker","country":"Australia"},"geometry":{"type":"Polygon","coordinates":[[[140.002578,-35.693545],[139.923934,-35.028662],[139.200573,-34.751633],[138.551045,-35.134235],[138.617833,-35.797135],[139.345998,-36.079465],[140.002578,-35.693545]]]}},{"type":"Feature","properties":{"hex_id":"83be4afffffffff","population":23523,"population_year":2025,"area_km2":14184.0,"population_density":1.7,"all_players":1,"players_per_million":42.51,"player_ids":["afl:11847"],"label":"Berri","country":"Australia"},"geometry":{"type":"Polygon","coordinates":[[[141.949009,-34.50589],[141.85492,-33.839262],[141.12763,-33.574731],[140.488997,-33.971742],[140.571484,-34.636946],[141.304216,-34.906614],[141.949009,-34.50589]]]}},{"type":"Feature","properties":{"hex_id":"83be4dfffffffff","population":9838,"population_year":2025,"area_km2":14045.3,"population_density":0.7,"all_players":1,"players_per_million":101.65,"player_ids":["afl:12727"],"label":"Mundulla, South Australia","country":"Australia"},"geometry":{"type":"Polygon","coordinates":[[[140.827435,-36.634208],[140.740667,-35.968363],[140.002578,-35.693545],[139.345998,-36.079465],[139.420584,-36.743539],[140.163932,-37.023514],[140.827435,-36.634208]]]}},{"type":"Feature","properties":{"hex_id":"83be52fffffffff","population":2864,"population_year":2025,"area_km2":14696.9,"population_density":0.2,"all_players":3,"players_per_million":1047.49,"player_ids":["afl:12440","afl:12721","afl:12872"],"label":"New South Wales","country":"Australia"},"geometry":{"type":"Polygon","coordinates":[[[147.970079,-32.709788],[147.828128,-32.042478],[147.080812,-31.813113],[146.468127,-32.246879],[146.599143,-32.914528],[147.353835,-33.148124],[147.970079,-32.709788]]]}},{"type":"Feature","properties":{"hex_id":"83be54fffffffff","population":41768,"population_year":2025,"area_km2":14752.7,"population_density":2.8,"all_players":1,"players_per_million":23.94,"player_ids":["afl:11954"],"label":"Temora","country":"Australia"},"geometry":{"type":"Polygon","coordinates":[[[148.409969,-34.714468],[148.260944,-34.045977],[147.493694,-33.816479],[146.86765,-34.251462],[147.005246,-34.920361],[147.780378,-35.153921],[148.409969,-34.714468]]]}},{"type":"Feature","properties":{"hex_id":"83be55fffffffff","population":49912,"population_year":2025,"area_km2":14659.9,"population_density":3.4,"all_players":2,"players_per_million":40.07,"player_ids":["afl:12175","afl:12597"],"label":"Narrandera","country":"Australia"},"geometry":{"type":"Polygon","coordinates":[[[147.005246,-34.920361],[146.86765,-34.251462],[146.105555,-34.013589],[145.473685,-34.440347],[145.599676,-35.109248],[146.369194,-35.351443],[147.005246,-34.920361]]]}},{"type":"Feature","properties":{"hex_id":"83be5dfffffffff","population":69672,"population_year":2025,"area_km2":14333.8,"population_density":4.9,"all_players":1,"players_per_million":14.35,"player_ids":["afl:12796"],"label":"Mildura, Victoria","country":"Australia"},"geometry":{"type":"Polygon","coordinates":[[[143.331592,-34.35834],[143.225924,-33.69068],[142.490557,-33.433592],[141.85492,-33.839262],[141.949009,-34.50589],[142.690336,-34.767932],[143.331592,-34.35834]]]}},{"type":"Feature","properties":{"hex_id":"83be60fffffffff","population":75179,"population_year":2025,"area_km2":14495.3,"population_density":5.2,"all_players":2,"players_per_million":26.6,"player_ids":["afl:12170","afl:12824"],"label":"Wonthaggi","country":"Australia"},"geometry":{"type":"Polygon","coordinates":[[[146.402073,-39.117061],[146.262529,-38.450719],[145.46356,-38.204698],[144.796215,-38.620841],[144.922833,-39.286945],[145.729779,-39.537201],[146.402073,-39.117061]]]}},{"type":"Feature","properties":{"hex_id":"83be61fffffffff","population":6495,"population_year":2025,"area_km2":14369.4,"population_density":0.5,"all_players":2,"players_per_million":307.93,"player_ids":["afl:11700","afl:12083"],"label":"Lorne, Victoria","country":"Australia"},"geometry":{"type":"Polygon","coordinates":[[[144.922833,-39.286945],[144.796215,-38.620841],[144.004411,-38.36545],[143.331869,-38.771753],[143.445429,-39.437203],[144.24463,-39.69706],[144.922833,-39.286945]]]}},{"type":"Feature","properties":{"hex_id":"83be62fffffffff","population":300001,"population_year":2025,"area_km2":14586.4,"population_density":20.6,"all_players":3,"players_per_million":10.0,"player_ids":["afl:12300","afl:12498","afl:12566"],"label":"Warragul, Victoria","country":"Australia"},"geometry":{"type":"Polygon","coordinates":[[[146.923798,-38.024949],[146.781589,-37.357331],[145.990588,-37.115507],[145.333886,-37.53716],[145.46356,-38.204698],[146.262529,-38.450719],[146.923798,-38.024949]]]}},{"type":"Feature","properties":{"hex_id":"83be63fffffffff","population":5389912,"population_year":2025,"area_km2":14468.2,"population_density":372.5,"all_players":32,"players_per_million":5.94,"player_ids":["afl:11583","afl:11677","afl:11898","afl:12025","afl:12026","afl:12066","afl:12080","afl:12147","afl:12267","afl:12269","afl:12331","afl:12340","afl:12357","afl:12393","afl:12406","afl:12412","afl:12434","afl:12454","afl:12458","afl:12504","afl:12591","afl:12594","afl:12684","afl:12701","afl:12728","afl:12740","afl:12788","afl:12844","afl:12873","afl:12967","afl:13054","afl:13088"],"label":"Melbourne","country":"Australia"},"geometry":{"type":"Polygon","coordinates":[[[145.46356,-38.204698],[145.333886,-37.53716],[144.549504,-37.286204],[143.887418,-37.698406],[144.004411,-38.36545],[144.796215,-38.620841],[145.46356,-38.204698]]]}},{"type":"Feature","properties":{"hex_id":"83be66fffffffff","population":33214,"population_year":2025,"area_km2":14604.7,"population_density":2.3,"all_players":1,"players_per_million":30.11,"player_ids":["afl:4182"],"label":"Sale","country":"Australia"},"geometry":{"type":"Polygon","coordinates":[[[147.881179,-38.927584],[147.728894,-38.261419],[146.923798,-38.024949],[146.262529,-38.450719],[146.402073,-39.117061],[147.215696,-39.357514],[147.881179,-38.927584]]]}},{"type":"Feature","properties":{"hex_id":"83be68fffffffff","population":79927,"population_year":2025,"area_km2":14184.0,"population_density":5.6,"all_players":3,"players_per_million":37.53,"player_ids":["afl:12017","afl:13207","afl:13234"],"label":"Warrnambool","country":"Australia"},"geometry":{"type":"Polygon","coordinates":[[[142.548235,-38.507212],[142.444022,-37.841073],[141.675778,-37.572485],[141.005511,-37.965248],[141.096898,-38.630075],[141.871395,-38.903506],[142.548235,-38.507212]]]}},{"type":"Feature","properties":{"hex_id":"83be6bfffffffff","population":58620,"population_year":2025,"area_km2":14123.1,"population_density":4.2,"all_players":6,"players_per_million":102.35,"player_ids":["afl:12055","afl:12437","afl:12584","afl:12806","afl:12921","afl:13251"],"label":"Mount Gambier, South Australia","country":"Australia"},"geometry":{"type":"Polygon","coordinates":[[[141.675778,-37.572485],[141.580491,-36.906218],[140.827435,-36.634208],[140.163932,-37.023514],[140.246713,-37.688234],[141.005511,-37.965248],[141.675778,-37.572485]]]}},{"type":"Feature","properties":{"hex_id":"83be6efffffffff","population":56256,"population_year":2025,"area_km2":14333.8,"population_density":3.9,"all_players":2,"players_per_million":35.55,"player_ids":["afl:12241","afl:12526"],"label":"Cobden, Victoria","country":"Australia"},"geometry":{"type":"Polygon","coordinates":[[[144.004411,-38.36545],[143.887418,-37.698406],[143.110632,-37.438515],[142.444022,-37.841073],[142.548235,-38.507212],[143.331869,-38.771753],[144.004411,-38.36545]]]}},{"type":"Feature","properties":{"hex_id":"83be71fffffffff","population":108335,"population_year":2025,"area_km2":14659.9,"population_density":7.4,"all_players":1,"players_per_million":9.23,"player_ids":["afl:12579"],"label":"Benalla","country":"Australia"},"geometry":{"type":"Polygon","coordinates":[[[147.432066,-36.92646],[147.287397,-36.258054],[146.504345,-36.020384],[145.858074,-36.447021],[145.990588,-37.115507],[146.781589,-37.357331],[147.432066,-36.92646]]]}},{"type":"Feature","properties":{"hex_id":"83be72fffffffff","population":558761,"population_year":2025,"area_km2":14799.5,"population_density":37.8,"all_players":1,"players_per_million":1.79,"player_ids":["afl:12261"],"label":"Canberra","country":"Australia"},"geometry":{"type":"Polygon","coordinates":[[[149.348283,-35.607323],[149.18977,-34.939276],[148.409969,-34.714468],[147.780378,-35.153921],[147.927316,-35.82262],[148.715493,-36.051265],[149.348283,-35.607323]]]}},{"type":"Feature","properties":{"hex_id":"83be73fffffffff","population":174911,"population_year":2025,"area_km2":14715.5,"population_density":11.9,"all_players":7,"players_per_million":40.02,"player_ids":["afl:12015","afl:12420","afl:12462","afl:12553","afl:12622","afl:12671","afl:12859"],"label":"Wagga Wagga","country":"Australia"},"geometry":{"type":"Polygon","coordinates":[[[147.927316,-35.82262],[147.780378,-35.153921],[147.005246,-34.920361],[146.369194,-35.351443],[146.504345,-36.020384],[147.287397,-36.258054],[147.927316,-35.82262]]]}},{"type":"Feature","properties":{"hex_id":"83be75fffffffff","population":58621,"population_year":2025,"area_km2":14687.7,"population_density":4.0,"all_players":1,"players_per_million":17.06,"player_ids":["afl:12849"],"label":"Gippsland, Victoria","country":"Australia"},"geometry":{"type":"Polygon","coordinates":[[[148.383227,-37.826278],[148.228678,-37.158993],[147.432066,-36.92646],[146.781589,-37.357331],[146.923798,-38.024949],[147.728894,-38.261419],[148.383227,-37.826278]]]}},{"type":"Feature","properties":{"hex_id":"83be88fffffffff","population":355061,"population_year":2025,"area_km2":14495.3,"population_density":24.5,"all_players":3,"players_per_million":8.45,"player_ids":["afl:12819","afl:12833","afl:13215"],"label":"Sunshine Coast, Queensland","country":"Australia"},"geometry":{"type":"Polygon","coordinates":[[[154.020867,-26.398343],[153.84377,-25.749272],[153.127039,-25.5596],[152.579515,-26.01596],[152.74788,-26.667264],[153.47258,-26.860017],[154.020867,-26.398343]]]}},{"type":"Feature","properties":{"hex_id":"83be8dfffffffff","population":2791925,"population_year":2025,"area_km2":14604.7,"population_density":191.2,"all_players":1,"players_per_million":0.36,"player_ids":["afl:12947"],"label":"Brisbane, Queensland, Australia","country":"Australia"},"geometry":{"type":"Polygon","coordinates":[[[153.649162,-27.512988],[153.47258,-26.860017],[152.74788,-26.667264],[152.191761,-27.124384],[152.359327,-27.779455],[153.092109,-27.975349],[153.649162,-27.512988]]]}},{"type":"Feature","properties":{"hex_id":"83beabfffffffff","population":784032,"population_year":2025,"area_km2":14687.7,"population_density":53.4,"all_players":7,"players_per_million":8.93,"player_ids":["afl:12076","afl:13040","afl:13041","afl:13120","afl:13121","afl:13197","afl:13232"],"label":"Gold Coast, Queensland","country":"Australia"},"geometry":{"type":"Polygon","coordinates":[[[154.567848,-28.355976],[154.382852,-27.701877],[153.649162,-27.512988],[153.092109,-27.975349],[153.268079,-28.631768],[154.010216,-28.823548],[154.567848,-28.355976]]]}},{"type":"Feature","properties":{"hex_id":"83bef6fffffffff","population":72808,"population_year":2025,"area_km2":14696.9,"population_density":5.0,"all_players":1,"players_per_million":13.73,"player_ids":["afl:12373"],"label":"Beaudesert, Queensland, Australia","country":"Australia"},"geometry":{"type":"Polygon","coordinates":[[[153.268079,-28.631768],[153.092109,-27.975349],[152.359327,-27.779455],[151.794405,-28.236823],[151.961065,-28.895203],[152.702039,-29.094299],[153.268079,-28.631768]]]}},{"type":"Feature","properties":{"hex_id":"83bf48fffffffff","population":139424,"population_year":2025,"area_km2":14369.4,"population_density":9.7,"all_players":4,"players_per_million":28.69,"player_ids":["afl:11866","afl:12639","afl:12691","afl:13174"],"label":"Tasmania","country":"Australia"},"geometry":{"type":"Polygon","coordinates":[[[147.831255,-42.006643],[147.673222,-41.346829],[146.835753,-41.108762],[146.147191,-41.526703],[146.291409,-42.186663],[147.138081,-42.428596],[147.831255,-42.006643]]]}},{"type":"Feature","properties":{"hex_id":"83bf4cfffffffff","population":253944,"population_year":2025,"area_km2":14333.8,"population_density":17.7,"all_players":1,"players_per_million":3.94,"player_ids":["afl:11967"],"label":"Hobart","country":"Australia"},"geometry":{"type":"Polygon","coordinates":[[[148.853396,-42.894212],[148.684029,-42.237655],[147.831255,-42.006643],[147.138081,-42.428596],[147.29342,-43.085576],[148.156051,-43.32024],[148.853396,-42.894212]]]}},{"type":"Feature","properties":{"hex_id":"83c986fffffffff","population":52590,"population_year":2025,"area_km2":10466.5,"population_density":5.0,"all_players":2,"players_per_million":38.03,"player_ids":["afl:12359","afl:12660"],"label":"Albany, Western Australia","country":"Australia"},"geometry":{"type":"Polygon","coordinates":[[[118.393687,-34.66889],[117.86092,-34.27708],[117.166248,-34.398771],[116.993099,-34.917495],[117.527778,-35.317523],[118.233804,-35.190528],[118.393687,-34.66889]]]}},{"type":"Feature","properties":{"hex_id":"83c992fffffffff","population":95909,"population_year":2025,"area_km2":9779.9,"population_density":9.8,"all_players":3,"players_per_million":31.28,"player_ids":["afl:12520","afl:12744","afl:12774"],"label":"Northam, Western Australia","country":"Australia"},"geometry":{"type":"Polygon","coordinates":[[[117.317241,-31.991569],[116.81919,-31.610898],[116.156806,-31.717896],[115.982101,-32.210194],[116.481401,-32.598683],[117.15426,-32.486985],[117.317241,-31.991569]]]}},{"type":"Feature","properties":{"hex_id":"83c993fffffffff","population":328463,"population_year":2025,"area_km2":10000.2,"population_density":32.8,"all_players":2,"players_per_million":6.09,"player_ids":["afl:12317","afl:12688"],"label":"Mandurah, Western Australia","country":"Australia"},"geometry":{"type":"Polygon","coordinates":[[[116.481401,-32.598683],[115.982101,-32.210194],[115.307453,-32.314951],[115.121218,-32.812717],[115.621409,-33.209167],[116.307056,-33.099819],[116.481401,-32.598683]]]}},{"type":"Feature","properties":{"hex_id":"83c994fffffffff","population":2251,"population_year":2025,"area_km2":10010.0,"population_density":0.2,"all_players":1,"players_per_million":444.25,"player_ids":["afl:11834"],"label":"Lake Grace","country":"Australia"},"geometry":{"type":"Polygon","coordinates":[[[118.852608,-33.133337],[118.33389,-32.752929],[117.66343,-32.871602],[117.501295,-33.375798],[118.022028,-33.764136],[118.702978,-33.64027],[118.852608,-33.133337]]]}},{"type":"Feature","properties":{"hex_id":"83c995fffffffff","population":8621,"population_year":2025,"area_km2":10239.1,"population_density":0.8,"all_players":1,"players_per_million":116.0,"player_ids":["afl:12535"],"label":"Katanning, Western Australia","country":"Australia"},"geometry":{"type":"Polygon","coordinates":[[[118.022028,-33.764136],[117.501295,-33.375798],[116.817675,-33.492392],[116.643844,-34.002344],[117.166248,-34.398771],[117.86092,-34.27708],[118.022028,-33.764136]]]}},{"type":"Feature","properties":{"hex_id":"83c99efffffffff","population":41388,"population_year":2025,"area_km2":10218.8,"population_density":4.1,"all_players":1,"players_per_million":24.16,"player_ids":["afl:12983"],"label":"Busselton, Western Australia","country":"Australia"},"geometry":{"type":"Polygon","coordinates":[[[115.621409,-33.209167],[115.121218,-32.812717],[114.43418,-32.914868],[114.235919,-33.417861],[114.736609,-33.82241],[115.435185,-33.715798],[115.621409,-33.209167]]]}},{"type":"Feature","properties":{"hex_id":"83d896fffffffff","population":6626,"population_year":2025,"area_km2":14263.0,"population_density":0.5,"all_players":1,"players_per_million":150.92,"player_ids":["afl:12732"],"label":"Smithton, Tasmania","country":"Australia"},"geometry":{"type":"Polygon","coordinates":[[[145.316437,-41.278148],[145.182884,-40.615783],[144.367966,-40.361253],[143.678691,-40.764838],[143.798504,-41.426656],[144.621379,-41.685495],[145.316437,-41.278148]]]}}]}