{"type":"FeatureCollection","metadata":{"population_source":"WorldPop Global 2 R2025A","population_source_url":"https://hub.worldpop.org/project/categories?id=3","population_license":"CC BY 4.0","population_year":2025,"raster_resolution":"1km","h3_resolution":2,"population_method":"official_country_rasters","occupied_cells":52,"mapped_players":227},"features":[{"type":"Feature","properties":{"hex_id":"821827fffffffff","population":1306538,"population_year":2025,"area_km2":80544.7,"population_density":16.2,"all_players":2,"players_per_million":1.53,"player_ids":["afl:12181","afl:12391"],"label":"County Tyrone","country":"United Kingdom"},"geometry":{"type":"Polygon","coordinates":[[[-8.7409,56.382588],[-11.31933,55.81836],[-11.464478,54.262489],[-9.166993,53.289084],[-6.713499,53.841054],[-6.436337,55.37739],[-8.7409,56.382588]]]}},{"type":"Feature","properties":{"hex_id":"821877fffffffff","population":1812218,"population_year":2025,"area_km2":84307.8,"population_density":21.5,"all_players":1,"players_per_million":0.55,"player_ids":["afl:12580"],"label":"Torquay","country":"United Kingdom"},"geometry":{"type":"Polygon","coordinates":[[[-4.88976,51.223728],[-7.224494,50.679047],[-7.460509,49.056818],[-5.466445,48.005645],[-3.243656,48.547301],[-2.906528,50.142292],[-4.88976,51.223728]]]}},{"type":"Feature","properties":{"hex_id":"82194ffffffffff","population":23325550,"population_year":2025,"area_km2":76219.8,"population_density":306.0,"all_players":1,"players_per_million":0.04,"player_ids":["afl:12750"],"label":"London","country":"United Kingdom"},"geometry":{"type":"Polygon","coordinates":[[[2.101314,52.517134],[-0.219137,52.141681],[-0.631095,50.601911],[1.18851,49.470279],[3.384772,49.85377],[3.881134,51.360376],[2.101314,52.517134]]]}},{"type":"Feature","properties":{"hex_id":"82195ffffffffff","population":22721748,"population_year":2025,"area_km2":79647.5,"population_density":285.3,"all_players":1,"players_per_million":0.04,"player_ids":["afl:12912"],"label":"High Wycombe, England","country":"United Kingdom"},"geometry":{"type":"Polygon","coordinates":[[[-2.178886,53.251551],[-4.578382,52.792439],[-4.88976,51.223728],[-2.906528,50.142292],[-0.631095,50.601911],[-0.219137,52.141681],[-2.178886,53.251551]]]}},{"type":"Feature","properties":{"hex_id":"821f6ffffffffff","population":1293793,"population_year":2025,"area_km2":72289.7,"population_density":17.9,"all_players":1,"players_per_million":0.77,"player_ids":["afl:12459"],"label":"Vitebsk","country":"Belarus"},"geometry":{"type":"Polygon","coordinates":[[[26.868471,57.29788],[25.752737,56.027899],[27.453627,54.866734],[30.223065,54.953382],[31.095814,56.470005],[29.401091,57.66587],[26.868471,57.29788]]]}},{"type":"Feature","properties":{"hex_id":"8226cffffffffff","population":9574277,"population_year":2025,"area_km2":96323.1,"population_density":99.4,"all_players":1,"players_per_million":0.1,"player_ids":["afl:12428"],"label":"Highland Village","country":"United States"},"geometry":{"type":"Polygon","coordinates":[[[-96.66289,31.619531],[-94.945821,32.516906],[-95.017507,34.246081],[-96.863145,35.093055],[-98.622726,34.188046],[-98.493873,32.444355],[-96.66289,31.619531]]]}},{"type":"Feature","properties":{"hex_id":"822b9ffffffffff","population":11744141,"population_year":2025,"area_km2":92775.6,"population_density":126.6,"all_players":1,"players_per_million":0.09,"player_ids":["afl:12491"],"label":"Mississauga","country":"Canada"},"geometry":{"type":"Polygon","coordinates":[[[-78.100366,45.982432],[-80.490261,45.49319],[-80.982253,43.86012],[-79.227281,42.744533],[-76.966258,43.195408],[-76.33587,44.798413],[-78.100366,45.982432]]]}},{"type":"Feature","properties":{"hex_id":"823e67fffffffff","population":74086568,"population_year":2025,"area_km2":101417.2,"population_density":730.5,"all_players":2,"players_per_million":0.03,"player_ids":["afl:13019","afl:13086"],"label":"Cairo","country":"Egypt"},"geometry":{"type":"Polygon","coordinates":[[[30.84614,32.114366],[29.97458,30.494221],[31.156426,29.02702],[33.175397,29.162053],[34.073508,30.754985],[32.928331,32.240102],[30.84614,32.114366]]]}},{"type":"Feature","properties":{"hex_id":"826a0ffffffffff","population":1586140,"population_year":2025,"area_km2":87326.6,"population_density":18.2,"all_players":1,"players_per_million":0.63,"player_ids":["afl:12801"],"label":"South Sudan","country":"South Sudan"},"geometry":{"type":"Polygon","coordinates":[[[29.961298,5.181923],[30.597119,6.672538],[29.544342,7.923279],[27.860067,7.70518],[27.209856,6.23051],[28.257503,4.957755],[29.961298,5.181923]]]}},{"type":"Feature","properties":{"hex_id":"826b6ffffffffff","population":17525720,"population_year":2025,"area_km2":93159.0,"population_density":188.1,"all_players":2,"players_per_million":0.11,"player_ids":["afl:12485","afl:12900"],"label":"Sudan","country":"Sudan"},"geometry":{"type":"Polygon","coordinates":[[[32.231551,16.848032],[31.458258,15.285505],[32.465267,13.929126],[34.217211,14.109518],[35.008409,15.638246],[34.03121,17.020239],[32.231551,16.848032]]]}},{"type":"Feature","properties":{"hex_id":"82752ffffffffff","population":11380330,"population_year":2025,"area_km2":65961.6,"population_density":172.5,"all_players":1,"players_per_million":0.09,"player_ids":["afl:12914"],"label":"Ghana","country":"Ghana"},"geometry":{"type":"Polygon","coordinates":[[[-1.939563,8.007194],[-2.159048,6.64558],[-1.048007,5.588679],[0.309804,5.864518],[0.568935,7.231941],[-0.569486,8.31841],[-1.939563,8.007194]]]}},{"type":"Feature","properties":{"hex_id":"827a47fffffffff","population":9040892,"population_year":2025,"area_km2":92775.6,"population_density":97.4,"all_players":1,"players_per_million":0.11,"player_ids":["afl:12433"],"label":"Kenya","country":"Kenya"},"geometry":{"type":"Polygon","coordinates":[[[38.805671,-0.953601],[39.381934,0.609462],[38.285825,1.928307],[36.603821,1.70658],[36.003377,0.148098],[37.108462,-1.193647],[38.805671,-0.953601]]]}},{"type":"Feature","properties":{"hex_id":"827adffffffffff","population":12653989,"population_year":2025,"area_km2":77926.1,"population_density":162.4,"all_players":1,"players_per_million":0.08,"player_ids":["afl:12752"],"label":"Ethiopia","country":"Ethiopia"},"geometry":{"type":"Polygon","coordinates":[[[42.123268,7.989895],[42.64445,9.3692],[41.867809,10.627354],[40.259524,10.481935],[39.467791,9.061222],[40.528837,7.826038],[42.123268,7.989895]]]}},{"type":"Feature","properties":{"hex_id":"829457fffffffff","population":155205,"population_year":2025,"area_km2":88726.5,"population_density":1.7,"all_players":8,"players_per_million":51.54,"player_ids":["afl:11940","afl:12403","afl:12521","afl:12606","afl:12610","afl:12903","afl:12933","afl:12990"],"label":"Darwin, Northern Territory","country":"Australia"},"geometry":{"type":"Polygon","coordinates":[[[129.000774,-11.60209],[128.72923,-13.199443],[130.067703,-14.275505],[131.69138,-13.767143],[131.973688,-12.165599],[130.621867,-11.076125],[129.000774,-11.60209]]]}},{"type":"Feature","properties":{"hex_id":"829487fffffffff","population":17174,"population_year":2025,"area_km2":73030.9,"population_density":0.2,"all_players":2,"players_per_million":116.46,"player_ids":["afl:12236","afl:12588"],"label":"Broome, Western Australia","country":"Australia"},"geometry":{"type":"Polygon","coordinates":[[[120.722416,-16.935419],[120.489912,-18.366344],[121.744834,-19.411327],[123.255871,-19.039142],[123.501426,-17.5992],[122.223024,-16.540011],[120.722416,-16.935419]]]}},{"type":"Feature","properties":{"hex_id":"8294affffffffff","population":4105,"population_year":2025,"area_km2":77902.3,"population_density":0.1,"all_players":1,"players_per_million":243.61,"player_ids":["afl:12414"],"label":"Derby","country":"Australia"},"geometry":{"type":"Polygon","coordinates":[[[122.464693,-15.054266],[122.223024,-16.540011],[123.501426,-17.5992],[125.043425,-17.185966],[125.297865,-15.691264],[123.997706,-14.618298],[122.464693,-15.054266]]]}},{"type":"Feature","properties":{"hex_id":"8294d7fffffffff","population":3139,"population_year":2025,"area_km2":76219.8,"population_density":0.0,"all_players":1,"players_per_million":318.57,"player_ids":["afl:12848"],"label":"Halls Creek, Western Australia","country":"Australia"},"geometry":{"type":"Polygon","coordinates":[[[126.347664,-18.234042],[126.089695,-19.680475],[127.39714,-20.698334],[128.979592,-20.283841],[129.249101,-18.833522],[127.924868,-17.801088],[126.347664,-18.234042]]]}},{"type":"Feature","properties":{"hex_id":"8294effffffffff","population":11494,"population_year":2025,"area_km2":85294.5,"population_density":0.1,"all_players":1,"players_per_million":87.0,"player_ids":["afl:12838"],"label":"Katherine, Northern Territory","country":"Australia"},"geometry":{"type":"Polygon","coordinates":[[[130.067703,-14.275505],[129.793153,-15.828355],[131.131723,-16.875318],[132.756835,-16.383335],[133.041616,-14.828509],[131.69138,-13.767143],[130.067703,-14.275505]]]}},{"type":"Feature","properties":{"hex_id":"829c27fffffffff","population":281513,"population_year":2025,"area_km2":89801.2,"population_density":3.1,"all_players":1,"players_per_million":3.55,"player_ids":["afl:12499"],"label":"Cairns","country":"Australia"},"geometry":{"type":"Polygon","coordinates":[[[147.744098,-18.672653],[148.022908,-17.036467],[146.649213,-16.050054],[144.994471,-16.660534],[144.666553,-18.275823],[146.041409,-19.302203],[147.744098,-18.672653]]]}},{"type":"Feature","properties":{"hex_id":"829c9ffffffffff","population":840341,"population_year":2025,"area_km2":96323.1,"population_density":8.7,"all_players":1,"players_per_million":1.19,"player_ids":["afl:12729"],"label":"Papua New Guinea","country":"Papua New Guinea"},"geometry":{"type":"Polygon","coordinates":[[[145.871538,-4.074846],[145.554606,-5.793088],[146.883937,-6.874321],[148.517216,-6.250935],[148.83577,-4.550036],[147.519872,-3.454918],[145.871538,-4.074846]]]}},{"type":"Feature","properties":{"hex_id":"829caffffffffff","population":741742,"population_year":2025,"area_km2":91641.3,"population_density":8.1,"all_players":1,"players_per_million":1.35,"player_ids":["afl:13138"],"label":"Port Moresby","country":"Papua New Guinea"},"geometry":{"type":"Polygon","coordinates":[[[144.923965,-9.177781],[144.610282,-10.838676],[145.937458,-11.86553],[147.566922,-11.247519],[147.882776,-9.602383],[146.567439,-8.559185],[144.923965,-9.177781]]]}},{"type":"Feature","properties":{"hex_id":"829d57fffffffff","population":3492,"population_year":2025,"area_km2":91641.3,"population_density":0.0,"all_players":2,"players_per_million":572.74,"player_ids":["afl:11991","afl:12723"],"label":"Queensland","country":"Australia"},"geometry":{"type":"Polygon","coordinates":[[[145.721377,-20.964646],[146.041409,-19.302203],[144.666553,-18.275823],[142.973853,-18.8725],[142.604744,-20.510244],[143.976131,-21.576588],[145.721377,-20.964646]]]}},{"type":"Feature","properties":{"hex_id":"82a707fffffffff","population":54373,"population_year":2025,"area_km2":63447.1,"population_density":0.9,"all_players":2,"players_per_million":36.78,"player_ids":["afl:12976","afl:12999"],"label":"Northampton","country":"Australia"},"geometry":{"type":"Polygon","coordinates":[[[116.347228,-29.428706],[115.587353,-28.237633],[113.891295,-28.046759],[112.877541,-29.041388],[113.5891,-30.27389],[115.365356,-30.470522],[116.347228,-29.428706]]]}},{"type":"Feature","properties":{"hex_id":"82a727fffffffff","population":1275914,"population_year":2025,"area_km2":68186.6,"population_density":18.7,"all_players":15,"players_per_million":11.76,"player_ids":["afl:11798","afl:11919","afl:11937","afl:12282","afl:12321","afl:12537","afl:12601","afl:12655","afl:12778","afl:12779","afl:12820","afl:13053","afl:13071","afl:13114","afl:13132"],"label":"Perth, Western Australia","country":"Australia"},"geometry":{"type":"Polygon","coordinates":[[[116.156806,-31.717896],[115.365356,-30.470522],[113.5891,-30.27389],[112.519247,-31.318696],[113.256895,-32.609931],[115.121218,-32.812717],[116.156806,-31.717896]]]}},{"type":"Feature","properties":{"hex_id":"82a737fffffffff","population":34197,"population_year":2025,"area_km2":65980.3,"population_density":0.5,"all_players":3,"players_per_million":87.73,"player_ids":["afl:12744","afl:12774","afl:12831"],"label":"Northam, Western Australia","country":"Australia"},"geometry":{"type":"Polygon","coordinates":[[[117.977474,-31.877886],[118.715623,-30.456222],[117.874576,-29.238389],[116.347228,-29.428706],[115.365356,-30.470522],[116.156806,-31.717896],[117.977474,-31.877886]]]}},{"type":"Feature","properties":{"hex_id":"82a7b7fffffffff","population":14,"population_year":2025,"area_km2":68186.6,"population_density":0.0,"all_players":1,"players_per_million":71428.57,"player_ids":["afl:12494"],"label":"Western Australia","country":"Australia"},"geometry":{"type":"Polygon","coordinates":[[[122.384483,-25.858085],[123.036533,-24.390698],[122.136418,-23.25606],[120.626672,-23.565479],[119.963825,-24.987465],[120.820191,-26.144776],[122.384483,-25.858085]]]}},{"type":"Feature","properties":{"hex_id":"82b837fffffffff","population":3809,"population_year":2025,"area_km2":89801.2,"population_density":0.0,"all_players":1,"players_per_million":262.54,"player_ids":["afl:12756"],"label":"Charra, South Australia","country":"Australia"},"geometry":{"type":"Polygon","coordinates":[[[134.339984,-32.08928],[134.898036,-30.427657],[133.597147,-29.213646],[131.769824,-29.630463],[131.172136,-31.251634],[132.439156,-32.496382],[134.339984,-32.08928]]]}},{"type":"Feature","properties":{"hex_id":"82b8affffffffff","population":3043,"population_year":2025,"area_km2":84307.8,"population_density":0.0,"all_players":2,"players_per_million":657.25,"player_ids":["afl:12372","afl:12692"],"label":"Australia","country":"Australia"},"geometry":{"type":"Polygon","coordinates":[[[132.907659,-26.387727],[133.449413,-24.772309],[132.266152,-23.624775],[130.571313,-24.059671],[129.997591,-25.633576],[131.148852,-26.813924],[132.907659,-26.387727]]]}},{"type":"Feature","properties":{"hex_id":"82b917fffffffff","population":1613160,"population_year":2025,"area_km2":95515.4,"population_density":16.9,"all_players":18,"players_per_million":11.16,"player_ids":["afl:11891","afl:11947","afl:12302","afl:12371","afl:12589","afl:12704","afl:12771","afl:12798","afl:12813","afl:12892","afl:12895","afl:12946","afl:13007","afl:13016","afl:13150","afl:13175","afl:13204","afl:13230"],"label":"Adelaide, South Australia","country":"Australia"},"geometry":{"type":"Polygon","coordinates":[[[138.617833,-35.797135],[139.129671,-34.088237],[137.662578,-32.868454],[135.707627,-33.326136],[135.142328,-34.999661],[136.582892,-36.251125],[138.617833,-35.797135]]]}},{"type":"Feature","properties":{"hex_id":"82b98ffffffffff","population":2269,"population_year":2025,"area_km2":91641.3,"population_density":0.0,"all_players":11,"players_per_million":4847.95,"player_ids":["afl:12165","afl:12217","afl:12367","afl:12405","afl:12516","afl:12794","afl:12810","afl:12876","afl:12956","afl:13027","afl:13156"],"label":"South Australia","country":"Australia"},"geometry":{"type":"Polygon","coordinates":[[[136.778191,-29.965733],[137.28537,-28.285502],[135.957444,-27.10531],[134.147284,-27.571603],[133.597147,-29.213646],[134.898036,-30.427657],[136.778191,-29.965733]]]}},{"type":"Feature","properties":{"hex_id":"82b9a7fffffffff","population":42632,"population_year":2025,"area_km2":97556.0,"population_density":0.4,"all_players":2,"players_per_million":46.91,"player_ids":["afl:11713","afl:12629"],"label":"Broken Hill, New South Wales","country":"Australia"},"geometry":{"type":"Polygon","coordinates":[[[141.12763,-33.574731],[141.581774,-31.843535],[140.096283,-30.65804],[138.172781,-31.169826],[137.662578,-32.868454],[139.129671,-34.088237],[141.12763,-33.574731]]]}},{"type":"Feature","properties":{"hex_id":"82b9affffffffff","population":13582,"population_year":2025,"area_km2":93933.6,"population_density":0.1,"all_players":2,"players_per_million":147.25,"player_ids":["afl:12653","afl:12697"],"label":"Wudinna, South Australia, Australia","country":"Australia"},"geometry":{"type":"Polygon","coordinates":[[[137.662578,-32.868454],[138.172781,-31.169826],[136.778191,-29.965733],[134.898036,-30.427657],[134.339984,-32.08928],[135.707627,-33.326136],[137.662578,-32.868454]]]}},{"type":"Feature","properties":{"hex_id":"82bb57fffffffff","population":2517968,"population_year":2025,"area_km2":91641.3,"population_density":27.5,"all_players":1,"players_per_million":0.4,"player_ids":["afl:13113"],"label":"Auckland, New Zealand","country":"New Zealand"},"geometry":{"type":"Polygon","coordinates":[[[176.688659,-37.499409],[176.415194,-35.801656],[174.557652,-35.124424],[172.898106,-36.141695],[173.101494,-37.871743],[175.036544,-38.552712],[176.688659,-37.499409]]]}},{"type":"Feature","properties":{"hex_id":"82bb77fffffffff","population":202389,"population_year":2025,"area_km2":92775.6,"population_density":2.2,"all_players":1,"players_per_million":4.94,"player_ids":["afl:12564"],"label":"Taranaki, New Zealand","country":"New Zealand"},"geometry":{"type":"Polygon","coordinates":[[[175.291773,-40.256026],[175.036544,-38.552712],[173.101494,-37.871743],[171.342352,-38.889432],[171.519319,-40.6223],[173.535818,-41.30856],[175.291773,-40.256026]]]}},{"type":"Feature","properties":{"hex_id":"82bcc7fffffffff","population":16401038,"population_year":2025,"area_km2":95515.4,"population_density":171.7,"all_players":2,"players_per_million":0.12,"player_ids":["afl:12122","afl:12966"],"label":"Johannesburg, South Africa","country":"South Africa"},"geometry":{"type":"Polygon","coordinates":[[[29.424697,-28.585894],[30.161044,-27.015106],[28.952033,-25.669244],[27.013681,-25.892672],[26.259296,-27.461202],[27.460057,-28.808795],[29.424697,-28.585894]]]}},{"type":"Feature","properties":{"hex_id":"82be0ffffffffff","population":6793674,"population_year":2025,"area_km2":104135.0,"population_density":65.2,"all_players":12,"players_per_million":1.77,"player_ids":["afl:12140","afl:12177","afl:12273","afl:12408","afl:12413","afl:12768","afl:12802","afl:12818","afl:12862","afl:12904","afl:12934","afl:12942"],"label":"Sydney, New South Wales","country":"Australia"},"geometry":{"type":"Polygon","coordinates":[[[152.177285,-35.125129],[152.420459,-33.332138],[150.704674,-32.253721],[148.729494,-32.935272],[148.409969,-34.714468],[150.140595,-35.826845],[152.177285,-35.125129]]]}},{"type":"Feature","properties":{"hex_id":"82be1ffffffffff","population":705420,"population_year":2025,"area_km2":104135.0,"population_density":6.8,"all_players":1,"players_per_million":1.42,"player_ids":["afl:12326"],"label":"Maitland","country":"Australia"},"geometry":{"type":"Polygon","coordinates":[[[154.381433,-32.591652],[154.572365,-30.798114],[152.877292,-29.753699],[150.969593,-30.469788],[150.704674,-32.253721],[152.420459,-33.332138],[154.381433,-32.591652]]]}},{"type":"Feature","properties":{"hex_id":"82be47fffffffff","population":671946,"population_year":2025,"area_km2":101417.2,"population_density":6.6,"all_players":19,"players_per_million":28.28,"player_ids":["afl:11751","afl:11966","afl:12150","afl:12167","afl:12258","afl:12268","afl:12422","afl:12502","afl:12573","afl:12579","afl:12700","afl:12782","afl:12927","afl:12943","afl:12952","afl:12953","afl:13111","afl:13159","afl:13165"],"label":"Victoria","country":"Australia"},"geometry":{"type":"Polygon","coordinates":[[[145.990588,-37.115507],[146.369194,-35.351443],[144.717645,-34.194236],[142.690336,-34.767932],[142.240937,-36.507338],[143.887418,-37.698406],[145.990588,-37.115507]]]}},{"type":"Feature","properties":{"hex_id":"82be4ffffffffff","population":167015,"population_year":2025,"area_km2":98815.5,"population_density":1.7,"all_players":4,"players_per_million":23.95,"player_ids":["afl:11847","afl:12727","afl:12932","afl:12994"],"label":"Mount Barker","country":"Australia"},"geometry":{"type":"Polygon","coordinates":[[[142.240937,-36.507338],[142.690336,-34.767932],[141.12763,-33.574731],[139.129671,-34.088237],[138.617833,-35.797135],[140.163932,-37.023514],[142.240937,-36.507338]]]}},{"type":"Feature","properties":{"hex_id":"82be57fffffffff","population":140987,"population_year":2025,"area_km2":102761.2,"population_density":1.4,"all_players":6,"players_per_million":42.56,"player_ids":["afl:11954","afl:12175","afl:12440","afl:12597","afl:12721","afl:12872"],"label":"New South Wales","country":"Australia"},"geometry":{"type":"Polygon","coordinates":[[[148.409969,-34.714468],[148.729494,-32.935272],[147.080812,-31.813113],[145.107938,-32.435886],[144.717645,-34.194236],[146.369194,-35.351443],[148.409969,-34.714468]]]}},{"type":"Feature","properties":{"hex_id":"82be5ffffffffff","population":71581,"population_year":2025,"area_km2":100537.4,"population_density":0.7,"all_players":1,"players_per_million":13.97,"player_ids":["afl:12796"],"label":"Mildura, Victoria","country":"Australia"},"geometry":{"type":"Polygon","coordinates":[[[144.717645,-34.194236],[145.107938,-32.435886],[143.536871,-31.277795],[141.581774,-31.843535],[141.12763,-33.574731],[142.690336,-34.767932],[144.717645,-34.194236]]]}},{"type":"Feature","properties":{"hex_id":"82be67fffffffff","population":5799918,"population_year":2025,"area_km2":101417.2,"population_density":57.2,"all_players":43,"players_per_million":7.41,"player_ids":["afl:11583","afl:11677","afl:11700","afl:11898","afl:12025","afl:12026","afl:12066","afl:12080","afl:12083","afl:12147","afl:12170","afl:12267","afl:12269","afl:12300","afl:12331","afl:12340","afl:12357","afl:12393","afl:12406","afl:12412","afl:12434","afl:12454","afl:12458","afl:12498","afl:12504","afl:12526","afl:12566","afl:12591","afl:12594","afl:12636","afl:12684","afl:12701","afl:12728","afl:12740","afl:12788","afl:12824","afl:12844","afl:12849","afl:12873","afl:12967","afl:13054","afl:13088","afl:4182"],"label":"Melbourne","country":"Australia"},"geometry":{"type":"Polygon","coordinates":[[[147.365513,-40.022078],[147.728894,-38.261419],[145.990588,-37.115507],[143.887418,-37.698406],[143.445429,-39.437203],[145.182884,-40.615783],[147.365513,-40.022078]]]}},{"type":"Feature","properties":{"hex_id":"82be6ffffffffff","population":247222,"population_year":2025,"area_km2":99241.3,"population_density":2.5,"all_players":10,"players_per_million":40.45,"player_ids":["afl:12017","afl:12055","afl:12241","afl:12437","afl:12584","afl:12806","afl:12921","afl:13207","afl:13234","afl:13251"],"label":"Mount Gambier, South Australia","country":"Australia"},"geometry":{"type":"Polygon","coordinates":[[[143.445429,-39.437203],[143.887418,-37.698406],[142.240937,-36.507338],[140.163932,-37.023514],[139.652226,-38.734209],[141.284579,-39.957429],[143.445429,-39.437203]]]}},{"type":"Feature","properties":{"hex_id":"82be77fffffffff","population":912055,"population_year":2025,"area_km2":103215.8,"population_density":8.8,"all_players":8,"players_per_million":8.77,"player_ids":["afl:12015","afl:12261","afl:12420","afl:12462","afl:12553","afl:12622","afl:12671","afl:12859"],"label":"Wagga Wagga","country":"Australia"},"geometry":{"type":"Polygon","coordinates":[[[149.839959,-37.608844],[150.140595,-35.826845],[148.409969,-34.714468],[146.369194,-35.351443],[145.990588,-37.115507],[147.728894,-38.261419],[149.839959,-37.608844]]]}},{"type":"Feature","properties":{"hex_id":"82be8ffffffffff","population":3414014,"population_year":2025,"area_km2":101417.2,"population_density":33.7,"all_players":4,"players_per_million":1.17,"player_ids":["afl:12819","afl:12833","afl:12947","afl:13215"],"label":"Sunshine Coast, Queensland","country":"Australia"},"geometry":{"type":"Polygon","coordinates":[[[154.931553,-27.234921],[155.100683,-25.47207],[153.49711,-24.457404],[151.703594,-25.170738],[151.46847,-26.924893],[153.092109,-27.975349],[154.931553,-27.234921]]]}},{"type":"Feature","properties":{"hex_id":"82beaffffffffff","population":860278,"population_year":2025,"area_km2":103215.8,"population_density":8.3,"all_players":7,"players_per_million":8.14,"player_ids":["afl:12076","afl:13040","afl:13041","afl:13120","afl:13121","afl:13197","afl:13232"],"label":"Gold Coast, Queensland","country":"Australia"},"geometry":{"type":"Polygon","coordinates":[[[156.457483,-30.029487],[156.601213,-28.245627],[154.931553,-27.234921],[153.092109,-27.975349],[152.877292,-29.753699],[154.572365,-30.798114],[156.457483,-30.029487]]]}},{"type":"Feature","properties":{"hex_id":"82bef7fffffffff","population":374361,"population_year":2025,"area_km2":102761.2,"population_density":3.6,"all_players":1,"players_per_million":2.67,"player_ids":["afl:12373"],"label":"Beaudesert, Queensland, Australia","country":"Australia"},"geometry":{"type":"Polygon","coordinates":[[[152.877292,-29.753699],[153.092109,-27.975349],[151.46847,-26.924893],[149.613583,-27.617724],[149.330579,-29.383365],[150.969593,-30.469788],[152.877292,-29.753699]]]}},{"type":"Feature","properties":{"hex_id":"82bf4ffffffffff","population":580190,"population_year":2025,"area_km2":100537.4,"population_density":5.8,"all_players":5,"players_per_million":8.62,"player_ids":["afl:11866","afl:11967","afl:12639","afl:12691","afl:13174"],"label":"Tasmania","country":"Australia"},"geometry":{"type":"Polygon","coordinates":[[[148.853396,-42.894212],[149.197308,-41.145951],[147.365513,-40.022078],[145.182884,-40.615783],[144.751578,-42.345181],[146.587879,-43.500687],[148.853396,-42.894212]]]}},{"type":"Feature","properties":{"hex_id":"82c987fffffffff","population":63457,"population_year":2025,"area_km2":74863.4,"population_density":0.8,"all_players":2,"players_per_million":31.52,"player_ids":["afl:12359","afl:12660"],"label":"Albany, Western Australia","country":"Australia"},"geometry":{"type":"Polygon","coordinates":[[[118.779099,-35.585537],[117.86092,-34.27708],[115.946884,-34.116475],[114.851466,-35.263901],[115.714309,-36.623361],[117.731769,-36.784372],[118.779099,-35.585537]]]}},{"type":"Feature","properties":{"hex_id":"82c997fffffffff","population":1133098,"population_year":2025,"area_km2":70058.2,"population_density":16.2,"all_players":7,"players_per_million":6.18,"player_ids":["afl:11834","afl:12028","afl:12317","afl:12520","afl:12535","afl:12688","afl:12797"],"label":"Mandurah, Western Australia","country":"Australia"},"geometry":{"type":"Polygon","coordinates":[[[118.852608,-33.133337],[117.977474,-31.877886],[116.156806,-31.717896],[115.121218,-32.812717],[115.946884,-34.116475],[117.86092,-34.27708],[118.852608,-33.133337]]]}},{"type":"Feature","properties":{"hex_id":"82c99ffffffffff","population":65431,"population_year":2025,"area_km2":73030.9,"population_density":0.9,"all_players":1,"players_per_million":15.28,"player_ids":["afl:12983"],"label":"Busselton, Western Australia","country":"Australia"},"geometry":{"type":"Polygon","coordinates":[[[115.946884,-34.116475],[115.121218,-32.812717],[113.256895,-32.609931],[112.124592,-33.70452],[112.890002,-35.054477],[114.851466,-35.263901],[115.946884,-34.116475]]]}},{"type":"Feature","properties":{"hex_id":"82d897fffffffff","population":5220,"population_year":2025,"area_km2":98815.5,"population_density":0.1,"all_players":1,"players_per_million":191.57,"player_ids":["afl:12732"],"label":"Smithton, Tasmania","country":"Australia"},"geometry":{"type":"Polygon","coordinates":[[[144.751578,-42.345181],[145.182884,-40.615783],[143.445429,-39.437203],[141.284579,-39.957429],[140.775253,-41.661388],[142.501931,-42.87129],[144.751578,-42.345181]]]}}]}