{"type":"FeatureCollection","metadata":{"population_source":"WorldPop Global 2 R2025A","population_source_url":"https://hub.worldpop.org/project/categories?id=3","population_license":"CC BY 4.0","population_year":2025,"raster_resolution":"1km","h3_resolution":1,"population_method":"official_country_rasters","occupied_cells":33,"mapped_players":227},"features":[{"type":"Feature","properties":{"hex_id":"81183ffffffffff","population":6292474,"population_year":2025,"area_km2":595741.2,"population_density":10.6,"all_players":2,"players_per_million":0.32,"player_ids":["afl:12181","afl:12391"],"label":"County Tyrone","country":"United Kingdom"},"geometry":{"type":"Polygon","coordinates":[[[-13.791647,56.736324],[-18.841172,53.740207],[-16.382341,49.609269],[-9.724736,48.430094],[-4.88976,51.223728],[-6.436337,55.37739],[-13.791647,56.736324]]]}},{"type":"Feature","properties":{"hex_id":"81187ffffffffff","population":21776966,"population_year":2025,"area_km2":595741.2,"population_density":36.6,"all_players":1,"players_per_million":0.05,"player_ids":["afl:12580"],"label":"Torquay","country":"United Kingdom"},"geometry":{"type":"Polygon","coordinates":[[[-4.88976,51.223728],[-9.724736,48.430094],[-8.101589,44.050631],[-2.417796,42.54048],[2.026569,45.184249],[1.18851,49.470279],[-4.88976,51.223728]]]}},{"type":"Feature","properties":{"hex_id":"81197ffffffffff","population":88036357,"population_year":2025,"area_km2":523941.7,"population_density":168.0,"all_players":2,"players_per_million":0.02,"player_ids":["afl:12750","afl:12912"],"label":"High Wycombe, England","country":"United Kingdom"},"geometry":{"type":"Polygon","coordinates":[[[-0.931587,57.689497],[-6.436337,55.37739],[-4.88976,51.223728],[1.18851,49.470279],[3.630009,50.610463],[6.259687,51.96477],[5.523647,55.706768],[-0.931587,57.689497]]]}},{"type":"Feature","properties":{"hex_id":"811f7ffffffffff","population":25290714,"population_year":2025,"area_km2":523941.7,"population_density":48.3,"all_players":1,"players_per_million":0.04,"player_ids":["afl:12459"],"label":"Vitebsk","country":"Belarus"},"geometry":{"type":"Polygon","coordinates":[[[18.275236,56.632953],[18.289963,52.819052],[24.329,50.776322],[30.654128,52.413789],[31.017704,54.340219],[31.095814,56.470005],[25.082722,58.401545],[18.275236,56.632953]]]}},{"type":"Feature","properties":{"hex_id":"8126fffffffffff","population":17160726,"population_year":2025,"area_km2":666617.1,"population_density":25.7,"all_players":1,"players_per_million":0.06,"player_ids":["afl:12428"],"label":"Highland Village","country":"United States"},"geometry":{"type":"Polygon","coordinates":[[[-96.66289,31.619531],[-93.265212,35.090108],[-95.246862,39.326803],[-101.04033,40.088597],[-104.454816,36.494369],[-102.093235,32.268747],[-96.66289,31.619531]]]}},{"type":"Feature","properties":{"hex_id":"812bbffffffffff","population":23927662,"population_year":2025,"area_km2":666617.1,"population_density":35.9,"all_players":1,"players_per_million":0.04,"player_ids":["afl:12491"],"label":"Mississauga","country":"Canada"},"geometry":{"type":"Polygon","coordinates":[[[-76.057729,50.990211],[-81.919627,48.295316],[-80.982253,43.86012],[-75.333452,42.029564],[-69.955068,44.277849],[-69.719479,48.757432],[-76.057729,50.990211]]]}},{"type":"Feature","properties":{"hex_id":"813e7ffffffffff","population":111131590,"population_year":2025,"area_km2":707475.0,"population_density":157.1,"all_players":2,"players_per_million":0.02,"player_ids":["afl:13019","afl:13086"],"label":"Cairo","country":"Egypt"},"geometry":{"type":"Polygon","coordinates":[[[27.91173,30.313709],[27.504443,25.566739],[31.724402,22.868397],[36.387576,24.725676],[37.164282,29.339076],[32.928331,32.240102],[27.91173,30.313709]]]}},{"type":"Feature","properties":{"hex_id":"816a3ffffffffff","population":7175940,"population_year":2025,"area_km2":614937.0,"population_density":11.7,"all_players":1,"players_per_million":0.14,"player_ids":["afl:12801"],"label":"South Sudan","country":"South Sudan"},"geometry":{"type":"Polygon","coordinates":[[[22.348181,9.745677],[22.25383,6.931187],[22.136132,5.52702],[25.886011,3.202074],[29.961298,5.181923],[30.105009,7.994339],[30.2491,9.396155],[26.468997,11.757965],[22.348181,9.745677]]]}},{"type":"Feature","properties":{"hex_id":"816b7ffffffffff","population":30957514,"population_year":2025,"area_km2":647632.6,"population_density":47.8,"all_players":2,"players_per_million":0.06,"player_ids":["afl:12485","afl:12900"],"label":"Sudan","country":"Sudan"},"geometry":{"type":"Polygon","coordinates":[[[26.786746,16.229863],[26.468997,11.757965],[30.2491,9.396155],[34.393733,11.276322],[35.008409,15.638246],[31.193691,18.242013],[26.786746,16.229863]]]}},{"type":"Feature","properties":{"hex_id":"81753ffffffffff","population":54458211,"population_year":2025,"area_km2":447684.2,"population_density":121.6,"all_players":1,"players_per_million":0.02,"player_ids":["afl:12914"],"label":"Ghana","country":"Ghana"},"geometry":{"type":"Polygon","coordinates":[[[-6.957445,8.664197],[-6.064496,5.36274],[-4.862616,5.210611],[-2.579035,4.020024],[0.309804,5.864518],[-0.319183,9.731837],[-4.013998,11.545296],[-6.957445,8.664197]]]}},{"type":"Feature","properties":{"hex_id":"817a7ffffffffff","population":65758369,"population_year":2025,"area_km2":647632.6,"population_density":101.5,"all_players":1,"players_per_million":0.02,"player_ids":["afl:12433"],"label":"Kenya","country":"Kenya"},"geometry":{"type":"Polygon","coordinates":[[[41.586655,-2.043983],[41.590006,2.35869],[37.776764,4.740955],[33.814945,2.80266],[33.663619,-1.677295],[37.624159,-4.150913],[41.586655,-2.043983]]]}},{"type":"Feature","properties":{"hex_id":"817afffffffffff","population":61077402,"population_year":2025,"area_km2":565620.1,"population_density":108.0,"all_players":1,"players_per_million":0.02,"player_ids":["afl:12752"],"label":"Ethiopia","country":"Ethiopia"},"geometry":{"type":"Polygon","coordinates":[[[45.302588,4.23272],[45.240404,8.29213],[43.424424,9.440448],[41.867809,10.627354],[37.848935,8.893463],[37.776764,4.740955],[41.590006,2.35869],[45.302588,4.23272]]]}},{"type":"Feature","properties":{"hex_id":"81947ffffffffff","population":178466,"population_year":2025,"area_km2":647632.6,"population_density":0.3,"all_players":9,"players_per_million":50.43,"player_ids":["afl:11940","afl:12403","afl:12521","afl:12606","afl:12610","afl:12838","afl:12903","afl:12933","afl:12990"],"label":"Darwin, Northern Territory","country":"Australia"},"geometry":{"type":"Polygon","coordinates":[[[127.931665,-8.866885],[128.72923,-13.199443],[133.041616,-14.828509],[136.629853,-12.143151],[135.859587,-7.725285],[131.465804,-6.071099],[127.931665,-8.866885]]]}},{"type":"Feature","properties":{"hex_id":"8194bffffffffff","population":25540,"population_year":2025,"area_km2":510516.1,"population_density":0.1,"all_players":3,"players_per_million":117.46,"player_ids":["afl:12236","afl:12414","afl:12588"],"label":"Derby","country":"Australia"},"geometry":{"type":"Polygon","coordinates":[[[118.020847,-16.249349],[118.799983,-20.095984],[122.769888,-21.814639],[126.089695,-19.680475],[125.297865,-15.691264],[121.192543,-13.975216],[118.020847,-16.249349]]]}},{"type":"Feature","properties":{"hex_id":"8194fffffffffff","population":18863,"population_year":2025,"area_km2":565620.1,"population_density":0.0,"all_players":1,"players_per_million":53.01,"player_ids":["afl:12848"],"label":"Halls Creek, Western Australia","country":"Australia"},"geometry":{"type":"Polygon","coordinates":[[[125.297865,-15.691264],[126.089695,-19.680475],[128.186152,-20.493739],[130.032911,-21.378733],[133.817525,-18.914757],[133.041616,-14.828509],[128.72923,-13.199443],[125.297865,-15.691264]]]}},{"type":"Feature","properties":{"hex_id":"819c3ffffffffff","population":298853,"population_year":2025,"area_km2":614937.0,"population_density":0.5,"all_players":1,"players_per_million":3.35,"player_ids":["afl:12499"],"label":"Cairns","country":"Australia"},"geometry":{"type":"Polygon","coordinates":[[[149.681051,-16.397259],[149.087925,-13.640092],[148.867731,-12.247496],[144.610282,-10.838676],[140.99787,-13.663289],[141.485259,-16.439723],[141.660737,-17.838744],[146.041409,-19.302203],[149.681051,-16.397259]]]}},{"type":"Feature","properties":{"hex_id":"819cbffffffffff","population":5091582,"population_year":2025,"area_km2":647632.6,"population_density":7.9,"all_players":2,"players_per_million":0.39,"player_ids":["afl:12729","afl:13138"],"label":"Port Moresby","country":"Papua New Guinea"},"geometry":{"type":"Polygon","coordinates":[[[143.897934,-6.411813],[144.610282,-10.838676],[148.867731,-12.247496],[152.369119,-9.360958],[151.738196,-5.002988],[147.519872,-3.454918],[143.897934,-6.411813]]]}},{"type":"Feature","properties":{"hex_id":"819d7ffffffffff","population":38786,"population_year":2025,"area_km2":647632.6,"population_density":0.1,"all_players":2,"players_per_million":51.56,"player_ids":["afl:11991","afl:12723"],"label":"Queensland","country":"Australia"},"geometry":{"type":"Polygon","coordinates":[[[146.846074,-23.721804],[146.041409,-19.302203],[141.660737,-17.838744],[137.872609,-20.552278],[138.247909,-24.941337],[142.844847,-26.664336],[146.846074,-23.721804]]]}},{"type":"Feature","properties":{"hex_id":"81a73ffffffffff","population":2011346,"population_year":2025,"area_km2":447684.2,"population_density":4.5,"all_players":23,"players_per_million":11.44,"player_ids":["afl:11798","afl:11919","afl:11937","afl:12028","afl:12282","afl:12321","afl:12520","afl:12537","afl:12601","afl:12655","afl:12744","afl:12774","afl:12778","afl:12779","afl:12797","afl:12820","afl:12831","afl:12976","afl:12999","afl:13053","afl:13071","afl:13114","afl:13132"],"label":"Perth, Western Australia","country":"Australia"},"geometry":{"type":"Polygon","coordinates":[[[118.588203,-27.826272],[115.570257,-25.722246],[114.395275,-26.30569],[111.552066,-26.654916],[110.054805,-29.808573],[113.256895,-32.609931],[117.977474,-31.877886],[118.588203,-27.826272]]]}},{"type":"Feature","properties":{"hex_id":"81a7bffffffffff","population":34363,"population_year":2025,"area_km2":447684.2,"population_density":0.1,"all_players":1,"players_per_million":29.1,"player_ids":["afl:12494"],"label":"Western Australia","country":"Australia"},"geometry":{"type":"Polygon","coordinates":[[[122.384483,-25.858085],[122.769888,-21.814639],[118.799983,-20.095984],[115.759316,-22.002086],[116.013581,-23.185424],[115.570257,-25.722246],[118.588203,-27.826272],[122.384483,-25.858085]]]}},{"type":"Feature","properties":{"hex_id":"81b83ffffffffff","population":5427,"population_year":2025,"area_km2":595741.2,"population_density":0.0,"all_players":1,"players_per_million":184.26,"player_ids":["afl:12756"],"label":"Charra, South Australia","country":"Australia"},"geometry":{"type":"Polygon","coordinates":[[[134.339984,-32.08928],[134.147284,-27.571603],[129.997591,-25.633576],[125.979916,-27.923491],[125.724358,-32.241268],[129.914908,-34.478008],[134.339984,-32.08928]]]}},{"type":"Feature","properties":{"hex_id":"81b8bffffffffff","population":44135,"population_year":2025,"area_km2":595741.2,"population_density":0.1,"all_players":2,"players_per_million":45.32,"player_ids":["afl:12372","afl:12692"],"label":"Australia","country":"Australia"},"geometry":{"type":"Polygon","coordinates":[[[138.247909,-24.941337],[137.872609,-20.552278],[133.817525,-18.914757],[130.032911,-21.378733],[129.997591,-25.633576],[134.147284,-27.571603],[138.247909,-24.941337]]]}},{"type":"Feature","properties":{"hex_id":"81b93ffffffffff","population":1648815,"population_year":2025,"area_km2":647632.6,"population_density":2.5,"all_players":21,"players_per_million":12.74,"player_ids":["afl:11891","afl:11947","afl:12302","afl:12371","afl:12589","afl:12653","afl:12704","afl:12771","afl:12798","afl:12813","afl:12892","afl:12895","afl:12932","afl:12946","afl:12994","afl:13007","afl:13016","afl:13150","afl:13175","afl:13204","afl:13230"],"label":"Adelaide, South Australia","country":"Australia"},"geometry":{"type":"Polygon","coordinates":[[[139.652226,-38.734209],[139.129671,-34.088237],[134.339984,-32.08928],[129.914908,-34.478008],[129.866095,-38.967618],[134.798626,-41.238933],[139.652226,-38.734209]]]}},{"type":"Feature","properties":{"hex_id":"81b9bffffffffff","population":103823,"population_year":2025,"area_km2":666617.1,"population_density":0.2,"all_players":14,"players_per_million":134.84,"player_ids":["afl:11713","afl:12165","afl:12217","afl:12367","afl:12405","afl:12516","afl:12629","afl:12697","afl:12794","afl:12810","afl:12876","afl:12956","afl:13027","afl:13156"],"label":"South Australia","country":"Australia"},"geometry":{"type":"Polygon","coordinates":[[[143.536871,-31.277795],[142.844847,-26.664336],[138.247909,-24.941337],[134.147284,-27.571603],[134.339984,-32.08928],[139.129671,-34.088237],[143.536871,-31.277795]]]}},{"type":"Feature","properties":{"hex_id":"81bb7ffffffffff","population":2835946,"population_year":2025,"area_km2":666617.1,"population_density":4.3,"all_players":2,"players_per_million":0.71,"player_ids":["afl:12564","afl:13113"],"label":"Auckland, New Zealand","country":"New Zealand"},"geometry":{"type":"Polygon","coordinates":[[[176.688659,-37.499409],[174.332728,-33.405709],[169.018604,-32.862675],[165.511402,-36.515279],[167.615873,-40.869133],[173.535818,-41.30856],[176.688659,-37.499409]]]}},{"type":"Feature","properties":{"hex_id":"81bcfffffffffff","population":54771011,"population_year":2025,"area_km2":666617.1,"population_density":82.2,"all_players":2,"players_per_million":0.04,"player_ids":["afl:12122","afl:12966"],"label":"Johannesburg, South Africa","country":"South Africa"},"geometry":{"type":"Polygon","coordinates":[[[32.620327,-29.624454],[32.812319,-25.145186],[28.491882,-22.684204],[23.910011,-24.696711],[23.533518,-29.166646],[27.918941,-31.644147],[32.620327,-29.624454]]]}},{"type":"Feature","properties":{"hex_id":"81be3ffffffffff","population":7422285,"population_year":2025,"area_km2":729486.9,"population_density":10.2,"all_players":13,"players_per_million":1.75,"player_ids":["afl:12140","afl:12177","afl:12273","afl:12326","afl:12408","afl:12413","afl:12768","afl:12802","afl:12818","afl:12862","afl:12904","afl:12934","afl:12942"],"label":"Sydney, New South Wales","country":"Australia"},"geometry":{"type":"Polygon","coordinates":[[[159.810679,-35.59178],[158.196039,-31.026208],[152.877292,-29.753699],[148.729494,-32.935272],[149.839959,-37.608844],[155.640338,-39.007712],[159.810679,-35.59178]]]}},{"type":"Feature","properties":{"hex_id":"81be7ffffffffff","population":7973734,"population_year":2025,"area_km2":707475.0,"population_density":11.3,"all_players":86,"players_per_million":10.79,"player_ids":["afl:11583","afl:11677","afl:11700","afl:11751","afl:11847","afl:11898","afl:11954","afl:11966","afl:12015","afl:12017","afl:12025","afl:12026","afl:12055","afl:12066","afl:12080","afl:12083","afl:12147","afl:12150","afl:12167","afl:12170","afl:12175","afl:12241","afl:12258","afl:12261","afl:12267","afl:12268","afl:12269","afl:12300","afl:12331","afl:12340","afl:12357","afl:12393","afl:12406","afl:12412","afl:12420","afl:12422","afl:12434","afl:12437","afl:12454","afl:12458","afl:12462","afl:12498","afl:12502","afl:12504","afl:12526","afl:12553","afl:12566","afl:12573","afl:12579","afl:12584","afl:12591","afl:12594","afl:12597","afl:12622","afl:12636","afl:12671","afl:12684","afl:12700","afl:12701","afl:12727","afl:12728","afl:12740","afl:12782","afl:12788","afl:12796","afl:12806","afl:12824","afl:12844","afl:12849","afl:12859","afl:12873","afl:12921","afl:12927","afl:12943","afl:12952","afl:12953","afl:12967","afl:13054","afl:13088","afl:13111","afl:13159","afl:13165","afl:13207","afl:13234","afl:13251","afl:4182"],"label":"Melbourne","country":"Australia"},"geometry":{"type":"Polygon","coordinates":[[[149.839959,-37.608844],[148.729494,-32.935272],[143.536871,-31.277795],[139.129671,-34.088237],[139.652226,-38.734209],[145.182884,-40.615783],[149.839959,-37.608844]]]}},{"type":"Feature","properties":{"hex_id":"81bebffffffffff","population":4369258,"population_year":2025,"area_km2":707475.0,"population_density":6.2,"all_players":12,"players_per_million":2.75,"player_ids":["afl:12076","afl:12373","afl:12819","afl:12833","afl:12947","afl:13040","afl:13041","afl:13120","afl:13121","afl:13197","afl:13215","afl:13232"],"label":"Gold Coast, Queensland","country":"Australia"},"geometry":{"type":"Polygon","coordinates":[[[161.882144,-27.596488],[160.312535,-23.16469],[155.419957,-21.999746],[151.703594,-25.170738],[152.877292,-29.753699],[158.196039,-31.026208],[161.882144,-27.596488]]]}},{"type":"Feature","properties":{"hex_id":"81befffffffffff","population":652227,"population_year":2025,"area_km2":707475.0,"population_density":0.9,"all_players":3,"players_per_million":4.6,"player_ids":["afl:12440","afl:12721","afl:12872"],"label":"New South Wales","country":"Australia"},"geometry":{"type":"Polygon","coordinates":[[[152.877292,-29.753699],[151.703594,-25.170738],[146.846074,-23.721804],[142.844847,-26.664336],[143.536871,-31.277795],[148.729494,-32.935272],[152.877292,-29.753699]]]}},{"type":"Feature","properties":{"hex_id":"81bf7ffffffffff","population":577472,"population_year":2025,"area_km2":707475.0,"population_density":0.8,"all_players":5,"players_per_million":8.66,"player_ids":["afl:11866","afl:11967","afl:12639","afl:12691","afl:13174"],"label":"Tasmania","country":"Australia"},"geometry":{"type":"Polygon","coordinates":[[[157.277742,-43.543726],[155.640338,-39.007712],[149.839959,-37.608844],[145.182884,-40.615783],[146.171275,-45.212216],[152.507077,-46.760277],[157.277742,-43.543726]]]}},{"type":"Feature","properties":{"hex_id":"81c9bffffffffff","population":622944,"population_year":2025,"area_km2":523941.7,"population_density":1.2,"all_players":7,"players_per_million":11.24,"player_ids":["afl:11834","afl:12317","afl:12359","afl:12535","afl:12660","afl:12688","afl:12983"],"label":"Albany, Western Australia","country":"Australia"},"geometry":{"type":"Polygon","coordinates":[[[121.490696,-34.22805],[117.977474,-31.877886],[113.256895,-32.609931],[111.687787,-36.197575],[115.455216,-39.235683],[120.763038,-38.249815],[121.236776,-36.348193],[121.490696,-34.22805]]]}},{"type":"Feature","properties":{"hex_id":"81d8bffffffffff","population":8206,"population_year":2025,"area_km2":666617.1,"population_density":0.0,"all_players":1,"players_per_million":121.86,"player_ids":["afl:12732"],"label":"Smithton, Tasmania","country":"Australia"},"geometry":{"type":"Polygon","coordinates":[[[146.171275,-45.212216],[145.182884,-40.615783],[139.652226,-38.734209],[134.798626,-41.238933],[135.074456,-45.755277],[140.917609,-47.867154],[146.171275,-45.212216]]]}}]}