{"type":"FeatureCollection","metadata":{"population_source":"WorldPop Global 2 R2025A","population_source_url":"https://hub.worldpop.org/project/categories?id=3","population_license":"CC BY 4.0","population_year":2025,"raster_resolution":"1km","h3_resolution":2,"population_method":"official_country_rasters","occupied_cells":139,"mapped_players":577},"features":[{"type":"Feature","properties":{"hex_id":"820887fffffffff","population":3462230,"population_year":2025,"area_km2":63447.1,"population_density":54.6,"all_players":1,"players_per_million":0.29,"player_ids":["nba:1641796"],"label":"Nacka","country":"Sweden"},"geometry":{"type":"Polygon","coordinates":[[[16.213285,61.104087],[15.277419,59.851205],[17.2862,58.926343],[20.235913,59.22587],[21.289182,60.46251],[19.280999,61.41675],[16.213285,61.104087]]]}},{"type":"Feature","properties":{"hex_id":"82089ffffffffff","population":2635076,"population_year":2025,"area_km2":65980.3,"population_density":39.9,"all_players":1,"players_per_million":0.38,"player_ids":["nba:1628374"],"label":"Vantaa","country":"Finland"},"geometry":{"type":"Polygon","coordinates":[[[20.235913,59.22587],[22.144282,58.209221],[25.082722,58.401545],[25.77412,59.916287],[23.838471,60.96689],[21.289182,60.46251],[20.235913,59.22587]]]}},{"type":"Feature","properties":{"hex_id":"8211affffffffff","population":18096890,"population_year":2025,"area_km2":79647.5,"population_density":227.2,"all_players":1,"players_per_million":0.06,"player_ids":["nba:1642856"],"label":"Moscow","country":"Russia"},"geometry":{"type":"Polygon","coordinates":[[[33.713464,56.746598],[35.299111,55.46002],[37.971643,55.638414],[39.236041,57.141268],[37.661108,58.480663],[34.802815,58.263078],[33.713464,56.746598]]]}},{"type":"Feature","properties":{"hex_id":"82184ffffffffff","population":5386228,"population_year":2025,"area_km2":85627.7,"population_density":62.9,"all_players":1,"players_per_million":0.19,"player_ids":["nba:1642259"],"label":"Bordeaux","country":"France"},"geometry":{"type":"Polygon","coordinates":[[[-1.752798,45.828917],[-3.870647,45.286766],[-4.162635,43.625899],[-2.417796,42.54048],[-0.397973,43.08589],[-0.028005,44.712978],[-1.752798,45.828917]]]}},{"type":"Feature","properties":{"hex_id":"821867fffffffff","population":5245763,"population_year":2025,"area_km2":80847.5,"population_density":64.9,"all_players":1,"players_per_million":0.19,"player_ids":["nba:201587"],"label":"Lisieux","country":"France"},"geometry":{"type":"Polygon","coordinates":[[[-0.631095,50.601911],[-2.906528,50.142292],[-3.243656,48.547301],[-1.396608,47.443512],[0.764026,47.90745],[1.18851,49.470279],[-0.631095,50.601911]]]}},{"type":"Feature","properties":{"hex_id":"82186ffffffffff","population":5547991,"population_year":2025,"area_km2":81458.9,"population_density":68.1,"all_players":1,"players_per_million":0.18,"player_ids":["nba:1630846"],"label":"Niort","country":"France"},"geometry":{"type":"Polygon","coordinates":[[[0.764026,47.90745],[-1.396608,47.443512],[-1.752798,45.828917],[-0.028005,44.712978],[2.026569,45.184249],[2.458902,46.763731],[0.764026,47.90745]]]}},{"type":"Feature","properties":{"hex_id":"821947fffffffff","population":12519310,"population_year":2025,"area_km2":74863.4,"population_density":167.2,"all_players":1,"players_per_million":0.08,"player_ids":["nba:1642873"],"label":"Nottingham","country":"United Kingdom"},"geometry":{"type":"Polygon","coordinates":[[[0.670759,55.133806],[-1.785543,54.762388],[-2.178886,53.251551],[-0.219137,52.141681],[2.101314,52.517134],[2.592789,53.997752],[0.670759,55.133806]]]}},{"type":"Feature","properties":{"hex_id":"82194ffffffffff","population":23325550,"population_year":2025,"area_km2":76219.8,"population_density":306.0,"all_players":2,"players_per_million":0.09,"player_ids":["nba:1628384","nba:203497"],"label":"Saint-Quentin","country":"France"},"geometry":{"type":"Polygon","coordinates":[[[2.101314,52.517134],[-0.219137,52.141681],[-0.631095,50.601911],[1.18851,49.470279],[3.384772,49.85377],[3.881134,51.360376],[2.101314,52.517134]]]}},{"type":"Feature","properties":{"hex_id":"82195ffffffffff","population":22721748,"population_year":2025,"area_km2":79647.5,"population_density":285.3,"all_players":1,"players_per_million":0.04,"player_ids":["nba:1631107"],"label":"Leicester","country":"United Kingdom"},"geometry":{"type":"Polygon","coordinates":[[[-2.178886,53.251551],[-4.578382,52.792439],[-4.88976,51.223728],[-2.906528,50.142292],[-0.631095,50.601911],[-0.219137,52.141681],[-2.178886,53.251551]]]}},{"type":"Feature","properties":{"hex_id":"82196ffffffffff","population":13271725,"population_year":2025,"area_km2":72289.7,"population_density":183.6,"all_players":3,"players_per_million":0.23,"player_ids":["nba:1642366","nba:1642400","nba:1642502"],"label":"Almere","country":"Netherlands"},"geometry":{"type":"Polygon","coordinates":[[[4.948742,54.288287],[2.592789,53.997752],[2.101314,52.517134],[3.881134,51.360376],[6.259687,51.96477],[6.848229,53.43156],[4.948742,54.288287]]]}},{"type":"Feature","properties":{"hex_id":"821977fffffffff","population":4073107,"population_year":2025,"area_km2":73030.9,"population_density":55.8,"all_players":1,"players_per_million":0.25,"player_ids":["nba:1641787"],"label":"Newcastle upon Tyne","country":"United Kingdom"},"geometry":{"type":"Polygon","coordinates":[[[-0.931587,57.689497],[-3.536381,57.317288],[-3.903181,55.840606],[-1.785543,54.762388],[0.670759,55.133806],[1.152198,56.583354],[-0.931587,57.689497]]]}},{"type":"Feature","properties":{"hex_id":"821e07fffffffff","population":15880792,"population_year":2025,"area_km2":85294.5,"population_density":186.2,"all_players":1,"players_per_million":0.06,"player_ids":["nba:1627751"],"label":"Vienna","country":"Austria"},"geometry":{"type":"Polygon","coordinates":[[[16.606047,49.899182],[15.817384,48.388123],[17.489488,47.234679],[19.952961,47.57214],[20.822886,49.074367],[19.15135,50.248654],[16.606047,49.899182]]]}},{"type":"Feature","properties":{"hex_id":"821e17fffffffff","population":8258126,"population_year":2025,"area_km2":87326.6,"population_density":94.6,"all_players":1,"players_per_million":0.12,"player_ids":["nba:1629029"],"label":"Ljubljana","country":"Slovenia"},"geometry":{"type":"Polygon","coordinates":[[[13.374348,47.965938],[12.677318,46.406957],[14.337206,45.273432],[16.708897,45.679719],[17.489488,47.234679],[15.817384,48.388123],[13.374348,47.965938]]]}},{"type":"Feature","properties":{"hex_id":"821e1ffffffffff","population":8697926,"population_year":2025,"area_km2":89801.2,"population_density":96.9,"all_players":4,"players_per_million":0.46,"player_ids":["nba:1642260","nba:203992","nba:203994","nba:203999"],"label":"Sombor","country":"Serbia"},"geometry":{"type":"Polygon","coordinates":[[[17.489488,47.234679],[16.708897,45.679719],[18.31474,44.47068],[20.700526,44.796864],[21.555106,46.342738],[19.952961,47.57214],[17.489488,47.234679]]]}},{"type":"Feature","properties":{"hex_id":"821e37fffffffff","population":10279073,"population_year":2025,"area_km2":82705.0,"population_density":124.3,"all_players":1,"players_per_million":0.1,"player_ids":["nba:1630249"],"label":"Strakonice","country":"Czech Republic"},"geometry":{"type":"Polygon","coordinates":[[[12.345747,50.554275],[11.648396,49.039345],[13.374348,47.965938],[15.817384,48.388123],[16.606047,49.899182],[14.863027,50.992748],[12.345747,50.554275]]]}},{"type":"Feature","properties":{"hex_id":"821e67fffffffff","population":5717680,"population_year":2025,"area_km2":80847.5,"population_density":70.7,"all_players":1,"players_per_million":0.17,"player_ids":["nba:1642917"],"label":"Kyiv","country":"Ukraine"},"geometry":{"type":"Polygon","coordinates":[[[27.993406,52.327164],[26.940864,50.952157],[28.492806,49.683116],[31.052695,49.771325],[32.156918,51.126789],[30.654128,52.413789],[27.993406,52.327164]]]}},{"type":"Feature","properties":{"hex_id":"821e6ffffffffff","population":3688124,"population_year":2025,"area_km2":81458.9,"population_density":45.3,"all_players":1,"players_per_million":0.27,"player_ids":["nba:1629004"],"label":"Cherkasy","country":"Ukraine"},"geometry":{"type":"Polygon","coordinates":[[[32.156918,51.126789],[31.052695,49.771325],[32.491778,48.437419],[34.97725,48.445115],[36.116724,49.779343],[34.739692,51.127123],[32.156918,51.126789]]]}},{"type":"Feature","properties":{"hex_id":"821e87fffffffff","population":12834722,"population_year":2025,"area_km2":92775.6,"population_density":138.3,"all_players":1,"players_per_million":0.08,"player_ids":["nba:1631323"],"label":"Pescara","country":"Italy"},"geometry":{"type":"Polygon","coordinates":[[[11.369193,43.208977],[10.754951,41.575053],[12.334661,40.405578],[14.548451,40.851244],[15.239936,42.485371],[13.642239,43.674337],[11.369193,43.208977]]]}},{"type":"Feature","properties":{"hex_id":"821ea7fffffffff","population":14372848,"population_year":2025,"area_km2":88726.5,"population_density":162.0,"all_players":1,"players_per_million":0.07,"player_ids":["nba:1641774"],"label":"Siena","country":"Italy"},"geometry":{"type":"Polygon","coordinates":[[[10.343213,45.921928],[9.731941,44.323805],[11.369193,43.208977],[13.642239,43.674337],[14.337206,45.273432],[12.677318,46.406957],[10.343213,45.921928]]]}},{"type":"Feature","properties":{"hex_id":"821eaffffffffff","population":2469114,"population_year":2025,"area_km2":91641.3,"population_density":26.9,"all_players":2,"players_per_million":0.81,"player_ids":["nba:1631255","nba:203967"],"label":"Livno","country":"Bosnia and Herzegovina"},"geometry":{"type":"Polygon","coordinates":[[[14.337206,45.273432],[13.642239,43.674337],[15.239936,42.485371],[17.543183,42.876114],[18.31474,44.47068],[16.708897,45.679719],[14.337206,45.273432]]]}},{"type":"Feature","properties":{"hex_id":"821edffffffffff","population":5052529,"population_year":2025,"area_km2":98815.5,"population_density":51.1,"all_players":3,"players_per_million":0.59,"player_ids":["nba:1630828","nba:203507","nba:203648"],"label":"Athens","country":"Greece"},"geometry":{"type":"Polygon","coordinates":[[[22.87671,40.608844],[22.053163,38.990886],[23.474781,37.630343],[25.702401,37.868316],[26.578016,39.470649],[25.176743,40.851016],[22.87671,40.608844]]]}},{"type":"Feature","properties":{"hex_id":"821ef7fffffffff","population":5580375,"population_year":2025,"area_km2":93933.6,"population_density":59.4,"all_players":1,"players_per_million":0.18,"player_ids":["nba:1627826"],"label":"Mostar","country":"Bosnia and Herzegovina"},"geometry":{"type":"Polygon","coordinates":[[[18.31474,44.47068],[17.543183,42.876114],[19.087059,41.616885],[21.399102,41.932468],[22.238177,43.517311],[20.700526,44.796864],[18.31474,44.47068]]]}},{"type":"Feature","properties":{"hex_id":"821f07fffffffff","population":6981829,"population_year":2025,"area_km2":73030.9,"population_density":95.6,"all_players":2,"players_per_million":0.29,"player_ids":["nba:1630574","nba:1641752"],"label":"Malmö","country":"Sweden"},"geometry":{"type":"Polygon","coordinates":[[[10.065692,55.394879],[9.374531,53.975514],[11.24517,53.03204],[13.839529,53.487245],[14.640207,54.902182],[12.739823,55.867327],[10.065692,55.394879]]]}},{"type":"Feature","properties":{"hex_id":"821f17fffffffff","population":19193666,"population_year":2025,"area_km2":74863.4,"population_density":256.4,"all_players":1,"players_per_million":0.05,"player_ids":["nba:203471"],"label":"Brunswick","country":"Germany"},"geometry":{"type":"Polygon","coordinates":[[[6.848229,53.43156],[6.259687,51.96477],[8.088631,51.039696],[10.549623,51.56399],[11.24517,53.03204],[9.374531,53.975514],[6.848229,53.43156]]]}},{"type":"Feature","properties":{"hex_id":"821f1ffffffffff","population":12840810,"population_year":2025,"area_km2":77902.3,"population_density":164.8,"all_players":2,"players_per_million":0.16,"player_ids":["nba:1629021","nba:1630532"],"label":"Berlin","country":"Germany"},"geometry":{"type":"Polygon","coordinates":[[[11.24517,53.03204],[10.549623,51.56399],[12.345747,50.554275],[14.863027,50.992748],[15.658506,52.45677],[13.839529,53.487245],[11.24517,53.03204]]]}},{"type":"Feature","properties":{"hex_id":"821f47fffffffff","population":3249991,"population_year":2025,"area_km2":74863.4,"population_density":43.4,"all_players":2,"players_per_million":0.62,"player_ids":["nba:1642857","nba:202685"],"label":"Utena","country":"Lithuania"},"geometry":{"type":"Polygon","coordinates":[[[22.931053,55.842561],[21.924017,54.501998],[23.657106,53.363901],[26.370175,53.543763],[27.453627,54.866734],[25.752737,56.027899],[22.931053,55.842561]]]}},{"type":"Feature","properties":{"hex_id":"821f77fffffffff","population":1649070,"population_year":2025,"area_km2":73030.9,"population_density":22.6,"all_players":1,"players_per_million":0.61,"player_ids":["nba:204001"],"label":"Liepāja","country":"Latvia"},"geometry":{"type":"Polygon","coordinates":[[[18.275236,56.632953],[17.362293,55.278144],[19.189333,54.224652],[21.924017,54.501998],[22.931053,55.842561],[21.114076,56.920734],[18.275236,56.632953]]]}},{"type":"Feature","properties":{"hex_id":"821f87fffffffff","population":16111686,"population_year":2025,"area_km2":80847.5,"population_density":199.3,"all_players":3,"players_per_million":0.19,"player_ids":["nba:1641712","nba:1642949","nba:202696"],"label":"Morges","country":"Switzerland"},"geometry":{"type":"Polygon","coordinates":[[[5.163511,48.943764],[4.652435,47.393027],[6.371339,46.417017],[8.645314,46.977068],[9.251571,48.534678],[7.489806,49.526212],[5.163511,48.943764]]]}},{"type":"Feature","properties":{"hex_id":"821f8ffffffffff","population":12778297,"population_year":2025,"area_km2":84307.8,"population_density":151.6,"all_players":1,"players_per_million":0.08,"player_ids":["nba:1641783"],"label":"Munich","country":"Germany"},"geometry":{"type":"Polygon","coordinates":[[[9.251571,48.534678],[8.645314,46.977068],[10.343213,45.921928],[12.677318,46.406957],[13.374348,47.965938],[11.648396,49.039345],[9.251571,48.534678]]]}},{"type":"Feature","properties":{"hex_id":"821f97fffffffff","population":9069390,"population_year":2025,"area_km2":81458.9,"population_density":111.3,"all_players":1,"players_per_million":0.11,"player_ids":["nba:203991"],"label":"Geneva","country":"Switzerland"},"geometry":{"type":"Polygon","coordinates":[[[2.458902,46.763731],[2.026569,45.184249],[3.696702,44.221235],[5.848477,44.82547],[6.371339,46.417017],[4.652435,47.393027],[2.458902,46.763731]]]}},{"type":"Feature","properties":{"hex_id":"821f9ffffffffff","population":16398717,"population_year":2025,"area_km2":85294.5,"population_density":192.3,"all_players":1,"players_per_million":0.06,"player_ids":["nba:1642273"],"label":"Aigle","country":"Switzerland"},"geometry":{"type":"Polygon","coordinates":[[[6.371339,46.417017],[5.848477,44.82547],[7.509948,43.786609],[9.731941,44.323805],[10.343213,45.921928],[8.645314,46.977068],[6.371339,46.417017]]]}},{"type":"Feature","properties":{"hex_id":"821fa7fffffffff","population":28149582,"population_year":2025,"area_km2":76219.8,"population_density":369.3,"all_players":3,"players_per_million":0.11,"player_ids":["nba:1641739","nba:1642274","nba:1642349"],"label":"Brussels metropolitan area","country":"Belgium"},"geometry":{"type":"Polygon","coordinates":[[[3.881134,51.360376],[3.384772,49.85377],[5.163511,48.943764],[7.489806,49.526212],[8.088631,51.039696],[6.259687,51.96477],[3.881134,51.360376]]]}},{"type":"Feature","properties":{"hex_id":"821faffffffffff","population":20512004,"population_year":2025,"area_km2":79647.5,"population_density":257.5,"all_players":1,"players_per_million":0.05,"player_ids":["nba:1628467"],"label":"Würzburg","country":"Germany"},"geometry":{"type":"Polygon","coordinates":[[[8.088631,51.039696],[7.489806,49.526212],[9.251571,48.534678],[11.648396,49.039345],[12.345747,50.554275],[10.549623,51.56399],[8.088631,51.039696]]]}},{"type":"Feature","properties":{"hex_id":"821fb7fffffffff","population":17326098,"population_year":2025,"area_km2":77926.1,"population_density":222.3,"all_players":12,"players_per_million":0.69,"player_ids":["nba:1627824","nba:1631217","nba:1631321","nba:1641705","nba:1641731","nba:1642275","nba:1642380","nba:1642849","nba:1642855","nba:1642869","nba:1642875","nba:1642885"],"label":"Paris","country":"France"},"geometry":{"type":"Polygon","coordinates":[[[1.18851,49.470279],[0.764026,47.90745],[2.458902,46.763731],[4.652435,47.393027],[5.163511,48.943764],[3.384772,49.85377],[1.18851,49.470279]]]}},{"type":"Feature","properties":{"hex_id":"8220a7fffffffff","population":19151502,"population_year":2025,"area_km2":102761.2,"population_density":186.4,"all_players":1,"players_per_million":0.05,"player_ids":["nba:1630209"],"label":"Tashkent","country":"Uzbekistan"},"geometry":{"type":"Polygon","coordinates":[[[66.248113,40.813541],[66.718397,39.067301],[68.880863,38.470904],[70.665594,39.592304],[70.306377,41.359581],[68.048608,41.985775],[66.248113,40.813541]]]}},{"type":"Feature","properties":{"hex_id":"82260ffffffffff","population":2387088,"population_year":2025,"area_km2":87326.6,"population_density":27.3,"all_players":4,"players_per_million":1.68,"player_ids":["nba:1642282","nba:1642362","nba:1642910","nba:1642935"],"label":"Omaha","country":"United States"},"geometry":{"type":"Polygon","coordinates":[[[-95.246862,39.326803],[-93.407414,40.114355],[-93.458032,41.743249],[-95.412903,42.599409],[-97.30469,41.807241],[-97.188746,40.164276],[-95.246862,39.326803]]]}},{"type":"Feature","properties":{"hex_id":"82261ffffffffff","population":360909,"population_year":2025,"area_km2":89801.2,"population_density":4.0,"all_players":1,"players_per_million":2.77,"player_ids":["nba:1631248"],"label":"Hastings","country":"United States"},"geometry":{"type":"Polygon","coordinates":[[[-99.035029,39.30874],[-97.188746,40.164276],[-97.30469,41.807241],[-99.333552,42.604335],[-101.222964,41.740408],[-101.04033,40.088597],[-99.035029,39.30874]]]}},{"type":"Feature","properties":{"hex_id":"822627fffffffff","population":1660249,"population_year":2025,"area_km2":89801.2,"population_density":18.5,"all_players":1,"players_per_million":0.6,"player_ids":["nba:1642261"],"label":"Fargo","country":"United States"},"geometry":{"type":"Polygon","coordinates":[[[-95.579863,47.511001],[-97.687441,46.680814],[-97.551209,45.038257],[-95.464507,44.208686],[-93.418118,44.972526],[-93.395849,46.63002],[-95.579863,47.511001]]]}},{"type":"Feature","properties":{"hex_id":"82262ffffffffff","population":2511826,"population_year":2025,"area_km2":87326.6,"population_density":28.8,"all_players":5,"players_per_million":1.99,"player_ids":["nba:1626145","nba:1629599","nba:1630200","nba:1631260","nba:203084"],"label":"Apple Valley","country":"United States"},"geometry":{"type":"Polygon","coordinates":[[[-93.418118,44.972526],[-95.464507,44.208686],[-95.412903,42.599409],[-93.458032,41.743249],[-91.476262,42.44496],[-91.384239,44.06279],[-93.418118,44.972526]]]}},{"type":"Feature","properties":{"hex_id":"822647fffffffff","population":4073203,"population_year":2025,"area_km2":85294.5,"population_density":47.8,"all_players":7,"players_per_million":1.72,"player_ids":["nba:1628369","nba:1630604","nba:1630692","nba:1631126","nba:1641750","nba:1642933","nba:203078"],"label":"St. Louis","country":"United States"},"geometry":{"type":"Polygon","coordinates":[[[-89.748537,36.65876],[-87.990764,37.382074],[-87.951382,39.014788],[-89.726216,39.947222],[-91.54335,39.225656],[-91.525283,37.57043],[-89.748537,36.65876]]]}},{"type":"Feature","properties":{"hex_id":"82264ffffffffff","population":4363740,"population_year":2025,"area_km2":85627.7,"population_density":51.0,"all_players":6,"players_per_million":1.37,"player_ids":["nba:1629726","nba:1630164","nba:1641706","nba:1641738","nba:1641813","nba:1642404"],"label":"Nashville","country":"United States"},"geometry":{"type":"Polygon","coordinates":[[[-88.065886,34.059836],[-86.366648,34.786557],[-86.303213,36.434527],[-87.990764,37.382074],[-89.748537,36.65876],[-89.759172,34.984893],[-88.065886,34.059836]]]}},{"type":"Feature","properties":{"hex_id":"822657fffffffff","population":3851243,"population_year":2025,"area_km2":88726.5,"population_density":43.4,"all_players":5,"players_per_million":1.3,"player_ids":["nba:1629008","nba:1629013","nba:1630526","nba:1641747","nba:1642461"],"label":"Kansas City","country":"United States"},"geometry":{"type":"Polygon","coordinates":[[[-93.311082,36.785418],[-91.525283,37.57043],[-91.54335,39.225656],[-93.407414,40.114355],[-95.246862,39.326803],[-95.167911,37.653738],[-93.311082,36.785418]]]}},{"type":"Feature","properties":{"hex_id":"82265ffffffffff","population":2641058,"population_year":2025,"area_km2":89440.6,"population_density":29.5,"all_players":9,"players_per_million":3.41,"player_ids":["nba:1626166","nba:1626171","nba:1628370","nba:1630541","nba:1630559","nba:1631113","nba:1641733","nba:1642276","nba:1643007"],"label":"Little Rock","country":"United States"},"geometry":{"type":"Polygon","coordinates":[[[-91.490847,34.200716],[-89.759172,34.984893],[-89.748537,36.65876],[-91.525283,37.57043],[-93.311082,36.785418],[-93.265212,35.090108],[-91.490847,34.200716]]]}},{"type":"Feature","properties":{"hex_id":"822667fffffffff","population":11642346,"population_year":2025,"area_km2":85294.5,"population_density":136.5,"all_players":19,"players_per_million":1.63,"player_ids":["nba:1628975","nba:1629622","nba:1629636","nba:1629723","nba:1630245","nba:1630545","nba:1631218","nba:1631351","nba:1641724","nba:1641810","nba:1641824","nba:1641854","nba:1642484","nba:1642847","nba:1642964","nba:1642967","nba:201569","nba:203076","nba:203914"],"label":"Chicago","country":"United States"},"geometry":{"type":"Polygon","coordinates":[[[-87.526255,42.152917],[-89.578398,41.518555],[-89.726216,39.947222],[-87.951382,39.014788],[-85.979328,39.596509],[-85.703199,41.161269],[-87.526255,42.152917]]]}},{"type":"Feature","properties":{"hex_id":"82266ffffffffff","population":4140731,"population_year":2025,"area_km2":82416.4,"population_density":50.2,"all_players":5,"players_per_million":1.21,"player_ids":["nba:1626156","nba:1628436","nba:1629023","nba:1630696","nba:1641869"],"label":"Evansville","country":"United States"},"geometry":{"type":"Polygon","coordinates":[[[-85.979328,39.596509],[-87.951382,39.014788],[-87.990764,37.382074],[-86.303213,36.434527],[-84.585167,37.099589],[-84.278055,38.60875],[-85.979328,39.596509]]]}},{"type":"Feature","properties":{"hex_id":"822677fffffffff","population":1707453,"population_year":2025,"area_km2":85321.7,"population_density":20.0,"all_players":2,"players_per_million":1.17,"player_ids":["nba:1631099","nba:1631200"],"label":"Cedar Rapids","country":"United States"},"geometry":{"type":"Polygon","coordinates":[[[-91.476262,42.44496],[-93.458032,41.743249],[-93.407414,40.114355],[-91.54335,39.225656],[-89.726216,39.947222],[-89.578398,41.518555],[-91.476262,42.44496]]]}},{"type":"Feature","properties":{"hex_id":"82268ffffffffff","population":3218622,"population_year":2025,"area_km2":95515.4,"population_density":33.7,"all_players":4,"players_per_million":1.24,"player_ids":["nba:1628401","nba:1631114","nba:1642363","nba:1642880"],"label":"Colorado Springs","country":"United States"},"geometry":{"type":"Polygon","coordinates":[[[-104.454816,36.494369],[-102.671357,37.471973],[-102.876807,39.164785],[-104.928668,39.882147],[-106.738368,38.891674],[-106.47056,37.197522],[-104.454816,36.494369]]]}},{"type":"Feature","properties":{"hex_id":"822697fffffffff","population":2718995,"population_year":2025,"area_km2":93159.0,"population_density":29.2,"all_players":4,"players_per_million":1.47,"player_ids":["nba:1628381","nba:1630241","nba:1642382","nba:1642876"],"label":"Bountiful","country":"United States"},"geometry":{"type":"Polygon","coordinates":[[[-110.584833,38.489935],[-108.818288,39.54349],[-109.131063,41.19652],[-111.27157,41.789209],[-113.046271,40.72062],[-112.673648,39.075149],[-110.584833,38.489935]]]}},{"type":"Feature","properties":{"hex_id":"8226affffffffff","population":752318,"population_year":2025,"area_km2":91641.3,"population_density":8.2,"all_players":1,"players_per_million":1.33,"player_ids":["nba:1643133"],"label":"Cheyenne","country":"United States"},"geometry":{"type":"Polygon","coordinates":[[[-102.876807,39.164785],[-101.04033,40.088597],[-101.222964,41.740408],[-103.308747,42.472631],[-105.177534,41.537334],[-104.928668,39.882147],[-102.876807,39.164785]]]}},{"type":"Feature","properties":{"hex_id":"8226c7fffffffff","population":1987377,"population_year":2025,"area_km2":95515.4,"population_density":20.8,"all_players":5,"players_per_million":2.52,"player_ids":["nba:1629610","nba:1629637","nba:1630322","nba:1641725","nba:1642951"],"label":"Edmond","country":"United States"},"geometry":{"type":"Polygon","coordinates":[[[-98.622726,34.188046],[-96.863145,35.093055],[-96.968153,36.804751],[-98.893095,37.623022],[-100.6928,36.709267],[-100.527345,34.986722],[-98.622726,34.188046]]]}},{"type":"Feature","properties":{"hex_id":"8226cffffffffff","population":9574277,"population_year":2025,"area_km2":96323.1,"population_density":99.4,"all_players":22,"players_per_million":2.3,"player_ids":["nba:1626167","nba:1630178","nba:1630592","nba:1630595","nba:1630811","nba:1631127","nba:1631166","nba:1631204","nba:1641710","nba:1641717","nba:1641718","nba:1641775","nba:1641815","nba:1641842","nba:1642266","nba:1642281","nba:1642384","nba:1642450","nba:1642848","nba:1642862","nba:203935","nba:203944"],"label":"Dallas","country":"United States"},"geometry":{"type":"Polygon","coordinates":[[[-96.66289,31.619531],[-94.945821,32.516906],[-95.017507,34.246081],[-96.863145,35.093055],[-98.622726,34.188046],[-98.493873,32.444355],[-96.66289,31.619531]]]}},{"type":"Feature","properties":{"hex_id":"8226d7fffffffff","population":469359,"population_year":2025,"area_km2":97556.0,"population_density":4.8,"all_players":1,"players_per_million":2.13,"player_ids":["nba:1631110"],"label":"Guymon","country":"United States"},"geometry":{"type":"Polygon","coordinates":[[[-102.279867,34.021113],[-100.527345,34.986722],[-100.6928,36.709267],[-102.671357,37.471973],[-104.454816,36.494369],[-104.229094,34.766832],[-102.279867,34.021113]]]}},{"type":"Feature","properties":{"hex_id":"8226dffffffffff","population":723835,"population_year":2025,"area_km2":98815.5,"population_density":7.3,"all_players":1,"players_per_million":1.38,"player_ids":["nba:1629027"],"label":"Lubbock","country":"United States"},"geometry":{"type":"Polygon","coordinates":[[[-100.211784,31.489938],[-98.493873,32.444355],[-98.622726,34.188046],[-100.527345,34.986722],[-102.279867,34.021113],[-102.093235,32.268747],[-100.211784,31.489938]]]}},{"type":"Feature","properties":{"hex_id":"8226e7fffffffff","population":1510616,"population_year":2025,"area_km2":91641.3,"population_density":16.5,"all_players":4,"players_per_million":2.65,"player_ids":["nba:1629731","nba:1631128","nba:1631133","nba:1641711"],"label":"Wichita","country":"United States"},"geometry":{"type":"Polygon","coordinates":[[[-96.968153,36.804751],[-95.167911,37.653738],[-95.246862,39.326803],[-97.188746,40.164276],[-99.035029,39.30874],[-98.893095,37.623022],[-96.968153,36.804751]]]}},{"type":"Feature","properties":{"hex_id":"8226effffffffff","population":2803341,"population_year":2025,"area_km2":92775.6,"population_density":30.2,"all_players":3,"players_per_million":1.07,"player_ids":["nba:1630198","nba:1631119","nba:201144"],"label":"Fort Smith","country":"United States"},"geometry":{"type":"Polygon","coordinates":[[[-95.017507,34.246081],[-93.265212,35.090108],[-93.311082,36.785418],[-95.167911,37.653738],[-96.968153,36.804751],[-96.863145,35.093055],[-95.017507,34.246081]]]}},{"type":"Feature","properties":{"hex_id":"82271ffffffffff","population":352971,"population_year":2025,"area_km2":91641.3,"population_density":3.9,"all_players":1,"players_per_million":2.83,"player_ids":["nba:203926"],"label":"Grand Forks","country":"United States"},"geometry":{"type":"Polygon","coordinates":[[[-97.993762,50.038615],[-100.155963,49.138168],[-99.917049,47.471519],[-97.687441,46.680814],[-95.579863,47.511001],[-95.644608,49.199829],[-97.993762,50.038615]]]}},{"type":"Feature","properties":{"hex_id":"822747fffffffff","population":1114372,"population_year":2025,"area_km2":92775.6,"population_density":12.0,"all_players":2,"players_per_million":1.79,"player_ids":["nba:1630573","nba:1631116"],"label":"Green Bay","country":"United States"},"geometry":{"type":"Polygon","coordinates":[[[-86.763856,47.084746],[-89.066565,46.415378],[-89.249838,44.754421],[-87.290551,43.768738],[-85.090138,44.382483],[-84.748614,46.035179],[-86.763856,47.084746]]]}},{"type":"Feature","properties":{"hex_id":"82274ffffffffff","population":6546722,"population_year":2025,"area_km2":89440.6,"population_density":73.2,"all_players":11,"players_per_million":1.68,"player_ids":["nba:1626164","nba:1628398","nba:1628420","nba:1628970","nba:1630214","nba:1630587","nba:1631093","nba:1631104","nba:1641723","nba:1642914","nba:203110"],"label":"Grand Rapids","country":"United States"},"geometry":{"type":"Polygon","coordinates":[[[-85.090138,44.382483],[-87.290551,43.768738],[-87.526255,42.152917],[-85.703199,41.161269],[-83.600197,41.724215],[-83.224953,43.327485],[-85.090138,44.382483]]]}},{"type":"Feature","properties":{"hex_id":"822757fffffffff","population":3436263,"population_year":2025,"area_km2":91641.3,"population_density":37.5,"all_players":9,"players_per_million":2.62,"player_ids":["nba:1630192","nba:1630552","nba:1630579","nba:1630591","nba:1631096","nba:1631213","nba:1631223","nba:1642419","nba:1642938"],"label":"Minneapolis","country":"United States"},"geometry":{"type":"Polygon","coordinates":[[[-91.178447,47.383632],[-93.395849,46.63002],[-93.418118,44.972526],[-91.384239,44.06279],[-89.249838,44.754421],[-89.066565,46.415378],[-91.178447,47.383632]]]}},{"type":"Feature","properties":{"hex_id":"82275ffffffffff","population":7416006,"population_year":2025,"area_km2":88726.5,"population_density":83.6,"all_players":11,"players_per_million":1.48,"player_ids":["nba:1626172","nba:1629639","nba:1629673","nba:1630534","nba:1631108","nba:1631214","nba:1641764","nba:1641809","nba:1642353","nba:1642851","nba:1642874"],"label":"Milwaukee","country":"United States"},"geometry":{"type":"Polygon","coordinates":[[[-89.249838,44.754421],[-91.384239,44.06279],[-91.476262,42.44496],[-89.578398,41.518555],[-87.526255,42.152917],[-87.290551,43.768738],[-89.249838,44.754421]]]}},{"type":"Feature","properties":{"hex_id":"82281ffffffffff","population":950330,"population_year":2025,"area_km2":82705.0,"population_density":11.5,"all_players":1,"players_per_million":1.05,"player_ids":["nba:1628392"],"label":"Eugene","country":"United States"},"geometry":{"type":"Polygon","coordinates":[[[-123.21638,41.345253],[-121.616722,42.535325],[-122.134831,44.057691],[-124.296252,44.370406],[-125.864396,43.168755],[-125.30494,41.66639],[-123.21638,41.345253]]]}},{"type":"Feature","properties":{"hex_id":"822837fffffffff","population":14366819,"population_year":2025,"area_km2":89801.2,"population_density":160.0,"all_players":12,"players_per_million":0.84,"player_ids":["nba:1629216","nba:1631123","nba:1641708","nba:1641709","nba:1642272","nba:1642352","nba:1642377","nba:1642389","nba:1642859","nba:1642920","nba:1643060","nba:203932"],"label":"Oakland","country":"United States"},"geometry":{"type":"Polygon","coordinates":[[[-121.707157,36.574218],[-120.150308,37.778361],[-120.625018,39.393868],[-122.699099,39.784231],[-124.231246,38.566387],[-123.715986,36.972296],[-121.707157,36.574218]]]}},{"type":"Feature","properties":{"hex_id":"82288ffffffffff","population":1046369,"population_year":2025,"area_km2":80847.5,"population_density":12.9,"all_players":1,"players_per_million":0.96,"player_ids":["nba:1630699"],"label":"Yakima","country":"United States"},"geometry":{"type":"Polygon","coordinates":[[[-118.250236,44.830691],[-116.483698,45.929069],[-116.945809,47.422734],[-119.232215,47.804097],[-120.980657,46.691537],[-120.463169,45.21242],[-118.250236,44.830691]]]}},{"type":"Feature","properties":{"hex_id":"8228d7fffffffff","population":6638102,"population_year":2025,"area_km2":76219.8,"population_density":87.1,"all_players":8,"players_per_million":1.21,"player_ids":["nba:1627749","nba:1627780","nba:1629645","nba:1630183","nba:1630557","nba:1631094","nba:1642403","nba:203897"],"label":"Seattle","country":"United States"},"geometry":{"type":"Polygon","coordinates":[[[-120.980657,46.691537],[-119.232215,47.804097],[-119.747324,49.236416],[-122.065326,49.540804],[-123.785414,48.414997],[-123.218544,46.998589],[-120.980657,46.691537]]]}},{"type":"Feature","properties":{"hex_id":"8228dffffffffff","population":3121728,"population_year":2025,"area_km2":72289.7,"population_density":43.2,"all_players":1,"players_per_million":0.32,"player_ids":["nba:1629634"],"label":"Vancouver","country":"Canada"},"geometry":{"type":"Polygon","coordinates":[[[-123.785414,48.414997],[-122.065326,49.540804],[-123.122866,50.984711],[-125.501019,51.20399],[-126.653646,49.99834],[-126.038043,48.646404],[-123.785414,48.414997]]]}},{"type":"Feature","properties":{"hex_id":"8228f7fffffffff","population":3870003,"population_year":2025,"area_km2":79647.5,"population_density":48.6,"all_players":6,"players_per_million":1.55,"player_ids":["nba:1627734","nba:1630175","nba:1630202","nba:1630590","nba:1630649","nba:203924"],"label":"Portland","country":"United States"},"geometry":{"type":"Polygon","coordinates":[[[-122.134831,44.057691],[-120.463169,45.21242],[-120.980657,46.691537],[-123.218544,46.998589],[-124.859982,45.831702],[-124.296252,44.370406],[-122.134831,44.057691]]]}},{"type":"Feature","properties":{"hex_id":"822987fffffffff","population":2847941,"population_year":2025,"area_km2":95515.4,"population_density":29.8,"all_players":3,"players_per_million":1.05,"player_ids":["nba:1628380","nba:1631115","nba:1631124"],"label":"Las Vegas","country":"United States"},"geometry":{"type":"Polygon","coordinates":[[[-115.644549,35.13856],[-113.999549,36.284189],[-114.382127,37.963949],[-116.46105,38.483502],[-118.098739,37.321697],[-117.666441,35.65712],[-115.644549,35.13856]]]}},{"type":"Feature","properties":{"hex_id":"8229a7fffffffff","population":26139253,"population_year":2025,"area_km2":97556.0,"population_density":267.9,"all_players":31,"players_per_million":1.19,"player_ids":["nba:1626181","nba:1628366","nba:1628386","nba:1629001","nba:1629162","nba:1630163","nba:1630168","nba:1630314","nba:1630533","nba:1630548","nba:1630596","nba:1630679","nba:1631170","nba:1631212","nba:1631222","nba:1631245","nba:1641740","nba:1641757","nba:1641989","nba:1642354","nba:1642868","nba:1642942","nba:201566","nba:201567","nba:201572","nba:201935","nba:201942","nba:201950","nba:202331","nba:202691","nba:202695"],"label":"Los Angeles","country":"United States"},"geometry":{"type":"Polygon","coordinates":[[[-116.838302,32.260383],[-115.254005,33.431536],[-115.644549,35.13856],[-117.666441,35.65712],[-119.240554,34.468622],[-118.804528,32.779438],[-116.838302,32.260383]]]}},{"type":"Feature","properties":{"hex_id":"8229affffffffff","population":3828785,"population_year":2025,"area_km2":93933.6,"population_density":40.8,"all_players":4,"players_per_million":1.04,"player_ids":["nba:1630224","nba:1642262","nba:1642358","nba:1642907"],"label":"Fresno","country":"United States"},"geometry":{"type":"Polygon","coordinates":[[[-119.240554,34.468622],[-117.666441,35.65712],[-118.098739,37.321697],[-120.150308,37.778361],[-121.707157,36.574218],[-121.231482,34.929532],[-119.240554,34.468622]]]}},{"type":"Feature","properties":{"hex_id":"822a17fffffffff","population":30364242,"population_year":2025,"area_km2":87326.6,"population_density":347.7,"all_players":48,"players_per_million":1.58,"player_ids":["nba:1626157","nba:1627739","nba:1628371","nba:1628378","nba:1628964","nba:1628969","nba:1628973","nba:1628991","nba:1629611","nba:1629631","nba:1629660","nba:1629675","nba:1630167","nba:1630230","nba:1630536","nba:1630551","nba:1630572","nba:1630577","nba:1630623","nba:1630631","nba:1631199","nba:1631210","nba:1631221","nba:1631230","nba:1631243","nba:1631338","nba:1631342","nba:1631457","nba:1641726","nba:1641727","nba:1641772","nba:1642270","nba:1642271","nba:1642346","nba:1642348","nba:1642364","nba:1642504","nba:1642844","nba:1642853","nba:1642886","nba:1642955","nba:1643024","nba:1643253","nba:200768","nba:201959","nba:202699","nba:203083","nba:203937"],"label":"Brooklyn","country":"United States"},"geometry":{"type":"Polygon","coordinates":[[[-73.076912,42.400493],[-75.333452,42.029564],[-75.960619,40.480497],[-74.442775,39.340569],[-72.307877,39.686062],[-71.573772,41.195725],[-73.076912,42.400493]]]}},{"type":"Feature","properties":{"hex_id":"822a37fffffffff","population":10409321,"population_year":2025,"area_km2":89801.2,"population_density":115.9,"all_players":5,"players_per_million":0.48,"player_ids":["nba:1626192","nba:1628971","nba:1629130","nba:1631174","nba:1642278"],"label":"Arlington","country":"United States"},"geometry":{"type":"Polygon","coordinates":[[[-69.955068,44.277849],[-72.323382,43.964363],[-73.076912,42.400493],[-71.573772,41.195725],[-69.342223,41.490681],[-68.482715,43.008011],[-69.955068,44.277849]]]}},{"type":"Feature","properties":{"hex_id":"822a87fffffffff","population":4299023,"population_year":2025,"area_km2":85294.5,"population_density":50.4,"all_players":2,"players_per_million":0.47,"player_ids":["nba:1629661","nba:204456"],"label":"Moon Township","country":"United States"},"geometry":{"type":"Polygon","coordinates":[[[-79.734069,41.163834],[-81.867503,40.674246],[-82.267059,39.125451],[-80.651775,38.089298],[-78.619418,38.540002],[-78.104271,40.06406],[-79.734069,41.163834]]]}},{"type":"Feature","properties":{"hex_id":"822a8ffffffffff","population":6334016,"population_year":2025,"area_km2":80847.5,"population_density":78.3,"all_players":8,"players_per_million":1.26,"player_ids":["nba:101108","nba:1629640","nba:1629750","nba:1630530","nba:1630598","nba:1630643","nba:1631111","nba:1642962"],"label":"Durham","country":"United States"},"geometry":{"type":"Polygon","coordinates":[[[-78.619418,38.540002],[-80.651775,38.089298],[-81.068449,36.598719],[-79.557618,35.583567],[-77.618683,35.999192],[-77.099922,37.463561],[-78.619418,38.540002]]]}},{"type":"Feature","properties":{"hex_id":"822a97fffffffff","population":8425121,"population_year":2025,"area_km2":85627.7,"population_density":98.4,"all_players":10,"players_per_million":1.19,"player_ids":["nba:1627747","nba:1628379","nba:1628502","nba:1629018","nba:1630217","nba:1630256","nba:1630540","nba:1631103","nba:1631246","nba:203486"],"label":"Columbus","country":"United States"},"geometry":{"type":"Polygon","coordinates":[[[-83.600197,41.724215],[-85.703199,41.161269],[-85.979328,39.596509],[-84.278055,38.60875],[-82.267059,39.125451],[-81.867503,40.674246],[-83.600197,41.724215]]]}},{"type":"Feature","properties":{"hex_id":"822a9ffffffffff","population":2499801,"population_year":2025,"area_km2":81458.9,"population_density":30.7,"all_players":2,"players_per_million":0.8,"player_ids":["nba:1630644","nba:1642263"],"label":"Gate City","country":"United States"},"geometry":{"type":"Polygon","coordinates":[[[-82.267059,39.125451],[-84.278055,38.60875],[-84.585167,37.099589],[-82.992984,36.123996],[-81.068449,36.598719],[-80.651775,38.089298],[-82.267059,39.125451]]]}},{"type":"Feature","properties":{"hex_id":"822aaffffffffff","population":16213426,"population_year":2025,"area_km2":84307.8,"population_density":192.3,"all_players":25,"players_per_million":1.54,"player_ids":["nba:1627884","nba:1628365","nba:1628404","nba:1628978","nba:1629312","nba:1630193","nba:1630311","nba:1630538","nba:1630568","nba:1630621","nba:1631105","nba:1631211","nba:1641715","nba:1641716","nba:1641722","nba:1642267","nba:1642280","nba:1642285","nba:1642443","nba:1642490","nba:1642852","nba:1642882","nba:1643016","nba:201142","nba:201145"],"label":"Baltimore","country":"United States"},"geometry":{"type":"Polygon","coordinates":[[[-75.960619,40.480497],[-78.104271,40.06406],[-78.619418,38.540002],[-77.099922,37.463561],[-75.063317,37.849069],[-74.442775,39.340569],[-75.960619,40.480497]]]}},{"type":"Feature","properties":{"hex_id":"822ab7fffffffff","population":10815218,"population_year":2025,"area_km2":89440.6,"population_density":120.9,"all_players":17,"players_per_million":1.57,"player_ids":["nba:1626204","nba:1627750","nba:1630543","nba:1630695","nba:1630702","nba:1631101","nba:1631157","nba:1631250","nba:1631288","nba:1641753","nba:1642066","nba:1642355","nba:1642402","nba:1642860","nba:201939","nba:203468","nba:2544"],"label":"Akron","country":"United States"},"geometry":{"type":"Polygon","coordinates":[[[-80.982253,43.86012],[-83.224953,43.327485],[-83.600197,41.724215],[-81.867503,40.674246],[-79.734069,41.163834],[-79.227281,42.744533],[-80.982253,43.86012]]]}},{"type":"Feature","properties":{"hex_id":"822ad7fffffffff","population":3814677,"population_year":2025,"area_km2":76219.8,"population_density":50.0,"all_players":3,"players_per_million":0.79,"player_ids":["nba:1627742","nba:1629632","nba:1630549"],"label":"Greenville","country":"United States"},"geometry":{"type":"Polygon","coordinates":[[[-77.618683,35.999192],[-79.557618,35.583567],[-79.985888,34.15372],[-78.568356,33.165261],[-76.715776,33.549278],[-76.1969,34.952047],[-77.618683,35.999192]]]}},{"type":"Feature","properties":{"hex_id":"822af7fffffffff","population":2171642,"population_year":2025,"area_km2":79647.5,"population_density":27.3,"all_players":5,"players_per_million":2.3,"player_ids":["nba:1627827","nba:1628389","nba:1630188","nba:1631106","nba:1631109"],"label":"Portsmouth","country":"United States"},"geometry":{"type":"Polygon","coordinates":[[[-75.063317,37.849069],[-77.099922,37.463561],[-77.618683,35.999192],[-76.1969,34.952047],[-74.258118,35.309765],[-73.646509,36.741215],[-75.063317,37.849069]]]}},{"type":"Feature","properties":{"hex_id":"822b1ffffffffff","population":827144,"population_year":2025,"area_km2":91641.3,"population_density":9.0,"all_players":1,"players_per_million":1.21,"player_ids":["nba:1642843"],"label":"Newport","country":"United States"},"geometry":{"type":"Polygon","coordinates":[[[-66.585251,46.088503],[-69.060562,45.844655],[-69.955068,44.277849],[-68.482715,43.008011],[-66.159126,43.241648],[-65.162942,44.754772],[-66.585251,46.088503]]]}},{"type":"Feature","properties":{"hex_id":"822b8ffffffffff","population":3267276,"population_year":2025,"area_km2":91641.3,"population_density":35.7,"all_players":3,"players_per_million":0.92,"player_ids":["nba:1628989","nba:1631205","nba:1641748"],"label":"Albany","country":"United States"},"geometry":{"type":"Polygon","coordinates":[[[-73.944231,45.197835],[-76.33587,44.798413],[-76.966258,43.195408],[-75.333452,42.029564],[-73.076912,42.400493],[-72.323382,43.964363],[-73.944231,45.197835]]]}},{"type":"Feature","properties":{"hex_id":"822b9ffffffffff","population":11744141,"population_year":2025,"area_km2":92775.6,"population_density":126.6,"all_players":19,"players_per_million":1.62,"player_ids":["nba:1628415","nba:1628418","nba:1628983","nba:1629614","nba:1629618","nba:1629628","nba:1629638","nba:1630191","nba:1630625","nba:1630639","nba:1631159","nba:1631216","nba:1631466","nba:1641744","nba:1641801","nba:1642948","nba:203482","nba:203939","nba:203952"],"label":"Toronto","country":"Canada"},"geometry":{"type":"Polygon","coordinates":[[[-78.100366,45.982432],[-80.490261,45.49319],[-80.982253,43.86012],[-79.227281,42.744533],[-76.966258,43.195408],[-76.33587,44.798413],[-78.100366,45.982432]]]}},{"type":"Feature","properties":{"hex_id":"822baffffffffff","population":6643169,"population_year":2025,"area_km2":93933.6,"population_density":70.7,"all_players":4,"players_per_million":0.6,"player_ids":["nba:1629652","nba:1631097","nba:1641765","nba:1643141"],"label":"Montreal","country":"Canada"},"geometry":{"type":"Polygon","coordinates":[[[-70.65056,47.146099],[-73.17262,46.811656],[-73.944231,45.197835],[-72.323382,43.964363],[-69.955068,44.277849],[-69.060562,45.844655],[-70.65056,47.146099]]]}},{"type":"Feature","properties":{"hex_id":"822c2ffffffffff","population":6448334,"population_year":2025,"area_km2":87326.6,"population_density":73.8,"all_players":2,"players_per_million":0.31,"player_ids":["nba:1629048","nba:1642884"],"label":"Nalchik","country":"Russia"},"geometry":{"type":"Polygon","coordinates":[[[42.150674,42.631271],[43.204832,41.142599],[45.333799,41.016526],[46.521525,42.40251],[45.504839,43.945519],[43.258395,44.047542],[42.150674,42.631271]]]}},{"type":"Feature","properties":{"hex_id":"822d1ffffffffff","population":3342785,"population_year":2025,"area_km2":91641.3,"population_density":36.5,"all_players":1,"players_per_million":0.3,"player_ids":["nba:1630578"],"label":"Giresun","country":"Turkey"},"geometry":{"type":"Polygon","coordinates":[[[36.6267,41.363407],[35.594615,39.893109],[36.77435,38.415715],[38.930218,38.400687],[39.97757,39.845483],[38.856463,41.330674],[36.6267,41.363407]]]}},{"type":"Feature","properties":{"hex_id":"822db7fffffffff","population":31744678,"population_year":2025,"area_km2":98815.5,"population_density":321.3,"all_players":1,"players_per_million":0.03,"player_ids":["nba:1630166"],"label":"Beit Zera","country":"Israel"},"geometry":{"type":"Polygon","coordinates":[[[33.851253,33.82016],[32.928331,32.240102],[34.073508,30.754985],[36.099347,30.835944],[37.042325,32.387471],[35.941661,33.88647],[33.851253,33.82016]]]}},{"type":"Feature","properties":{"hex_id":"822e77fffffffff","population":8733312,"population_year":2025,"area_km2":77902.3,"population_density":112.1,"all_players":1,"players_per_million":0.11,"player_ids":["nba:1629060"],"label":"Toyama","country":"Japan"},"geometry":{"type":"Polygon","coordinates":[[[139.948213,36.441778],[140.055179,38.090666],[138.441462,38.9811],[136.788028,38.211878],[136.756542,36.594877],[138.304265,35.714832],[139.948213,36.441778]]]}},{"type":"Feature","properties":{"hex_id":"822f5ffffffffff","population":40494200,"population_year":2025,"area_km2":79647.5,"population_density":508.4,"all_players":1,"players_per_million":0.02,"player_ids":["nba:1630560"],"label":"Yokosuka","country":"Japan"},"geometry":{"type":"Polygon","coordinates":[[[141.379662,33.846135],[141.516472,35.500079],[139.948213,36.441778],[138.304265,35.714832],[138.240188,34.090249],[139.748325,33.162808],[141.379662,33.846135]]]}},{"type":"Feature","properties":{"hex_id":"8230a7fffffffff","population":37100912,"population_year":2025,"area_km2":61279.2,"population_density":605.4,"all_players":1,"players_per_million":0.03,"player_ids":["nba:1642905"],"label":"Zibo","country":"People's Republic of China"},"geometry":{"type":"Polygon","coordinates":[[[119.95687,35.087873],[120.211824,36.394827],[118.869299,37.429854],[117.240208,37.162506],[116.992244,35.842443],[118.365822,34.802491],[119.95687,35.087873]]]}},{"type":"Feature","properties":{"hex_id":"82346ffffffffff","population":1021093,"population_year":2025,"area_km2":99241.3,"population_density":10.3,"all_players":1,"players_per_million":0.98,"player_ids":["nba:1630583"],"label":"Las Palmas de Gran Canaria","country":"Spain"},"geometry":{"type":"Polygon","coordinates":[[[-14.608842,31.177353],[-16.392619,30.287385],[-16.393328,28.514587],[-14.681053,27.647052],[-12.948555,28.514936],[-12.877753,30.271572],[-14.608842,31.177353]]]}},{"type":"Feature","properties":{"hex_id":"82390ffffffffff","population":8669237,"population_year":2025,"area_km2":88726.5,"population_density":97.7,"all_players":1,"players_per_million":0.12,"player_ids":["nba:1642864"],"label":"Madrid","country":"Spain"},"geometry":{"type":"Polygon","coordinates":[[[-2.728618,40.871785],[-4.708227,40.256026],[-4.963456,38.552712],[-3.311341,37.499409],[-1.416234,38.115997],[-1.091146,39.784657],[-2.728618,40.871785]]]}},{"type":"Feature","properties":{"hex_id":"823917fffffffff","population":1682178,"population_year":2025,"area_km2":95515.4,"population_density":17.6,"all_players":1,"players_per_million":0.59,"player_ids":["nba:1629674"],"label":"Lisbon","country":"Portugal"},"geometry":{"type":"Polygon","coordinates":[[[-8.657648,38.889432],[-10.618161,38.139996],[-10.744488,36.38323],[-8.989073,35.401916],[-7.101894,36.141695],[-6.898506,37.871743],[-8.657648,38.889432]]]}},{"type":"Feature","properties":{"hex_id":"82391ffffffffff","population":8248421,"population_year":2025,"area_km2":91641.3,"population_density":90.0,"all_players":1,"players_per_million":0.12,"player_ids":["nba:1642258"],"label":"Málaga","country":"Spain"},"geometry":{"type":"Polygon","coordinates":[[[-4.963456,38.552712],[-6.898506,37.871743],[-7.101894,36.141695],[-5.442348,35.124424],[-3.584806,35.801656],[-3.311341,37.499409],[-4.963456,38.552712]]]}},{"type":"Feature","properties":{"hex_id":"823967fffffffff","population":5102029,"population_year":2025,"area_km2":82416.4,"population_density":61.9,"all_players":1,"players_per_million":0.2,"player_ids":["nba:1631172"],"label":"Villeneuve-sur-Lot","country":"France"},"geometry":{"type":"Polygon","coordinates":[[[-0.028005,44.712978],[-0.397973,43.08589],[1.216871,41.967575],[3.24935,42.604792],[3.696702,44.221235],[2.026569,45.184249],[-0.028005,44.712978]]]}},{"type":"Feature","properties":{"hex_id":"82396ffffffffff","population":6845595,"population_year":2025,"area_km2":85627.7,"population_density":79.9,"all_players":1,"players_per_million":0.15,"player_ids":["nba:1642359"],"label":"Aubagne","country":"France"},"geometry":{"type":"Polygon","coordinates":[[[3.696702,44.221235],[3.24935,42.604792],[4.868332,41.580315],[6.97784,42.158616],[7.509948,43.786609],[5.848477,44.82547],[3.696702,44.221235]]]}},{"type":"Feature","properties":{"hex_id":"82441ffffffffff","population":5165806,"population_year":2025,"area_km2":82705.0,"population_density":62.5,"all_players":2,"players_per_million":0.39,"player_ids":["nba:1641780","nba:203903"],"label":"Q49255","country":"United States"},"geometry":{"type":"Polygon","coordinates":[[[-83.616841,26.242156],[-82.084301,26.984013],[-81.966494,28.631807],[-83.420798,29.571467],[-85.007143,28.83498],[-85.084348,27.153536],[-83.616841,26.242156]]]}},{"type":"Feature","properties":{"hex_id":"824447fffffffff","population":3715636,"population_year":2025,"area_km2":92775.6,"population_density":40.0,"all_players":7,"players_per_million":1.88,"player_ids":["nba:1626162","nba:1628368","nba:1630610","nba:1641890","nba:1642918","nba:1643018","nba:202066"],"label":"New Orleans","country":"United States"},"geometry":{"type":"Polygon","coordinates":[[[-91.44306,29.038514],[-89.789168,29.876068],[-89.779473,31.590738],[-91.474426,32.491469],[-93.177711,31.651131],[-93.135951,29.913303],[-91.44306,29.038514]]]}},{"type":"Feature","properties":{"hex_id":"82444ffffffffff","population":1823298,"population_year":2025,"area_km2":93159.0,"population_density":19.6,"all_players":3,"players_per_million":1.65,"player_ids":["nba:1628988","nba:1629057","nba:1629655"],"label":"El Dorado","country":"United States"},"geometry":{"type":"Polygon","coordinates":[[[-93.177711,31.651131],[-91.474426,32.491469],[-91.490847,34.200716],[-93.265212,35.090108],[-95.017507,34.246081],[-94.945821,32.516906],[-93.177711,31.651131]]]}},{"type":"Feature","properties":{"hex_id":"824457fffffffff","population":2432844,"population_year":2025,"area_km2":88726.5,"population_density":27.4,"all_players":3,"players_per_million":1.23,"player_ids":["nba:1629011","nba:1641803","nba:1642449"],"label":"Pensacola","country":"United States"},"geometry":{"type":"Polygon","coordinates":[[[-88.170272,28.973403],[-86.545778,29.759287],[-86.487848,31.44625],[-88.101738,32.375354],[-89.779473,31.590738],[-89.789168,29.876068],[-88.170272,28.973403]]]}},{"type":"Feature","properties":{"hex_id":"82445ffffffffff","population":1787935,"population_year":2025,"area_km2":89440.6,"population_density":20.0,"all_players":1,"players_per_million":0.56,"player_ids":["nba:1629234"],"label":"Starkville","country":"United States"},"geometry":{"type":"Polygon","coordinates":[[[-89.779473,31.590738],[-88.101738,32.375354],[-88.065886,34.059836],[-89.759172,34.984893],[-91.490847,34.200716],[-91.474426,32.491469],[-89.779473,31.590738]]]}},{"type":"Feature","properties":{"hex_id":"82446ffffffffff","population":9292440,"population_year":2025,"area_km2":96323.1,"population_density":96.5,"all_players":6,"players_per_million":0.65,"player_ids":["nba:1627936","nba:1629020","nba:1629656","nba:1629684","nba:201599","nba:202710"],"label":"Houston","country":"United States"},"geometry":{"type":"Polygon","coordinates":[[[-94.808948,29.022702],[-93.135951,29.913303],[-93.177711,31.651131],[-94.945821,32.516906],[-96.66289,31.619531],[-96.567347,29.863731],[-94.808948,29.022702]]]}},{"type":"Feature","properties":{"hex_id":"824487fffffffff","population":58586,"population_year":2025,"area_km2":73030.9,"population_density":0.8,"all_players":1,"players_per_million":17.07,"player_ids":["nba:1627741"],"label":"Freeport","country":"The Bahamas"},"geometry":{"type":"Polygon","coordinates":[[[-77.908907,25.835601],[-76.472185,26.494291],[-76.285609,28.067257],[-77.566939,29.019772],[-79.057436,28.372892],[-79.211732,26.761492],[-77.908907,25.835601]]]}},{"type":"Feature","properties":{"hex_id":"8244a7fffffffff","population":5328381,"population_year":2025,"area_km2":75672.4,"population_density":70.4,"all_players":5,"players_per_million":0.94,"player_ids":["nba:1630658","nba:1641707","nba:1642269","nba:1642845","nba:203501"],"label":"Miami","country":"United States"},"geometry":{"type":"Polygon","coordinates":[[[-79.508242,23.533066],[-78.073265,24.24011],[-77.908907,25.835601],[-79.211732,26.761492],[-80.698565,26.062694],[-80.82969,24.429618],[-79.508242,23.533066]]]}},{"type":"Feature","properties":{"hex_id":"8244affffffffff","population":7848067,"population_year":2025,"area_km2":77902.3,"population_density":100.7,"all_players":10,"players_per_million":1.27,"player_ids":["nba:1628396","nba:1629014","nba:1630165","nba:1630194","nba:1630567","nba:1631169","nba:1641729","nba:1642367","nba:1642383","nba:1642434"],"label":"Orlando","country":"United States"},"geometry":{"type":"Polygon","coordinates":[[[-80.698565,26.062694],[-79.211732,26.761492],[-79.057436,28.372892],[-80.425375,29.321821],[-81.966494,28.631807],[-82.084301,26.984013],[-80.698565,26.062694]]]}},{"type":"Feature","properties":{"hex_id":"8244b7fffffffff","population":326361,"population_year":2025,"area_km2":70782.3,"population_density":4.6,"all_players":1,"players_per_million":3.06,"player_ids":["nba:1629028"],"label":"Nassau","country":"The Bahamas"},"geometry":{"type":"Polygon","coordinates":[[[-76.831217,23.342863],[-75.445541,24.012557],[-75.251887,25.568754],[-76.472185,26.494291],[-77.908907,25.835601],[-78.073265,24.24011],[-76.831217,23.342863]]]}},{"type":"Feature","properties":{"hex_id":"8244c7fffffffff","population":6948496,"population_year":2025,"area_km2":80847.5,"population_density":85.9,"all_players":15,"players_per_million":2.16,"player_ids":["nba:1628976","nba:1630162","nba:1630170","nba:1630171","nba:1631095","nba:1631117","nba:1641767","nba:1642264","nba:1642268","nba:1642854","nba:1642883","nba:1642928","nba:1642939","nba:1642954","nba:203484"],"label":"Atlanta","country":"United States"},"geometry":{"type":"Polygon","coordinates":[[[-83.318504,31.226884],[-81.720688,31.908012],[-81.592393,33.531156],[-83.104736,34.505705],[-84.761579,33.833075],[-84.845862,32.177532],[-83.318504,31.226884]]]}},{"type":"Feature","properties":{"hex_id":"8244cffffffffff","population":5279881,"population_year":2025,"area_km2":81458.9,"population_density":64.8,"all_players":4,"players_per_million":0.76,"player_ids":["nba:1627759","nba:1629012","nba:1630703","nba:1642846"],"label":"Marietta","country":"United States"},"geometry":{"type":"Polygon","coordinates":[[[-84.761579,33.833075],[-83.104736,34.505705],[-82.992984,36.123996],[-84.585167,37.099589],[-86.303213,36.434527],[-86.366648,34.786557],[-84.761579,33.833075]]]}},{"type":"Feature","properties":{"hex_id":"8244d7fffffffff","population":1889865,"population_year":2025,"area_km2":76219.8,"population_density":24.8,"all_players":3,"players_per_million":1.59,"player_ids":["nba:1630174","nba:1641771","nba:203114"],"label":"Charleston","country":"United States"},"geometry":{"type":"Polygon","coordinates":[[[-80.283005,30.942583],[-78.735928,31.57726],[-78.568356,33.165261],[-79.985888,34.15372],[-81.592393,33.531156],[-81.720688,31.908012],[-80.283005,30.942583]]]}},{"type":"Feature","properties":{"hex_id":"8244dffffffffff","population":7412190,"population_year":2025,"area_km2":77926.1,"population_density":95.1,"all_players":19,"players_per_million":2.56,"player_ids":["nba:1628997","nba:1628998","nba:1629627","nba:1629630","nba:1629651","nba:1630172","nba:1630180","nba:1630264","nba:1631121","nba:1641713","nba:1641730","nba:1641778","nba:1641790","nba:1641794","nba:1641816","nba:1642265","nba:1642867","nba:1643047","nba:203552"],"label":"Charlotte","country":"United States"},"geometry":{"type":"Polygon","coordinates":[[[-81.592393,33.531156],[-79.985888,34.15372],[-79.557618,35.583567],[-81.068449,36.598719],[-82.992984,36.123996],[-83.104736,34.505705],[-81.592393,33.531156]]]}},{"type":"Feature","properties":{"hex_id":"8244effffffffff","population":3612428,"population_year":2025,"area_km2":85294.5,"population_density":42.4,"all_players":7,"players_per_million":1.94,"player_ids":["nba:1630529","nba:1630570","nba:1631120","nba:1641732","nba:1641998","nba:1642959","nba:1643052"],"label":"Birmingham","country":"United States"},"geometry":{"type":"Polygon","coordinates":[[[-86.487848,31.44625],[-84.845862,32.177532],[-84.761579,33.833075],[-86.366648,34.786557],[-88.065886,34.059836],[-88.101738,32.375354],[-86.487848,31.44625]]]}},{"type":"Feature","properties":{"hex_id":"8244f7fffffffff","population":4583226,"population_year":2025,"area_km2":79647.5,"population_density":57.5,"all_players":6,"players_per_million":1.31,"player_ids":["nba:1628960","nba:1630286","nba:1630544","nba:1630558","nba:1631165","nba:1642396"],"label":"Brunswick","country":"United States"},"geometry":{"type":"Polygon","coordinates":[[[-81.966494,28.631807],[-80.425375,29.321821],[-80.283005,30.942583],[-81.720688,31.908012],[-83.318504,31.226884],[-83.420798,29.571467],[-81.966494,28.631807]]]}},{"type":"Feature","properties":{"hex_id":"82489ffffffffff","population":6429694,"population_year":2025,"area_km2":99241.3,"population_density":64.8,"all_players":8,"players_per_million":1.24,"player_ids":["nba:1626220","nba:1627752","nba:1629026","nba:1641755","nba:1641763","nba:1642347","nba:1642877","nba:1643257"],"label":"Killeen","country":"United States"},"geometry":{"type":"Polygon","coordinates":[[[-98.247879,28.919834],[-96.567347,29.863731],[-96.66289,31.619531],[-98.493873,32.444355],[-100.211784,31.489938],[-100.061215,29.721882],[-98.247879,28.919834]]]}},{"type":"Feature","properties":{"hex_id":"8248effffffffff","population":7170957,"population_year":2025,"area_km2":101417.2,"population_density":70.7,"all_players":5,"players_per_million":0.7,"player_ids":["nba:1628963","nba:1629680","nba:1631102","nba:1631207","nba:1642345"],"label":"Phoenix","country":"United States"},"geometry":{"type":"Polygon","coordinates":[[[-110.973266,30.491571],[-109.334035,31.601966],[-109.632511,33.353313],[-111.622726,33.985325],[-113.268008,32.856905],[-112.918132,31.115173],[-110.973266,30.491571]]]}},{"type":"Feature","properties":{"hex_id":"824b67fffffffff","population":7712336,"population_year":2025,"area_km2":70058.2,"population_density":110.1,"all_players":1,"players_per_million":0.13,"player_ids":["nba:1642530"],"label":"Yanai","country":"Japan"},"geometry":{"type":"Polygon","coordinates":[[[130.557843,33.768644],[130.260732,32.389001],[131.702216,31.564914],[133.45368,32.12931],[133.762313,33.515468],[132.308377,34.331159],[130.557843,33.768644]]]}},{"type":"Feature","properties":{"hex_id":"824c8ffffffffff","population":6715398,"population_year":2025,"area_km2":63447.1,"population_density":105.8,"all_players":2,"players_per_million":0.3,"player_ids":["nba:1643158","nba:201143"],"label":"Puerto Plata","country":"Dominican Republic"},"geometry":{"type":"Polygon","coordinates":[[[-72.083595,21.373772],[-73.3708,20.726751],[-73.199201,19.391406],[-71.730136,18.713931],[-70.45385,19.381759],[-70.635386,20.705847],[-72.083595,21.373772]]]}},{"type":"Feature","properties":{"hex_id":"824cd7fffffffff","population":7721610,"population_year":2025,"area_km2":65961.6,"population_density":117.1,"all_players":1,"players_per_million":0.13,"player_ids":["nba:1642357"],"label":"Santo Domingo","country":"Dominican Republic"},"geometry":{"type":"Polygon","coordinates":[[[-70.45385,19.381759],[-71.730136,18.713931],[-71.551099,17.332941],[-70.086138,16.633168],[-68.822887,17.323396],[-69.011224,18.690619],[-70.45385,19.381759]]]}},{"type":"Feature","properties":{"hex_id":"825447fffffffff","population":9530601,"population_year":2025,"area_km2":73030.9,"population_density":130.5,"all_players":1,"players_per_million":0.1,"player_ids":["nba:1642368"],"label":"Bamako","country":"Mali"},"geometry":{"type":"Polygon","coordinates":[[[-7.794022,13.699301],[-9.251135,12.921663],[-9.367549,11.435581],[-8.069918,10.746291],[-6.654609,11.503405],[-6.495884,12.96973],[-7.794022,13.699301]]]}},{"type":"Feature","properties":{"hex_id":"8254c7fffffffff","population":1781048,"population_year":2025,"area_km2":74863.4,"population_density":23.8,"all_players":1,"players_per_million":0.56,"player_ids":["nba:1630619"],"label":"Conakry","country":"Guinea"},"geometry":{"type":"Polygon","coordinates":[[[-14.970363,11.216545],[-16.399582,10.397267],[-16.40004,8.930403],[-15.017096,8.290872],[-13.620577,9.08223],[-13.574644,10.540215],[-14.970363,11.216545]]]}},{"type":"Feature","properties":{"hex_id":"82589ffffffffff","population":3121315,"population_year":2025,"area_km2":70058.2,"population_density":44.6,"all_players":3,"players_per_million":0.96,"player_ids":["nba:1629006","nba:1629646","nba:1641737"],"label":"Lagos","country":"Nigeria"},"geometry":{"type":"Polygon","coordinates":[[[3.125247,6.42502],[2.826003,5.055078],[3.943036,3.968797],[5.380973,4.221154],[5.720322,5.590237],[4.581792,6.708567],[3.125247,6.42502]]]}},{"type":"Feature","properties":{"hex_id":"825e47fffffffff","population":141362,"population_year":2025,"area_km2":73030.9,"population_density":1.9,"all_players":1,"players_per_million":7.07,"player_ids":["nba:1628449"],"label":"Castries","country":"Saint Lucia"},"geometry":{"type":"Polygon","coordinates":[[[-61.536047,13.315163],[-60.296727,14.395691],[-60.525074,15.869734],[-61.979153,16.249349],[-63.191495,15.181722],[-62.976789,13.721947],[-61.536047,13.315163]]]}},{"type":"Feature","properties":{"hex_id":"826727fffffffff","population":7393879,"population_year":2025,"area_km2":68186.6,"population_density":108.4,"all_players":1,"players_per_million":0.14,"player_ids":["nba:1627746"],"label":"Port-au-Prince","country":"Haiti"},"geometry":{"type":"Polygon","coordinates":[[[-73.199201,19.391406],[-74.509206,18.697242],[-74.340779,17.3045],[-72.851414,16.617248],[-71.551099,17.332941],[-71.730136,18.713931],[-73.199201,19.391406]]]}},{"type":"Feature","properties":{"hex_id":"826737fffffffff","population":1800117,"population_year":2025,"area_km2":70058.2,"population_density":25.7,"all_players":1,"players_per_million":0.56,"player_ids":["nba:1630208"],"label":"Kingston","country":"Jamaica"},"geometry":{"type":"Polygon","coordinates":[[[-75.998548,19.358823],[-77.336996,18.638235],[-77.180408,17.235914],[-75.673235,16.563292],[-74.340779,17.3045],[-74.509206,18.697242],[-75.998548,19.358823]]]}},{"type":"Feature","properties":{"hex_id":"826797fffffffff","population":1201944,"population_year":2025,"area_km2":81458.9,"population_density":14.8,"all_players":1,"players_per_million":0.83,"player_ids":["nba:1641807"],"label":"Bluefields","country":"Nicaragua"},"geometry":{"type":"Polygon","coordinates":[[[-84.224607,14.6895],[-85.631069,13.836854],[-85.512332,12.31272],[-83.971963,11.643423],[-82.55962,12.514857],[-82.69335,14.036239],[-84.224607,14.6895]]]}},{"type":"Feature","properties":{"hex_id":"826a0ffffffffff","population":1586140,"population_year":2025,"area_km2":87326.6,"population_density":18.2,"all_players":1,"players_per_million":0.63,"player_ids":["nba:1642863"],"label":"Rumbek","country":"South Sudan"},"geometry":{"type":"Polygon","coordinates":[[[29.961298,5.181923],[30.597119,6.672538],[29.544342,7.923279],[27.860067,7.70518],[27.209856,6.23051],[28.257503,4.957755],[29.961298,5.181923]]]}},{"type":"Feature","properties":{"hex_id":"826a77fffffffff","population":1882960,"population_year":2025,"area_km2":85321.7,"population_density":22.1,"all_players":1,"players_per_million":0.53,"player_ids":["nba:1641871"],"label":"Waat","country":"South Sudan"},"geometry":{"type":"Polygon","coordinates":[[[30.2491,9.396155],[29.544342,7.923279],[30.597119,6.672538],[32.283334,6.883778],[32.897872,8.336574],[31.94753,9.601672],[30.2491,9.396155]]]}},{"type":"Feature","properties":{"hex_id":"826adffffffffff","population":40098258,"population_year":2025,"area_km2":98815.5,"population_density":405.8,"all_players":1,"players_per_million":0.02,"player_ids":["nba:1630228"],"label":"Goma","country":"Democratic Republic of the Congo"},"geometry":{"type":"Polygon","coordinates":[[[31.272445,-3.53636],[31.921816,-1.919557],[30.825041,-0.559499],[29.081378,-0.796995],[28.415031,-2.401486],[29.508441,-3.781048],[31.272445,-3.53636]]]}},{"type":"Feature","properties":{"hex_id":"82828ffffffffff","population":5899558,"population_year":2025,"area_km2":80847.5,"population_density":73.0,"all_players":1,"players_per_million":0.17,"player_ids":["nba:203954"],"label":"Yaoundé","country":"Cameroon"},"geometry":{"type":"Polygon","coordinates":[[[12.488314,1.301614],[13.190831,2.802597],[12.294352,4.039836],[10.722778,3.789625],[10.026445,2.31899],[10.894897,1.068516],[12.488314,1.301614]]]}},{"type":"Feature","properties":{"hex_id":"8282d7fffffffff","population":6178816,"population_year":2025,"area_km2":76219.8,"population_density":81.1,"all_players":2,"players_per_million":0.32,"player_ids":["nba:1627783","nba:1631132"],"label":"Douala","country":"Cameroon"},"geometry":{"type":"Polygon","coordinates":[[[10.026445,2.31899],[10.722778,3.789625],[9.867156,4.989684],[8.344199,4.732154],[7.656465,3.293009],[8.482577,2.080262],[10.026445,2.31899]]]}},{"type":"Feature","properties":{"hex_id":"8282dffffffffff","population":30257808,"population_year":2025,"area_km2":72289.7,"population_density":418.6,"all_players":1,"players_per_million":0.03,"player_ids":["nba:1630173"],"label":"Port Harcourt","country":"Nigeria"},"geometry":{"type":"Polygon","coordinates":[[[7.656465,3.293009],[8.344199,4.732154],[7.212915,5.860392],[5.720322,5.590237],[5.380973,4.221154],[6.164724,3.047732],[7.656465,3.293009]]]}},{"type":"Feature","properties":{"hex_id":"82960ffffffffff","population":5925456,"population_year":2025,"area_km2":104135.0,"population_density":56.9,"all_players":2,"players_per_million":0.34,"player_ids":["nba:1631131","nba:202687"],"label":"Lubumbashi","country":"Democratic Republic of the Congo"},"geometry":{"type":"Polygon","coordinates":[[[27.182251,-13.475427],[27.887041,-11.807394],[26.767979,-10.380054],[24.9542,-10.610164],[24.236516,-12.265824],[25.344468,-13.703903],[27.182251,-13.475427]]]}},{"type":"Feature","properties":{"hex_id":"82a727fffffffff","population":1275914,"population_year":2025,"area_km2":68186.6,"population_density":18.7,"all_players":1,"players_per_million":0.78,"player_ids":["nba:1631247"],"label":"Perth","country":"Australia"},"geometry":{"type":"Polygon","coordinates":[[[116.156806,-31.717896],[115.365356,-30.470522],[113.5891,-30.27389],[112.519247,-31.318696],[113.256895,-32.609931],[115.121218,-32.812717],[116.156806,-31.717896]]]}},{"type":"Feature","properties":{"hex_id":"82a8d7fffffffff","population":3105120,"population_year":2025,"area_km2":97556.0,"population_density":31.8,"all_players":1,"players_per_million":0.32,"player_ids":["nba:1630611"],"label":"Brasília","country":"Brazil"},"geometry":{"type":"Polygon","coordinates":[[[-46.117749,-17.759599],[-44.70061,-16.685821],[-45.005667,-14.97354],[-46.718173,-14.342511],[-48.126183,-15.422507],[-47.831229,-17.126909],[-46.117749,-17.759599]]]}},{"type":"Feature","properties":{"hex_id":"82b917fffffffff","population":1613160,"population_year":2025,"area_km2":95515.4,"population_density":16.9,"all_players":1,"players_per_million":0.62,"player_ids":["nba:204060"],"label":"Adelaide","country":"Australia"},"geometry":{"type":"Polygon","coordinates":[[[138.617833,-35.797135],[139.129671,-34.088237],[137.662578,-32.868454],[135.707627,-33.326136],[135.142328,-34.999661],[136.582892,-36.251125],[138.617833,-35.797135]]]}},{"type":"Feature","properties":{"hex_id":"82bb0ffffffffff","population":580554,"population_year":2025,"area_km2":88726.5,"population_density":6.5,"all_players":1,"players_per_million":1.72,"player_ids":["nba:203500"],"label":"Rotorua","country":"New Zealand"},"geometry":{"type":"Polygon","coordinates":[[[178.908854,-39.784657],[178.583766,-38.115997],[176.688659,-37.499409],[175.036544,-38.552712],[175.291773,-40.256026],[177.271382,-40.871785],[178.908854,-39.784657]]]}},{"type":"Feature","properties":{"hex_id":"82bcc7fffffffff","population":16401038,"population_year":2025,"area_km2":95515.4,"population_density":171.7,"all_players":1,"players_per_million":0.06,"player_ids":["nba:1642879"],"label":"Johannesburg","country":"South Africa"},"geometry":{"type":"Polygon","coordinates":[[[29.424697,-28.585894],[30.161044,-27.015106],[28.952033,-25.669244],[27.013681,-25.892672],[26.259296,-27.461202],[27.460057,-28.808795],[29.424697,-28.585894]]]}},{"type":"Feature","properties":{"hex_id":"82be0ffffffffff","population":6793674,"population_year":2025,"area_km2":104135.0,"population_density":65.2,"all_players":2,"players_per_million":0.29,"player_ids":["nba:1630182","nba:1642878"],"label":"Sydney","country":"Australia"},"geometry":{"type":"Polygon","coordinates":[[[152.177285,-35.125129],[152.420459,-33.332138],[150.704674,-32.253721],[148.729494,-32.935272],[148.409969,-34.714468],[150.140595,-35.826845],[152.177285,-35.125129]]]}},{"type":"Feature","properties":{"hex_id":"82be47fffffffff","population":671946,"population_year":2025,"area_km2":101417.2,"population_density":6.6,"all_players":1,"players_per_million":1.49,"player_ids":["nba:1630700"],"label":"Bendigo","country":"Australia"},"geometry":{"type":"Polygon","coordinates":[[[145.990588,-37.115507],[146.369194,-35.351443],[144.717645,-34.194236],[142.690336,-34.767932],[142.240937,-36.507338],[143.887418,-37.698406],[145.990588,-37.115507]]]}},{"type":"Feature","properties":{"hex_id":"82be67fffffffff","population":5799918,"population_year":2025,"area_km2":101417.2,"population_density":57.2,"all_players":3,"players_per_million":0.52,"player_ids":["nba:1629111","nba:1630581","nba:1642277"],"label":"Melbourne","country":"Australia"},"geometry":{"type":"Polygon","coordinates":[[[147.365513,-40.022078],[147.728894,-38.261419],[145.990588,-37.115507],[143.887418,-37.698406],[143.445429,-39.437203],[145.182884,-40.615783],[147.365513,-40.022078]]]}},{"type":"Feature","properties":{"hex_id":"82be8ffffffffff","population":3414014,"population_year":2025,"area_km2":101417.2,"population_density":33.7,"all_players":1,"players_per_million":0.29,"player_ids":["nba:1642911"],"label":"Sunshine Coast","country":"Australia"},"geometry":{"type":"Polygon","coordinates":[[[154.931553,-27.234921],[155.100683,-25.47207],[153.49711,-24.457404],[151.703594,-25.170738],[151.46847,-26.924893],[153.092109,-27.975349],[154.931553,-27.234921]]]}}]}