{"type":"FeatureCollection","metadata":{"population_source":"WorldPop Global 2 R2025A","population_source_url":"https://hub.worldpop.org/project/categories?id=3","population_license":"CC BY 4.0","population_year":2025,"raster_resolution":"1km","h3_resolution":1,"population_method":"official_country_rasters","occupied_cells":65,"mapped_players":577},"features":[{"type":"Feature","properties":{"hex_id":"8108bffffffffff","population":9413392,"population_year":2025,"area_km2":447684.2,"population_density":21.0,"all_players":1,"players_per_million":0.11,"player_ids":["nba:1641796"],"label":"Nacka","country":"Sweden"},"geometry":{"type":"Polygon","coordinates":[[[11.08066,61.540515],[11.555978,58.130531],[18.275236,56.632953],[25.082722,58.401545],[24.517172,62.478113],[17.535446,63.800793],[15.771774,62.889968],[11.08066,61.540515]]]}},{"type":"Feature","properties":{"hex_id":"81113ffffffffff","population":12600486,"population_year":2025,"area_km2":510516.1,"population_density":24.7,"all_players":1,"players_per_million":0.08,"player_ids":["nba:1628374"],"label":"Vantaa","country":"Finland"},"geometry":{"type":"Polygon","coordinates":[[[25.082722,58.401545],[31.095814,56.470005],[37.661108,58.480663],[38.741468,62.771655],[31.517537,64.873037],[24.517172,62.478113],[25.082722,58.401545]]]}},{"type":"Feature","properties":{"hex_id":"8111bffffffffff","population":41364282,"population_year":2025,"area_km2":565620.1,"population_density":73.1,"all_players":1,"players_per_million":0.02,"player_ids":["nba:1642856"],"label":"Moscow","country":"Russia"},"geometry":{"type":"Polygon","coordinates":[[[30.654128,52.413789],[36.116724,49.779343],[42.136829,51.409437],[43.547482,55.820804],[37.661108,58.480663],[31.095814,56.470005],[31.017704,54.340219],[30.654128,52.413789]]]}},{"type":"Feature","properties":{"hex_id":"81187ffffffffff","population":21776966,"population_year":2025,"area_km2":595741.2,"population_density":36.6,"all_players":3,"players_per_million":0.14,"player_ids":["nba:1630846","nba:1642259","nba:201587"],"label":"Niort","country":"France"},"geometry":{"type":"Polygon","coordinates":[[[-4.88976,51.223728],[-9.724736,48.430094],[-8.101589,44.050631],[-2.417796,42.54048],[2.026569,45.184249],[1.18851,49.470279],[-4.88976,51.223728]]]}},{"type":"Feature","properties":{"hex_id":"81197ffffffffff","population":88036357,"population_year":2025,"area_km2":523941.7,"population_density":168.0,"all_players":7,"players_per_million":0.08,"player_ids":["nba:1628384","nba:1631107","nba:1641787","nba:1642366","nba:1642400","nba:1642502","nba:1642873"],"label":"Nottingham","country":"United Kingdom"},"geometry":{"type":"Polygon","coordinates":[[[-0.931587,57.689497],[-6.436337,55.37739],[-4.88976,51.223728],[1.18851,49.470279],[3.630009,50.610463],[6.259687,51.96477],[5.523647,55.706768],[-0.931587,57.689497]]]}},{"type":"Feature","properties":{"hex_id":"811e3ffffffffff","population":71057199,"population_year":2025,"area_km2":595741.2,"population_density":119.3,"all_players":5,"players_per_million":0.07,"player_ids":["nba:1627751","nba:1629029","nba:1630249","nba:1642260","nba:203999"],"label":"Sombor","country":"Serbia"},"geometry":{"type":"Polygon","coordinates":[[[12.345747,50.554275],[12.677318,46.406957],[18.31474,44.47068],[24.013384,46.595885],[24.329,50.776322],[18.289963,52.819052],[12.345747,50.554275]]]}},{"type":"Feature","properties":{"hex_id":"811e7ffffffffff","population":33092235,"population_year":2025,"area_km2":595741.2,"population_density":55.5,"all_players":2,"players_per_million":0.06,"player_ids":["nba:1629004","nba:1642917"],"label":"Kyiv","country":"Ukraine"},"geometry":{"type":"Polygon","coordinates":[[[24.329,50.776322],[24.013384,46.595885],[29.387082,44.107766],[35.197789,45.672385],[36.116724,49.779343],[30.654128,52.413789],[24.329,50.776322]]]}},{"type":"Feature","properties":{"hex_id":"811ebffffffffff","population":42059136,"population_year":2025,"area_km2":647632.6,"population_density":64.9,"all_players":5,"players_per_million":0.12,"player_ids":["nba:1627826","nba:1631255","nba:1631323","nba:1641774","nba:203967"],"label":"Mostar","country":"Bosnia and Herzegovina"},"geometry":{"type":"Polygon","coordinates":[[[7.509948,43.786609],[8.045142,39.402136],[13.244313,37.523712],[18.32526,39.988178],[18.31474,44.47068],[12.677318,46.406957],[7.509948,43.786609]]]}},{"type":"Feature","properties":{"hex_id":"811efffffffffff","population":50991723,"population_year":2025,"area_km2":666617.1,"population_density":76.5,"all_players":5,"players_per_million":0.1,"player_ids":["nba:1630828","nba:203507","nba:203648","nba:203992","nba:203994"],"label":"Athens","country":"Greece"},"geometry":{"type":"Polygon","coordinates":[[[18.31474,44.47068],[18.32526,39.988178],[23.474781,37.630343],[28.846869,39.643311],[29.387082,44.107766],[24.013384,46.595885],[18.31474,44.47068]]]}},{"type":"Feature","properties":{"hex_id":"811f3ffffffffff","population":49754999,"population_year":2025,"area_km2":510516.1,"population_density":97.5,"all_players":5,"players_per_million":0.1,"player_ids":["nba:1629021","nba:1630532","nba:1630574","nba:1641752","nba:203471"],"label":"Berlin","country":"Germany"},"geometry":{"type":"Polygon","coordinates":[[[5.523647,55.706768],[6.259687,51.96477],[12.345747,50.554275],[18.289963,52.819052],[18.275236,56.632953],[11.555978,58.130531],[5.523647,55.706768]]]}},{"type":"Feature","properties":{"hex_id":"811f7ffffffffff","population":25290714,"population_year":2025,"area_km2":523941.7,"population_density":48.3,"all_players":3,"players_per_million":0.12,"player_ids":["nba:1642857","nba:202685","nba:204001"],"label":"Utena","country":"Lithuania"},"geometry":{"type":"Polygon","coordinates":[[[18.275236,56.632953],[18.289963,52.819052],[24.329,50.776322],[30.654128,52.413789],[31.017704,54.340219],[31.095814,56.470005],[25.082722,58.401545],[18.275236,56.632953]]]}},{"type":"Feature","properties":{"hex_id":"811fbffffffffff","population":119418410,"population_year":2025,"area_km2":565620.1,"population_density":211.1,"all_players":23,"players_per_million":0.19,"player_ids":["nba:1627824","nba:1628467","nba:1631217","nba:1631321","nba:1641705","nba:1641712","nba:1641731","nba:1641739","nba:1641783","nba:1642273","nba:1642274","nba:1642275","nba:1642349","nba:1642380","nba:1642849","nba:1642855","nba:1642869","nba:1642875","nba:1642885","nba:1642949","nba:202696","nba:203497","nba:203991"],"label":"Paris","country":"France"},"geometry":{"type":"Polygon","coordinates":[[[1.18851,49.470279],[2.026569,45.184249],[7.509948,43.786609],[12.677318,46.406957],[12.345747,50.554275],[6.259687,51.96477],[3.630009,50.610463],[1.18851,49.470279]]]}},{"type":"Feature","properties":{"hex_id":"8120bffffffffff","population":103642617,"population_year":2025,"area_km2":707475.0,"population_density":146.5,"all_players":1,"players_per_million":0.01,"player_ids":["nba:1630209"],"label":"Tashkent","country":"Uzbekistan"},"geometry":{"type":"Polygon","coordinates":[[[65.030331,37.894404],[67.98289,33.902397],[73.592618,33.705753],[76.945351,37.477284],[74.436338,41.761837],[68.048608,41.985775],[65.030331,37.894404]]]}},{"type":"Feature","properties":{"hex_id":"81263ffffffffff","population":10240947,"population_year":2025,"area_km2":614937.0,"population_density":16.7,"all_players":19,"players_per_million":1.86,"player_ids":["nba:1626145","nba:1629599","nba:1630192","nba:1630200","nba:1630579","nba:1630591","nba:1631096","nba:1631213","nba:1631223","nba:1631248","nba:1631260","nba:1642261","nba:1642282","nba:1642362","nba:1642419","nba:1642910","nba:1642935","nba:1642938","nba:203084"],"label":"Minneapolis","country":"United States"},"geometry":{"type":"Polygon","coordinates":[[[-99.917049,47.471519],[-102.323756,45.197628],[-103.535954,44.08338],[-101.04033,40.088597],[-95.246862,39.326803],[-92.81941,41.451207],[-91.476262,42.44496],[-93.395849,46.63002],[-99.917049,47.471519]]]}},{"type":"Feature","properties":{"hex_id":"81267ffffffffff","population":25791718,"population_year":2025,"area_km2":602082.0,"population_density":42.8,"all_players":36,"players_per_million":1.4,"player_ids":["nba:1626156","nba:1626166","nba:1628369","nba:1628370","nba:1629008","nba:1629013","nba:1629023","nba:1629726","nba:1630164","nba:1630526","nba:1630559","nba:1630604","nba:1630692","nba:1630696","nba:1631099","nba:1631113","nba:1631126","nba:1631200","nba:1631218","nba:1641706","nba:1641747","nba:1641750","nba:1641813","nba:1641854","nba:1641869","nba:1642404","nba:1642461","nba:1642484","nba:1642847","nba:1642933","nba:1642964","nba:1642967","nba:1643007","nba:201569","nba:203078","nba:203914"],"label":"St. Louis","country":"United States"},"geometry":{"type":"Polygon","coordinates":[[[-88.065886,34.059836],[-84.585167,37.099589],[-85.703199,41.161269],[-91.476262,42.44496],[-92.81941,41.451207],[-95.246862,39.326803],[-93.265212,35.090108],[-88.065886,34.059836]]]}},{"type":"Feature","properties":{"hex_id":"8126bffffffffff","population":8947665,"population_year":2025,"area_km2":647632.6,"population_density":13.8,"all_players":9,"players_per_million":1.01,"player_ids":["nba:1628381","nba:1628401","nba:1630241","nba:1631114","nba:1642363","nba:1642382","nba:1642876","nba:1642880","nba:1643133"],"label":"Colorado Springs","country":"United States"},"geometry":{"type":"Polygon","coordinates":[[[-104.454816,36.494369],[-101.04033,40.088597],[-103.535954,44.08338],[-109.788387,44.413071],[-113.046271,40.72062],[-110.257485,36.800197],[-104.454816,36.494369]]]}},{"type":"Feature","properties":{"hex_id":"8126fffffffffff","population":17160726,"population_year":2025,"area_km2":666617.1,"population_density":25.7,"all_players":36,"players_per_million":2.1,"player_ids":["nba:1626167","nba:1629027","nba:1629610","nba:1629637","nba:1629731","nba:1630178","nba:1630198","nba:1630322","nba:1630592","nba:1630595","nba:1630811","nba:1631110","nba:1631119","nba:1631127","nba:1631128","nba:1631133","nba:1631166","nba:1631204","nba:1641710","nba:1641711","nba:1641717","nba:1641718","nba:1641725","nba:1641775","nba:1641815","nba:1641842","nba:1642266","nba:1642281","nba:1642384","nba:1642450","nba:1642848","nba:1642862","nba:1642951","nba:201144","nba:203935","nba:203944"],"label":"Dallas","country":"United States"},"geometry":{"type":"Polygon","coordinates":[[[-96.66289,31.619531],[-93.265212,35.090108],[-95.246862,39.326803],[-101.04033,40.088597],[-104.454816,36.494369],[-102.093235,32.268747],[-96.66289,31.619531]]]}},{"type":"Feature","properties":{"hex_id":"81273ffffffffff","population":1973811,"population_year":2025,"area_km2":666617.1,"population_density":3.0,"all_players":1,"players_per_million":0.51,"player_ids":["nba:203926"],"label":"Grand Forks","country":"United States"},"geometry":{"type":"Polygon","coordinates":[[[-98.561848,55.218551],[-102.902298,51.556776],[-99.917049,47.471519],[-93.395849,46.63002],[-88.654124,49.812423],[-90.651446,54.300916],[-98.561848,55.218551]]]}},{"type":"Feature","properties":{"hex_id":"81277ffffffffff","population":23070026,"population_year":2025,"area_km2":647632.6,"population_density":35.6,"all_players":38,"players_per_million":1.65,"player_ids":["nba:1626164","nba:1626172","nba:1628398","nba:1628420","nba:1628970","nba:1628975","nba:1629622","nba:1629636","nba:1629639","nba:1629673","nba:1629723","nba:1630214","nba:1630245","nba:1630534","nba:1630543","nba:1630545","nba:1630552","nba:1630573","nba:1630587","nba:1631093","nba:1631104","nba:1631108","nba:1631116","nba:1631214","nba:1631288","nba:1631351","nba:1641723","nba:1641724","nba:1641764","nba:1641809","nba:1641810","nba:1641824","nba:1642353","nba:1642851","nba:1642874","nba:1642914","nba:203076","nba:203110"],"label":"Chicago","country":"United States"},"geometry":{"type":"Polygon","coordinates":[[[-88.654124,49.812423],[-93.395849,46.63002],[-91.476262,42.44496],[-85.703199,41.161269],[-80.982253,43.86012],[-81.919627,48.295316],[-88.654124,49.812423]]]}},{"type":"Feature","properties":{"hex_id":"81283ffffffffff","population":15759816,"population_year":2025,"area_km2":595741.2,"population_density":26.5,"all_players":11,"players_per_million":0.7,"player_ids":["nba:1631123","nba:1641708","nba:1641709","nba:1642272","nba:1642352","nba:1642377","nba:1642389","nba:1642859","nba:1642920","nba:1643060","nba:203932"],"label":"Oakland","country":"United States"},"geometry":{"type":"Polygon","coordinates":[[[-121.707157,36.574218],[-119.002282,40.570572],[-122.134831,44.057691],[-127.958662,43.419208],[-130.222638,39.442424],[-127.138101,36.079796],[-121.707157,36.574218]]]}},{"type":"Feature","properties":{"hex_id":"8128fffffffffff","population":14259378,"population_year":2025,"area_km2":523941.7,"population_density":27.2,"all_players":17,"players_per_million":1.19,"player_ids":["nba:1627734","nba:1627749","nba:1627780","nba:1628392","nba:1629634","nba:1629645","nba:1630175","nba:1630183","nba:1630202","nba:1630557","nba:1630590","nba:1630649","nba:1630699","nba:1631094","nba:1642403","nba:203897","nba:203924"],"label":"Portland","country":"United States"},"geometry":{"type":"Polygon","coordinates":[[[-122.134831,44.057691],[-119.232215,47.804097],[-120.907545,49.395034],[-123.122866,50.984711],[-128.909854,50.154512],[-131.290159,46.416948],[-127.958662,43.419208],[-122.134831,44.057691]]]}},{"type":"Feature","properties":{"hex_id":"8129bffffffffff","population":31485482,"population_year":2025,"area_km2":666617.1,"population_density":47.2,"all_players":37,"players_per_million":1.18,"player_ids":["nba:1628366","nba:1628380","nba:1629001","nba:1629162","nba:1629216","nba:1630163","nba:1630168","nba:1630224","nba:1630314","nba:1630533","nba:1630548","nba:1630596","nba:1630679","nba:1631115","nba:1631124","nba:1631170","nba:1631212","nba:1631222","nba:1631245","nba:1641740","nba:1641757","nba:1641989","nba:1642262","nba:1642354","nba:1642358","nba:1642868","nba:1642907","nba:1642942","nba:201566","nba:201567","nba:201572","nba:201935","nba:201942","nba:201950","nba:202331","nba:202691","nba:202695"],"label":"Los Angeles","country":"United States"},"geometry":{"type":"Polygon","coordinates":[[[-113.268008,32.856905],[-110.257485,36.800197],[-113.046271,40.72062],[-119.002282,40.570572],[-121.707157,36.574218],[-118.804528,32.779438],[-113.268008,32.856905]]]}},{"type":"Feature","properties":{"hex_id":"812a3ffffffffff","population":39671228,"population_year":2025,"area_km2":595741.2,"population_density":66.6,"all_players":54,"players_per_million":1.36,"player_ids":["nba:1626157","nba:1626192","nba:1627739","nba:1628371","nba:1628378","nba:1628964","nba:1628969","nba:1628971","nba:1628973","nba:1628989","nba:1628991","nba:1629130","nba:1629611","nba:1629631","nba:1629660","nba:1629675","nba:1630167","nba:1630230","nba:1630536","nba:1630551","nba:1630572","nba:1630577","nba:1630623","nba:1630631","nba:1631174","nba:1631199","nba:1631210","nba:1631221","nba:1631230","nba:1631243","nba:1631338","nba:1631342","nba:1631457","nba:1641726","nba:1641727","nba:1641772","nba:1642270","nba:1642271","nba:1642278","nba:1642346","nba:1642348","nba:1642364","nba:1642504","nba:1642844","nba:1642853","nba:1642886","nba:1642955","nba:1643024","nba:1643253","nba:200768","nba:201959","nba:202699","nba:203083","nba:203937"],"label":"Brooklyn","country":"United States"},"geometry":{"type":"Polygon","coordinates":[[[-69.955068,44.277849],[-75.333452,42.029564],[-75.063317,37.849069],[-70.311412,35.933887],[-65.448142,37.822091],[-64.835193,41.948534],[-69.955068,44.277849]]]}},{"type":"Feature","properties":{"hex_id":"812abffffffffff","population":54889027,"population_year":2025,"area_km2":595741.2,"population_density":92.1,"all_players":63,"players_per_million":1.15,"player_ids":["nba:101108","nba:1626204","nba:1627747","nba:1627750","nba:1627884","nba:1628365","nba:1628379","nba:1628404","nba:1628436","nba:1628502","nba:1628978","nba:1629018","nba:1629312","nba:1629640","nba:1629661","nba:1629750","nba:1630193","nba:1630217","nba:1630256","nba:1630311","nba:1630530","nba:1630538","nba:1630540","nba:1630568","nba:1630598","nba:1630621","nba:1630643","nba:1630644","nba:1630695","nba:1630702","nba:1631101","nba:1631103","nba:1631105","nba:1631111","nba:1631157","nba:1631211","nba:1631246","nba:1631250","nba:1641715","nba:1641716","nba:1641722","nba:1641753","nba:1642066","nba:1642263","nba:1642267","nba:1642280","nba:1642285","nba:1642355","nba:1642402","nba:1642443","nba:1642490","nba:1642852","nba:1642860","nba:1642882","nba:1642962","nba:1643016","nba:201142","nba:201145","nba:201939","nba:203468","nba:203486","nba:204456","nba:2544"],"label":"Baltimore","country":"United States"},"geometry":{"type":"Polygon","coordinates":[[[-80.982253,43.86012],[-85.703199,41.161269],[-84.585167,37.099589],[-79.557618,35.583567],[-75.063317,37.849069],[-75.333452,42.029564],[-80.982253,43.86012]]]}},{"type":"Feature","properties":{"hex_id":"812afffffffffff","population":6566236,"population_year":2025,"area_km2":523941.7,"population_density":12.5,"all_players":8,"players_per_million":1.22,"player_ids":["nba:1627742","nba:1627827","nba:1628389","nba:1629632","nba:1630188","nba:1630549","nba:1631106","nba:1631109"],"label":"Portsmouth","country":"United States"},"geometry":{"type":"Polygon","coordinates":[[[-75.063317,37.849069],[-79.557618,35.583567],[-79.270109,33.659462],[-78.735928,31.57726],[-74.640468,30.219492],[-70.449419,32.12169],[-70.311412,35.933887],[-75.063317,37.849069]]]}},{"type":"Feature","properties":{"hex_id":"812b3ffffffffff","population":2964922,"population_year":2025,"area_km2":647632.6,"population_density":4.6,"all_players":1,"players_per_million":0.34,"player_ids":["nba:1642843"],"label":"Newport","country":"United States"},"geometry":{"type":"Polygon","coordinates":[[[-63.200774,50.770503],[-69.719479,48.757432],[-69.955068,44.277849],[-64.835193,41.948534],[-59.172925,43.654244],[-57.837872,47.957631],[-63.200774,50.770503]]]}},{"type":"Feature","properties":{"hex_id":"812bbffffffffff","population":23927662,"population_year":2025,"area_km2":666617.1,"population_density":35.9,"all_players":25,"players_per_million":1.04,"player_ids":["nba:1628415","nba:1628418","nba:1628983","nba:1629614","nba:1629618","nba:1629628","nba:1629638","nba:1629652","nba:1630191","nba:1630625","nba:1630639","nba:1631097","nba:1631159","nba:1631205","nba:1631216","nba:1631466","nba:1641744","nba:1641748","nba:1641765","nba:1641801","nba:1642948","nba:1643141","nba:203482","nba:203939","nba:203952"],"label":"Toronto","country":"Canada"},"geometry":{"type":"Polygon","coordinates":[[[-76.057729,50.990211],[-81.919627,48.295316],[-80.982253,43.86012],[-75.333452,42.029564],[-69.955068,44.277849],[-69.719479,48.757432],[-76.057729,50.990211]]]}},{"type":"Feature","properties":{"hex_id":"812c3ffffffffff","population":48394646,"population_year":2025,"area_km2":614937.0,"population_density":78.7,"all_players":2,"players_per_million":0.04,"player_ids":["nba:1629048","nba:1642884"],"label":"Nalchik","country":"Russia"},"geometry":{"type":"Polygon","coordinates":[[[38.930218,38.400687],[43.074401,35.326156],[46.40451,36.114445],[48.114436,36.404919],[49.670644,40.636123],[45.504839,43.945519],[41.788831,43.124283],[39.938746,42.736298],[38.930218,38.400687]]]}},{"type":"Feature","properties":{"hex_id":"812d3ffffffffff","population":35376976,"population_year":2025,"area_km2":647632.6,"population_density":54.6,"all_players":1,"players_per_million":0.03,"player_ids":["nba:1630578"],"label":"Giresun","country":"Turkey"},"geometry":{"type":"Polygon","coordinates":[[[29.387082,44.107766],[28.846869,39.643311],[33.614584,36.858664],[38.930218,38.400687],[39.938746,42.736298],[35.197789,45.672385],[29.387082,44.107766]]]}},{"type":"Feature","properties":{"hex_id":"812dbffffffffff","population":70393013,"population_year":2025,"area_km2":666617.1,"population_density":105.6,"all_players":1,"players_per_million":0.01,"player_ids":["nba:1630166"],"label":"Beit Zera","country":"Israel"},"geometry":{"type":"Polygon","coordinates":[[[33.614584,36.858664],[32.928331,32.240102],[37.164282,29.339076],[42.026294,30.891357],[43.074401,35.326156],[38.930218,38.400687],[33.614584,36.858664]]]}},{"type":"Feature","properties":{"hex_id":"812e7ffffffffff","population":52072688,"population_year":2025,"area_km2":510516.1,"population_density":102.0,"all_players":1,"players_per_million":0.02,"player_ids":["nba:1629060"],"label":"Toyama","country":"Japan"},"geometry":{"type":"Polygon","coordinates":[[[139.948213,36.441778],[138.515018,40.617501],[133.570126,41.410447],[130.657533,38.194564],[132.308377,34.331159],[136.697641,33.378798],[139.948213,36.441778]]]}},{"type":"Feature","properties":{"hex_id":"812f7ffffffffff","population":38419612,"population_year":2025,"area_km2":565620.1,"population_density":67.9,"all_players":1,"players_per_million":0.03,"player_ids":["nba:1630560"],"label":"Yokosuka","country":"Japan"},"geometry":{"type":"Polygon","coordinates":[[[145.91104,30.789834],[144.831325,35.18743],[139.948213,36.441778],[136.697641,33.378798],[137.3956,31.331749],[137.800087,29.424814],[142.433222,27.949606],[145.91104,30.789834]]]}},{"type":"Feature","properties":{"hex_id":"8130bffffffffff","population":241379936,"population_year":2025,"area_km2":447684.2,"population_density":539.2,"all_players":1,"players_per_million":0.0,"player_ids":["nba:1642905"],"label":"Zibo","country":"People's Republic of China"},"geometry":{"type":"Polygon","coordinates":[[[124.020556,32.661445],[123.162765,36.005614],[121.690154,36.205283],[118.869299,37.429854],[115.340961,35.522424],[116.2613,31.680908],[120.503394,29.892985],[124.020556,32.661445]]]}},{"type":"Feature","properties":{"hex_id":"81347ffffffffff","population":2240102,"population_year":2025,"area_km2":707475.0,"population_density":3.2,"all_players":1,"players_per_million":0.45,"player_ids":["nba:1630583"],"label":"Las Palmas de Gran Canaria","country":"Spain"},"geometry":{"type":"Polygon","coordinates":[[[-20.108383,33.794128],[-23.542517,30.029487],[-21.487401,25.694857],[-16.394663,25.007863],[-12.948555,28.514936],[-14.570452,32.954386],[-20.108383,33.794128]]]}},{"type":"Feature","properties":{"hex_id":"81393ffffffffff","population":34532782,"population_year":2025,"area_km2":647632.6,"population_density":53.3,"all_players":3,"players_per_million":0.09,"player_ids":["nba:1629674","nba:1642258","nba:1642864"],"label":"Málaga","country":"Spain"},"geometry":{"type":"Polygon","coordinates":[[[-8.101589,44.050631],[-12.384127,40.869133],[-10.744488,36.38323],[-5.442348,35.124424],[-1.416234,38.115997],[-2.417796,42.54048],[-8.101589,44.050631]]]}},{"type":"Feature","properties":{"hex_id":"81397ffffffffff","population":31465600,"population_year":2025,"area_km2":602082.0,"population_density":52.3,"all_players":2,"players_per_million":0.06,"player_ids":["nba:1631172","nba:1642359"],"label":"Villeneuve-sur-Lot","country":"France"},"geometry":{"type":"Polygon","coordinates":[[[-2.417796,42.54048],[-1.416234,38.115997],[0.238716,37.588846],[3.543589,36.597898],[8.045142,39.402136],[7.509948,43.786609],[2.026569,45.184249],[-2.417796,42.54048]]]}},{"type":"Feature","properties":{"hex_id":"81443ffffffffff","population":10265740,"population_year":2025,"area_km2":595741.2,"population_density":17.2,"all_players":4,"players_per_million":0.39,"player_ids":["nba:1628396","nba:1630165","nba:1641780","nba:203903"],"label":"Bartow","country":"United States"},"geometry":{"type":"Polygon","coordinates":[[[-83.891248,21.244199],[-80.82969,24.429618],[-81.966494,28.631807],[-86.545778,29.759287],[-89.807712,26.426478],[-88.2959,22.120731],[-83.891248,21.244199]]]}},{"type":"Feature","properties":{"hex_id":"81447ffffffffff","population":18780862,"population_year":2025,"area_km2":647632.6,"population_density":29.0,"all_players":23,"players_per_million":1.22,"player_ids":["nba:1626162","nba:1626171","nba:1628368","nba:1628988","nba:1629011","nba:1629020","nba:1629057","nba:1629234","nba:1629655","nba:1629656","nba:1629684","nba:1630541","nba:1630610","nba:1641733","nba:1641803","nba:1641890","nba:1642276","nba:1642449","nba:1642918","nba:1643018","nba:201599","nba:202066","nba:202710"],"label":"Houston","country":"United States"},"geometry":{"type":"Polygon","coordinates":[[[-89.807712,26.426478],[-86.545778,29.759287],[-88.065886,34.059836],[-93.265212,35.090108],[-96.66289,31.619531],[-94.743568,27.264006],[-89.807712,26.426478]]]}},{"type":"Feature","properties":{"hex_id":"8144bffffffffff","population":13618822,"population_year":2025,"area_km2":510516.1,"population_density":26.7,"all_players":17,"players_per_million":1.25,"player_ids":["nba:1627741","nba:1629014","nba:1629028","nba:1630194","nba:1630567","nba:1630658","nba:1631165","nba:1631169","nba:1641707","nba:1641729","nba:1642269","nba:1642367","nba:1642383","nba:1642396","nba:1642434","nba:1642845","nba:203501"],"label":"Miami","country":"United States"},"geometry":{"type":"Polygon","coordinates":[[[-76.831217,23.342863],[-73.868279,26.190449],[-74.640468,30.219492],[-78.735928,31.57726],[-81.966494,28.631807],[-80.82969,24.429618],[-76.831217,23.342863]]]}},{"type":"Feature","properties":{"hex_id":"8144fffffffffff","population":31558550,"population_year":2025,"area_km2":565620.1,"population_density":55.8,"all_players":53,"players_per_million":1.68,"player_ids":["nba:1627759","nba:1628960","nba:1628976","nba:1628997","nba:1628998","nba:1629012","nba:1629627","nba:1629630","nba:1629651","nba:1630162","nba:1630170","nba:1630171","nba:1630172","nba:1630174","nba:1630180","nba:1630264","nba:1630286","nba:1630529","nba:1630544","nba:1630558","nba:1630570","nba:1630703","nba:1631095","nba:1631117","nba:1631120","nba:1631121","nba:1641713","nba:1641730","nba:1641732","nba:1641738","nba:1641767","nba:1641771","nba:1641778","nba:1641790","nba:1641794","nba:1641816","nba:1641998","nba:1642264","nba:1642265","nba:1642268","nba:1642846","nba:1642854","nba:1642867","nba:1642883","nba:1642928","nba:1642939","nba:1642954","nba:1642959","nba:1643047","nba:1643052","nba:203114","nba:203484","nba:203552"],"label":"Atlanta","country":"United States"},"geometry":{"type":"Polygon","coordinates":[[[-81.966494,28.631807],[-78.735928,31.57726],[-79.270109,33.659462],[-79.557618,35.583567],[-84.585167,37.099589],[-88.065886,34.059836],[-86.545778,29.759287],[-81.966494,28.631807]]]}},{"type":"Feature","properties":{"hex_id":"81487ffffffffff","population":7407980,"population_year":2025,"area_km2":707475.0,"population_density":10.5,"all_players":2,"players_per_million":0.27,"player_ids":["nba:1626181","nba:1628386"],"label":"San Diego","country":"United States"},"geometry":{"type":"Polygon","coordinates":[[[-113.460448,24.671634],[-110.662618,28.72381],[-113.268008,32.856905],[-118.804528,32.779438],[-121.336628,28.653019],[-118.632643,24.676155],[-113.460448,24.671634]]]}},{"type":"Feature","properties":{"hex_id":"8148bffffffffff","population":22495747,"population_year":2025,"area_km2":707475.0,"population_density":31.8,"all_players":9,"players_per_million":0.4,"player_ids":["nba:1626220","nba:1627752","nba:1627936","nba:1629026","nba:1641755","nba:1641763","nba:1642347","nba:1642877","nba:1643257"],"label":"Killeen","country":"United States"},"geometry":{"type":"Polygon","coordinates":[[[-97.905634,23.589794],[-94.743568,27.264006],[-96.66289,31.619531],[-102.093235,32.268747],[-105.250678,28.43866],[-103.011626,24.121727],[-97.905634,23.589794]]]}},{"type":"Feature","properties":{"hex_id":"8148fffffffffff","population":14949273,"population_year":2025,"area_km2":707475.0,"population_density":21.1,"all_players":5,"players_per_million":0.33,"player_ids":["nba:1628963","nba:1629680","nba:1631102","nba:1631207","nba:1642345"],"label":"Phoenix","country":"United States"},"geometry":{"type":"Polygon","coordinates":[[[-105.250678,28.43866],[-102.093235,32.268747],[-104.454816,36.494369],[-110.257485,36.800197],[-113.268008,32.856905],[-110.662618,28.72381],[-105.250678,28.43866]]]}},{"type":"Feature","properties":{"hex_id":"814b7ffffffffff","population":8198106,"population_year":2025,"area_km2":523941.7,"population_density":15.6,"all_players":1,"players_per_million":0.12,"player_ids":["nba:1642530"],"label":"Yanai","country":"Japan"},"geometry":{"type":"Polygon","coordinates":[[[128.534469,31.786712],[129.381002,28.043997],[133.976139,26.829336],[137.800087,29.424814],[137.3956,31.331749],[136.697641,33.378798],[132.308377,34.331159],[128.534469,31.786712]]]}},{"type":"Feature","properties":{"hex_id":"814cfffffffffff","population":13993933,"population_year":2025,"area_km2":447684.2,"population_density":31.3,"all_players":3,"players_per_million":0.21,"player_ids":["nba:1642357","nba:1643158","nba:201143"],"label":"Puerto Plata","country":"Dominican Republic"},"geometry":{"type":"Polygon","coordinates":[[[-69.383269,21.326184],[-71.730136,18.713931],[-69.89993,15.209504],[-65.768822,14.482401],[-63.616,18.007411],[-65.407239,20.979704],[-66.686099,20.812431],[-69.383269,21.326184]]]}},{"type":"Feature","properties":{"hex_id":"81547ffffffffff","population":25863682,"population_year":2025,"area_km2":510516.1,"population_density":50.7,"all_players":1,"players_per_million":0.04,"player_ids":["nba:1642368"],"label":"Bamako","country":"Mali"},"geometry":{"type":"Polygon","coordinates":[[[-9.006464,15.985985],[-12.071696,12.842516],[-10.883976,9.211077],[-6.957445,8.664197],[-4.013998,11.545296],[-4.866872,15.219885],[-9.006464,15.985985]]]}},{"type":"Feature","properties":{"hex_id":"8154fffffffffff","population":17673803,"population_year":2025,"area_km2":523941.7,"population_density":33.7,"all_players":1,"players_per_million":0.06,"player_ids":["nba:1630619"],"label":"Conakry","country":"Guinea"},"geometry":{"type":"Polygon","coordinates":[[[-16.398619,13.434493],[-19.256081,10.227431],[-18.496978,8.439383],[-17.487884,6.558659],[-13.708147,6.270965],[-10.883976,9.211077],[-12.071696,12.842516],[-16.398619,13.434493]]]}},{"type":"Feature","properties":{"hex_id":"8158bffffffffff","population":107607985,"population_year":2025,"area_km2":510516.1,"population_density":210.8,"all_players":3,"players_per_million":0.03,"player_ids":["nba:1629006","nba:1629646","nba:1641737"],"label":"Lagos","country":"Nigeria"},"geometry":{"type":"Polygon","coordinates":[[[-0.319183,9.731837],[0.309804,5.864518],[3.943036,3.968797],[7.212915,5.860392],[6.801169,9.899743],[2.888108,11.881771],[-0.319183,9.731837]]]}},{"type":"Feature","properties":{"hex_id":"815e7ffffffffff","population":179964,"population_year":2025,"area_km2":510516.1,"population_density":0.4,"all_players":1,"players_per_million":5.56,"player_ids":["nba:1628449"],"label":"Castries","country":"Saint Lucia"},"geometry":{"type":"Polygon","coordinates":[[[-59.834917,11.355368],[-57.535307,15.054266],[-59.510088,18.366344],[-63.616,18.007411],[-65.768822,14.482401],[-63.969049,11.14894],[-59.834917,11.355368]]]}},{"type":"Feature","properties":{"hex_id":"81673ffffffffff","population":8373126,"population_year":2025,"area_km2":510516.1,"population_density":16.4,"all_players":2,"players_per_million":0.24,"player_ids":["nba:1627746","nba:1630208"],"label":"Kingston","country":"Jamaica"},"geometry":{"type":"Polygon","coordinates":[[[-75.998548,19.358823],[-78.539302,16.469566],[-76.701678,12.819508],[-72.317998,12.204723],[-69.89993,15.209504],[-71.730136,18.713931],[-75.998548,19.358823]]]}},{"type":"Feature","properties":{"hex_id":"8167bffffffffff","population":1628518,"population_year":2025,"area_km2":565620.1,"population_density":2.9,"all_players":1,"players_per_million":0.61,"player_ids":["nba:1641807"],"label":"Bluefields","country":"Nicaragua"},"geometry":{"type":"Polygon","coordinates":[[[-82.727942,17.133437],[-85.631069,13.836854],[-83.843685,10.069625],[-79.317401,9.553624],[-76.701678,12.819508],[-78.539302,16.469566],[-80.745134,16.733205],[-82.727942,17.133437]]]}},{"type":"Feature","properties":{"hex_id":"816a3ffffffffff","population":7175940,"population_year":2025,"area_km2":614937.0,"population_density":11.7,"all_players":1,"players_per_million":0.14,"player_ids":["nba:1642863"],"label":"Rumbek","country":"South Sudan"},"geometry":{"type":"Polygon","coordinates":[[[22.348181,9.745677],[22.25383,6.931187],[22.136132,5.52702],[25.886011,3.202074],[29.961298,5.181923],[30.105009,7.994339],[30.2491,9.396155],[26.468997,11.757965],[22.348181,9.745677]]]}},{"type":"Feature","properties":{"hex_id":"816a7ffffffffff","population":39281735,"population_year":2025,"area_km2":602082.0,"population_density":65.2,"all_players":1,"players_per_million":0.03,"player_ids":["nba:1641871"],"label":"Waat","country":"South Sudan"},"geometry":{"type":"Polygon","coordinates":[[[37.776764,4.740955],[37.848935,8.893463],[34.393733,11.276322],[30.2491,9.396155],[30.105009,7.994339],[29.961298,5.181923],[33.814945,2.80266],[37.776764,4.740955]]]}},{"type":"Feature","properties":{"hex_id":"816afffffffffff","population":97315062,"population_year":2025,"area_km2":666617.1,"population_density":146.0,"all_players":1,"players_per_million":0.01,"player_ids":["nba:1630228"],"label":"Goma","country":"Democratic Republic of the Congo"},"geometry":{"type":"Polygon","coordinates":[[[33.663619,-1.677295],[33.814945,2.80266],[29.961298,5.181923],[25.886011,3.202074],[25.586785,-1.270444],[29.508441,-3.781048],[33.663619,-1.677295]]]}},{"type":"Feature","properties":{"hex_id":"8182bffffffffff","population":9666174,"population_year":2025,"area_km2":595741.2,"population_density":16.2,"all_players":1,"players_per_million":0.1,"player_ids":["nba:203954"],"label":"Yaoundé","country":"Cameroon"},"geometry":{"type":"Polygon","coordinates":[[[17.669408,-0.846984],[18.099816,3.534623],[14.58325,5.76286],[10.722778,3.789625],[10.189894,-0.431885],[13.611699,-2.844753],[17.669408,-0.846984]]]}},{"type":"Feature","properties":{"hex_id":"8182fffffffffff","population":36110101,"population_year":2025,"area_km2":523941.7,"population_density":68.9,"all_players":3,"players_per_million":0.08,"player_ids":["nba:1627783","nba:1630173","nba:1631132"],"label":"Douala","country":"Cameroon"},"geometry":{"type":"Polygon","coordinates":[[[10.189894,-0.431885],[10.722778,3.789625],[9.102371,4.860812],[7.212915,5.860392],[3.943036,3.968797],[3.340666,-0.045101],[6.386374,-2.341804],[10.189894,-0.431885]]]}},{"type":"Feature","properties":{"hex_id":"81963ffffffffff","population":26858215,"population_year":2025,"area_km2":729486.9,"population_density":36.8,"all_players":2,"players_per_million":0.07,"player_ids":["nba:1631131","nba:202687"],"label":"Lubumbashi","country":"Democratic Republic of the Congo"},"geometry":{"type":"Polygon","coordinates":[[[33.173278,-15.790435],[33.34314,-11.032729],[29.268943,-8.474704],[24.9542,-10.610164],[24.619558,-15.359563],[28.761238,-17.991301],[33.173278,-15.790435]]]}},{"type":"Feature","properties":{"hex_id":"81a73ffffffffff","population":2011346,"population_year":2025,"area_km2":447684.2,"population_density":4.5,"all_players":1,"players_per_million":0.5,"player_ids":["nba:1631247"],"label":"Perth","country":"Australia"},"geometry":{"type":"Polygon","coordinates":[[[118.588203,-27.826272],[115.570257,-25.722246],[114.395275,-26.30569],[111.552066,-26.654916],[110.054805,-29.808573],[113.256895,-32.609931],[117.977474,-31.877886],[118.588203,-27.826272]]]}},{"type":"Feature","properties":{"hex_id":"81a8fffffffffff","population":14363422,"population_year":2025,"area_km2":666617.1,"population_density":21.5,"all_players":1,"players_per_million":0.07,"player_ids":["nba:1630611"],"label":"Brasília","country":"Brazil"},"geometry":{"type":"Polygon","coordinates":[[[-47.235943,-20.470042],[-44.70061,-16.685821],[-47.015769,-12.607157],[-51.776426,-12.387612],[-54.256132,-16.171868],[-52.046783,-20.176039],[-47.235943,-20.470042]]]}},{"type":"Feature","properties":{"hex_id":"81b93ffffffffff","population":1648815,"population_year":2025,"area_km2":647632.6,"population_density":2.5,"all_players":1,"players_per_million":0.61,"player_ids":["nba:204060"],"label":"Adelaide","country":"Australia"},"geometry":{"type":"Polygon","coordinates":[[[139.652226,-38.734209],[139.129671,-34.088237],[134.339984,-32.08928],[129.914908,-34.478008],[129.866095,-38.967618],[134.798626,-41.238933],[139.652226,-38.734209]]]}},{"type":"Feature","properties":{"hex_id":"81bb3ffffffffff","population":1275828,"population_year":2025,"area_km2":602082.0,"population_density":2.1,"all_players":1,"players_per_million":0.78,"player_ids":["nba:203500"],"label":"Rotorua","country":"New Zealand"},"geometry":{"type":"MultiPolygon","coordinates":[[[[-180.0,-37.582832],[-179.761284,-37.588846],[-177.984745,-37.664358],[-175.131668,-41.580315],[-177.973431,-45.184249],[-180.0,-45.219479],[-180.0,-37.582832]]],[[[180.0,-45.219479],[176.129353,-45.286766],[173.535818,-41.30856],[176.688659,-37.499409],[180.0,-37.582832],[180.0,-45.219479]]]]}},{"type":"Feature","properties":{"hex_id":"81bcfffffffffff","population":54771011,"population_year":2025,"area_km2":666617.1,"population_density":82.2,"all_players":1,"players_per_million":0.02,"player_ids":["nba:1642879"],"label":"Johannesburg","country":"South Africa"},"geometry":{"type":"Polygon","coordinates":[[[32.620327,-29.624454],[32.812319,-25.145186],[28.491882,-22.684204],[23.910011,-24.696711],[23.533518,-29.166646],[27.918941,-31.644147],[32.620327,-29.624454]]]}},{"type":"Feature","properties":{"hex_id":"81be3ffffffffff","population":7422285,"population_year":2025,"area_km2":729486.9,"population_density":10.2,"all_players":2,"players_per_million":0.27,"player_ids":["nba:1630182","nba:1642878"],"label":"Sydney","country":"Australia"},"geometry":{"type":"Polygon","coordinates":[[[159.810679,-35.59178],[158.196039,-31.026208],[152.877292,-29.753699],[148.729494,-32.935272],[149.839959,-37.608844],[155.640338,-39.007712],[159.810679,-35.59178]]]}},{"type":"Feature","properties":{"hex_id":"81be7ffffffffff","population":7973734,"population_year":2025,"area_km2":707475.0,"population_density":11.3,"all_players":4,"players_per_million":0.5,"player_ids":["nba:1629111","nba:1630581","nba:1630700","nba:1642277"],"label":"Melbourne","country":"Australia"},"geometry":{"type":"Polygon","coordinates":[[[149.839959,-37.608844],[148.729494,-32.935272],[143.536871,-31.277795],[139.129671,-34.088237],[139.652226,-38.734209],[145.182884,-40.615783],[149.839959,-37.608844]]]}},{"type":"Feature","properties":{"hex_id":"81bebffffffffff","population":4369258,"population_year":2025,"area_km2":707475.0,"population_density":6.2,"all_players":1,"players_per_million":0.23,"player_ids":["nba:1642911"],"label":"Sunshine Coast","country":"Australia"},"geometry":{"type":"Polygon","coordinates":[[[161.882144,-27.596488],[160.312535,-23.16469],[155.419957,-21.999746],[151.703594,-25.170738],[152.877292,-29.753699],[158.196039,-31.026208],[161.882144,-27.596488]]]}}]}