{"type":"FeatureCollection","metadata":{"population_source":"WorldPop Global 2 R2025A","population_source_url":"https://hub.worldpop.org/project/categories?id=3","population_license":"CC BY 4.0","population_year":2025,"raster_resolution":"1km","h3_resolution":2,"population_method":"official_country_rasters","occupied_cells":132,"mapped_players":1413},"features":[{"type":"Feature","properties":{"hex_id":"8212affffffffff","population":117259,"population_year":2025,"area_km2":77902.3,"population_density":1.5,"all_players":1,"players_per_million":8.53,"player_ids":["mlb:676724"],"label":"Prince George","country":"Canada"},"geometry":{"type":"Polygon","coordinates":[[[-125.434396,56.597936],[-126.775563,55.29498],[-125.470294,53.865549],[-122.906478,53.666152],[-121.442455,54.91665],[-122.653511,56.419906],[-125.434396,56.597936]]]}},{"type":"Feature","properties":{"hex_id":"8212cffffffffff","population":1447775,"population_year":2025,"area_km2":81458.9,"population_density":17.8,"all_players":1,"players_per_million":0.69,"player_ids":["mlb:647336"],"label":"Calgary","country":"Canada"},"geometry":{"type":"Polygon","coordinates":[[[-114.293343,51.131925],[-115.913157,50.003546],[-115.101052,48.471845],[-112.788004,48.011188],[-111.127907,49.073528],[-111.813584,50.661988],[-114.293343,51.131925]]]}},{"type":"Feature","properties":{"hex_id":"8212dffffffffff","population":1026503,"population_year":2025,"area_km2":77926.1,"population_density":13.2,"all_players":3,"players_per_million":2.92,"player_ids":["mlb:552640","mlb:689690","mlb:700932"],"label":"Spokane","country":"United States"},"geometry":{"type":"Polygon","coordinates":[[[-118.32059,50.385511],[-119.747324,49.236416],[-119.232215,47.804097],[-116.945809,47.422734],[-115.101052,48.471845],[-115.913157,50.003546],[-118.32059,50.385511]]]}},{"type":"Feature","properties":{"hex_id":"8212effffffffff","population":2419420,"population_year":2025,"area_km2":85294.5,"population_density":28.4,"all_players":2,"players_per_million":0.83,"player_ids":["mlb:642239","mlb:681870"],"label":"Edmonton","country":"Canada"},"geometry":{"type":"Polygon","coordinates":[[[-113.357086,53.867769],[-115.135928,52.705407],[-114.293343,51.131925],[-111.813584,50.661988],[-109.994611,51.754866],[-110.686347,53.386336],[-113.357086,53.867769]]]}},{"type":"Feature","properties":{"hex_id":"821e87fffffffff","population":12834722,"population_year":2025,"area_km2":92775.6,"population_density":138.3,"all_players":1,"players_per_million":0.08,"player_ids":["mlb:695505"],"label":"Naples","country":"Italy"},"geometry":{"type":"Polygon","coordinates":[[[11.369193,43.208977],[10.754951,41.575053],[12.334661,40.405578],[14.548451,40.851244],[15.239936,42.485371],[13.642239,43.674337],[11.369193,43.208977]]]}},{"type":"Feature","properties":{"hex_id":"821ea7fffffffff","population":14372848,"population_year":2025,"area_km2":88726.5,"population_density":162.0,"all_players":1,"players_per_million":0.07,"player_ids":["mlb:691951"],"label":"Verona","country":"Italy"},"geometry":{"type":"Polygon","coordinates":[[[10.343213,45.921928],[9.731941,44.323805],[11.369193,43.208977],[13.642239,43.674337],[14.337206,45.273432],[12.677318,46.406957],[10.343213,45.921928]]]}},{"type":"Feature","properties":{"hex_id":"821f1ffffffffff","population":12840810,"population_year":2025,"area_km2":77902.3,"population_density":164.8,"all_players":1,"players_per_million":0.08,"player_ids":["mlb:596146"],"label":"Berlin","country":"Germany"},"geometry":{"type":"Polygon","coordinates":[[[11.24517,53.03204],[10.549623,51.56399],[12.345747,50.554275],[14.863027,50.992748],[15.658506,52.45677],[13.839529,53.487245],[11.24517,53.03204]]]}},{"type":"Feature","properties":{"hex_id":"82260ffffffffff","population":2387088,"population_year":2025,"area_km2":87326.6,"population_density":27.3,"all_players":8,"players_per_million":3.35,"player_ids":["mlb:592094","mlb:656537","mlb:663362","mlb:664761","mlb:676510","mlb:676694","mlb:680737","mlb:702070"],"label":"Omaha","country":"United States"},"geometry":{"type":"Polygon","coordinates":[[[-95.246862,39.326803],[-93.407414,40.114355],[-93.458032,41.743249],[-95.412903,42.599409],[-97.30469,41.807241],[-97.188746,40.164276],[-95.246862,39.326803]]]}},{"type":"Feature","properties":{"hex_id":"822627fffffffff","population":1660249,"population_year":2025,"area_km2":89801.2,"population_density":18.5,"all_players":5,"players_per_million":3.01,"player_ids":["mlb:621381","mlb:623433","mlb:657024","mlb:680702","mlb:686555"],"label":"Maple Grove","country":"United States"},"geometry":{"type":"Polygon","coordinates":[[[-95.579863,47.511001],[-97.687441,46.680814],[-97.551209,45.038257],[-95.464507,44.208686],[-93.418118,44.972526],[-93.395849,46.63002],[-95.579863,47.511001]]]}},{"type":"Feature","properties":{"hex_id":"82262ffffffffff","population":2511826,"population_year":2025,"area_km2":87326.6,"population_density":28.8,"all_players":3,"players_per_million":1.19,"player_ids":["mlb:573204","mlb:663623","mlb:669743"],"label":"Northfield","country":"United States"},"geometry":{"type":"Polygon","coordinates":[[[-93.418118,44.972526],[-95.464507,44.208686],[-95.412903,42.599409],[-93.458032,41.743249],[-91.476262,42.44496],[-91.384239,44.06279],[-93.418118,44.972526]]]}},{"type":"Feature","properties":{"hex_id":"822647fffffffff","population":4073203,"population_year":2025,"area_km2":85294.5,"population_density":47.8,"all_players":15,"players_per_million":3.68,"player_ids":["mlb:453286","mlb:543056","mlb:592773","mlb:642207","mlb:656557","mlb:663542","mlb:663837","mlb:664129","mlb:666149","mlb:669062","mlb:669394","mlb:670950","mlb:671131","mlb:672282","mlb:686452"],"label":"St. Louis","country":"United States"},"geometry":{"type":"Polygon","coordinates":[[[-89.748537,36.65876],[-87.990764,37.382074],[-87.951382,39.014788],[-89.726216,39.947222],[-91.54335,39.225656],[-91.525283,37.57043],[-89.748537,36.65876]]]}},{"type":"Feature","properties":{"hex_id":"82264ffffffffff","population":4363740,"population_year":2025,"area_km2":85627.7,"population_density":51.0,"all_players":23,"players_per_million":5.27,"player_ids":["mlb:518886","mlb:543243","mlb:592662","mlb:594580","mlb:605141","mlb:664208","mlb:668834","mlb:668933","mlb:669020","mlb:669371","mlb:676092","mlb:676551","mlb:677960","mlb:679822","mlb:680742","mlb:681916","mlb:682171","mlb:687209","mlb:687597","mlb:690987","mlb:691799","mlb:694918","mlb:696100"],"label":"Huntsville","country":"United States"},"geometry":{"type":"Polygon","coordinates":[[[-88.065886,34.059836],[-86.366648,34.786557],[-86.303213,36.434527],[-87.990764,37.382074],[-89.748537,36.65876],[-89.759172,34.984893],[-88.065886,34.059836]]]}},{"type":"Feature","properties":{"hex_id":"822657fffffffff","population":3851243,"population_year":2025,"area_km2":88726.5,"population_density":43.4,"all_players":5,"players_per_million":1.3,"player_ids":["mlb:676879","mlb:686249","mlb:694819","mlb:695600","mlb:805904"],"label":"Kansas City","country":"United States"},"geometry":{"type":"Polygon","coordinates":[[[-93.311082,36.785418],[-91.525283,37.57043],[-91.54335,39.225656],[-93.407414,40.114355],[-95.246862,39.326803],[-95.167911,37.653738],[-93.311082,36.785418]]]}},{"type":"Feature","properties":{"hex_id":"82265ffffffffff","population":2641058,"population_year":2025,"area_km2":89440.6,"population_density":29.5,"all_players":7,"players_per_million":2.65,"player_ids":["mlb:519141","mlb:596001","mlb:663586","mlb:667670","mlb:670224","mlb:687221","mlb:696136"],"label":"Memphis","country":"United States"},"geometry":{"type":"Polygon","coordinates":[[[-91.490847,34.200716],[-89.759172,34.984893],[-89.748537,36.65876],[-91.525283,37.57043],[-93.311082,36.785418],[-93.265212,35.090108],[-91.490847,34.200716]]]}},{"type":"Feature","properties":{"hex_id":"822667fffffffff","population":11642346,"population_year":2025,"area_km2":85294.5,"population_density":136.5,"all_players":49,"players_per_million":4.21,"player_ids":["mlb:502043","mlb:519008","mlb:571466","mlb:592779","mlb:595897","mlb:608348","mlb:608650","mlb:608718","mlb:640455","mlb:641302","mlb:642020","mlb:643376","mlb:656271","mlb:656641","mlb:663897","mlb:665155","mlb:669199","mlb:669200","mlb:669256","mlb:669261","mlb:670032","mlb:670059","mlb:670183","mlb:674441","mlb:676044","mlb:676272","mlb:677950","mlb:678020","mlb:678022","mlb:679358","mlb:680769","mlb:680837","mlb:682120","mlb:682990","mlb:684974","mlb:685299","mlb:685301","mlb:685326","mlb:686681","mlb:686752","mlb:686753","mlb:687396","mlb:689266","mlb:690022","mlb:694477","mlb:694851","mlb:696147","mlb:702795","mlb:806185"],"label":"Chicago","country":"United States"},"geometry":{"type":"Polygon","coordinates":[[[-87.526255,42.152917],[-89.578398,41.518555],[-89.726216,39.947222],[-87.951382,39.014788],[-85.979328,39.596509],[-85.703199,41.161269],[-87.526255,42.152917]]]}},{"type":"Feature","properties":{"hex_id":"82266ffffffffff","population":4140731,"population_year":2025,"area_km2":82416.4,"population_density":50.2,"all_players":10,"players_per_million":2.42,"player_ids":["mlb:621111","mlb:669193","mlb:669257","mlb:686826","mlb:690976","mlb:694297","mlb:694361","mlb:695657","mlb:695734","mlb:700242"],"label":"Louisville","country":"United States"},"geometry":{"type":"Polygon","coordinates":[[[-85.979328,39.596509],[-87.951382,39.014788],[-87.990764,37.382074],[-86.303213,36.434527],[-84.585167,37.099589],[-84.278055,38.60875],[-85.979328,39.596509]]]}},{"type":"Feature","properties":{"hex_id":"822677fffffffff","population":1707453,"population_year":2025,"area_km2":85321.7,"population_density":20.0,"all_players":3,"players_per_million":1.76,"player_ids":["mlb:608379","mlb:656605","mlb:670231"],"label":"Canton","country":"United States"},"geometry":{"type":"Polygon","coordinates":[[[-91.476262,42.44496],[-93.458032,41.743249],[-93.407414,40.114355],[-91.54335,39.225656],[-89.726216,39.947222],[-89.578398,41.518555],[-91.476262,42.44496]]]}},{"type":"Feature","properties":{"hex_id":"822687fffffffff","population":1387619,"population_year":2025,"area_km2":92775.6,"population_density":15.0,"all_players":4,"players_per_million":2.88,"player_ids":["mlb:656458","mlb:668390","mlb:669308","mlb:681517"],"label":"Westminster","country":"United States"},"geometry":{"type":"Polygon","coordinates":[[[-106.738368,38.891674],[-104.928668,39.882147],[-105.177534,41.537334],[-107.300929,42.200724],[-109.131063,41.19652],[-108.818288,39.54349],[-106.738368,38.891674]]]}},{"type":"Feature","properties":{"hex_id":"82268ffffffffff","population":3218622,"population_year":2025,"area_km2":95515.4,"population_density":33.7,"all_players":12,"players_per_million":3.73,"player_ids":["mlb:572955","mlb:573124","mlb:592332","mlb:607536","mlb:621051","mlb:621114","mlb:643511","mlb:656849","mlb:668974","mlb:676466","mlb:686823","mlb:687911"],"label":"Denver","country":"United States"},"geometry":{"type":"Polygon","coordinates":[[[-104.454816,36.494369],[-102.671357,37.471973],[-102.876807,39.164785],[-104.928668,39.882147],[-106.738368,38.891674],[-106.47056,37.197522],[-104.454816,36.494369]]]}},{"type":"Feature","properties":{"hex_id":"822697fffffffff","population":2718995,"population_year":2025,"area_km2":93159.0,"population_density":29.2,"all_players":7,"players_per_million":2.57,"player_ids":["mlb:621383","mlb:676263","mlb:681151","mlb:686554","mlb:687606","mlb:687863","mlb:695257"],"label":"Salt Lake City","country":"United States"},"geometry":{"type":"Polygon","coordinates":[[[-110.584833,38.489935],[-108.818288,39.54349],[-109.131063,41.19652],[-111.27157,41.789209],[-113.046271,40.72062],[-112.673648,39.075149],[-110.584833,38.489935]]]}},{"type":"Feature","properties":{"hex_id":"82269ffffffffff","population":452393,"population_year":2025,"area_km2":96323.1,"population_density":4.7,"all_players":1,"players_per_million":2.21,"player_ids":["mlb:681217"],"label":"Farmington","country":"United States"},"geometry":{"type":"Polygon","coordinates":[[[-108.222119,36.158816],[-106.47056,37.197522],[-106.738368,38.891674],[-108.818288,39.54349],[-110.584833,38.489935],[-110.257485,36.800197],[-108.222119,36.158816]]]}},{"type":"Feature","properties":{"hex_id":"8226affffffffff","population":752318,"population_year":2025,"area_km2":91641.3,"population_density":8.2,"all_players":1,"players_per_million":1.33,"player_ids":["mlb:607043"],"label":"Cheyenne","country":"United States"},"geometry":{"type":"Polygon","coordinates":[[[-102.876807,39.164785],[-101.04033,40.088597],[-101.222964,41.740408],[-103.308747,42.472631],[-105.177534,41.537334],[-104.928668,39.882147],[-102.876807,39.164785]]]}},{"type":"Feature","properties":{"hex_id":"8226c7fffffffff","population":1987377,"population_year":2025,"area_km2":95515.4,"population_density":20.8,"all_players":6,"players_per_million":3.02,"player_ids":["mlb:571760","mlb:592351","mlb:592663","mlb:605242","mlb:690990","mlb:801139"],"label":"Oklahoma City","country":"United States"},"geometry":{"type":"Polygon","coordinates":[[[-98.622726,34.188046],[-96.863145,35.093055],[-96.968153,36.804751],[-98.893095,37.623022],[-100.6928,36.709267],[-100.527345,34.986722],[-98.622726,34.188046]]]}},{"type":"Feature","properties":{"hex_id":"8226cffffffffff","population":9574277,"population_year":2025,"area_km2":96323.1,"population_density":99.4,"all_players":31,"players_per_million":3.24,"player_ids":["mlb:455119","mlb:477132","mlb:518489","mlb:519151","mlb:571948","mlb:595928","mlb:596115","mlb:605137","mlb:605507","mlb:621345","mlb:621363","mlb:622268","mlb:641856","mlb:656541","mlb:663574","mlb:663757","mlb:668723","mlb:668984","mlb:669160","mlb:669438","mlb:669449","mlb:669704","mlb:677951","mlb:681807","mlb:690925","mlb:691783","mlb:693821","mlb:695549","mlb:696270","mlb:699625","mlb:700363"],"label":"Dallas","country":"United States"},"geometry":{"type":"Polygon","coordinates":[[[-96.66289,31.619531],[-94.945821,32.516906],[-95.017507,34.246081],[-96.863145,35.093055],[-98.622726,34.188046],[-98.493873,32.444355],[-96.66289,31.619531]]]}},{"type":"Feature","properties":{"hex_id":"8226d7fffffffff","population":469359,"population_year":2025,"area_km2":97556.0,"population_density":4.8,"all_players":2,"players_per_million":4.26,"player_ids":["mlb:668670","mlb:677008"],"label":"Amarillo","country":"United States"},"geometry":{"type":"Polygon","coordinates":[[[-102.279867,34.021113],[-100.527345,34.986722],[-100.6928,36.709267],[-102.671357,37.471973],[-104.454816,36.494369],[-104.229094,34.766832],[-102.279867,34.021113]]]}},{"type":"Feature","properties":{"hex_id":"8226dffffffffff","population":723835,"population_year":2025,"area_km2":98815.5,"population_density":7.3,"all_players":3,"players_per_million":4.14,"player_ids":["mlb:663436","mlb:673965","mlb:690924"],"label":"Abilene","country":"United States"},"geometry":{"type":"Polygon","coordinates":[[[-100.211784,31.489938],[-98.493873,32.444355],[-98.622726,34.188046],[-100.527345,34.986722],[-102.279867,34.021113],[-102.093235,32.268747],[-100.211784,31.489938]]]}},{"type":"Feature","properties":{"hex_id":"8226e7fffffffff","population":1510616,"population_year":2025,"area_km2":91641.3,"population_density":16.5,"all_players":6,"players_per_million":3.97,"player_ids":["mlb:595014","mlb:607732","mlb:664076","mlb:666171","mlb:666214","mlb:671284"],"label":"Lawrence","country":"United States"},"geometry":{"type":"Polygon","coordinates":[[[-96.968153,36.804751],[-95.167911,37.653738],[-95.246862,39.326803],[-97.188746,40.164276],[-99.035029,39.30874],[-98.893095,37.623022],[-96.968153,36.804751]]]}},{"type":"Feature","properties":{"hex_id":"8226effffffffff","population":2803341,"population_year":2025,"area_km2":92775.6,"population_density":30.2,"all_players":8,"players_per_million":2.85,"player_ids":["mlb:605288","mlb:641672","mlb:656222","mlb:664854","mlb:669330","mlb:676917","mlb:681146","mlb:701121"],"label":"Tulsa","country":"United States"},"geometry":{"type":"Polygon","coordinates":[[[-95.017507,34.246081],[-93.265212,35.090108],[-93.311082,36.785418],[-95.167911,37.653738],[-96.968153,36.804751],[-96.863145,35.093055],[-95.017507,34.246081]]]}},{"type":"Feature","properties":{"hex_id":"82271ffffffffff","population":352971,"population_year":2025,"area_km2":91641.3,"population_density":3.9,"all_players":1,"players_per_million":2.83,"player_ids":["mlb:671976"],"label":"Winkler","country":"Canada"},"geometry":{"type":"Polygon","coordinates":[[[-97.993762,50.038615],[-100.155963,49.138168],[-99.917049,47.471519],[-97.687441,46.680814],[-95.579863,47.511001],[-95.644608,49.199829],[-97.993762,50.038615]]]}},{"type":"Feature","properties":{"hex_id":"82274ffffffffff","population":6546722,"population_year":2025,"area_km2":89440.6,"population_density":73.2,"all_players":11,"players_per_million":1.68,"player_ids":["mlb:664991","mlb:669211","mlb:672391","mlb:674072","mlb:680474","mlb:680885","mlb:686894","mlb:688138","mlb:694359","mlb:694362","mlb:699911"],"label":"Holland","country":"United States"},"geometry":{"type":"Polygon","coordinates":[[[-85.090138,44.382483],[-87.290551,43.768738],[-87.526255,42.152917],[-85.703199,41.161269],[-83.600197,41.724215],[-83.224953,43.327485],[-85.090138,44.382483]]]}},{"type":"Feature","properties":{"hex_id":"822757fffffffff","population":3436263,"population_year":2025,"area_km2":91641.3,"population_density":37.5,"all_players":12,"players_per_million":3.49,"player_ids":["mlb:640462","mlb:656420","mlb:662139","mlb:663546","mlb:670242","mlb:676974","mlb:679631","mlb:681393","mlb:683737","mlb:686973","mlb:687551","mlb:800049"],"label":"St. Paul","country":"United States"},"geometry":{"type":"Polygon","coordinates":[[[-91.178447,47.383632],[-93.395849,46.63002],[-93.418118,44.972526],[-91.384239,44.06279],[-89.249838,44.754421],[-89.066565,46.415378],[-91.178447,47.383632]]]}},{"type":"Feature","properties":{"hex_id":"82275ffffffffff","population":7416006,"population_year":2025,"area_km2":88726.5,"population_density":83.6,"all_players":20,"players_per_million":2.7,"player_ids":["mlb:572191","mlb:605361","mlb:607067","mlb:621366","mlb:643565","mlb:664126","mlb:666158","mlb:666163","mlb:672284","mlb:676116","mlb:676961","mlb:680736","mlb:680911","mlb:686948","mlb:688297","mlb:694335","mlb:695391","mlb:702176","mlb:702332","mlb:805427"],"label":"Madison","country":"United States"},"geometry":{"type":"Polygon","coordinates":[[[-89.249838,44.754421],[-91.384239,44.06279],[-91.476262,42.44496],[-89.578398,41.518555],[-87.526255,42.152917],[-87.290551,43.768738],[-89.249838,44.754421]]]}},{"type":"Feature","properties":{"hex_id":"82279ffffffffff","population":282111,"population_year":2025,"area_km2":85294.5,"population_density":3.3,"all_players":1,"players_per_million":3.54,"player_ids":["mlb:687529"],"label":"Billings","country":"United States"},"geometry":{"type":"Polygon","coordinates":[[[-107.59657,43.811281],[-105.701172,44.759514],[-105.976835,46.32296],[-108.219021,46.935542],[-110.133985,45.973009],[-109.788387,44.413071],[-107.59657,43.811281]]]}},{"type":"Feature","properties":{"hex_id":"822817fffffffff","population":626076,"population_year":2025,"area_km2":87326.6,"population_density":7.2,"all_players":1,"players_per_million":1.6,"player_ids":["mlb:664913"],"label":"Klamath Falls","country":"United States"},"geometry":{"type":"Polygon","coordinates":[[[-120.625018,39.393868],[-119.002282,40.570572],[-119.474595,42.150515],[-121.616722,42.535325],[-123.21638,41.345253],[-122.699099,39.784231],[-120.625018,39.393868]]]}},{"type":"Feature","properties":{"hex_id":"82281ffffffffff","population":950330,"population_year":2025,"area_km2":82705.0,"population_density":11.5,"all_players":1,"players_per_million":1.05,"player_ids":["mlb:689200"],"label":"Medford","country":"United States"},"geometry":{"type":"Polygon","coordinates":[[[-123.21638,41.345253],[-121.616722,42.535325],[-122.134831,44.057691],[-124.296252,44.370406],[-125.864396,43.168755],[-125.30494,41.66639],[-123.21638,41.345253]]]}},{"type":"Feature","properties":{"hex_id":"822837fffffffff","population":14366819,"population_year":2025,"area_km2":89801.2,"population_density":160.0,"all_players":59,"players_per_million":4.11,"player_ids":["mlb:518397","mlb:543760","mlb:592192","mlb:592450","mlb:592626","mlb:596112","mlb:605204","mlb:605452","mlb:621112","mlb:623167","mlb:624513","mlb:640454","mlb:642133","mlb:656457","mlb:656555","mlb:657240","mlb:657277","mlb:657649","mlb:657746","mlb:663460","mlb:663538","mlb:663616","mlb:664062","mlb:664192","mlb:664770","mlb:664954","mlb:665152","mlb:666185","mlb:668674","mlb:668952","mlb:669288","mlb:669373","mlb:669459","mlb:669622","mlb:669674","mlb:669920","mlb:669947","mlb:670156","mlb:670276","mlb:676395","mlb:676969","mlb:677060","mlb:677347","mlb:677865","mlb:679529","mlb:680757","mlb:680862","mlb:681546","mlb:683232","mlb:683734","mlb:685801","mlb:687473","mlb:687952","mlb:688107","mlb:690984","mlb:690986","mlb:691016","mlb:693433","mlb:807712"],"label":"Sacramento","country":"United States"},"geometry":{"type":"Polygon","coordinates":[[[-121.707157,36.574218],[-120.150308,37.778361],[-120.625018,39.393868],[-122.699099,39.784231],[-124.231246,38.566387],[-123.715986,36.972296],[-121.707157,36.574218]]]}},{"type":"Feature","properties":{"hex_id":"822887fffffffff","population":936839,"population_year":2025,"area_km2":85294.5,"population_density":11.0,"all_players":1,"players_per_million":1.07,"player_ids":["mlb:683021"],"label":"Boise","country":"United States"},"geometry":{"type":"Polygon","coordinates":[[[-115.603107,42.837738],[-113.828092,43.921354],[-114.238428,45.473015],[-116.483698,45.929069],[-118.250236,44.830691],[-117.782019,43.291713],[-115.603107,42.837738]]]}},{"type":"Feature","properties":{"hex_id":"82289ffffffffff","population":332572,"population_year":2025,"area_km2":81458.9,"population_density":4.1,"all_players":1,"players_per_million":3.01,"player_ids":["mlb:676051"],"label":"Missoula","country":"United States"},"geometry":{"type":"Polygon","coordinates":[[[-114.238428,45.473015],[-112.389584,46.506775],[-112.788004,48.011188],[-115.101052,48.471845],[-116.945809,47.422734],[-116.483698,45.929069],[-114.238428,45.473015]]]}},{"type":"Feature","properties":{"hex_id":"8228d7fffffffff","population":6638102,"population_year":2025,"area_km2":76219.8,"population_density":87.1,"all_players":18,"players_per_million":2.71,"player_ids":["mlb:476594","mlb:571510","mlb:592155","mlb:601713","mlb:605483","mlb:624424","mlb:624512","mlb:656257","mlb:656413","mlb:656876","mlb:666915","mlb:676083","mlb:676254","mlb:676617","mlb:680718","mlb:682998","mlb:687765","mlb:687859"],"label":"Seattle","country":"United States"},"geometry":{"type":"Polygon","coordinates":[[[-120.980657,46.691537],[-119.232215,47.804097],[-119.747324,49.236416],[-122.065326,49.540804],[-123.785414,48.414997],[-123.218544,46.998589],[-120.980657,46.691537]]]}},{"type":"Feature","properties":{"hex_id":"8228dffffffffff","population":3121728,"population_year":2025,"area_km2":72289.7,"population_density":43.2,"all_players":2,"players_per_million":0.64,"player_ids":["mlb:641933","mlb:671922"],"label":"Burnaby","country":"Canada"},"geometry":{"type":"Polygon","coordinates":[[[-123.785414,48.414997],[-122.065326,49.540804],[-123.122866,50.984711],[-125.501019,51.20399],[-126.653646,49.99834],[-126.038043,48.646404],[-123.785414,48.414997]]]}},{"type":"Feature","properties":{"hex_id":"8228f7fffffffff","population":3870003,"population_year":2025,"area_km2":79647.5,"population_density":48.6,"all_players":7,"players_per_million":1.81,"player_ids":["mlb:657044","mlb:668939","mlb:669127","mlb:669450","mlb:685126","mlb:690953","mlb:694374"],"label":"Portland","country":"United States"},"geometry":{"type":"Polygon","coordinates":[[[-122.134831,44.057691],[-120.463169,45.21242],[-120.980657,46.691537],[-123.218544,46.998589],[-124.859982,45.831702],[-124.296252,44.370406],[-122.134831,44.057691]]]}},{"type":"Feature","properties":{"hex_id":"822917fffffffff","population":605031,"population_year":2025,"area_km2":95515.4,"population_density":6.3,"all_players":6,"players_per_million":9.92,"player_ids":["mlb:543510","mlb:642100","mlb:643446","mlb:657612","mlb:669684","mlb:689041"],"label":"Santa Barbara","country":"United States"},"geometry":{"type":"Polygon","coordinates":[[[-120.318338,31.57331],[-118.804528,32.779438],[-119.240554,34.468622],[-121.231482,34.929532],[-122.726209,33.706603],[-122.250772,32.039958],[-120.318338,31.57331]]]}},{"type":"Feature","properties":{"hex_id":"822987fffffffff","population":2847941,"population_year":2025,"area_km2":95515.4,"population_density":29.8,"all_players":8,"players_per_million":2.81,"player_ids":["mlb:502054","mlb:542881","mlb:547180","mlb:592178","mlb:607200","mlb:623149","mlb:669194","mlb:681082"],"label":"Las Vegas","country":"United States"},"geometry":{"type":"Polygon","coordinates":[[[-115.644549,35.13856],[-113.999549,36.284189],[-114.382127,37.963949],[-116.46105,38.483502],[-118.098739,37.321697],[-117.666441,35.65712],[-115.644549,35.13856]]]}},{"type":"Feature","properties":{"hex_id":"82298ffffffffff","population":924688,"population_year":2025,"area_km2":91641.3,"population_density":10.1,"all_players":3,"players_per_million":3.24,"player_ids":["mlb:641658","mlb:676812","mlb:700249"],"label":"Reno","country":"United States"},"geometry":{"type":"Polygon","coordinates":[[[-118.098739,37.321697],[-116.46105,38.483502],[-116.888006,40.116316],[-119.002282,40.570572],[-120.625018,39.393868],[-120.150308,37.778361],[-118.098739,37.321697]]]}},{"type":"Feature","properties":{"hex_id":"8229a7fffffffff","population":26139253,"population_year":2025,"area_km2":97556.0,"population_density":267.9,"all_players":141,"players_per_million":5.39,"player_ids":["mlb:445926","mlb:457759","mlb:458677","mlb:518595","mlb:518692","mlb:542963","mlb:543294","mlb:543309","mlb:543859","mlb:547001","mlb:547179","mlb:554431","mlb:571448","mlb:592866","mlb:592885","mlb:595345","mlb:595453","mlb:595978","mlb:596117","mlb:605131","mlb:606965","mlb:607481","mlb:607680","mlb:608331","mlb:608337","mlb:621028","mlb:621057","mlb:621438","mlb:623168","mlb:641343","mlb:641487","mlb:641816","mlb:641857","mlb:642086","mlb:642180","mlb:642851","mlb:656180","mlb:656185","mlb:656248","mlb:656288","mlb:656305","mlb:656427","mlb:656464","mlb:656577","mlb:656582","mlb:656638","mlb:656730","mlb:656731","mlb:657097","mlb:657514","mlb:657756","mlb:663457","mlb:663465","mlb:663559","mlb:663562","mlb:663941","mlb:664034","mlb:664238","mlb:664702","mlb:664728","mlb:665871","mlb:666018","mlb:666150","mlb:666157","mlb:666160","mlb:666165","mlb:667297","mlb:667690","mlb:668715","mlb:668881","mlb:668904","mlb:668930","mlb:668941","mlb:669003","mlb:669065","mlb:669093","mlb:669208","mlb:669212","mlb:669374","mlb:669392","mlb:669397","mlb:669456","mlb:669467","mlb:669477","mlb:670092","mlb:670766","mlb:671289","mlb:671737","mlb:672359","mlb:672386","mlb:674841","mlb:675512","mlb:675915","mlb:676070","mlb:676356","mlb:676440","mlb:676534","mlb:676572","mlb:676701","mlb:680574","mlb:680577","mlb:680767","mlb:680776","mlb:680880","mlb:681911","mlb:682177","mlb:683155","mlb:683227","mlb:683766","mlb:686676","mlb:686765","mlb:686993","mlb:687401","mlb:687922","mlb:688158","mlb:688497","mlb:689147","mlb:691011","mlb:691094","mlb:691718","mlb:691720","mlb:691777","mlb:691785","mlb:692024","mlb:693313","mlb:694376","mlb:694377","mlb:694973","mlb:695336","mlb:700187","mlb:700241","mlb:700246","mlb:701487","mlb:701519","mlb:701552","mlb:701675","mlb:804668","mlb:805249","mlb:805367","mlb:805373","mlb:805779"],"label":"San Diego","country":"United States"},"geometry":{"type":"Polygon","coordinates":[[[-116.838302,32.260383],[-115.254005,33.431536],[-115.644549,35.13856],[-117.666441,35.65712],[-119.240554,34.468622],[-118.804528,32.779438],[-116.838302,32.260383]]]}},{"type":"Feature","properties":{"hex_id":"8229affffffffff","population":3828785,"population_year":2025,"area_km2":93933.6,"population_density":40.8,"all_players":10,"players_per_million":2.61,"player_ids":["mlb:518934","mlb:621053","mlb:641401","mlb:642216","mlb:669203","mlb:669276","mlb:669422","mlb:670810","mlb:686797","mlb:687637"],"label":"Bakersfield","country":"United States"},"geometry":{"type":"Polygon","coordinates":[[[-119.240554,34.468622],[-117.666441,35.65712],[-118.098739,37.321697],[-120.150308,37.778361],[-121.707157,36.574218],[-121.231482,34.929532],[-119.240554,34.468622]]]}},{"type":"Feature","properties":{"hex_id":"8229b7fffffffff","population":1974096,"population_year":2025,"area_km2":98815.5,"population_density":20.0,"all_players":5,"players_per_million":2.53,"player_ids":["mlb:661527","mlb:663368","mlb:668942","mlb:669461","mlb:680694"],"label":"Peoria","country":"United States"},"geometry":{"type":"Polygon","coordinates":[[[-113.268008,32.856905],[-111.622726,33.985325],[-111.962358,35.70494],[-113.999549,36.284189],[-115.644549,35.13856],[-115.254005,33.431536],[-113.268008,32.856905]]]}},{"type":"Feature","properties":{"hex_id":"822a17fffffffff","population":30364242,"population_year":2025,"area_km2":87326.6,"population_density":347.7,"all_players":63,"players_per_million":2.07,"player_ids":["mlb:450203","mlb:493603","mlb:518792","mlb:534910","mlb:543101","mlb:543807","mlb:571927","mlb:572233","mlb:573186","mlb:600869","mlb:605130","mlb:641835","mlb:641943","mlb:642136","mlb:643361","mlb:650644","mlb:663474","mlb:663795","mlb:663969","mlb:664056","mlb:666134","mlb:668678","mlb:668901","mlb:668970","mlb:669221","mlb:669234","mlb:669364","mlb:669711","mlb:669923","mlb:670036","mlb:670097","mlb:671111","mlb:671212","mlb:671277","mlb:671655","mlb:671732","mlb:672279","mlb:676508","mlb:676680","mlb:676760","mlb:676914","mlb:676962","mlb:677020","mlb:680700","mlb:680701","mlb:680779","mlb:681347","mlb:681351","mlb:683011","mlb:683083","mlb:685107","mlb:686218","mlb:686747","mlb:686799","mlb:687166","mlb:691019","mlb:693855","mlb:694388","mlb:695534","mlb:695681","mlb:700669","mlb:701581","mlb:702674"],"label":"New York","country":"United States"},"geometry":{"type":"Polygon","coordinates":[[[-73.076912,42.400493],[-75.333452,42.029564],[-75.960619,40.480497],[-74.442775,39.340569],[-72.307877,39.686062],[-71.573772,41.195725],[-73.076912,42.400493]]]}},{"type":"Feature","properties":{"hex_id":"822a37fffffffff","population":10409321,"population_year":2025,"area_km2":89801.2,"population_density":115.9,"all_players":21,"players_per_million":2.02,"player_ids":["mlb:448179","mlb:573262","mlb:605113","mlb:605154","mlb:641386","mlb:641656","mlb:656794","mlb:669707","mlb:676571","mlb:678024","mlb:680732","mlb:681006","mlb:681343","mlb:681508","mlb:686217","mlb:687478","mlb:693645","mlb:694363","mlb:700250","mlb:805299","mlb:807713"],"label":"Boston","country":"United States"},"geometry":{"type":"Polygon","coordinates":[[[-69.955068,44.277849],[-72.323382,43.964363],[-73.076912,42.400493],[-71.573772,41.195725],[-69.342223,41.490681],[-68.482715,43.008011],[-69.955068,44.277849]]]}},{"type":"Feature","properties":{"hex_id":"822a87fffffffff","population":4299023,"population_year":2025,"area_km2":85294.5,"population_density":50.4,"all_players":13,"players_per_million":3.02,"player_ids":["mlb:543518","mlb:656186","mlb:663893","mlb:664023","mlb:670280","mlb:670770","mlb:677976","mlb:687287","mlb:690382","mlb:690993","mlb:695243","mlb:697812","mlb:702284"],"label":"Pittsburgh","country":"United States"},"geometry":{"type":"Polygon","coordinates":[[[-79.734069,41.163834],[-81.867503,40.674246],[-82.267059,39.125451],[-80.651775,38.089298],[-78.619418,38.540002],[-78.104271,40.06406],[-79.734069,41.163834]]]}},{"type":"Feature","properties":{"hex_id":"822a8ffffffffff","population":6334016,"population_year":2025,"area_km2":80847.5,"population_density":78.3,"all_players":23,"players_per_million":3.63,"player_ids":["mlb:573009","mlb:641793","mlb:642215","mlb:656775","mlb:663671","mlb:663728","mlb:663738","mlb:668716","mlb:668800","mlb:669060","mlb:669724","mlb:671096","mlb:672275","mlb:675659","mlb:675989","mlb:677161","mlb:680951","mlb:681987","mlb:686469","mlb:686654","mlb:687931","mlb:801434","mlb:813349"],"label":"Richmond","country":"United States"},"geometry":{"type":"Polygon","coordinates":[[[-78.619418,38.540002],[-80.651775,38.089298],[-81.068449,36.598719],[-79.557618,35.583567],[-77.618683,35.999192],[-77.099922,37.463561],[-78.619418,38.540002]]]}},{"type":"Feature","properties":{"hex_id":"822a97fffffffff","population":8425121,"population_year":2025,"area_km2":85627.7,"population_density":98.4,"all_players":17,"players_per_million":2.02,"player_ids":["mlb:571912","mlb:605135","mlb:605177","mlb:606996","mlb:621493","mlb:643217","mlb:656716","mlb:656941","mlb:657571","mlb:663584","mlb:663773","mlb:664141","mlb:670174","mlb:675911","mlb:685314","mlb:694646","mlb:805123"],"label":"Toledo","country":"United States"},"geometry":{"type":"Polygon","coordinates":[[[-83.600197,41.724215],[-85.703199,41.161269],[-85.979328,39.596509],[-84.278055,38.60875],[-82.267059,39.125451],[-81.867503,40.674246],[-83.600197,41.724215]]]}},{"type":"Feature","properties":{"hex_id":"822a9ffffffffff","population":2499801,"population_year":2025,"area_km2":81458.9,"population_density":30.7,"all_players":3,"players_per_million":1.2,"player_ids":["mlb:676702","mlb:689017","mlb:694497"],"label":"Bristol","country":"United States"},"geometry":{"type":"Polygon","coordinates":[[[-82.267059,39.125451],[-84.278055,38.60875],[-84.585167,37.099589],[-82.992984,36.123996],[-81.068449,36.598719],[-80.651775,38.089298],[-82.267059,39.125451]]]}},{"type":"Feature","properties":{"hex_id":"822aa7fffffffff","population":3417567,"population_year":2025,"area_km2":88726.5,"population_density":38.5,"all_players":6,"players_per_million":1.76,"player_ids":["mlb:623437","mlb:664983","mlb:668709","mlb:668820","mlb:681869","mlb:696131"],"label":"Scranton","country":"United States"},"geometry":{"type":"Polygon","coordinates":[[[-76.966258,43.195408],[-79.227281,42.744533],[-79.734069,41.163834],[-78.104271,40.06406],[-75.960619,40.480497],[-75.333452,42.029564],[-76.966258,43.195408]]]}},{"type":"Feature","properties":{"hex_id":"822aaffffffffff","population":16213426,"population_year":2025,"area_km2":84307.8,"population_density":192.3,"all_players":32,"players_per_million":1.97,"player_ids":["mlb:502671","mlb:545361","mlb:596271","mlb:608671","mlb:621199","mlb:623465","mlb:641584","mlb:657757","mlb:664199","mlb:664774","mlb:668731","mlb:668804","mlb:669145","mlb:670223","mlb:671083","mlb:676801","mlb:680869","mlb:682144","mlb:682988","mlb:686668","mlb:687330","mlb:687462","mlb:687888","mlb:688642","mlb:689254","mlb:695578","mlb:701538","mlb:701762","mlb:702056","mlb:702358","mlb:805811","mlb:810938"],"label":"Baltimore","country":"United States"},"geometry":{"type":"Polygon","coordinates":[[[-75.960619,40.480497],[-78.104271,40.06406],[-78.619418,38.540002],[-77.099922,37.463561],[-75.063317,37.849069],[-74.442775,39.340569],[-75.960619,40.480497]]]}},{"type":"Feature","properties":{"hex_id":"822ab7fffffffff","population":10815218,"population_year":2025,"area_km2":89440.6,"population_density":120.9,"all_players":17,"players_per_million":1.57,"player_ids":["mlb:542932","mlb:606992","mlb:640448","mlb:641778","mlb:656945","mlb:664123","mlb:664948","mlb:669242","mlb:670167","mlb:676755","mlb:686527","mlb:686613","mlb:686701","mlb:693307","mlb:693312","mlb:701305","mlb:805300"],"label":"Detroit","country":"United States"},"geometry":{"type":"Polygon","coordinates":[[[-80.982253,43.86012],[-83.224953,43.327485],[-83.600197,41.724215],[-81.867503,40.674246],[-79.734069,41.163834],[-79.227281,42.744533],[-80.982253,43.86012]]]}},{"type":"Feature","properties":{"hex_id":"822ad7fffffffff","population":3814677,"population_year":2025,"area_km2":76219.8,"population_density":50.0,"all_players":10,"players_per_million":2.62,"player_ids":["mlb:542888","mlb:656550","mlb:668909","mlb:669022","mlb:680729","mlb:680777","mlb:681460","mlb:681810","mlb:694738","mlb:802419"],"label":"Fayetteville","country":"United States"},"geometry":{"type":"Polygon","coordinates":[[[-77.618683,35.999192],[-79.557618,35.583567],[-79.985888,34.15372],[-78.568356,33.165261],[-76.715776,33.549278],[-76.1969,34.952047],[-77.618683,35.999192]]]}},{"type":"Feature","properties":{"hex_id":"822af7fffffffff","population":2171642,"population_year":2025,"area_km2":79647.5,"population_density":27.3,"all_players":6,"players_per_million":2.76,"player_ids":["mlb:621035","mlb:663993","mlb:664040","mlb:666139","mlb:681882","mlb:702352"],"label":"Chesapeake","country":"United States"},"geometry":{"type":"Polygon","coordinates":[[[-75.063317,37.849069],[-77.099922,37.463561],[-77.618683,35.999192],[-76.1969,34.952047],[-74.258118,35.309765],[-73.646509,36.741215],[-75.063317,37.849069]]]}},{"type":"Feature","properties":{"hex_id":"822b8ffffffffff","population":3267276,"population_year":2025,"area_km2":91641.3,"population_density":35.7,"all_players":6,"players_per_million":1.84,"player_ids":["mlb:571578","mlb:592454","mlb:656240","mlb:656546","mlb:657424","mlb:666374"],"label":"Latham","country":"United States"},"geometry":{"type":"Polygon","coordinates":[[[-73.944231,45.197835],[-76.33587,44.798413],[-76.966258,43.195408],[-75.333452,42.029564],[-73.076912,42.400493],[-72.323382,43.964363],[-73.944231,45.197835]]]}},{"type":"Feature","properties":{"hex_id":"822b9ffffffffff","population":11744141,"population_year":2025,"area_km2":92775.6,"population_density":126.6,"all_players":14,"players_per_million":1.19,"player_ids":["mlb:605447","mlb:608385","mlb:615698","mlb:641680","mlb:647304","mlb:647315","mlb:650633","mlb:666310","mlb:672012","mlb:672016","mlb:676391","mlb:683357","mlb:689414","mlb:804636"],"label":"Toronto","country":"Canada"},"geometry":{"type":"Polygon","coordinates":[[[-78.100366,45.982432],[-80.490261,45.49319],[-80.982253,43.86012],[-79.227281,42.744533],[-76.966258,43.195408],[-76.33587,44.798413],[-78.100366,45.982432]]]}},{"type":"Feature","properties":{"hex_id":"822baffffffffff","population":6643169,"population_year":2025,"area_km2":93933.6,"population_density":70.7,"all_players":4,"players_per_million":0.6,"player_ids":["mlb:647351","mlb:665489","mlb:666397","mlb:689520"],"label":"Longueuil","country":"Canada"},"geometry":{"type":"Polygon","coordinates":[[[-70.65056,47.146099],[-73.17262,46.811656],[-73.944231,45.197835],[-72.323382,43.964363],[-69.955068,44.277849],[-69.060562,45.844655],[-70.65056,47.146099]]]}},{"type":"Feature","properties":{"hex_id":"822e0ffffffffff","population":4443662,"population_year":2025,"area_km2":80544.7,"population_density":55.2,"all_players":3,"players_per_million":0.68,"player_ids":["mlb:579328","mlb:660271","mlb:808963"],"label":"Morioka","country":"Japan"},"geometry":{"type":"Polygon","coordinates":[[[141.809657,38.825701],[141.966983,40.491751],[140.284877,41.393622],[138.515018,40.617501],[138.441462,38.9811],[140.055179,38.090666],[141.809657,38.825701]]]}},{"type":"Feature","properties":{"hex_id":"822e67fffffffff","population":29949728,"population_year":2025,"area_km2":74863.4,"population_density":400.1,"all_players":4,"players_per_million":0.13,"player_ids":["mlb:506433","mlb:628317","mlb:673540","mlb:807799"],"label":"Osaka","country":"Japan"},"geometry":{"type":"Polygon","coordinates":[[[138.240188,34.090249],[138.304265,35.714832],[136.756542,36.594877],[135.209181,35.840284],[135.213088,34.249062],[136.697641,33.378798],[138.240188,34.090249]]]}},{"type":"Feature","properties":{"hex_id":"822e6ffffffffff","population":11126476,"population_year":2025,"area_km2":70058.2,"population_density":158.8,"all_players":1,"players_per_million":0.09,"player_ids":["mlb:808967"],"label":"Bizen","country":"Japan"},"geometry":{"type":"Polygon","coordinates":[[[135.213088,34.249062],[135.209181,35.840284],[133.690522,36.661487],[132.241949,35.885847],[132.308377,34.331159],[133.762313,33.515468],[135.213088,34.249062]]]}},{"type":"Feature","properties":{"hex_id":"822f5ffffffffff","population":40494200,"population_year":2025,"area_km2":79647.5,"population_density":508.4,"all_players":3,"players_per_million":0.07,"player_ids":["mlb:673513","mlb:673548","mlb:829272"],"label":"Arakawa","country":"Japan"},"geometry":{"type":"Polygon","coordinates":[[[141.379662,33.846135],[141.516472,35.500079],[139.948213,36.441778],[138.304265,35.714832],[138.240188,34.090249],[139.748325,33.162808],[141.379662,33.846135]]]}},{"type":"Feature","properties":{"hex_id":"8230c7fffffffff","population":17897330,"population_year":2025,"area_km2":63447.1,"population_density":282.1,"all_players":1,"players_per_million":0.06,"player_ids":["mlb:678225"],"label":"Daegu","country":"South Korea"},"geometry":{"type":"Polygon","coordinates":[[[126.253349,35.974736],[125.973267,34.659415],[127.394514,33.936306],[129.115986,34.537795],[129.409707,35.861246],[127.968639,36.57549],[126.253349,35.974736]]]}},{"type":"Feature","properties":{"hex_id":"8230e7fffffffff","population":32628938,"population_year":2025,"area_km2":59429.4,"population_density":549.0,"all_players":4,"players_per_million":0.12,"player_ids":["mlb:608701","mlb:673490","mlb:808975","mlb:808982"],"label":"Seoul","country":"South Korea"},"geometry":{"type":"Polygon","coordinates":[[[125.111877,37.903324],[124.835996,36.642936],[126.253349,35.974736],[127.968639,36.57549],[127.809941,38.077868],[126.346943,38.738746],[125.111877,37.903324]]]}},{"type":"Feature","properties":{"hex_id":"824417fffffffff","population":1532020,"population_year":2025,"area_km2":80544.7,"population_density":19.0,"all_players":2,"players_per_million":1.31,"player_ids":["mlb:677942","mlb:687223"],"label":"Cape Coral","country":"United States"},"geometry":{"type":"Polygon","coordinates":[[[-82.310403,23.682659],[-80.82969,24.429618],[-80.698565,26.062694],[-82.084301,26.984013],[-83.616841,26.242156],[-83.710823,24.573869],[-82.310403,23.682659]]]}},{"type":"Feature","properties":{"hex_id":"82441ffffffffff","population":5165806,"population_year":2025,"area_km2":82705.0,"population_density":62.5,"all_players":18,"players_per_million":3.48,"player_ids":["mlb:543391","mlb:606930","mlb:621121","mlb:623474","mlb:624413","mlb:656811","mlb:663656","mlb:663765","mlb:663878","mlb:673929","mlb:676206","mlb:676467","mlb:680684","mlb:681676","mlb:685068","mlb:687957","mlb:695506","mlb:800048"],"label":"Tampa","country":"United States"},"geometry":{"type":"Polygon","coordinates":[[[-83.616841,26.242156],[-82.084301,26.984013],[-81.966494,28.631807],[-83.420798,29.571467],[-85.007143,28.83498],[-85.084348,27.153536],[-83.616841,26.242156]]]}},{"type":"Feature","properties":{"hex_id":"824437fffffffff","population":2576712,"population_year":2025,"area_km2":82705.0,"population_density":31.2,"all_players":13,"players_per_million":5.05,"player_ids":["mlb:578428","mlb:624585","mlb:628451","mlb:666974","mlb:668227","mlb:670912","mlb:670970","mlb:676480","mlb:678246","mlb:681624","mlb:682868","mlb:683748","mlb:692585"],"label":"Havana","country":"Cuba"},"geometry":{"type":"Polygon","coordinates":[[[-83.891248,21.244199],[-82.41895,22.034607],[-82.310403,23.682659],[-83.710823,24.573869],[-85.232359,23.784705],[-85.303339,22.103149],[-83.891248,21.244199]]]}},{"type":"Feature","properties":{"hex_id":"824447fffffffff","population":3715636,"population_year":2025,"area_km2":92775.6,"population_density":40.0,"all_players":8,"players_per_million":2.15,"player_ids":["mlb:489119","mlb:543592","mlb:605400","mlb:641585","mlb:663432","mlb:663687","mlb:669701","mlb:676742"],"label":"Baton Rouge","country":"United States"},"geometry":{"type":"Polygon","coordinates":[[[-91.44306,29.038514],[-89.789168,29.876068],[-89.779473,31.590738],[-91.474426,32.491469],[-93.177711,31.651131],[-93.135951,29.913303],[-91.44306,29.038514]]]}},{"type":"Feature","properties":{"hex_id":"82444ffffffffff","population":1823298,"population_year":2025,"area_km2":93159.0,"population_density":19.6,"all_players":8,"players_per_million":4.39,"player_ids":["mlb:592836","mlb:607625","mlb:656629","mlb:676604","mlb:677955","mlb:682243","mlb:686580","mlb:806188"],"label":"Longview","country":"United States"},"geometry":{"type":"Polygon","coordinates":[[[-93.177711,31.651131],[-91.474426,32.491469],[-91.490847,34.200716],[-93.265212,35.090108],[-95.017507,34.246081],[-94.945821,32.516906],[-93.177711,31.651131]]]}},{"type":"Feature","properties":{"hex_id":"824457fffffffff","population":2432844,"population_year":2025,"area_km2":88726.5,"population_density":27.4,"all_players":10,"players_per_million":4.11,"player_ids":["mlb:594902","mlb:641329","mlb:657006","mlb:663455","mlb:663604","mlb:676979","mlb:677941","mlb:686790","mlb:687075","mlb:688760"],"label":"Pensacola","country":"United States"},"geometry":{"type":"Polygon","coordinates":[[[-88.170272,28.973403],[-86.545778,29.759287],[-86.487848,31.44625],[-88.101738,32.375354],[-89.779473,31.590738],[-89.789168,29.876068],[-88.170272,28.973403]]]}},{"type":"Feature","properties":{"hex_id":"82445ffffffffff","population":1787935,"population_year":2025,"area_km2":89440.6,"population_density":20.0,"all_players":6,"players_per_million":3.36,"player_ids":["mlb:592669","mlb:605540","mlb:608717","mlb:663968","mlb:669372","mlb:701542"],"label":"Flowood","country":"United States"},"geometry":{"type":"Polygon","coordinates":[[[-89.779473,31.590738],[-88.101738,32.375354],[-88.065886,34.059836],[-89.759172,34.984893],[-91.490847,34.200716],[-91.474426,32.491469],[-89.779473,31.590738]]]}},{"type":"Feature","properties":{"hex_id":"82446ffffffffff","population":9292440,"population_year":2025,"area_km2":96323.1,"population_density":96.5,"all_players":36,"players_per_million":3.87,"player_ids":["mlb:518876","mlb:543135","mlb:545341","mlb:624415","mlb:656484","mlb:656686","mlb:657136","mlb:663321","mlb:663399","mlb:663568","mlb:663609","mlb:663647","mlb:663767","mlb:663855","mlb:664139","mlb:665019","mlb:667452","mlb:669358","mlb:669369","mlb:669620","mlb:669713","mlb:676439","mlb:676684","mlb:679775","mlb:680573","mlb:680755","mlb:681297","mlb:681982","mlb:683175","mlb:685005","mlb:687064","mlb:690928","mlb:691026","mlb:694728","mlb:695238","mlb:701656"],"label":"Houston","country":"United States"},"geometry":{"type":"Polygon","coordinates":[[[-94.808948,29.022702],[-93.135951,29.913303],[-93.177711,31.651131],[-94.945821,32.516906],[-96.66289,31.619531],[-96.567347,29.863731],[-94.808948,29.022702]]]}},{"type":"Feature","properties":{"hex_id":"8244a7fffffffff","population":5328381,"population_year":2025,"area_km2":75672.4,"population_density":70.4,"all_players":21,"players_per_million":3.94,"player_ids":["mlb:592206","mlb:592426","mlb:592518","mlb:605244","mlb:607074","mlb:607259","mlb:641555","mlb:641755","mlb:643410","mlb:657053","mlb:663697","mlb:663743","mlb:663796","mlb:663853","mlb:665052","mlb:671213","mlb:680728","mlb:683004","mlb:687003","mlb:687263","mlb:701398"],"label":"Miami","country":"United States"},"geometry":{"type":"Polygon","coordinates":[[[-79.508242,23.533066],[-78.073265,24.24011],[-77.908907,25.835601],[-79.211732,26.761492],[-80.698565,26.062694],[-80.82969,24.429618],[-79.508242,23.533066]]]}},{"type":"Feature","properties":{"hex_id":"8244affffffffff","population":7848067,"population_year":2025,"area_km2":77902.3,"population_density":100.7,"all_players":36,"players_per_million":4.59,"player_ids":["mlb:457705","mlb:519242","mlb:547184","mlb:571945","mlb:592791","mlb:596295","mlb:607208","mlb:608334","mlb:621107","mlb:641312","mlb:656976","mlb:656986","mlb:657557","mlb:663372","mlb:663624","mlb:663898","mlb:664849","mlb:666126","mlb:666182","mlb:668964","mlb:669302","mlb:671106","mlb:671109","mlb:676661","mlb:677944","mlb:680689","mlb:681962","mlb:682985","mlb:686611","mlb:687424","mlb:689958","mlb:691723","mlb:692216","mlb:694384","mlb:701350","mlb:701358"],"label":"Orlando","country":"United States"},"geometry":{"type":"Polygon","coordinates":[[[-80.698565,26.062694],[-79.211732,26.761492],[-79.057436,28.372892],[-80.425375,29.321821],[-81.966494,28.631807],[-82.084301,26.984013],[-80.698565,26.062694]]]}},{"type":"Feature","properties":{"hex_id":"8244b7fffffffff","population":326361,"population_year":2025,"area_km2":70782.3,"population_density":4.6,"all_players":1,"players_per_million":3.06,"player_ids":["mlb:665862"],"label":"Nassau","country":"Bahamas"},"geometry":{"type":"Polygon","coordinates":[[[-76.831217,23.342863],[-75.445541,24.012557],[-75.251887,25.568754],[-76.472185,26.494291],[-77.908907,25.835601],[-78.073265,24.24011],[-76.831217,23.342863]]]}},{"type":"Feature","properties":{"hex_id":"8244c7fffffffff","population":6948496,"population_year":2025,"area_km2":80847.5,"population_density":85.9,"all_players":40,"players_per_million":5.76,"player_ids":["mlb:519326","mlb:554430","mlb:571657","mlb:608371","mlb:621439","mlb:621566","mlb:624428","mlb:641745","mlb:663536","mlb:663662","mlb:663698","mlb:663886","mlb:666181","mlb:666211","mlb:668845","mlb:669016","mlb:669134","mlb:669721","mlb:670764","mlb:671162","mlb:671221","mlb:674944","mlb:676477","mlb:677943","mlb:677958","mlb:678009","mlb:680704","mlb:680735","mlb:681584","mlb:687134","mlb:687363","mlb:687830","mlb:687847","mlb:691023","mlb:691781","mlb:695670","mlb:696149","mlb:801403","mlb:802415","mlb:802686"],"label":"Atlanta","country":"United States"},"geometry":{"type":"Polygon","coordinates":[[[-83.318504,31.226884],[-81.720688,31.908012],[-81.592393,33.531156],[-83.104736,34.505705],[-84.761579,33.833075],[-84.845862,32.177532],[-83.318504,31.226884]]]}},{"type":"Feature","properties":{"hex_id":"8244cffffffffff","population":5279881,"population_year":2025,"area_km2":81458.9,"population_density":64.8,"all_players":19,"players_per_million":3.6,"player_ids":["mlb:621020","mlb:656302","mlb:657041","mlb:657376","mlb:663330","mlb:666198","mlb:669236","mlb:676428","mlb:677961","mlb:681799","mlb:681857","mlb:682928","mlb:683769","mlb:686642","mlb:686930","mlb:688363","mlb:690829","mlb:692225","mlb:805673"],"label":"Kennesaw","country":"United States"},"geometry":{"type":"Polygon","coordinates":[[[-84.761579,33.833075],[-83.104736,34.505705],[-82.992984,36.123996],[-84.585167,37.099589],[-86.303213,36.434527],[-86.366648,34.786557],[-84.761579,33.833075]]]}},{"type":"Feature","properties":{"hex_id":"8244d7fffffffff","population":1889865,"population_year":2025,"area_km2":76219.8,"population_density":24.8,"all_players":4,"players_per_million":2.12,"player_ids":["mlb:663992","mlb:669387","mlb:675540","mlb:676664"],"label":"Sumter","country":"United States"},"geometry":{"type":"Polygon","coordinates":[[[-80.283005,30.942583],[-78.735928,31.57726],[-78.568356,33.165261],[-79.985888,34.15372],[-81.592393,33.531156],[-81.720688,31.908012],[-80.283005,30.942583]]]}},{"type":"Feature","properties":{"hex_id":"8244dffffffffff","population":7412190,"population_year":2025,"area_km2":77926.1,"population_density":95.1,"all_players":25,"players_per_million":3.37,"player_ids":["mlb:605218","mlb:605488","mlb:608369","mlb:640451","mlb:641927","mlb:641941","mlb:642201","mlb:643338","mlb:663423","mlb:663804","mlb:666176","mlb:669326","mlb:669717","mlb:669722","mlb:675650","mlb:676475","mlb:681432","mlb:681895","mlb:681909","mlb:686563","mlb:686730","mlb:686751","mlb:691769","mlb:694350","mlb:815083"],"label":"Charlotte","country":"United States"},"geometry":{"type":"Polygon","coordinates":[[[-81.592393,33.531156],[-79.985888,34.15372],[-79.557618,35.583567],[-81.068449,36.598719],[-82.992984,36.123996],[-83.104736,34.505705],[-81.592393,33.531156]]]}},{"type":"Feature","properties":{"hex_id":"8244e7fffffffff","population":1664158,"population_year":2025,"area_km2":84307.8,"population_density":19.7,"all_players":9,"players_per_million":5.41,"player_ids":["mlb:605280","mlb:663485","mlb:663947","mlb:666142","mlb:670102","mlb:676106","mlb:677956","mlb:694462","mlb:695418"],"label":"Tallahassee","country":"United States"},"geometry":{"type":"Polygon","coordinates":[[[-85.007143,28.83498],[-83.420798,29.571467],[-83.318504,31.226884],[-84.845862,32.177532],[-86.487848,31.44625],[-86.545778,29.759287],[-85.007143,28.83498]]]}},{"type":"Feature","properties":{"hex_id":"8244effffffffff","population":3612428,"population_year":2025,"area_km2":85294.5,"population_density":42.4,"all_players":14,"players_per_million":3.88,"player_ids":["mlb:502085","mlb:605513","mlb:607179","mlb:608665","mlb:641313","mlb:642016","mlb:663554","mlb:681867","mlb:682183","mlb:683002","mlb:686475","mlb:690916","mlb:695445","mlb:702752"],"label":"Birmingham","country":"United States"},"geometry":{"type":"Polygon","coordinates":[[[-86.487848,31.44625],[-84.845862,32.177532],[-84.761579,33.833075],[-86.366648,34.786557],[-88.065886,34.059836],[-88.101738,32.375354],[-86.487848,31.44625]]]}},{"type":"Feature","properties":{"hex_id":"8244f7fffffffff","population":4583226,"population_year":2025,"area_km2":79647.5,"population_density":57.5,"all_players":18,"players_per_million":3.93,"player_ids":["mlb:594798","mlb:596103","mlb:596133","mlb:605182","mlb:641540","mlb:663903","mlb:668885","mlb:669004","mlb:669084","mlb:669720","mlb:681481","mlb:682995","mlb:682997","mlb:687074","mlb:687515","mlb:689172","mlb:691728","mlb:694671"],"label":"Jacksonville","country":"United States"},"geometry":{"type":"Polygon","coordinates":[[[-81.966494,28.631807],[-80.425375,29.321821],[-80.283005,30.942583],[-81.720688,31.908012],[-83.318504,31.226884],[-83.420798,29.571467],[-81.966494,28.631807]]]}},{"type":"Feature","properties":{"hex_id":"82450ffffffffff","population":3945114,"population_year":2025,"area_km2":88726.5,"population_density":44.5,"all_players":1,"players_per_million":0.25,"player_ids":["mlb:655889"],"label":"Merida","country":"Mexico"},"geometry":{"type":"Polygon","coordinates":[[[-88.353613,18.718699],[-86.860523,19.585107],[-86.811654,21.272186],[-88.2959,22.120731],[-89.833589,21.248168],[-89.841741,19.533495],[-88.353613,18.718699]]]}},{"type":"Feature","properties":{"hex_id":"824527fffffffff","population":8088946,"population_year":2025,"area_km2":85627.7,"population_density":94.5,"all_players":1,"players_per_million":0.12,"player_ids":["mlb:643289"],"label":"San Pedro Sula","country":"Honduras"},"geometry":{"type":"Polygon","coordinates":[[[-88.434553,13.711756],[-86.999519,14.59625],[-86.954405,16.244453],[-88.381314,17.034156],[-89.857391,16.13933],[-89.864907,14.465456],[-88.434553,13.711756]]]}},{"type":"Feature","properties":{"hex_id":"82458ffffffffff","population":2916269,"population_year":2025,"area_km2":77902.3,"population_density":37.4,"all_players":7,"players_per_million":2.4,"player_ids":["mlb:650490","mlb:660162","mlb:672335","mlb:682989","mlb:687377","mlb:693409","mlb:700337"],"label":"Cienfuegos","country":"Cuba"},"geometry":{"type":"Polygon","coordinates":[[[-81.081708,21.169796],[-79.650763,21.921223],[-79.508242,23.533066],[-80.82969,24.429618],[-82.310403,23.682659],[-82.41895,22.034607],[-81.081708,21.169796]]]}},{"type":"Feature","properties":{"hex_id":"824597fffffffff","population":2520483,"population_year":2025,"area_km2":70058.2,"population_density":36.0,"all_players":2,"players_per_million":0.79,"player_ids":["mlb:547973","mlb:670541"],"label":"Holguin","country":"Cuba"},"geometry":{"type":"Polygon","coordinates":[[[-77.336996,18.638235],[-75.998548,19.358823],[-75.818705,20.905271],[-77.004019,21.769252],[-78.389552,21.054853],[-78.541785,19.47005],[-77.336996,18.638235]]]}},{"type":"Feature","properties":{"hex_id":"82459ffffffffff","population":1382941,"population_year":2025,"area_km2":73030.9,"population_density":18.9,"all_players":7,"players_per_million":5.06,"player_ids":["mlb:493329","mlb:666969","mlb:666971","mlb:673357","mlb:680118","mlb:684320","mlb:691172"],"label":"Sancti Spiritus","country":"Cuba"},"geometry":{"type":"Polygon","coordinates":[[[-78.389552,21.054853],[-77.004019,21.769252],[-76.831217,23.342863],[-78.073265,24.24011],[-79.508242,23.533066],[-79.650763,21.921223],[-78.389552,21.054853]]]}},{"type":"Feature","properties":{"hex_id":"82464ffffffffff","population":1076096,"population_year":2025,"area_km2":98815.5,"population_density":10.9,"all_players":5,"players_per_million":4.65,"player_ids":["mlb:489446","mlb:642048","mlb:643396","mlb:670329","mlb:676282"],"label":"Honolulu","country":"United States"},"geometry":{"type":"Polygon","coordinates":[[[-159.133129,23.438175],[-160.24133,22.005854],[-159.475161,20.422209],[-157.606849,20.259692],[-156.478386,21.691033],[-157.237348,23.285729],[-159.133129,23.438175]]]}},{"type":"Feature","properties":{"hex_id":"824807fffffffff","population":2349425,"population_year":2025,"area_km2":104599.8,"population_density":22.5,"all_players":1,"players_per_million":0.43,"player_ids":["mlb:662253"],"label":"Los Mochis","country":"Mexico"},"geometry":{"type":"Polygon","coordinates":[[[-107.966701,22.697623],[-106.401723,23.787393],[-106.639261,25.578666],[-108.490011,26.27498],[-110.067594,25.163543],[-109.782517,23.378128],[-107.966701,22.697623]]]}},{"type":"Feature","properties":{"hex_id":"82480ffffffffff","population":1252872,"population_year":2025,"area_km2":104135.0,"population_density":12.0,"all_players":1,"players_per_million":0.8,"player_ids":["mlb:696030"],"label":"Ahome","country":"Mexico"},"geometry":{"type":"Polygon","coordinates":[[[-110.067594,25.163543],[-108.490011,26.27498],[-108.763145,28.059391],[-110.662618,28.72381],[-112.248052,27.591432],[-111.927064,25.816224],[-110.067594,25.163543]]]}},{"type":"Feature","properties":{"hex_id":"824837fffffffff","population":1901961,"population_year":2025,"area_km2":104135.0,"population_density":18.3,"all_players":1,"players_per_million":0.53,"player_ids":["mlb:664353"],"label":"Mazatlan","country":"Mexico"},"geometry":{"type":"Polygon","coordinates":[[[-105.946435,20.212679],[-104.398166,21.280266],[-104.602158,23.068533],[-106.401723,23.787393],[-107.966701,22.697623],[-107.715911,20.911859],[-105.946435,20.212679]]]}},{"type":"Feature","properties":{"hex_id":"824857fffffffff","population":1123588,"population_year":2025,"area_km2":102761.2,"population_density":10.9,"all_players":4,"players_per_million":3.56,"player_ids":["mlb:660604","mlb:663967","mlb:670623","mlb:678316"],"label":"Hermosillo","country":"Mexico"},"geometry":{"type":"Polygon","coordinates":[[[-112.248052,27.591432],[-110.662618,28.72381],[-110.973266,30.491571],[-112.918132,31.115173],[-114.506012,29.96281],[-114.147701,28.207447],[-112.248052,27.591432]]]}},{"type":"Feature","properties":{"hex_id":"82485ffffffffff","population":2402922,"population_year":2025,"area_km2":100537.4,"population_density":23.9,"all_players":1,"players_per_million":0.42,"player_ids":["mlb:678368"],"label":"Mexicali","country":"Mexico"},"geometry":{"type":"Polygon","coordinates":[[[-114.506012,29.96281],[-112.918132,31.115173],[-113.268008,32.856905],[-115.254005,33.431536],[-116.838302,32.260383],[-116.441531,30.533965],[-114.506012,29.96281]]]}},{"type":"Feature","properties":{"hex_id":"824887fffffffff","population":1755941,"population_year":2025,"area_km2":101417.2,"population_density":17.3,"all_players":1,"players_per_million":0.57,"player_ids":["mlb:667463"],"label":"Laredo","country":"United States"},"geometry":{"type":"Polygon","coordinates":[[[-99.773444,26.162949],[-98.13039,27.145531],[-98.247879,28.919834],[-100.061215,29.721882],[-101.73684,28.725749],[-101.566584,26.941793],[-99.773444,26.162949]]]}},{"type":"Feature","properties":{"hex_id":"82488ffffffffff","population":762345,"population_year":2025,"area_km2":101417.2,"population_density":7.5,"all_players":1,"players_per_million":1.31,"player_ids":["mlb:571970"],"label":"Midland","country":"United States"},"geometry":{"type":"Polygon","coordinates":[[[-101.73684,28.725749],[-100.061215,29.721882],[-100.211784,31.489938],[-102.093235,32.268747],[-103.798377,31.258774],[-103.592769,29.48455],[-101.73684,28.725749]]]}},{"type":"Feature","properties":{"hex_id":"824897fffffffff","population":940964,"population_year":2025,"area_km2":98815.5,"population_density":9.5,"all_players":4,"players_per_million":4.25,"player_ids":["mlb:607455","mlb:624431","mlb:667472","mlb:679845"],"label":"Corpus Christi","country":"United States"},"geometry":{"type":"Polygon","coordinates":[[[-96.384751,26.330133],[-94.743568,27.264006],[-94.808948,29.022702],[-96.567347,29.863731],[-98.247879,28.919834],[-98.13039,27.145531],[-96.384751,26.330133]]]}},{"type":"Feature","properties":{"hex_id":"82489ffffffffff","population":6429694,"population_year":2025,"area_km2":99241.3,"population_density":64.8,"all_players":15,"players_per_million":2.33,"player_ids":["mlb:548384","mlb:571946","mlb:642232","mlb:663978","mlb:666152","mlb:666168","mlb:666215","mlb:673962","mlb:676059","mlb:677952","mlb:682254","mlb:683146","mlb:690291","mlb:690544","mlb:702616"],"label":"Austin","country":"United States"},"geometry":{"type":"Polygon","coordinates":[[[-98.247879,28.919834],[-96.567347,29.863731],[-96.66289,31.619531],[-98.493873,32.444355],[-100.211784,31.489938],[-100.061215,29.721882],[-98.247879,28.919834]]]}},{"type":"Feature","properties":{"hex_id":"8248cffffffffff","population":473074,"population_year":2025,"area_km2":99241.3,"population_density":4.8,"all_players":1,"players_per_million":2.11,"player_ids":["mlb:678011"],"label":"Fort Defiance","country":"United States"},"geometry":{"type":"Polygon","coordinates":[[[-109.632511,33.353313],[-107.93785,34.432278],[-108.222119,36.158816],[-110.257485,36.800197],[-111.962358,35.70494],[-111.622726,33.985325],[-109.632511,33.353313]]]}},{"type":"Feature","properties":{"hex_id":"8248d7fffffffff","population":354023,"population_year":2025,"area_km2":100537.4,"population_density":3.5,"all_players":1,"players_per_million":2.82,"player_ids":["mlb:669432"],"label":"Carlsbad","country":"United States"},"geometry":{"type":"Polygon","coordinates":[[[-103.798377,31.258774],[-102.093235,32.268747],[-102.279867,34.021113],[-104.229094,34.766832],[-105.959856,33.74267],[-105.716219,31.987732],[-103.798377,31.258774]]]}},{"type":"Feature","properties":{"hex_id":"8248dffffffffff","population":1232145,"population_year":2025,"area_km2":98815.5,"population_density":12.5,"all_players":4,"players_per_million":3.25,"player_ids":["mlb:608324","mlb:641598","mlb:680730","mlb:681293"],"label":"Albuquerque","country":"United States"},"geometry":{"type":"Polygon","coordinates":[[[-105.959856,33.74267],[-104.229094,34.766832],[-104.454816,36.494369],[-106.47056,37.197522],[-108.222119,36.158816],[-107.93785,34.432278],[-105.959856,33.74267]]]}},{"type":"Feature","properties":{"hex_id":"8248effffffffff","population":7170957,"population_year":2025,"area_km2":101417.2,"population_density":70.7,"all_players":19,"players_per_million":2.65,"player_ids":["mlb:602104","mlb:621139","mlb:641355","mlb:643377","mlb:649966","mlb:657077","mlb:664059","mlb:664068","mlb:669087","mlb:669224","mlb:669357","mlb:669398","mlb:669911","mlb:680716","mlb:681892","mlb:682515","mlb:687589","mlb:689225","mlb:693304"],"label":"Phoenix","country":"United States"},"geometry":{"type":"Polygon","coordinates":[[[-110.973266,30.491571],[-109.334035,31.601966],[-109.632511,33.353313],[-111.622726,33.985325],[-113.268008,32.856905],[-112.918132,31.115173],[-110.973266,30.491571]]]}},{"type":"Feature","properties":{"hex_id":"824b67fffffffff","population":7712336,"population_year":2025,"area_km2":70058.2,"population_density":110.1,"all_players":1,"players_per_million":0.13,"player_ids":["mlb:684007"],"label":"Kitakyushu","country":"Japan"},"geometry":{"type":"Polygon","coordinates":[[[130.557843,33.768644],[130.260732,32.389001],[131.702216,31.564914],[133.45368,32.12931],[133.762313,33.515468],[132.308377,34.331159],[130.557843,33.768644]]]}},{"type":"Feature","properties":{"hex_id":"824ba7fffffffff","population":17459604,"population_year":2025,"area_km2":76219.8,"population_density":229.1,"all_players":1,"players_per_million":0.06,"player_ids":["mlb:678906"],"label":"Taichung","country":"Taiwan"},"geometry":{"type":"Polygon","coordinates":[[[119.763148,25.487093],[119.520262,23.963809],[120.846595,23.133384],[122.443634,23.841124],[122.701532,25.384508],[121.347514,26.200276],[119.763148,25.487093]]]}},{"type":"Feature","properties":{"hex_id":"824c8ffffffffff","population":6715398,"population_year":2025,"area_km2":63447.1,"population_density":105.8,"all_players":24,"players_per_million":3.57,"player_ids":["mlb:554340","mlb:600917","mlb:606303","mlb:642547","mlb:642715","mlb:661395","mlb:664294","mlb:665660","mlb:665795","mlb:665877","mlb:666624","mlb:669289","mlb:669854","mlb:672744","mlb:672841","mlb:673380","mlb:674370","mlb:677594","mlb:678821","mlb:682274","mlb:682848","mlb:686228","mlb:691176","mlb:691587"],"label":"Santiago","country":"Dominican Republic"},"geometry":{"type":"Polygon","coordinates":[[[-72.083595,21.373772],[-73.3708,20.726751],[-73.199201,19.391406],[-71.730136,18.713931],[-70.45385,19.381759],[-70.635386,20.705847],[-72.083595,21.373772]]]}},{"type":"Feature","properties":{"hex_id":"824c9ffffffffff","population":1532148,"population_year":2025,"area_km2":65980.3,"population_density":23.2,"all_players":1,"players_per_million":0.65,"player_ids":["mlb:806960"],"label":"Antilla","country":"Cuba"},"geometry":{"type":"Polygon","coordinates":[[[-74.481444,21.584829],[-75.818705,20.905271],[-75.998548,19.358823],[-74.509206,18.697242],[-73.199201,19.391406],[-73.3708,20.726751],[-74.481444,21.584829]]]}},{"type":"Feature","properties":{"hex_id":"824cc7fffffffff","population":1936355,"population_year":2025,"area_km2":63447.1,"population_density":30.5,"all_players":14,"players_per_million":7.23,"player_ids":["mlb:592254","mlb:605170","mlb:612434","mlb:621043","mlb:650911","mlb:656896","mlb:660821","mlb:663558","mlb:664744","mlb:669304","mlb:676679","mlb:678894","mlb:682927","mlb:683090"],"label":"Ponce","country":"Puerto Rico"},"geometry":{"type":"Polygon","coordinates":[[[-67.77314,19.332593],[-69.011224,18.690619],[-68.822887,17.323396],[-67.38817,16.613425],[-66.166052,17.278605],[-66.362344,18.630224],[-67.77314,19.332593]]]}},{"type":"Feature","properties":{"hex_id":"824cd7fffffffff","population":7721610,"population_year":2025,"area_km2":65961.6,"population_density":117.1,"all_players":89,"players_per_million":11.53,"player_ids":["mlb:467793","mlb:472610","mlb:516782","mlb:542303","mlb:570632","mlb:593576","mlb:593871","mlb:596142","mlb:606192","mlb:606466","mlb:608032","mlb:608070","mlb:609280","mlb:622379","mlb:622491","mlb:622534","mlb:622569","mlb:622761","mlb:622780","mlb:625643","mlb:642350","mlb:642520","mlb:642585","mlb:642701","mlb:642708","mlb:642727","mlb:642759","mlb:645261","mlb:645302","mlb:650559","mlb:650893","mlb:657656","mlb:660644","mlb:660730","mlb:660757","mlb:660853","mlb:660896","mlb:661563","mlb:664299","mlb:665161","mlb:665487","mlb:665625","mlb:665742","mlb:665833","mlb:665839","mlb:665923","mlb:666277","mlb:666464","mlb:666619","mlb:666659","mlb:666711","mlb:666808","mlb:667755","mlb:671305","mlb:672640","mlb:672642","mlb:672695","mlb:672710","mlb:672761","mlb:673237","mlb:673820","mlb:675848","mlb:677588","mlb:677595","mlb:677649","mlb:678495","mlb:678692","mlb:678877","mlb:679885","mlb:681715","mlb:682610","mlb:682622","mlb:682634","mlb:682653","mlb:682657","mlb:682663","mlb:682729","mlb:682825","mlb:682829","mlb:682842","mlb:682847","mlb:691182","mlb:691406","mlb:691548","mlb:692030","mlb:692285","mlb:694203","mlb:694212","mlb:801216"],"label":"Santo Domingo","country":"Dominican Republic"},"geometry":{"type":"Polygon","coordinates":[[[-70.45385,19.381759],[-71.730136,18.713931],[-71.551099,17.332941],[-70.086138,16.633168],[-68.822887,17.323396],[-69.011224,18.690619],[-70.45385,19.381759]]]}},{"type":"Feature","properties":{"hex_id":"824ceffffffffff","population":1896250,"population_year":2025,"area_km2":63447.1,"population_density":29.9,"all_players":17,"players_per_million":8.97,"player_ids":["mlb:455117","mlb:518585","mlb:543877","mlb:571771","mlb:592696","mlb:595879","mlb:596019","mlb:605347","mlb:605353","mlb:621242","mlb:621244","mlb:621512","mlb:640459","mlb:664747","mlb:671218","mlb:671286","mlb:687231"],"label":"Bayamon","country":"Puerto Rico"},"geometry":{"type":"Polygon","coordinates":[[[-64.800426,16.953431],[-63.616,18.007411],[-63.825825,19.371916],[-65.206534,19.669922],[-66.362344,18.630224],[-66.166052,17.278605],[-64.800426,16.953431]]]}},{"type":"Feature","properties":{"hex_id":"824cf7fffffffff","population":806283,"population_year":2025,"area_km2":61279.2,"population_density":13.2,"all_players":12,"players_per_million":14.88,"player_ids":["mlb:593974","mlb:622663","mlb:646240","mlb:660787","mlb:661403","mlb:665750","mlb:674384","mlb:674444","mlb:678394","mlb:679032","mlb:679922","mlb:691441"],"label":"San Francisco de Macoris","country":"Dominican Republic"},"geometry":{"type":"Polygon","coordinates":[[[-69.383269,21.326184],[-70.635386,20.705847],[-70.45385,19.381759],[-69.011224,18.690619],[-67.77314,19.332593],[-67.963315,20.643703],[-69.383269,21.326184]]]}},{"type":"Feature","properties":{"hex_id":"825f47fffffffff","population":1886111,"population_year":2025,"area_km2":80847.5,"population_density":23.3,"all_players":1,"players_per_million":0.53,"player_ids":["mlb:672578"],"label":"Guayana","country":"Venezuela"},"geometry":{"type":"Polygon","coordinates":[[[-61.878208,6.000006],[-60.629502,7.09859],[-60.858711,8.692541],[-62.322702,9.16751],[-63.543565,8.076966],[-63.328328,6.503639],[-61.878208,6.000006]]]}},{"type":"Feature","properties":{"hex_id":"825f4ffffffffff","population":3228470,"population_year":2025,"area_km2":76219.8,"population_density":42.4,"all_players":10,"players_per_million":3.1,"player_ids":["mlb:545121","mlb:606115","mlb:622786","mlb:640902","mlb:650671","mlb:663158","mlb:674285","mlb:676130","mlb:677651","mlb:683618"],"label":"Cumana","country":"Venezuela"},"geometry":{"type":"Polygon","coordinates":[[[-63.543565,8.076966],[-62.322702,9.16751],[-62.542405,10.713529],[-63.969049,11.14894],[-65.161151,10.067792],[-64.955386,8.542069],[-63.543565,8.076966]]]}},{"type":"Feature","properties":{"hex_id":"825f5ffffffffff","population":1559237,"population_year":2025,"area_km2":79647.5,"population_density":19.6,"all_players":1,"players_per_million":0.64,"player_ids":["mlb:640492"],"label":"Guiria","country":"Venezuela"},"geometry":{"type":"Polygon","coordinates":[[[-60.858711,8.692541],[-59.60143,9.791751],[-59.834917,11.355368],[-61.31197,11.80248],[-62.542405,10.713529],[-62.322702,9.16751],[-60.858711,8.692541]]]}},{"type":"Feature","properties":{"hex_id":"826607fffffffff","population":5237420,"population_year":2025,"area_km2":85294.5,"population_density":61.4,"all_players":4,"players_per_million":0.76,"player_ids":["mlb:500779","mlb:595751","mlb:672569","mlb:800311"],"label":"Tolu","country":"Colombia"},"geometry":{"type":"Polygon","coordinates":[[[-75.004219,10.562835],[-76.374864,9.709052],[-76.209101,8.107689],[-74.660215,7.374064],[-73.297376,8.250538],[-73.475279,9.837525],[-75.004219,10.562835]]]}},{"type":"Feature","properties":{"hex_id":"826627fffffffff","population":5316653,"population_year":2025,"area_km2":80544.7,"population_density":66.0,"all_players":2,"players_per_million":0.38,"player_ids":["mlb:456781","mlb:622503"],"label":"Barranquilla","country":"Colombia"},"geometry":{"type":"Polygon","coordinates":[[[-73.826225,12.921604],[-75.173818,12.112028],[-75.004219,10.562835],[-73.475279,9.837525],[-72.136993,10.670248],[-72.317998,12.204723],[-73.826225,12.921604]]]}},{"type":"Feature","properties":{"hex_id":"82662ffffffffff","population":4027206,"population_year":2025,"area_km2":82705.0,"population_density":48.7,"all_players":5,"players_per_million":1.24,"player_ids":["mlb:645444","mlb:665561","mlb:665953","mlb:682641","mlb:694037"],"label":"San Carlos","country":"Venezuela"},"geometry":{"type":"Polygon","coordinates":[[[-72.136993,10.670248],[-73.475279,9.837525],[-73.297376,8.250538],[-71.770072,7.513552],[-70.443514,8.370077],[-70.63217,9.939436],[-72.136993,10.670248]]]}},{"type":"Feature","properties":{"hex_id":"826637fffffffff","population":1362933,"population_year":2025,"area_km2":82705.0,"population_density":16.5,"all_players":2,"players_per_million":1.47,"player_ids":["mlb:570482","mlb:665665"],"label":"Cartagena","country":"Colombia"},"geometry":{"type":"Polygon","coordinates":[[[-76.701678,12.819508],[-78.077594,11.987752],[-77.92069,10.426959],[-76.374864,9.709052],[-75.004219,10.562835],[-75.173818,12.112028],[-76.701678,12.819508]]]}},{"type":"Feature","properties":{"hex_id":"826667fffffffff","population":741138,"population_year":2025,"area_km2":80847.5,"population_density":9.2,"all_players":1,"players_per_million":1.35,"player_ids":["mlb:691373"],"label":"San Fernando de Apure","country":"Venezuela"},"geometry":{"type":"Polygon","coordinates":[[[-67.659488,8.46691],[-68.944729,7.631575],[-68.748739,6.03334],[-67.2586,5.293772],[-65.990741,6.154062],[-66.195256,7.728775],[-67.659488,8.46691]]]}},{"type":"Feature","properties":{"hex_id":"8266a7fffffffff","population":3636018,"population_year":2025,"area_km2":88726.5,"population_density":41.0,"all_players":5,"players_per_million":1.38,"player_ids":["mlb:624641","mlb:664875","mlb:671056","mlb:676609","mlb:677870"],"label":"Panama City","country":"Panama"},"geometry":{"type":"Polygon","coordinates":[[[-80.872255,10.262406],[-82.288061,9.37146],[-82.150191,7.752189],[-80.581771,7.030409],[-79.165039,7.941424],[-79.317401,9.553624],[-80.872255,10.262406]]]}},{"type":"Feature","properties":{"hex_id":"826747fffffffff","population":3010977,"population_year":2025,"area_km2":74863.4,"population_density":40.2,"all_players":32,"players_per_million":10.63,"player_ids":["mlb:445276","mlb:514888","mlb:521692","mlb:527038","mlb:553882","mlb:575929","mlb:593958","mlb:595777","mlb:614179","mlb:620443","mlb:620454","mlb:622608","mlb:645277","mlb:646242","mlb:650859","mlb:660670","mlb:660688","mlb:660761","mlb:660825","mlb:660844","mlb:661388","mlb:665861","mlb:665966","mlb:678215","mlb:678391","mlb:678489","mlb:678662","mlb:678882","mlb:682790","mlb:683627","mlb:686780","mlb:691594"],"label":"Maracay","country":"Venezuela"},"geometry":{"type":"Polygon","coordinates":[[[-68.248432,13.029699],[-69.522732,12.26693],[-69.331709,10.750023],[-67.857439,10.015726],[-66.599345,10.803502],[-66.798949,12.300298],[-68.248432,13.029699]]]}},{"type":"Feature","properties":{"hex_id":"82674ffffffffff","population":6540188,"population_year":2025,"area_km2":76219.8,"population_density":85.8,"all_players":18,"players_per_million":2.75,"player_ids":["mlb:500743","mlb:641645","mlb:650402","mlb:655316","mlb:665828","mlb:672356","mlb:672456","mlb:672580","mlb:672582","mlb:677587","mlb:679883","mlb:681168","mlb:682626","mlb:682668","mlb:691185","mlb:694208","mlb:699134","mlb:700270"],"label":"Caracas","country":"Venezuela"},"geometry":{"type":"Polygon","coordinates":[[[-66.599345,10.803502],[-67.857439,10.015726],[-67.659488,8.46691],[-66.195256,7.728775],[-64.955386,8.542069],[-65.161151,10.067792],[-66.599345,10.803502]]]}},{"type":"Feature","properties":{"hex_id":"826757fffffffff","population":4351628,"population_year":2025,"area_km2":77902.3,"population_density":55.9,"all_players":11,"players_per_million":2.53,"player_ids":["mlb:506702","mlb:553869","mlb:621237","mlb:641154","mlb:650968","mlb:664351","mlb:666661","mlb:677800","mlb:685744","mlb:691251","mlb:694192"],"label":"Maracaibo","country":"Venezuela"},"geometry":{"type":"Polygon","coordinates":[[[-71.004559,12.991161],[-72.317998,12.204723],[-72.136993,10.670248],[-70.63217,9.939436],[-69.331709,10.750023],[-69.522732,12.26693],[-71.004559,12.991161]]]}},{"type":"Feature","properties":{"hex_id":"82675ffffffffff","population":4695014,"population_year":2025,"area_km2":79647.5,"population_density":58.9,"all_players":10,"players_per_million":2.13,"player_ids":["mlb:471911","mlb:527048","mlb:642731","mlb:645305","mlb:650333","mlb:665926","mlb:672515","mlb:672724","mlb:672782","mlb:677592"],"label":"Barquisimeto","country":"Venezuela"},"geometry":{"type":"Polygon","coordinates":[[[-69.331709,10.750023],[-70.63217,9.939436],[-70.443514,8.370077],[-68.944729,7.631575],[-67.659488,8.46691],[-67.857439,10.015726],[-69.331709,10.750023]]]}},{"type":"Feature","properties":{"hex_id":"826777fffffffff","population":78595,"population_year":2025,"area_km2":73030.9,"population_density":1.1,"all_players":2,"players_per_million":25.45,"player_ids":["mlb:593428","mlb:644433"],"label":"Oranjestad","country":"Aruba"},"geometry":{"type":"Polygon","coordinates":[[[-69.89993,15.209504],[-71.188328,14.470865],[-71.004559,12.991161],[-69.522732,12.26693],[-68.248432,13.029699],[-68.441506,14.492232],[-69.89993,15.209504]]]}},{"type":"Feature","properties":{"hex_id":"826d67fffffffff","population":8744293,"population_year":2025,"area_km2":82416.4,"population_density":106.1,"all_players":1,"players_per_million":0.11,"player_ids":["mlb:642528"],"label":"Managua","country":"Nicaragua"},"geometry":{"type":"Polygon","coordinates":[[[-86.999519,14.59625],[-88.434553,13.711756],[-88.460147,12.078939],[-86.931887,11.42468],[-85.512332,12.31272],[-85.631069,13.836854],[-86.999519,14.59625]]]}},{"type":"Feature","properties":{"hex_id":"826d6ffffffffff","population":4010405,"population_year":2025,"area_km2":85627.7,"population_density":46.8,"all_players":2,"players_per_million":0.5,"player_ids":["mlb:541640","mlb:692230"],"label":"Rivas","country":"Nicaragua"},"geometry":{"type":"Polygon","coordinates":[[[-85.512332,12.31272],[-86.931887,11.42468],[-86.819121,9.849743],[-85.271133,9.16342],[-83.843685,10.069625],[-83.971963,11.643423],[-85.512332,12.31272]]]}},{"type":"Feature","properties":{"hex_id":"828e67fffffffff","population":14012104,"population_year":2025,"area_km2":101417.2,"population_density":138.2,"all_players":1,"players_per_million":0.07,"player_ids":["mlb:666200"],"label":"Lima","country":"Peru"},"geometry":{"type":"Polygon","coordinates":[[[-75.91228,-10.117015],[-77.383874,-11.159905],[-77.211806,-12.942278],[-75.553473,-13.6677],[-74.089299,-12.614189],[-74.275639,-10.846247],[-75.91228,-10.117015]]]}},{"type":"Feature","properties":{"hex_id":"82a727fffffffff","population":1275914,"population_year":2025,"area_km2":68186.6,"population_density":18.7,"all_players":1,"players_per_million":0.78,"player_ids":["mlb:521230"],"label":"Perth","country":"Australia"},"geometry":{"type":"Polygon","coordinates":[[[116.156806,-31.717896],[115.365356,-30.470522],[113.5891,-30.27389],[112.519247,-31.318696],[113.256895,-32.609931],[115.121218,-32.812717],[116.156806,-31.717896]]]}},{"type":"Feature","properties":{"hex_id":"82b917fffffffff","population":1613160,"population_year":2025,"area_km2":95515.4,"population_density":16.9,"all_players":1,"players_per_million":0.62,"player_ids":["mlb:678554"],"label":"Adelaide","country":"Australia"},"geometry":{"type":"Polygon","coordinates":[[[138.617833,-35.797135],[139.129671,-34.088237],[137.662578,-32.868454],[135.707627,-33.326136],[135.142328,-34.999661],[136.582892,-36.251125],[138.617833,-35.797135]]]}},{"type":"Feature","properties":{"hex_id":"82bcc7fffffffff","population":16401038,"population_year":2025,"area_km2":95515.4,"population_density":171.7,"all_players":1,"players_per_million":0.06,"player_ids":["mlb:605463"],"label":"Johannesburg","country":"South Africa"},"geometry":{"type":"Polygon","coordinates":[[[29.424697,-28.585894],[30.161044,-27.015106],[28.952033,-25.669244],[27.013681,-25.892672],[26.259296,-27.461202],[27.460057,-28.808795],[29.424697,-28.585894]]]}}]}