{"type":"FeatureCollection","metadata":{"population_source":"WorldPop Global 2 R2025A","population_source_url":"https://hub.worldpop.org/project/categories?id=3","population_license":"CC BY 4.0","population_year":2025,"raster_resolution":"1km","h3_resolution":1,"population_method":"official_country_rasters","occupied_cells":24,"mapped_players":198},"features":[{"type":"Feature","properties":{"hex_id":"81187ffffffffff","population":21776966,"population_year":2025,"area_km2":595741.2,"population_density":36.6,"all_players":2,"players_per_million":0.09,"player_ids":["padel:women:p000483","padel:women:p200899"],"label":"San Sebastian","country":"Spain"},"geometry":{"type":"Polygon","coordinates":[[[-4.88976,51.223728],[-9.724736,48.430094],[-8.101589,44.050631],[-2.417796,42.54048],[2.026569,45.184249],[1.18851,49.470279],[-4.88976,51.223728]]]}},{"type":"Feature","properties":{"hex_id":"81197ffffffffff","population":88036357,"population_year":2025,"area_km2":523941.7,"population_density":168.0,"all_players":4,"players_per_million":0.05,"player_ids":["padel:women:p200255","padel:women:p200674","padel:women:p201837","padel:women:p202112"],"label":"Leidschendam","country":"The Netherlands"},"geometry":{"type":"Polygon","coordinates":[[[-0.931587,57.689497],[-6.436337,55.37739],[-4.88976,51.223728],[1.18851,49.470279],[3.630009,50.610463],[6.259687,51.96477],[5.523647,55.706768],[-0.931587,57.689497]]]}},{"type":"Feature","properties":{"hex_id":"811ebffffffffff","population":42059136,"population_year":2025,"area_km2":647632.6,"population_density":64.9,"all_players":5,"players_per_million":0.12,"player_ids":["padel:women:317387","padel:women:p000452","padel:women:p000453","padel:women:p000534","padel:women:p202302"],"label":"Roma","country":"Italy"},"geometry":{"type":"Polygon","coordinates":[[[7.509948,43.786609],[8.045142,39.402136],[13.244313,37.523712],[18.32526,39.988178],[18.31474,44.47068],[12.677318,46.406957],[7.509948,43.786609]]]}},{"type":"Feature","properties":{"hex_id":"811f3ffffffffff","population":49754999,"population_year":2025,"area_km2":510516.1,"population_density":97.5,"all_players":2,"players_per_million":0.04,"player_ids":["padel:men:p000103","padel:men:p201233"],"label":"Smalandsstenar","country":"Sweden"},"geometry":{"type":"Polygon","coordinates":[[[5.523647,55.706768],[6.259687,51.96477],[12.345747,50.554275],[18.289963,52.819052],[18.275236,56.632953],[11.555978,58.130531],[5.523647,55.706768]]]}},{"type":"Feature","properties":{"hex_id":"811fbffffffffff","population":119418410,"population_year":2025,"area_km2":565620.1,"population_density":211.1,"all_players":6,"players_per_million":0.05,"player_ids":["padel:men:p000125","padel:men:p000126","padel:men:p000185","padel:women:p002031","padel:women:p200020","padel:women:p201526"],"label":"Torino","country":"Italy"},"geometry":{"type":"Polygon","coordinates":[[[1.18851,49.470279],[2.026569,45.184249],[7.509948,43.786609],[12.677318,46.406957],[12.345747,50.554275],[6.259687,51.96477],[3.630009,50.610463],[1.18851,49.470279]]]}},{"type":"Feature","properties":{"hex_id":"81347ffffffffff","population":2240102,"population_year":2025,"area_km2":707475.0,"population_density":3.2,"all_players":4,"players_per_million":1.79,"player_ids":["padel:men:p000293","padel:women:p200010","padel:women:p200027","padel:women:p200247"],"label":"Las Palmas de Gran Canaria","country":"Spain"},"geometry":{"type":"Polygon","coordinates":[[[-20.108383,33.794128],[-23.542517,30.029487],[-21.487401,25.694857],[-16.394663,25.007863],[-12.948555,28.514936],[-14.570452,32.954386],[-20.108383,33.794128]]]}},{"type":"Feature","properties":{"hex_id":"81383ffffffffff","population":31514301,"population_year":2025,"area_km2":614937.0,"population_density":51.2,"all_players":5,"players_per_million":0.16,"player_ids":["padel:men:p000035","padel:men:p000039","padel:men:p000042","padel:women:p000450","padel:women:p200008"],"label":"Murcia","country":"Spain"},"geometry":{"type":"Polygon","coordinates":[[[-5.442348,35.124424],[-4.341769,30.698974],[-1.240802,29.828776],[0.260947,29.300375],[4.204174,32.110107],[3.543589,36.597898],[0.238716,37.588846],[-1.416234,38.115997],[-5.442348,35.124424]]]}},{"type":"Feature","properties":{"hex_id":"81393ffffffffff","population":34532782,"population_year":2025,"area_km2":647632.6,"population_density":53.3,"all_players":88,"players_per_million":2.55,"player_ids":["padel:men:p000001","padel:men:p000002","padel:men:p000003","padel:men:p000010","padel:men:p000011","padel:men:p000012","padel:men:p000016","padel:men:p000017","padel:men:p000018","padel:men:p000019","padel:men:p000021","padel:men:p000022","padel:men:p000023","padel:men:p000029","padel:men:p000031","padel:men:p000032","padel:men:p000041","padel:men:p000051","padel:men:p000054","padel:men:p000060","padel:men:p000072","padel:men:p000076","padel:men:p000079","padel:men:p000086","padel:men:p000099","padel:men:p000108","padel:men:p000111","padel:men:p000138","padel:men:p000149","padel:men:p100030","padel:men:p100037","padel:men:p100178","padel:men:p101057","padel:men:p101096","padel:men:p101099","padel:men:p101580","padel:men:p101601","padel:men:p101612","padel:men:p101627","padel:men:p101734","padel:men:p201198","padel:men:p201200","padel:men:p201417","padel:men:p201731","padel:women:330614","padel:women:p000455","padel:women:p000456","padel:women:p000466","padel:women:p000473","padel:women:p000477","padel:women:p000478","padel:women:p000479","padel:women:p000488","padel:women:p000489","padel:women:p000490","padel:women:p000526","padel:women:p000532","padel:women:p000541","padel:women:p002025","padel:women:p200001","padel:women:p200004","padel:women:p200011","padel:women:p200012","padel:women:p200014","padel:women:p200019","padel:women:p200028","padel:women:p200029","padel:women:p200030","padel:women:p200032","padel:women:p200063","padel:women:p200075","padel:women:p200081","padel:women:p200092","padel:women:p200098","padel:women:p200102","padel:women:p200109","padel:women:p200110","padel:women:p200111","padel:women:p200124","padel:women:p200129","padel:women:p200131","padel:women:p200184","padel:women:p200185","padel:women:p200232","padel:women:p200236","padel:women:p200559","padel:women:p200896","padel:women:p202063"],"label":"Madrid","country":"Spain"},"geometry":{"type":"Polygon","coordinates":[[[-8.101589,44.050631],[-12.384127,40.869133],[-10.744488,36.38323],[-5.442348,35.124424],[-1.416234,38.115997],[-2.417796,42.54048],[-8.101589,44.050631]]]}},{"type":"Feature","properties":{"hex_id":"81397ffffffffff","population":31465600,"population_year":2025,"area_km2":602082.0,"population_density":52.3,"all_players":41,"players_per_million":1.3,"player_ids":["padel:men:p000030","padel:men:p000038","padel:men:p000043","padel:men:p000047","padel:men:p000049","padel:men:p000052","padel:men:p000063","padel:men:p000085","padel:men:p000109","padel:men:p000175","padel:men:p100003","padel:men:p100048","padel:men:p101591","padel:men:p101649","padel:men:p201346","padel:women:p000471","padel:women:p000472","padel:women:p000538","padel:women:p002020","padel:women:p200002","padel:women:p200003","padel:women:p200006","padel:women:p200009","padel:women:p200036","padel:women:p200040","padel:women:p200042","padel:women:p200044","padel:women:p200049","padel:women:p200059","padel:women:p200148","padel:women:p200162","padel:women:p200166","padel:women:p200176","padel:women:p200190","padel:women:p200224","padel:women:p200230","padel:women:p200356","padel:women:p200366","padel:women:p200925","padel:women:p201785","padel:women:p203086"],"label":"Barcelona","country":"Spain"},"geometry":{"type":"Polygon","coordinates":[[[-2.417796,42.54048],[-1.416234,38.115997],[0.238716,37.588846],[3.543589,36.597898],[8.045142,39.402136],[7.509948,43.786609],[2.026569,45.184249],[-2.417796,42.54048]]]}},{"type":"Feature","properties":{"hex_id":"813f3ffffffffff","population":7824989,"population_year":2025,"area_km2":707475.0,"population_density":11.1,"all_players":1,"players_per_million":0.13,"player_ids":["padel:men:p101253"],"label":"Siracusa","country":"Italy"},"geometry":{"type":"Polygon","coordinates":[[[13.244313,37.523712],[13.48858,32.875015],[18.343416,30.627348],[23.243175,32.934452],[23.474781,37.630343],[18.32526,39.988178],[13.244313,37.523712]]]}},{"type":"Feature","properties":{"hex_id":"8144bffffffffff","population":13618822,"population_year":2025,"area_km2":510516.1,"population_density":26.7,"all_players":1,"players_per_million":0.07,"player_ids":["padel:women:p202287"],"label":"Miami","country":"United States"},"geometry":{"type":"Polygon","coordinates":[[[-76.831217,23.342863],[-73.868279,26.190449],[-74.640468,30.219492],[-78.735928,31.57726],[-81.966494,28.631807],[-80.82969,24.429618],[-76.831217,23.342863]]]}},{"type":"Feature","properties":{"hex_id":"8149bffffffffff","population":82320512,"population_year":2025,"area_km2":707475.0,"population_density":116.4,"all_players":1,"players_per_million":0.01,"player_ids":["padel:women:p200153"],"label":"Ciudad de México","country":"Mexico"},"geometry":{"type":"Polygon","coordinates":[[[-99.004086,15.55132],[-96.05021,19.269007],[-97.905634,23.589794],[-103.011626,24.121727],[-105.946435,20.212679],[-103.819339,15.969878],[-99.004086,15.55132]]]}},{"type":"Feature","properties":{"hex_id":"81653ffffffffff","population":56430944,"population_year":2025,"area_km2":707475.0,"population_density":79.8,"all_players":1,"players_per_million":0.02,"player_ids":["padel:women:p200671"],"label":"Singapore","country":"Singapore"},"geometry":{"type":"Polygon","coordinates":[[[106.411683,2.770303],[105.357168,7.303219],[100.801361,8.618891],[97.373041,5.289412],[98.560859,0.741795],[103.053645,-0.468955],[106.411683,2.770303]]]}},{"type":"Feature","properties":{"hex_id":"8182fffffffffff","population":36110101,"population_year":2025,"area_km2":523941.7,"population_density":68.9,"all_players":1,"players_per_million":0.03,"player_ids":["padel:men:p101116"],"label":"Douala","country":"Cameroon"},"geometry":{"type":"Polygon","coordinates":[[[10.189894,-0.431885],[10.722778,3.789625],[9.102371,4.860812],[7.212915,5.860392],[3.943036,3.968797],[3.340666,-0.045101],[6.386374,-2.341804],[10.189894,-0.431885]]]}},{"type":"Feature","properties":{"hex_id":"81893ffffffffff","population":250204,"population_year":2025,"area_km2":666617.1,"population_density":0.4,"all_players":1,"players_per_million":4.0,"player_ids":["padel:women:p200038"],"label":"Papeete","country":"French Polynesia"},"geometry":{"type":"Polygon","coordinates":[[[-148.806309,-18.242013],[-147.534733,-13.929126],[-150.7527,-10.680211],[-155.279374,-11.520975],[-156.84511,-15.737455],[-153.609865,-19.220506],[-148.806309,-18.242013]]]}},{"type":"Feature","properties":{"hex_id":"81a93ffffffffff","population":11046986,"population_year":2025,"area_km2":510516.1,"population_density":21.6,"all_players":2,"players_per_million":0.18,"player_ids":["padel:men:p000036","padel:women:p000462"],"label":"Bento Gonçalves","country":"Brazil"},"geometry":{"type":"Polygon","coordinates":[[[-47.691623,-34.331159],[-45.096018,-31.259854],[-47.461171,-27.760044],[-52.323074,-27.407025],[-54.854902,-30.51203],[-52.605486,-33.936306],[-47.691623,-34.331159]]]}},{"type":"Feature","properties":{"hex_id":"81a97ffffffffff","population":13851468,"population_year":2025,"area_km2":523941.7,"population_density":26.4,"all_players":3,"players_per_million":0.22,"player_ids":["padel:men:p000015","padel:men:p101159","padel:women:p200007"],"label":"Posadas Misiones","country":"Argentina"},"geometry":{"type":"Polygon","coordinates":[[[-54.854902,-30.51203],[-52.323074,-27.407025],[-54.552341,-23.657242],[-59.153405,-23.133384],[-60.358535,-24.728661],[-61.529913,-26.578843],[-59.496606,-29.892985],[-54.854902,-30.51203]]]}},{"type":"Feature","properties":{"hex_id":"81b27ffffffffff","population":8941500,"population_year":2025,"area_km2":510516.1,"population_density":17.5,"all_players":11,"players_per_million":1.23,"player_ids":["padel:men:p000008","padel:men:p000013","padel:men:p000028","padel:men:p000062","padel:men:p000107","padel:men:p000128","padel:men:p000285","padel:men:p000291","padel:men:p101158","padel:men:p201729","padel:women:p000484"],"label":"Córdoba","country":"Argentina"},"geometry":{"type":"Polygon","coordinates":[[[-66.068669,-26.766212],[-68.710054,-30.4154],[-66.569458,-33.770896],[-61.882735,-33.439024],[-59.496606,-29.892985],[-61.529913,-26.578843],[-66.068669,-26.766212]]]}},{"type":"Feature","properties":{"hex_id":"81b2fffffffffff","population":17138003,"population_year":2025,"area_km2":523941.7,"population_density":32.7,"all_players":1,"players_per_million":0.06,"player_ids":["padel:men:p000045"],"label":"Santiago de Chile","country":"Chile"},"geometry":{"type":"Polygon","coordinates":[[[-73.644747,-30.428475],[-76.580606,-33.882664],[-75.495684,-35.604157],[-74.031951,-37.379975],[-69.305389,-37.163896],[-66.569458,-33.770896],[-68.710054,-30.4154],[-73.644747,-30.428475]]]}},{"type":"Feature","properties":{"hex_id":"81b37ffffffffff","population":4253214,"population_year":2025,"area_km2":565620.1,"population_density":7.5,"all_players":1,"players_per_million":0.24,"player_ids":["padel:men:p203884"],"label":"Salta","country":"Argentina"},"geometry":{"type":"Polygon","coordinates":[[[-65.596341,-19.258865],[-68.148935,-23.06606],[-66.068669,-26.766212],[-61.529913,-26.578843],[-60.358535,-24.728661],[-59.153405,-23.133384],[-61.196998,-19.252195],[-65.596341,-19.258865]]]}},{"type":"Feature","properties":{"hex_id":"81c23ffffffffff","population":1573459,"population_year":2025,"area_km2":328434.6,"population_density":4.8,"all_players":2,"players_per_million":1.27,"player_ids":["padel:men:p000080","padel:men:p000097"],"label":"Mar del Plata","country":"Argentina"},"geometry":{"type":"Polygon","coordinates":[[[-57.995322,-42.261113],[-54.914171,-41.118552],[-53.849703,-40.222115],[-54.414766,-37.691245],[-55.164004,-36.642936],[-58.309846,-36.205283],[-59.788176,-36.394827],[-61.417115,-38.614967],[-61.702806,-39.800882],[-59.444119,-41.717194],[-57.995322,-42.261113]]]}},{"type":"Feature","properties":{"hex_id":"81c2fffffffffff","population":24752838,"population_year":2025,"area_km2":447684.2,"population_density":55.3,"all_players":10,"players_per_million":0.4,"player_ids":["padel:men:p000004","padel:men:p000007","padel:men:p000014","padel:men:p000026","padel:men:p001511","padel:men:p100957","padel:men:p101157","padel:men:p202744","padel:women:p200005","padel:women:p200013"],"label":"Buenos Aires","country":"Argentina"},"geometry":{"type":"Polygon","coordinates":[[[-55.164004,-36.642936],[-52.605486,-33.936306],[-54.854902,-30.51203],[-59.496606,-29.892985],[-61.882735,-33.439024],[-59.788176,-36.394827],[-58.309846,-36.205283],[-55.164004,-36.642936]]]}},{"type":"Feature","properties":{"hex_id":"81c37ffffffffff","population":2105932,"population_year":2025,"area_km2":447684.2,"population_density":4.7,"all_players":3,"players_per_million":1.42,"player_ids":["padel:men:p000391","padel:men:p100879","padel:men:p100983"],"label":"Deaireaux","country":"Argentina"},"geometry":{"type":"Polygon","coordinates":[[[-66.569458,-33.770896],[-69.305389,-37.163896],[-66.103092,-40.399611],[-61.702806,-39.800882],[-61.417115,-38.614967],[-59.788176,-36.394827],[-61.882735,-33.439024],[-66.569458,-33.770896]]]}},{"type":"Feature","properties":{"hex_id":"81cebffffffffff","population":4208885,"population_year":2025,"area_km2":510516.1,"population_density":8.2,"all_players":2,"players_per_million":0.48,"player_ids":["padel:men:p000116","padel:women:p000432"],"label":"San Martín de los Andes","country":"Argentina"},"geometry":{"type":"Polygon","coordinates":[[[-67.492505,-44.179727],[-66.103092,-40.399611],[-69.305389,-37.163896],[-74.031951,-37.379975],[-76.084187,-41.116232],[-72.784934,-44.702354],[-67.492505,-44.179727]]]}}]}