{"type":"FeatureCollection","metadata":{"population_source":"WorldPop Global 2 R2025A","population_source_url":"https://hub.worldpop.org/project/categories?id=3","population_license":"CC BY 4.0","population_year":2025,"raster_resolution":"1km","h3_resolution":2,"population_method":"official_country_rasters","occupied_cells":49,"mapped_players":198},"features":[{"type":"Feature","properties":{"hex_id":"82184ffffffffff","population":5386228,"population_year":2025,"area_km2":85627.7,"population_density":62.9,"all_players":7,"players_per_million":1.3,"player_ids":["padel:men:p000038","padel:men:p101591","padel:women:p000483","padel:women:p000538","padel:women:p200899","padel:women:p201785","padel:women:p203086"],"label":"Pamplona","country":"Spain"},"geometry":{"type":"Polygon","coordinates":[[[-1.752798,45.828917],[-3.870647,45.286766],[-4.162635,43.625899],[-2.417796,42.54048],[-0.397973,43.08589],[-0.028005,44.712978],[-1.752798,45.828917]]]}},{"type":"Feature","properties":{"hex_id":"82194ffffffffff","population":23325550,"population_year":2025,"area_km2":76219.8,"population_density":306.0,"all_players":1,"players_per_million":0.04,"player_ids":["padel:women:p201837"],"label":"London","country":"United Kingdom"},"geometry":{"type":"Polygon","coordinates":[[[2.101314,52.517134],[-0.219137,52.141681],[-0.631095,50.601911],[1.18851,49.470279],[3.384772,49.85377],[3.881134,51.360376],[2.101314,52.517134]]]}},{"type":"Feature","properties":{"hex_id":"82196ffffffffff","population":13271725,"population_year":2025,"area_km2":72289.7,"population_density":183.6,"all_players":3,"players_per_million":0.23,"player_ids":["padel:women:p200255","padel:women:p200674","padel:women:p202112"],"label":"Leidschendam","country":"The Netherlands"},"geometry":{"type":"Polygon","coordinates":[[[4.948742,54.288287],[2.592789,53.997752],[2.101314,52.517134],[3.881134,51.360376],[6.259687,51.96477],[6.848229,53.43156],[4.948742,54.288287]]]}},{"type":"Feature","properties":{"hex_id":"821e87fffffffff","population":12834722,"population_year":2025,"area_km2":92775.6,"population_density":138.3,"all_players":4,"players_per_million":0.31,"player_ids":["padel:women:317387","padel:women:p000452","padel:women:p000453","padel:women:p000534"],"label":"Roma","country":"Italy"},"geometry":{"type":"Polygon","coordinates":[[[11.369193,43.208977],[10.754951,41.575053],[12.334661,40.405578],[14.548451,40.851244],[15.239936,42.485371],[13.642239,43.674337],[11.369193,43.208977]]]}},{"type":"Feature","properties":{"hex_id":"821ea7fffffffff","population":14372848,"population_year":2025,"area_km2":88726.5,"population_density":162.0,"all_players":1,"players_per_million":0.07,"player_ids":["padel:women:p202302"],"label":"Borgo Maggiore","country":"San Marino"},"geometry":{"type":"Polygon","coordinates":[[[10.343213,45.921928],[9.731941,44.323805],[11.369193,43.208977],[13.642239,43.674337],[14.337206,45.273432],[12.677318,46.406957],[10.343213,45.921928]]]}},{"type":"Feature","properties":{"hex_id":"821f27fffffffff","population":4146711,"population_year":2025,"area_km2":68186.6,"population_density":60.8,"all_players":2,"players_per_million":0.48,"player_ids":["padel:men:p000103","padel:men:p201233"],"label":"Smalandsstenar","country":"Sweden"},"geometry":{"type":"Polygon","coordinates":[[[8.799628,57.640256],[8.115982,56.270471],[10.065692,55.394879],[12.739823,55.867327],[13.543636,57.232114],[11.555978,58.130531],[8.799628,57.640256]]]}},{"type":"Feature","properties":{"hex_id":"821f87fffffffff","population":16111686,"population_year":2025,"area_km2":80847.5,"population_density":199.3,"all_players":1,"players_per_million":0.06,"player_ids":["padel:women:p002031"],"label":"Karlsruhe","country":"Germany"},"geometry":{"type":"Polygon","coordinates":[[[5.163511,48.943764],[4.652435,47.393027],[6.371339,46.417017],[8.645314,46.977068],[9.251571,48.534678],[7.489806,49.526212],[5.163511,48.943764]]]}},{"type":"Feature","properties":{"hex_id":"821f97fffffffff","population":9069390,"population_year":2025,"area_km2":81458.9,"population_density":111.3,"all_players":2,"players_per_million":0.22,"player_ids":["padel:women:p200020","padel:women:p201526"],"label":"Lyon","country":"France"},"geometry":{"type":"Polygon","coordinates":[[[2.458902,46.763731],[2.026569,45.184249],[3.696702,44.221235],[5.848477,44.82547],[6.371339,46.417017],[4.652435,47.393027],[2.458902,46.763731]]]}},{"type":"Feature","properties":{"hex_id":"821f9ffffffffff","population":16398717,"population_year":2025,"area_km2":85294.5,"population_density":192.3,"all_players":2,"players_per_million":0.12,"player_ids":["padel:men:p000125","padel:men:p000126"],"label":"Torino","country":"Italy"},"geometry":{"type":"Polygon","coordinates":[[[6.371339,46.417017],[5.848477,44.82547],[7.509948,43.786609],[9.731941,44.323805],[10.343213,45.921928],[8.645314,46.977068],[6.371339,46.417017]]]}},{"type":"Feature","properties":{"hex_id":"821fa7fffffffff","population":28149582,"population_year":2025,"area_km2":76219.8,"population_density":369.3,"all_players":1,"players_per_million":0.04,"player_ids":["padel:men:p000185"],"label":"Uccle","country":"Belgium"},"geometry":{"type":"Polygon","coordinates":[[[3.881134,51.360376],[3.384772,49.85377],[5.163511,48.943764],[7.489806,49.526212],[8.088631,51.039696],[6.259687,51.96477],[3.881134,51.360376]]]}},{"type":"Feature","properties":{"hex_id":"82346ffffffffff","population":1021093,"population_year":2025,"area_km2":99241.3,"population_density":10.3,"all_players":4,"players_per_million":3.92,"player_ids":["padel:men:p000293","padel:women:p200010","padel:women:p200027","padel:women:p200247"],"label":"Las Palmas de Gran Canaria","country":"Spain"},"geometry":{"type":"Polygon","coordinates":[[[-14.608842,31.177353],[-16.392619,30.287385],[-16.393328,28.514587],[-14.681053,27.647052],[-12.948555,28.514936],[-12.877753,30.271572],[-14.608842,31.177353]]]}},{"type":"Feature","properties":{"hex_id":"823827fffffffff","population":4893624,"population_year":2025,"area_km2":87326.6,"population_density":56.0,"all_players":2,"players_per_million":0.41,"player_ids":["padel:men:p000035","padel:women:p200008"],"label":"Cartagena","country":"Spain"},"geometry":{"type":"Polygon","coordinates":[[[-1.416234,38.115997],[-3.311341,37.499409],[-3.584806,35.801656],[-2.027587,34.757091],[-0.211854,35.375671],[0.123807,37.036562],[-1.416234,38.115997]]]}},{"type":"Feature","properties":{"hex_id":"823837fffffffff","population":7535346,"population_year":2025,"area_km2":89801.2,"population_density":83.9,"all_players":1,"players_per_million":0.13,"player_ids":["padel:men:p000042"],"label":"Melilla","country":"Spain"},"geometry":{"type":"Polygon","coordinates":[[[-3.584806,35.801656],[-5.442348,35.124424],[-5.667272,33.405709],[-4.099405,32.398339],[-2.315335,33.072846],[-2.027587,34.757091],[-3.584806,35.801656]]]}},{"type":"Feature","properties":{"hex_id":"823907fffffffff","population":2648705,"population_year":2025,"area_km2":92775.6,"population_density":28.5,"all_players":6,"players_per_million":2.27,"player_ids":["padel:men:p000031","padel:men:p000032","padel:men:p000054","padel:men:p000099","padel:women:p000477","padel:women:p200004"],"label":"Mérida","country":"Spain"},"geometry":{"type":"Polygon","coordinates":[[[-6.464182,41.30856],[-8.480681,40.6223],[-8.657648,38.889432],[-6.898506,37.871743],[-4.963456,38.552712],[-4.708227,40.256026],[-6.464182,41.30856]]]}},{"type":"Feature","properties":{"hex_id":"82390ffffffffff","population":8669237,"population_year":2025,"area_km2":88726.5,"population_density":97.7,"all_players":31,"players_per_million":3.58,"player_ids":["padel:men:p000001","padel:men:p000017","padel:men:p000051","padel:men:p000111","padel:men:p000149","padel:men:p100030","padel:men:p100037","padel:men:p101057","padel:men:p101580","padel:men:p101601","padel:men:p101612","padel:men:p101627","padel:men:p101734","padel:men:p201731","padel:women:p000466","padel:women:p000489","padel:women:p000532","padel:women:p000541","padel:women:p002025","padel:women:p200001","padel:women:p200014","padel:women:p200030","padel:women:p200032","padel:women:p200081","padel:women:p200098","padel:women:p200110","padel:women:p200129","padel:women:p200131","padel:women:p200184","padel:women:p200185","padel:women:p200232"],"label":"Madrid","country":"Spain"},"geometry":{"type":"Polygon","coordinates":[[[-2.728618,40.871785],[-4.708227,40.256026],[-4.963456,38.552712],[-3.311341,37.499409],[-1.416234,38.115997],[-1.091146,39.784657],[-2.728618,40.871785]]]}},{"type":"Feature","properties":{"hex_id":"82391ffffffffff","population":8248421,"population_year":2025,"area_km2":91641.3,"population_density":90.0,"all_players":37,"players_per_million":4.49,"player_ids":["padel:men:p000002","padel:men:p000003","padel:men:p000011","padel:men:p000012","padel:men:p000016","padel:men:p000018","padel:men:p000019","padel:men:p000021","padel:men:p000023","padel:men:p000029","padel:men:p000041","padel:men:p000060","padel:men:p000076","padel:men:p000079","padel:men:p000086","padel:men:p000108","padel:men:p000138","padel:men:p101096","padel:men:p101099","padel:men:p201417","padel:women:330614","padel:women:p000456","padel:women:p000473","padel:women:p000478","padel:women:p000479","padel:women:p000488","padel:women:p200011","padel:women:p200012","padel:women:p200019","padel:women:p200063","padel:women:p200092","padel:women:p200102","padel:women:p200109","padel:women:p200111","padel:women:p200559","padel:women:p200896","padel:women:p202063"],"label":"Málaga","country":"Spain"},"geometry":{"type":"Polygon","coordinates":[[[-4.963456,38.552712],[-6.898506,37.871743],[-7.101894,36.141695],[-5.442348,35.124424],[-3.584806,35.801656],[-3.311341,37.499409],[-4.963456,38.552712]]]}},{"type":"Feature","properties":{"hex_id":"823927fffffffff","population":6536997,"population_year":2025,"area_km2":93159.0,"population_density":70.2,"all_players":4,"players_per_million":0.61,"player_ids":["padel:men:p000022","padel:men:p100178","padel:women:p200028","padel:women:p200236"],"label":"Sta. Uxía de Ribeira","country":"Spain"},"geometry":{"type":"Polygon","coordinates":[[[-8.101589,44.050631],[-10.203219,43.356947],[-10.347941,41.63003],[-8.480681,40.6223],[-6.464182,41.30856],[-6.231988,43.009176],[-8.101589,44.050631]]]}},{"type":"Feature","properties":{"hex_id":"82392ffffffffff","population":3160870,"population_year":2025,"area_km2":89440.6,"population_density":35.3,"all_players":7,"players_per_million":2.21,"player_ids":["padel:men:p000010","padel:men:p000072","padel:women:p000455","padel:women:p000490","padel:women:p200029","padel:women:p200075","padel:women:p200124"],"label":"Valladolid","country":"Spain"},"geometry":{"type":"Polygon","coordinates":[[[-4.162635,43.625899],[-6.231988,43.009176],[-6.464182,41.30856],[-4.708227,40.256026],[-2.728618,40.871785],[-2.417796,42.54048],[-4.162635,43.625899]]]}},{"type":"Feature","properties":{"hex_id":"823937fffffffff","population":3262075,"population_year":2025,"area_km2":96323.1,"population_density":33.9,"all_players":3,"players_per_million":0.92,"player_ids":["padel:men:p201198","padel:men:p201200","padel:women:p000526"],"label":"Lisboa","country":"Portugal"},"geometry":{"type":"Polygon","coordinates":[[[-10.347941,41.63003],[-12.384127,40.869133],[-12.4757,39.112815],[-10.618161,38.139996],[-8.657648,38.889432],[-8.480681,40.6223],[-10.347941,41.63003]]]}},{"type":"Feature","properties":{"hex_id":"823947fffffffff","population":8221573,"population_year":2025,"area_km2":85294.5,"population_density":96.4,"all_players":20,"players_per_million":2.43,"player_ids":["padel:men:p000047","padel:men:p000063","padel:men:p000085","padel:men:p000175","padel:men:p100048","padel:men:p101649","padel:women:p000471","padel:women:p000472","padel:women:p200003","padel:women:p200009","padel:women:p200036","padel:women:p200040","padel:women:p200044","padel:women:p200049","padel:women:p200148","padel:women:p200176","padel:women:p200224","padel:women:p200230","padel:women:p200366","padel:women:p200925"],"label":"Barcelona","country":"Spain"},"geometry":{"type":"Polygon","coordinates":[[[1.216871,41.967575],[0.837298,40.335353],[2.409691,39.323588],[4.408495,39.931959],[4.868332,41.580315],[3.24935,42.604792],[1.216871,41.967575]]]}},{"type":"Feature","properties":{"hex_id":"823957fffffffff","population":5978276,"population_year":2025,"area_km2":85321.7,"population_density":70.1,"all_players":13,"players_per_million":2.17,"player_ids":["padel:men:p000030","padel:men:p000039","padel:men:p000043","padel:men:p000049","padel:men:p000052","padel:men:p000109","padel:men:p201346","padel:women:p000450","padel:women:p002020","padel:women:p200006","padel:women:p200042","padel:women:p200190","padel:women:p200356"],"label":"Valencia","country":"Spain"},"geometry":{"type":"Polygon","coordinates":[[[-1.091146,39.784657],[-1.416234,38.115997],[0.123807,37.036562],[2.015255,37.664358],[2.409691,39.323588],[0.837298,40.335353],[-1.091146,39.784657]]]}},{"type":"Feature","properties":{"hex_id":"82395ffffffffff","population":1297971,"population_year":2025,"area_km2":88726.5,"population_density":14.6,"all_players":2,"players_per_million":1.54,"player_ids":["padel:men:p100003","padel:women:p200002"],"label":"Mahón","country":"Spain"},"geometry":{"type":"Polygon","coordinates":[[[2.409691,39.323588],[2.015255,37.664358],[3.543589,36.597898],[5.50797,37.176342],[5.978055,38.850564],[4.408495,39.931959],[2.409691,39.323588]]]}},{"type":"Feature","properties":{"hex_id":"823977fffffffff","population":2453317,"population_year":2025,"area_km2":85294.5,"population_density":28.8,"all_players":3,"players_per_million":1.22,"player_ids":["padel:women:p200059","padel:women:p200162","padel:women:p200166"],"label":"Zaragoza","country":"Spain"},"geometry":{"type":"Polygon","coordinates":[[[-0.397973,43.08589],[-2.417796,42.54048],[-2.728618,40.871785],[-1.091146,39.784657],[0.837298,40.335353],[1.216871,41.967575],[-0.397973,43.08589]]]}},{"type":"Feature","properties":{"hex_id":"823f37fffffffff","population":2508916,"population_year":2025,"area_km2":99241.3,"population_density":25.3,"all_players":1,"players_per_million":0.4,"player_ids":["padel:men:p101253"],"label":"Siracusa","country":"Italy"},"geometry":{"type":"Polygon","coordinates":[[[13.244313,37.523712],[12.629035,35.836663],[14.102434,34.577453],[16.203432,34.98381],[16.884717,36.66837],[15.400739,37.949689],[13.244313,37.523712]]]}},{"type":"Feature","properties":{"hex_id":"8244a7fffffffff","population":5328381,"population_year":2025,"area_km2":75672.4,"population_density":70.4,"all_players":1,"players_per_million":0.19,"player_ids":["padel:women:p202287"],"label":"Miami","country":"United States"},"geometry":{"type":"Polygon","coordinates":[[[-79.508242,23.533066],[-78.073265,24.24011],[-77.908907,25.835601],[-79.211732,26.761492],[-80.698565,26.062694],[-80.82969,24.429618],[-79.508242,23.533066]]]}},{"type":"Feature","properties":{"hex_id":"824997fffffffff","population":36941748,"population_year":2025,"area_km2":99241.3,"population_density":372.2,"all_players":1,"players_per_million":0.03,"player_ids":["padel:women:p200153"],"label":"Ciudad de México","country":"Mexico"},"geometry":{"type":"Polygon","coordinates":[[[-97.591937,18.289686],[-96.05021,19.269007],[-96.130285,21.025118],[-97.798077,21.815236],[-99.372387,20.819245],[-99.246183,19.050422],[-97.591937,18.289686]]]}},{"type":"Feature","properties":{"hex_id":"826527fffffffff","population":8679760,"population_year":2025,"area_km2":98815.5,"population_density":87.8,"all_players":1,"players_per_million":0.12,"player_ids":["padel:women:p200671"],"label":"Singapore","country":"Singapore"},"geometry":{"type":"Polygon","coordinates":[[[104.644094,0.283939],[104.819754,2.022102],[103.391464,3.021473],[101.781836,2.264143],[101.620024,0.512277],[103.053645,-0.468955],[104.644094,0.283939]]]}},{"type":"Feature","properties":{"hex_id":"8282d7fffffffff","population":6178816,"population_year":2025,"area_km2":76219.8,"population_density":81.1,"all_players":1,"players_per_million":0.16,"player_ids":["padel:men:p101116"],"label":"Douala","country":"Cameroon"},"geometry":{"type":"Polygon","coordinates":[[[10.026445,2.31899],[10.722778,3.789625],[9.867156,4.989684],[8.344199,4.732154],[7.656465,3.293009],[8.482577,2.080262],[10.026445,2.31899]]]}},{"type":"Feature","properties":{"hex_id":"828937fffffffff","population":219084,"population_year":2025,"area_km2":96323.1,"population_density":2.3,"all_players":1,"players_per_million":4.56,"player_ids":["padel:women:p200038"],"label":"Papeete","country":"French Polynesia"},"geometry":{"type":"Polygon","coordinates":[[[-148.806309,-18.242013],[-147.768449,-16.848032],[-148.541742,-15.285505],[-150.33093,-15.085955],[-151.394269,-16.452521],[-150.644478,-18.046053],[-148.806309,-18.242013]]]}},{"type":"Feature","properties":{"hex_id":"82a90ffffffffff","population":5687266,"population_year":2025,"area_km2":75672.4,"population_density":75.2,"all_players":1,"players_per_million":0.18,"player_ids":["padel:men:p000036"],"label":"Bento Gonçalves","country":"Brazil"},"geometry":{"type":"Polygon","coordinates":[[[-51.753337,-30.359872],[-50.327685,-29.525999],[-50.618998,-28.043997],[-52.323074,-27.407025],[-53.729804,-28.251992],[-53.451698,-29.722439],[-51.753337,-30.359872]]]}},{"type":"Feature","properties":{"hex_id":"82a92ffffffffff","population":1270306,"population_year":2025,"area_km2":70782.3,"population_density":17.9,"all_players":1,"players_per_million":0.79,"player_ids":["padel:women:p000462"],"label":"Pelotas","country":"Brazil"},"geometry":{"type":"Polygon","coordinates":[[[-52.889546,-32.565288],[-51.465531,-31.786712],[-51.753337,-30.359872],[-53.451698,-29.722439],[-54.854902,-30.51203],[-54.58085,-31.927643],[-52.889546,-32.565288]]]}},{"type":"Feature","properties":{"hex_id":"82a947fffffffff","population":2043841,"population_year":2025,"area_km2":74863.4,"population_density":27.3,"all_players":1,"players_per_million":0.49,"player_ids":["padel:men:p101159"],"label":"Posadas Misiones","country":"Argentina"},"geometry":{"type":"Polygon","coordinates":[[[-56.776799,-28.386902],[-55.397042,-27.584842],[-55.665148,-26.075268],[-57.298468,-25.384508],[-58.652486,-26.200276],[-58.39911,-27.6928],[-56.776799,-28.386902]]]}},{"type":"Feature","properties":{"hex_id":"82a96ffffffffff","population":1609305,"population_year":2025,"area_km2":72289.7,"population_density":22.3,"all_players":1,"players_per_million":0.62,"player_ids":["padel:women:p200007"],"label":"Resistencia","country":"Argentina"},"geometry":{"type":"Polygon","coordinates":[[[-59.7453,-28.452967],[-58.39911,-27.6928],[-58.652486,-26.200276],[-60.236852,-25.487093],[-61.529913,-26.578843],[-61.28715,-28.072875],[-59.7453,-28.452967]]]}},{"type":"Feature","properties":{"hex_id":"82a977fffffffff","population":1247430,"population_year":2025,"area_km2":73030.9,"population_density":17.1,"all_players":1,"players_per_million":0.8,"player_ids":["padel:men:p000015"],"label":"Alegrete","country":"Brazil"},"geometry":{"type":"Polygon","coordinates":[[[-54.854902,-30.51203],[-53.451698,-29.722439],[-53.729804,-28.251992],[-55.397042,-27.584842],[-56.776799,-28.386902],[-56.513005,-29.843289],[-54.854902,-30.51203]]]}},{"type":"Feature","properties":{"hex_id":"82b247fffffffff","population":2390059,"population_year":2025,"area_km2":73030.9,"population_density":32.7,"all_players":3,"players_per_million":1.26,"player_ids":["padel:men:p000008","padel:men:p000062","padel:women:p000484"],"label":"Córdoba","country":"Argentina"},"geometry":{"type":"Polygon","coordinates":[[[-64.2154,-28.744357],[-65.607305,-29.81272],[-65.373462,-31.289486],[-63.7387,-31.680908],[-62.373572,-30.614686],[-62.615887,-29.155222],[-64.2154,-28.744357]]]}},{"type":"Feature","properties":{"hex_id":"82b25ffffffffff","population":1268214,"population_year":2025,"area_km2":70782.3,"population_density":17.9,"all_players":6,"players_per_million":4.73,"player_ids":["padel:men:p000013","padel:men:p000028","padel:men:p000107","padel:men:p000291","padel:men:p101158","padel:men:p201729"],"label":"San Luis","country":"Argentina"},"geometry":{"type":"Polygon","coordinates":[[[-65.373462,-31.289486],[-66.801494,-32.33604],[-66.569458,-33.770896],[-64.899351,-34.14503],[-63.49719,-33.101224],[-63.7387,-31.680908],[-65.373462,-31.289486]]]}},{"type":"Feature","properties":{"hex_id":"82b26ffffffffff","population":369291,"population_year":2025,"area_km2":70058.2,"population_density":5.3,"all_players":1,"players_per_million":2.71,"player_ids":["padel:men:p000128"],"label":"Malabrigo","country":"Argentina"},"geometry":{"type":"Polygon","coordinates":[[[-61.28715,-28.072875],[-62.615887,-29.155222],[-62.373572,-30.614686],[-60.79563,-30.972609],[-59.496606,-29.892985],[-59.7453,-28.452967],[-61.28715,-28.072875]]]}},{"type":"Feature","properties":{"hex_id":"82b277fffffffff","population":1185348,"population_year":2025,"area_km2":77902.3,"population_density":15.2,"all_players":1,"players_per_million":0.84,"player_ids":["padel:men:p000285"],"label":"Catamarca","country":"Argentina"},"geometry":{"type":"Polygon","coordinates":[[[-66.068669,-26.766212],[-67.484672,-27.835285],[-67.259078,-29.367232],[-65.607305,-29.81272],[-64.2154,-28.744357],[-64.45063,-27.230124],[-66.068669,-26.766212]]]}},{"type":"Feature","properties":{"hex_id":"82b2c7fffffffff","population":11329671,"population_year":2025,"area_km2":74863.4,"population_density":151.3,"all_players":1,"players_per_million":0.09,"player_ids":["padel:men:p000045"],"label":"Santiago de Chile","country":"Chile"},"geometry":{"type":"Polygon","coordinates":[[[-71.701009,-32.457423],[-73.23859,-33.44609],[-73.032279,-34.902991],[-71.273842,-35.361914],[-69.752658,-34.374792],[-69.972956,-32.927676],[-71.701009,-32.457423]]]}},{"type":"Feature","properties":{"hex_id":"82b35ffffffffff","population":2547730,"population_year":2025,"area_km2":79647.5,"population_density":32.0,"all_players":1,"players_per_million":0.39,"player_ids":["padel:men:p203884"],"label":"Salta","country":"Argentina"},"geometry":{"type":"Polygon","coordinates":[[[-64.914945,-24.116355],[-66.296233,-25.199133],[-66.068669,-26.766212],[-64.45063,-27.230124],[-63.094398,-26.146703],[-63.330629,-24.600271],[-64.914945,-24.116355]]]}},{"type":"Feature","properties":{"hex_id":"82c21ffffffffff","population":718809,"population_year":2025,"area_km2":56786.6,"population_density":12.7,"all_players":2,"players_per_million":2.78,"player_ids":["padel:men:p000080","padel:men:p000097"],"label":"Mar del Plata","country":"Argentina"},"geometry":{"type":"Polygon","coordinates":[[[-56.300463,-38.517762],[-54.888123,-37.903324],[-55.164004,-36.642936],[-56.837235,-36.005614],[-58.223405,-36.629598],[-57.962724,-37.880975],[-56.300463,-38.517762]]]}},{"type":"Feature","properties":{"hex_id":"82c22ffffffffff","population":573019,"population_year":2025,"area_km2":56786.6,"population_density":10.1,"all_players":1,"players_per_million":1.75,"player_ids":["padel:men:p100879"],"label":"Olavarría","country":"Argentina"},"geometry":{"type":"Polygon","coordinates":[[[-59.788176,-36.394827],[-61.130701,-37.429854],[-60.875746,-38.693373],[-59.271995,-38.910054],[-57.962724,-37.880975],[-58.223405,-36.629598],[-59.788176,-36.394827]]]}},{"type":"Feature","properties":{"hex_id":"82c2cffffffffff","population":1422209,"population_year":2025,"area_km2":65980.3,"population_density":21.6,"all_players":1,"players_per_million":0.7,"player_ids":["padel:women:p200013"],"label":"Parana","country":"Argentina"},"geometry":{"type":"Polygon","coordinates":[[[-58.993312,-32.682213],[-57.627165,-31.991695],[-57.886462,-30.589507],[-59.496606,-29.892985],[-60.79563,-30.972609],[-60.546841,-32.376319],[-58.993312,-32.682213]]]}},{"type":"Feature","properties":{"hex_id":"82c2e7fffffffff","population":16637306,"population_year":2025,"area_km2":59429.4,"population_density":280.0,"all_players":8,"players_per_million":0.48,"player_ids":["padel:men:p000004","padel:men:p000007","padel:men:p000014","padel:men:p000026","padel:men:p100957","padel:men:p101157","padel:men:p202744","padel:women:p200005"],"label":"Buenos Aires","country":"Argentina"},"geometry":{"type":"Polygon","coordinates":[[[-58.223405,-36.629598],[-56.837235,-36.005614],[-57.102564,-34.700194],[-58.738685,-34.029993],[-60.04313,-35.087873],[-59.788176,-36.394827],[-58.223405,-36.629598]]]}},{"type":"Feature","properties":{"hex_id":"82c2effffffffff","population":3012497,"population_year":2025,"area_km2":63447.1,"population_density":47.5,"all_players":1,"players_per_million":0.33,"player_ids":["padel:men:p001511"],"label":"Chacabuco","country":"Argentina"},"geometry":{"type":"Polygon","coordinates":[[[-60.546841,-32.376319],[-61.882735,-33.439024],[-61.634178,-34.802491],[-60.04313,-35.087873],[-58.738685,-34.029993],[-58.993312,-32.682213],[-60.546841,-32.376319]]]}},{"type":"Feature","properties":{"hex_id":"82c357fffffffff","population":588944,"population_year":2025,"area_km2":59429.4,"population_density":9.9,"all_players":1,"players_per_million":1.7,"player_ids":["padel:men:p000391"],"label":"Bahía Blanca","country":"Argentina"},"geometry":{"type":"Polygon","coordinates":[[[-62.759792,-37.162506],[-64.171797,-38.174411],[-63.392024,-39.554439],[-61.702806,-39.800882],[-60.875746,-38.693373],[-61.130701,-37.429854],[-62.759792,-37.162506]]]}},{"type":"Feature","properties":{"hex_id":"82c35ffffffffff","population":427773,"population_year":2025,"area_km2":61279.2,"population_density":7.0,"all_players":1,"players_per_million":2.34,"player_ids":["padel:men:p100983"],"label":"Deaireaux","country":"Argentina"},"geometry":{"type":"Polygon","coordinates":[[[-61.634178,-34.802491],[-63.007756,-35.842443],[-62.759792,-37.162506],[-61.130701,-37.429854],[-59.788176,-36.394827],[-60.04313,-35.087873],[-61.634178,-34.802491]]]}},{"type":"Feature","properties":{"hex_id":"82ce87fffffffff","population":342383,"population_year":2025,"area_km2":73030.9,"population_density":4.7,"all_players":1,"players_per_million":2.92,"player_ids":["padel:men:p000116"],"label":"San Martín de los Andes","country":"Argentina"},"geometry":{"type":"Polygon","coordinates":[[[-70.199958,-42.366068],[-69.018861,-41.216599],[-69.729651,-39.730191],[-71.573716,-39.340814],[-72.805854,-40.451791],[-72.146547,-41.99109],[-70.199958,-42.366068]]]}},{"type":"Feature","properties":{"hex_id":"82ce97fffffffff","population":768255,"population_year":2025,"area_km2":68186.6,"population_density":11.3,"all_players":1,"players_per_million":1.3,"player_ids":["padel:women:p000432"],"label":"Picún Leufu","country":"Argentina"},"geometry":{"type":"Polygon","coordinates":[[[-67.156212,-41.541506],[-66.103092,-40.399611],[-66.853563,-38.966574],[-68.620748,-38.622712],[-69.729651,-39.730191],[-69.018861,-41.216599],[-67.156212,-41.541506]]]}}]}