{"type":"FeatureCollection","metadata":{"population_source":"WorldPop Global 2 R2025A","population_source_url":"https://hub.worldpop.org/project/categories?id=3","population_license":"CC BY 4.0","population_year":2025,"raster_resolution":"1km","h3_resolution":3,"population_method":"official_country_rasters","occupied_cells":73,"mapped_players":198},"features":[{"type":"Feature","properties":{"hex_id":"83184bfffffffff","population":2215141,"population_year":2025,"area_km2":12395.2,"population_density":178.7,"all_players":1,"players_per_million":0.45,"player_ids":["padel:women:p200899"],"label":"San Sebastian","country":"Spain"},"geometry":{"type":"Polygon","coordinates":[[[-2.729364,43.8003],[-3.362059,43.400471],[-3.199092,42.769427],[-2.417796,42.54048],[-1.792726,42.937258],[-1.941313,43.565989],[-2.729364,43.8003]]]}},{"type":"Feature","properties":{"hex_id":"83194afffffffff","population":6871941,"population_year":2025,"area_km2":11131.6,"population_density":617.3,"all_players":1,"players_per_million":0.15,"player_ids":["padel:women:p201837"],"label":"London","country":"United Kingdom"},"geometry":{"type":"Polygon","coordinates":[[[-0.069294,51.543996],[-0.785076,51.204689],[-0.631095,50.601911],[0.220599,50.340898],[0.925401,50.677831],[0.789471,51.278095],[-0.069294,51.543996]]]}},{"type":"Feature","properties":{"hex_id":"831969fffffffff","population":7268023,"population_year":2025,"area_km2":10482.3,"population_density":693.4,"all_players":1,"players_per_million":0.14,"player_ids":["padel:women:p202112"],"label":"Amsterdam","country":"The Netherlands"},"geometry":{"type":"Polygon","coordinates":[[[4.515848,52.296999],[4.628032,51.750066],[5.492877,51.584097],[6.259687,51.96477],[6.159603,52.514255],[5.280448,52.68056],[4.515848,52.296999]]]}},{"type":"Feature","properties":{"hex_id":"83196bfffffffff","population":3269727,"population_year":2025,"area_km2":10449.9,"population_density":312.9,"all_players":2,"players_per_million":0.61,"player_ids":["padel:women:p200255","padel:women:p200674"],"label":"Leidschendam","country":"The Netherlands"},"geometry":{"type":"Polygon","coordinates":[[[3.67324,52.541669],[2.947471,52.236888],[3.060444,51.644656],[3.881134,51.360376],[4.628032,51.750066],[4.515848,52.296999],[4.225481,52.349359],[3.67324,52.541669]]]}},{"type":"Feature","properties":{"hex_id":"831e80fffffffff","population":4856406,"population_year":2025,"area_km2":13258.9,"population_density":366.3,"all_players":3,"players_per_million":0.62,"player_ids":["padel:women:317387","padel:women:p000452","padel:women:p000534"],"label":"Roma","country":"Italy"},"geometry":{"type":"Polygon","coordinates":[[[12.199341,42.319259],[12.245097,41.684753],[13.015322,41.413495],[13.748722,41.775618],[13.713746,42.412148],[12.934527,42.684579],[12.199341,42.319259]]]}},{"type":"Feature","properties":{"hex_id":"831e83fffffffff","population":4036054,"population_year":2025,"area_km2":13472.5,"population_density":299.6,"all_players":1,"players_per_million":0.25,"player_ids":["padel:women:p000453"],"label":"Caserta","country":"Italy"},"geometry":{"type":"Polygon","coordinates":[[[13.015322,41.413495],[13.054853,40.772822],[13.817173,40.492332],[14.548451,40.851244],[14.519585,41.49381],[13.748722,41.775618],[13.015322,41.413495]]]}},{"type":"Feature","properties":{"hex_id":"831ea3fffffffff","population":1273055,"population_year":2025,"area_km2":12915.2,"population_density":98.6,"all_players":1,"players_per_million":0.79,"player_ids":["padel:women:p202302"],"label":"Borgo Maggiore","country":"San Marino"},"geometry":{"type":"Polygon","coordinates":[[[12.057997,44.200939],[12.105806,43.577473],[12.893237,43.314735],[13.642239,43.674337],[13.605684,44.299755],[12.808805,44.563667],[12.057997,44.200939]]]}},{"type":"Feature","properties":{"hex_id":"831f21fffffffff","population":258303,"population_year":2025,"area_km2":9808.2,"population_density":26.3,"all_players":1,"players_per_million":3.87,"player_ids":["padel:men:p201233"],"label":"Smalandsstenar","country":"Sweden"},"geometry":{"type":"Polygon","coordinates":[[[11.680885,57.109629],[11.741681,56.591404],[12.688484,56.393983],[13.588169,56.712632],[13.543636,57.232114],[12.583033,57.431753],[11.680885,57.109629]]]}},{"type":"Feature","properties":{"hex_id":"831f2efffffffff","population":588838,"population_year":2025,"area_km2":10059.1,"population_density":58.5,"all_players":1,"players_per_million":1.7,"player_ids":["padel:men:p000103"],"label":"Angelholm","country":"Sweden"},"geometry":{"type":"Polygon","coordinates":[[[12.688484,56.393983],[12.739823,55.867327],[13.674893,55.658102],[14.571482,55.973336],[14.5362,56.501146],[13.588169,56.712632],[12.688484,56.393983]]]}},{"type":"Feature","properties":{"hex_id":"831f90fffffffff","population":2771086,"population_year":2025,"area_km2":11640.2,"population_density":238.1,"all_players":2,"players_per_million":0.72,"player_ids":["padel:women:p200020","padel:women:p201526"],"label":"Lyon","country":"France"},"geometry":{"type":"Polygon","coordinates":[[[3.369712,46.003392],[3.480263,45.413387],[4.268915,45.224369],[4.959125,45.625827],[4.858384,46.21913],[4.057494,46.407711],[3.369712,46.003392]]]}},{"type":"Feature","properties":{"hex_id":"831f98fffffffff","population":3290090,"population_year":2025,"area_km2":12188.8,"population_density":269.9,"all_players":1,"players_per_million":0.3,"player_ids":["padel:men:p000126"],"label":"Torino","country":"Italy"},"geometry":{"type":"Polygon","coordinates":[[[7.263691,45.610704],[7.346976,45.00667],[8.142693,44.786129],[8.866286,45.169339],[8.793725,45.776109],[7.98674,45.996975],[7.263691,45.610704]]]}},{"type":"Feature","properties":{"hex_id":"831f99fffffffff","population":8499702,"population_year":2025,"area_km2":12318.9,"population_density":690.0,"all_players":1,"players_per_million":0.12,"player_ids":["padel:men:p000125"],"label":"Codogno","country":"Italy"},"geometry":{"type":"Polygon","coordinates":[[[8.793725,45.776109],[8.866286,45.169339],[9.666362,44.937924],[10.404667,45.312696],[10.343213,45.921928],[9.53225,46.153971],[8.793725,45.776109]]]}},{"type":"Feature","properties":{"hex_id":"831fa4fffffffff","population":7133777,"population_year":2025,"area_km2":10626.5,"population_density":671.3,"all_players":1,"players_per_million":0.14,"player_ids":["padel:men:p000185"],"label":"Uccle","country":"Belgium"},"geometry":{"type":"Polygon","coordinates":[[[3.881134,51.360376],[3.996418,50.807584],[4.847197,50.641723],[5.5966,51.028589],[5.492877,51.584097],[4.628032,51.750066],[3.881134,51.360376]]]}},{"type":"Feature","properties":{"hex_id":"831faafffffffff","population":5382251,"population_year":2025,"area_km2":11534.2,"population_density":466.6,"all_players":1,"players_per_million":0.19,"player_ids":["padel:women:p002031"],"label":"Karlsruhe","country":"Germany"},"geometry":{"type":"Polygon","coordinates":[[[8.334632,49.326261],[8.414101,48.74575],[9.251571,48.534678],[10.021547,48.903405],[9.954177,49.486187],[9.104617,49.69802],[8.334632,49.326261]]]}},{"type":"Feature","properties":{"hex_id":"83344cfffffffff","population":916949,"population_year":2025,"area_km2":14210.2,"population_density":64.5,"all_players":2,"players_per_million":2.18,"player_ids":["padel:men:p000293","padel:women:p200027"],"label":"Santa Cruz de Tenerife","country":"Spain"},"geometry":{"type":"Polygon","coordinates":[[[-16.393328,28.514587],[-16.88721,28.002408],[-16.638744,27.377068],[-15.905271,27.262132],[-15.411983,27.76893],[-15.651483,28.396006],[-16.393328,28.514587]]]}},{"type":"Feature","properties":{"hex_id":"83346bfffffffff","population":667753,"population_year":2025,"area_km2":14123.1,"population_density":47.3,"all_players":2,"players_per_million":3.0,"player_ids":["padel:women:p200010","padel:women:p200247"],"label":"Las Palmas de Gran Canaria","country":"Spain"},"geometry":{"type":"Polygon","coordinates":[[[-15.150893,28.902643],[-15.651483,28.396006],[-15.411983,27.76893],[-14.681053,27.647052],[-14.181546,28.148352],[-14.4118,28.776827],[-15.150893,28.902643]]]}},{"type":"Feature","properties":{"hex_id":"833825fffffffff","population":1247478,"population_year":2025,"area_km2":12395.2,"population_density":100.6,"all_players":4,"players_per_million":3.21,"player_ids":["padel:men:p000035","padel:men:p000039","padel:women:p000450","padel:women:p200008"],"label":"Murcia","country":"Spain"},"geometry":{"type":"Polygon","coordinates":[[[-1.416234,38.115997],[-2.001062,37.704074],[-1.863369,37.071291],[-1.153048,36.852999],[-0.575154,37.26165],[-0.700647,37.891827],[-1.416234,38.115997]]]}},{"type":"Feature","properties":{"hex_id":"833835fffffffff","population":931900,"population_year":2025,"area_km2":12781.8,"population_density":72.9,"all_players":1,"players_per_million":1.07,"player_ids":["padel:men:p000042"],"label":"Melilla","country":"Spain"},"geometry":{"type":"Polygon","coordinates":[[[-3.584806,35.801656],[-4.152217,35.368521],[-3.998423,34.733837],[-3.288834,34.534237],[-2.727294,34.963563],[-2.869453,35.596255],[-3.584806,35.801656]]]}},{"type":"Feature","properties":{"hex_id":"833900fffffffff","population":237387,"population_year":2025,"area_km2":13258.9,"population_density":17.9,"all_players":2,"players_per_million":8.43,"player_ids":["padel:women:p000477","padel:women:p200004"],"label":"Moraleja","country":"Spain"},"geometry":{"type":"Polygon","coordinates":[[[-6.877085,40.23394],[-7.475134,39.791176],[-7.279403,39.151542],[-6.498678,38.9559],[-5.90594,39.394783],[-6.088564,40.033143],[-6.877085,40.23394]]]}},{"type":"Feature","properties":{"hex_id":"833902fffffffff","population":431572,"population_year":2025,"area_km2":13361.1,"population_density":32.3,"all_players":2,"players_per_million":4.63,"player_ids":["padel:men:p000031","padel:men:p000032"],"label":"Badajoz","country":"Spain"},"geometry":{"type":"Polygon","coordinates":[[[-7.279403,39.151542],[-7.868285,38.702677],[-7.6715,38.062225],[-6.898506,37.871743],[-6.31462,38.316599],[-6.498678,38.9559],[-7.279403,39.151542]]]}},{"type":"Feature","properties":{"hex_id":"833903fffffffff","population":325216,"population_year":2025,"area_km2":13142.7,"population_density":24.7,"all_players":2,"players_per_million":6.15,"player_ids":["padel:men:p000054","padel:men:p000099"],"label":"Mérida","country":"Spain"},"geometry":{"type":"Polygon","coordinates":[[[-5.90594,39.394783],[-6.498678,38.9559],[-6.31462,38.316599],[-5.550612,38.117649],[-4.963456,38.552712],[-5.134684,39.1905],[-5.90594,39.394783]]]}},{"type":"Feature","properties":{"hex_id":"83390cfffffffff","population":6740566,"population_year":2025,"area_km2":12803.9,"population_density":526.4,"all_players":30,"players_per_million":4.45,"player_ids":["padel:men:p000001","padel:men:p000017","padel:men:p000051","padel:men:p000111","padel:men:p000149","padel:men:p100030","padel:men:p100037","padel:men:p101057","padel:men:p101580","padel:men:p101601","padel:men:p101612","padel:men:p101627","padel:men:p201731","padel:women:p000466","padel:women:p000489","padel:women:p000532","padel:women:p000541","padel:women:p002025","padel:women:p200001","padel:women:p200014","padel:women:p200030","padel:women:p200032","padel:women:p200081","padel:women:p200098","padel:women:p200110","padel:women:p200129","padel:women:p200131","padel:women:p200184","padel:women:p200185","padel:women:p200232"],"label":"Madrid","country":"Spain"},"geometry":{"type":"Polygon","coordinates":[[[-4.103433,40.678157],[-4.708227,40.256026],[-4.538804,39.619302],[-3.777805,39.406656],[-3.179494,39.825314],[-3.335672,40.460048],[-4.103433,40.678157]]]}},{"type":"Feature","properties":{"hex_id":"83390dfffffffff","population":178817,"population_year":2025,"area_km2":12564.6,"population_density":14.2,"all_players":1,"players_per_million":5.59,"player_ids":["padel:men:p101734"],"label":"Cuenca","country":"Spain"},"geometry":{"type":"Polygon","coordinates":[[[-2.728618,40.871785],[-3.335672,40.460048],[-3.179494,39.825314],[-2.429494,39.604608],[-1.829461,40.013095],[-1.972394,40.645495],[-2.728618,40.871785]]]}},{"type":"Feature","properties":{"hex_id":"833918fffffffff","population":1266165,"population_year":2025,"area_km2":13096.6,"population_density":96.7,"all_players":2,"players_per_million":1.58,"player_ids":["padel:men:p201417","padel:women:p200102"],"label":"Marbella","country":"Spain"},"geometry":{"type":"Polygon","coordinates":[[[-5.377737,37.479229],[-5.956355,37.038332],[-5.78198,36.399721],[-5.041156,36.203564],[-4.468042,36.640556],[-4.630214,37.277566],[-5.377737,37.479229]]]}},{"type":"Feature","properties":{"hex_id":"833919fffffffff","population":1714556,"population_year":2025,"area_km2":12870.5,"population_density":133.2,"all_players":16,"players_per_million":9.33,"player_ids":["padel:men:p000011","padel:men:p000012","padel:men:p000018","padel:men:p000021","padel:men:p000086","padel:men:p000108","padel:men:p000138","padel:men:p101096","padel:women:330614","padel:women:p000478","padel:women:p200011","padel:women:p200019","padel:women:p200063","padel:women:p200109","padel:women:p200111","padel:women:p200559"],"label":"Málaga","country":"Spain"},"geometry":{"type":"Polygon","coordinates":[[[-4.048871,37.708867],[-4.630214,37.277566],[-4.468042,36.640556],[-3.736744,36.43675],[-3.161409,36.864345],[-3.311341,37.499409],[-4.048871,37.708867]]]}},{"type":"Feature","properties":{"hex_id":"83391afffffffff","population":1417320,"population_year":2025,"area_km2":13165.8,"population_density":107.7,"all_players":1,"players_per_million":0.71,"player_ids":["padel:men:p101099"],"label":"La Linea de la Concepción","country":"Spain"},"geometry":{"type":"Polygon","coordinates":[[[-5.78198,36.399721],[-6.352241,35.953427],[-6.176507,35.315072],[-5.442348,35.124424],[-4.877295,35.566667],[-5.041156,36.203564],[-5.78198,36.399721]]]}},{"type":"Feature","properties":{"hex_id":"83391cfffffffff","population":1819644,"population_year":2025,"area_km2":13235.5,"population_density":137.5,"all_players":10,"players_per_million":5.5,"player_ids":["padel:men:p000003","padel:men:p000029","padel:men:p000041","padel:men:p000076","padel:men:p000079","padel:women:p000473","padel:women:p000479","padel:women:p200012","padel:women:p200896","padel:women:p202063"],"label":"Sevilla","country":"Spain"},"geometry":{"type":"Polygon","coordinates":[[[-6.31462,38.316599],[-6.898506,37.871743],[-6.713159,37.231941],[-5.956355,37.038332],[-5.377737,37.479229],[-5.550612,38.117649],[-6.31462,38.316599]]]}},{"type":"Feature","properties":{"hex_id":"83391dfffffffff","population":788816,"population_year":2025,"area_km2":13012.9,"population_density":60.6,"all_players":2,"players_per_million":2.54,"player_ids":["padel:men:p000016","padel:men:p000023"],"label":"Córdoba","country":"Spain"},"geometry":{"type":"Polygon","coordinates":[[[-4.963456,38.552712],[-5.550612,38.117649],[-5.377737,37.479229],[-4.630214,37.277566],[-4.048871,37.708867],[-4.209206,38.345549],[-4.963456,38.552712]]]}},{"type":"Feature","properties":{"hex_id":"83391efffffffff","population":880126,"population_year":2025,"area_km2":13313.8,"population_density":66.1,"all_players":6,"players_per_million":6.82,"player_ids":["padel:men:p000002","padel:men:p000019","padel:men:p000060","padel:women:p000456","padel:women:p000488","padel:women:p200092"],"label":"Puerto de Santa María","country":"Spain"},"geometry":{"type":"Polygon","coordinates":[[[-6.713159,37.231941],[-7.288392,36.781553],[-7.101894,36.141695],[-6.352241,35.953427],[-5.78198,36.399721],[-5.956355,37.038332],[-6.713159,37.231941]]]}},{"type":"Feature","properties":{"hex_id":"833920fffffffff","population":1541450,"population_year":2025,"area_km2":13313.8,"population_density":115.8,"all_players":2,"players_per_million":1.3,"player_ids":["padel:men:p000022","padel:men:p100178"],"label":"Sta. Uxía de Ribeira","country":"Spain"},"geometry":{"type":"Polygon","coordinates":[[[-8.510499,42.979425],[-9.128239,42.535464],[-8.908305,41.898766],[-8.084602,41.706837],[-7.471834,42.1469],[-7.67772,42.782741],[-8.510499,42.979425]]]}},{"type":"Feature","properties":{"hex_id":"833922fffffffff","population":3258630,"population_year":2025,"area_km2":13448.5,"population_density":242.3,"all_players":2,"players_per_million":0.61,"player_ids":["padel:women:p200028","padel:women:p200236"],"label":"Oporto","country":"Portugal"},"geometry":{"type":"Polygon","coordinates":[[[-8.908305,41.898766],[-9.515993,41.448057],[-9.295415,40.80947],[-8.480681,40.6223],[-7.877634,41.069006],[-8.084602,41.706837],[-8.908305,41.898766]]]}},{"type":"Feature","properties":{"hex_id":"833928fffffffff","population":604363,"population_year":2025,"area_km2":12781.8,"population_density":47.3,"all_players":6,"players_per_million":9.93,"player_ids":["padel:men:p000010","padel:men:p000072","padel:women:p000490","padel:women:p200029","padel:women:p200075","padel:women:p200124"],"label":"Valladolid","country":"Spain"},"geometry":{"type":"Polygon","coordinates":[[[-4.615502,42.581981],[-5.236029,42.163499],[-5.056751,41.528299],[-4.270886,41.313394],[-3.656987,41.728461],[-3.822291,42.361801],[-4.615502,42.581981]]]}},{"type":"Feature","properties":{"hex_id":"83392bfffffffff","population":1038811,"population_year":2025,"area_km2":12679.7,"population_density":81.9,"all_players":1,"players_per_million":0.96,"player_ids":["padel:women:p000455"],"label":"Segovia","country":"Spain"},"geometry":{"type":"Polygon","coordinates":[[[-3.656987,41.728461],[-4.270886,41.313394],[-4.103433,40.678157],[-3.335672,40.460048],[-2.728618,40.871785],[-2.882457,41.504916],[-3.656987,41.728461]]]}},{"type":"Feature","properties":{"hex_id":"83392dfffffffff","population":571746,"population_year":2025,"area_km2":12636.3,"population_density":45.2,"all_players":1,"players_per_million":1.75,"player_ids":["padel:women:p000483"],"label":"Santander","country":"Spain"},"geometry":{"type":"Polygon","coordinates":[[[-4.162635,43.625899],[-4.792849,43.214988],[-4.615502,42.581981],[-3.822291,42.361801],[-3.199092,42.769427],[-3.362059,43.400471],[-4.162635,43.625899]]]}},{"type":"Feature","properties":{"hex_id":"833933fffffffff","population":3081923,"population_year":2025,"area_km2":13675.5,"population_density":225.4,"all_players":3,"players_per_million":0.97,"player_ids":["padel:men:p201198","padel:men:p201200","padel:women:p000526"],"label":"Lisboa","country":"Portugal"},"geometry":{"type":"Polygon","coordinates":[[[-9.672222,39.712382],[-10.260578,39.249447],[-10.0391,38.608375],[-9.241968,38.430723],[-8.657648,38.889432],[-8.866346,39.529972],[-9.672222,39.712382]]]}},{"type":"Feature","properties":{"hex_id":"833942fffffffff","population":639290,"population_year":2025,"area_km2":12229.6,"population_density":52.3,"all_players":4,"players_per_million":6.26,"player_ids":["padel:men:p000085","padel:men:p101649","padel:women:p200036","padel:women:p200044"],"label":"Palma de Mallorca","country":"Spain"},"geometry":{"type":"Polygon","coordinates":[[[1.568027,40.141859],[1.682025,39.526861],[2.409691,39.323588],[3.0341,39.73632],[2.928119,40.355416],[2.189602,40.557703],[1.568027,40.141859]]]}},{"type":"Feature","properties":{"hex_id":"833943fffffffff","population":178309,"population_year":2025,"area_km2":12423.2,"population_density":14.4,"all_players":2,"players_per_million":11.22,"player_ids":["padel:men:p100003","padel:women:p200002"],"label":"Mahón","country":"Spain"},"geometry":{"type":"Polygon","coordinates":[[[2.928119,40.355416],[3.0341,39.73632],[3.768973,39.524231],[4.408495,39.931959],[4.310937,40.554931],[3.565326,40.766324],[2.928119,40.355416]]]}},{"type":"Feature","properties":{"hex_id":"833944fffffffff","population":5820367,"population_year":2025,"area_km2":11948.5,"population_density":487.1,"all_players":12,"players_per_million":2.06,"player_ids":["padel:men:p000063","padel:men:p000175","padel:men:p100048","padel:women:p000471","padel:women:p000472","padel:women:p200009","padel:women:p200040","padel:women:p200049","padel:women:p200148","padel:women:p200176","padel:women:p200224","padel:women:p200230"],"label":"Barcelona","country":"Spain"},"geometry":{"type":"Polygon","coordinates":[[[1.216871,41.967575],[1.335479,41.362336],[2.07735,41.170004],[2.711858,41.583975],[2.601521,42.193196],[1.848287,42.384487],[1.216871,41.967575]]]}},{"type":"Feature","properties":{"hex_id":"833945fffffffff","population":709742,"population_year":2025,"area_km2":12134.7,"population_density":58.5,"all_players":1,"players_per_million":1.41,"player_ids":["padel:women:p200366"],"label":"Girona","country":"Spain"},"geometry":{"type":"Polygon","coordinates":[[[2.601521,42.193196],[2.711858,41.583975],[3.46143,41.382558],[4.111804,41.791133],[4.010176,42.404119],[3.24935,42.604792],[2.601521,42.193196]]]}},{"type":"Feature","properties":{"hex_id":"833946fffffffff","population":735018,"population_year":2025,"area_km2":11997.1,"population_density":61.3,"all_players":3,"players_per_million":4.08,"player_ids":["padel:men:p000047","padel:women:p200003","padel:women:p200925"],"label":"Tarragona","country":"Spain"},"geometry":{"type":"Polygon","coordinates":[[[0.720675,40.962104],[0.837298,40.335353],[1.568027,40.141859],[2.189602,40.557703],[2.07735,41.170004],[1.335479,41.362336],[1.025085,41.153182],[0.720675,40.962104]]]}},{"type":"Feature","properties":{"hex_id":"833954fffffffff","population":2781027,"population_year":2025,"area_km2":12188.8,"population_density":228.2,"all_players":7,"players_per_million":2.52,"player_ids":["padel:men:p000030","padel:men:p000043","padel:men:p000049","padel:men:p000052","padel:men:p000109","padel:men:p201346","padel:women:p200006"],"label":"Valencia","country":"Spain"},"geometry":{"type":"Polygon","coordinates":[[[-0.49009,40.182979],[-1.091146,39.784657],[-0.95858,39.153492],[-0.237765,38.923477],[0.35567,39.31886],[0.235904,39.947158],[-0.49009,40.182979]]]}},{"type":"Feature","properties":{"hex_id":"833956fffffffff","population":2107084,"population_year":2025,"area_km2":12298.2,"population_density":171.3,"all_players":4,"players_per_million":1.9,"player_ids":["padel:women:p002020","padel:women:p200042","padel:women:p200190","padel:women:p200356"],"label":"Alicante","country":"Spain"},"geometry":{"type":"Polygon","coordinates":[[[-0.95858,39.153492],[-1.551451,38.74818],[-1.416234,38.115997],[-0.700647,37.891827],[-0.115046,38.294034],[-0.237765,38.923477],[-0.95858,39.153492]]]}},{"type":"Feature","properties":{"hex_id":"833970fffffffff","population":891722,"population_year":2025,"area_km2":12188.8,"population_density":73.2,"all_players":3,"players_per_million":3.36,"player_ids":["padel:women:p200059","padel:women:p200162","padel:women:p200166"],"label":"Zaragoza","country":"Spain"},"geometry":{"type":"Polygon","coordinates":[[[-0.886769,42.071344],[-1.504055,41.677517],[-1.363813,41.046833],[-0.619824,40.812714],[-0.010441,41.203682],[-0.137149,41.831588],[-0.886769,42.071344]]]}},{"type":"Feature","properties":{"hex_id":"833974fffffffff","population":757726,"population_year":2025,"area_km2":12298.2,"population_density":61.6,"all_players":5,"players_per_million":6.6,"player_ids":["padel:men:p000038","padel:men:p101591","padel:women:p000538","padel:women:p201785","padel:women:p203086"],"label":"Pamplona","country":"Spain"},"geometry":{"type":"Polygon","coordinates":[[[-1.792726,42.937258],[-2.417796,42.54048],[-2.266484,41.909354],[-1.504055,41.677517],[-0.886769,42.071344],[-1.024123,42.699916],[-1.792726,42.937258]]]}},{"type":"Feature","properties":{"hex_id":"833f35fffffffff","population":1334139,"population_year":2025,"area_km2":14123.1,"population_density":94.5,"all_players":1,"players_per_million":0.75,"player_ids":["padel:men:p101253"],"label":"Siracusa","country":"Italy"},"geometry":{"type":"Polygon","coordinates":[[[14.686761,37.592381],[14.713278,36.93245],[15.443833,36.628123],[16.155161,36.982086],[16.138622,37.643674],[15.400739,37.949689],[14.686761,37.592381]]]}},{"type":"Feature","properties":{"hex_id":"8344a1fffffffff","population":5763886,"population_year":2025,"area_km2":11010.2,"population_density":523.5,"all_players":1,"players_per_million":0.17,"player_ids":["padel:women:p202287"],"label":"Miami","country":"United States"},"geometry":{"type":"Polygon","coordinates":[[[-79.949065,25.306967],[-79.508022,25.739732],[-79.655984,26.333663],[-80.252477,26.497928],[-80.698565,26.062694],[-80.543111,25.465679],[-79.949065,25.306967]]]}},{"type":"Feature","properties":{"hex_id":"834995fffffffff","population":24440832,"population_year":2025,"area_km2":14280.6,"population_density":1711.5,"all_players":1,"players_per_million":0.04,"player_ids":["padel:women:p200153"],"label":"Ciudad de México","country":"Mexico"},"geometry":{"type":"Polygon","coordinates":[[[-98.549393,18.976465],[-98.122773,19.512595],[-98.392604,20.126692],[-99.095052,20.20349],[-99.521944,19.663326],[-99.246183,19.050422],[-98.549393,18.976465]]]}},{"type":"Feature","properties":{"hex_id":"836526fffffffff","population":1113202,"population_year":2025,"area_km2":14045.3,"population_density":79.3,"all_players":1,"players_per_million":0.9,"player_ids":["padel:women:p200671"],"label":"Singapore","country":"Singapore"},"geometry":{"type":"Polygon","coordinates":[[[104.971657,1.382691],[104.819754,2.022102],[104.185068,2.199103],[103.70324,1.733964],[103.858047,1.093918],[104.491802,0.919624],[104.971657,1.382691]]]}},{"type":"Feature","properties":{"hex_id":"8382d2fffffffff","population":4576418,"population_year":2025,"area_km2":10857.3,"population_density":421.5,"all_players":1,"players_per_million":0.22,"player_ids":["padel:men:p101116"],"label":"Douala","country":"Cameroon"},"geometry":{"type":"Polygon","coordinates":[[[10.254928,4.099556],[10.330435,4.686394],[9.867156,4.989684],[9.330927,4.710126],[9.253768,4.12698],[9.714466,3.819691],[10.254928,4.099556]]]}},{"type":"Feature","properties":{"hex_id":"838934fffffffff","population":206612,"population_year":2025,"area_km2":13900.5,"population_density":14.9,"all_players":1,"players_per_million":4.84,"player_ids":["padel:women:p200038"],"label":"Papeete","country":"French Polynesia"},"geometry":{"type":"Polygon","coordinates":[[[-148.806309,-18.242013],[-148.618153,-17.616393],[-149.099698,-17.137796],[-149.770724,-17.280226],[-149.965601,-17.904664],[-149.482784,-18.38789],[-148.806309,-18.242013]]]}},{"type":"Feature","properties":{"hex_id":"83a90efffffffff","population":2931559,"population_year":2025,"area_km2":10757.4,"population_density":272.5,"all_players":1,"players_per_million":0.34,"player_ids":["padel:men:p000036"],"label":"Bento Gonçalves","country":"Brazil"},"geometry":{"type":"Polygon","coordinates":[[[-50.694112,-29.975751],[-50.327685,-29.525999],[-50.656495,-29.017369],[-51.349222,-28.960207],[-51.714121,-29.410621],[-51.387869,-29.917536],[-50.694112,-29.975751]]]}},{"type":"Feature","properties":{"hex_id":"83a92efffffffff","population":619976,"population_year":2025,"area_km2":10059.1,"population_density":61.6,"all_players":1,"players_per_million":1.61,"player_ids":["padel:women:p000462"],"label":"Pelotas","country":"Brazil"},"geometry":{"type":"Polygon","coordinates":[[[-51.832143,-32.212768],[-51.465531,-31.786712],[-51.792678,-31.293963],[-52.483691,-31.228952],[-52.848517,-31.655671],[-52.524161,-32.146738],[-51.832143,-32.212768]]]}},{"type":"Feature","properties":{"hex_id":"83a946fffffffff","population":749389,"population_year":2025,"area_km2":10691.6,"population_density":70.1,"all_players":1,"players_per_million":1.33,"player_ids":["padel:men:p101159"],"label":"Posadas Misiones","country":"Argentina"},"geometry":{"type":"Polygon","coordinates":[[[-55.754272,-28.029619],[-55.397042,-27.584842],[-55.709643,-27.059495],[-56.376114,-26.981244],[-56.730812,-27.426556],[-56.421608,-27.949588],[-55.754272,-28.029619]]]}},{"type":"Feature","properties":{"hex_id":"83a96efffffffff","population":935538,"population_year":2025,"area_km2":10234.0,"population_density":91.4,"all_players":1,"players_per_million":1.07,"player_ids":["padel:women:p200007"],"label":"Resistencia","country":"Argentina"},"geometry":{"type":"Polygon","coordinates":[[[-58.749163,-28.123207],[-58.39911,-27.6928],[-58.700755,-27.168645],[-59.348681,-27.077517],[-59.695692,-27.508461],[-59.397849,-28.030002],[-58.749163,-28.123207]]]}},{"type":"Feature","properties":{"hex_id":"83a975fffffffff","population":121213,"population_year":2025,"area_km2":10218.8,"population_density":11.9,"all_players":1,"players_per_million":8.25,"player_ids":["padel:men:p000015"],"label":"Alegrete","country":"Brazil"},"geometry":{"type":"Polygon","coordinates":[[[-55.843934,-29.926614],[-55.485684,-29.497973],[-55.799035,-28.985393],[-56.467239,-28.903672],[-56.822922,-29.332923],[-56.513005,-29.843289],[-55.843934,-29.926614]]]}},{"type":"Feature","properties":{"hex_id":"83b243fffffffff","population":2241166,"population_year":2025,"area_km2":10249.3,"population_density":218.7,"all_players":3,"players_per_million":1.34,"player_ids":["padel:men:p000008","padel:men:p000062","padel:women:p000484"],"label":"Córdoba","country":"Argentina"},"geometry":{"type":"Polygon","coordinates":[[[-64.339469,-30.742004],[-64.703774,-31.253366],[-64.402296,-31.723186],[-63.7387,-31.680908],[-63.379667,-31.171639],[-63.678922,-30.702564],[-64.339469,-30.742004]]]}},{"type":"Feature","properties":{"hex_id":"83b258fffffffff","population":88913,"population_year":2025,"area_km2":10113.5,"population_density":8.8,"all_players":1,"players_per_million":11.25,"player_ids":["padel:men:p000107"],"label":"Concaran San Luis","country":"Argentina"},"geometry":{"type":"Polygon","coordinates":[[[-65.441203,-32.26861],[-65.814336,-32.772239],[-65.509524,-33.235142],[-64.8336,-33.193815],[-64.465659,-32.69212],[-64.76841,-32.229827],[-65.441203,-32.26861]]]}},{"type":"Feature","properties":{"hex_id":"83b259fffffffff","population":252176,"population_year":2025,"area_km2":9865.2,"population_density":25.6,"all_players":1,"players_per_million":3.97,"player_ids":["padel:men:p201729"],"label":"General Cabrera","country":"Argentina"},"geometry":{"type":"Polygon","coordinates":[[[-64.465659,-32.69212],[-64.8336,-33.193815],[-64.529566,-33.648488],[-63.859791,-33.600899],[-63.49719,-33.101224],[-63.798987,-32.647126],[-64.465659,-32.69212]]]}},{"type":"Feature","properties":{"hex_id":"83b25afffffffff","population":269561,"population_year":2025,"area_km2":10158.4,"population_density":26.5,"all_players":2,"players_per_million":7.42,"player_ids":["padel:men:p000028","padel:men:p000291"],"label":"San Luis","country":"Argentina"},"geometry":{"type":"Polygon","coordinates":[[[-66.49608,-32.807192],[-66.876151,-33.307427],[-66.569458,-33.770896],[-65.884533,-33.733573],[-65.509524,-33.235142],[-65.814336,-32.772239],[-66.49608,-32.807192]]]}},{"type":"Feature","properties":{"hex_id":"83b25bfffffffff","population":169784,"population_year":2025,"area_km2":9913.0,"population_density":17.1,"all_players":2,"players_per_million":11.78,"player_ids":["padel:men:p000013","padel:men:p101158"],"label":"Villa Mercedes","country":"Argentina"},"geometry":{"type":"Polygon","coordinates":[[[-65.509524,-33.235142],[-65.884533,-33.733573],[-65.578433,-34.18878],[-64.899351,-34.14503],[-64.529566,-33.648488],[-64.8336,-33.193815],[-65.509524,-33.235142]]]}},{"type":"Feature","properties":{"hex_id":"83b26dfffffffff","population":165083,"population_year":2025,"area_km2":9914.9,"population_density":16.6,"all_players":1,"players_per_million":6.06,"player_ids":["padel:men:p000128"],"label":"Malabrigo","country":"Argentina"},"geometry":{"type":"Polygon","coordinates":[[[-60.367493,-28.502412],[-60.703491,-29.020908],[-60.411768,-29.487415],[-59.786784,-29.434466],[-59.621198,-29.176669],[-59.447157,-28.968555],[-59.7453,-28.452967],[-60.367493,-28.502412]]]}},{"type":"Feature","properties":{"hex_id":"83b270fffffffff","population":285986,"population_year":2025,"area_km2":11131.6,"population_density":25.7,"all_players":1,"players_per_million":3.5,"player_ids":["padel:men:p000285"],"label":"Catamarca","country":"Argentina"},"geometry":{"type":"Polygon","coordinates":[[[-66.138411,-27.801849],[-66.509133,-28.325865],[-66.20874,-28.826561],[-65.539455,-28.802239],[-65.173652,-28.280148],[-65.472175,-27.780464],[-66.138411,-27.801849]]]}},{"type":"Feature","properties":{"hex_id":"83b2c5fffffffff","population":7706249,"population_year":2025,"area_km2":10691.6,"population_density":720.8,"all_players":1,"players_per_million":0.13,"player_ids":["padel:men:p000045"],"label":"Santiago de Chile","country":"Chile"},"geometry":{"type":"Polygon","coordinates":[[[-70.680815,-32.940387],[-71.083294,-33.435542],[-70.773643,-33.916601],[-70.062513,-33.902016],[-69.664357,-33.408238],[-69.972956,-32.927676],[-70.680815,-32.940387]]]}},{"type":"Feature","properties":{"hex_id":"83b35efffffffff","population":782803,"population_year":2025,"area_km2":11640.2,"population_density":67.2,"all_players":1,"players_per_million":1.28,"player_ids":["padel:men:p203884"],"label":"Salta","country":"Argentina"},"geometry":{"type":"Polygon","coordinates":[[[-65.930919,-24.664263],[-66.296233,-25.199133],[-65.999507,-25.720165],[-65.339294,-25.704972],[-64.978816,-25.171988],[-65.273679,-24.652318],[-65.930919,-24.664263]]]}},{"type":"Feature","properties":{"hex_id":"83c203fffffffff","population":691818,"population_year":2025,"area_km2":7725.5,"population_density":89.5,"all_players":2,"players_per_million":2.89,"player_ids":["padel:men:p000080","padel:men:p000097"],"label":"Mar del Plata","country":"Argentina"},"geometry":{"type":"Polygon","coordinates":[[[-57.33946,-38.763897],[-56.978292,-38.422884],[-57.291796,-37.980681],[-57.962724,-37.880975],[-58.295648,-38.352175],[-57.99771,-38.728564],[-57.787802,-38.697249],[-57.33946,-38.763897]]]}},{"type":"Feature","properties":{"hex_id":"83c2cdfffffffff","population":497295,"population_year":2025,"area_km2":9415.5,"population_density":52.8,"all_players":1,"players_per_million":2.01,"player_ids":["padel:women:p200013"],"label":"Parana","country":"Argentina"},"geometry":{"type":"Polygon","coordinates":[[[-60.501438,-31.424731],[-60.842284,-31.931555],[-60.546841,-32.376319],[-59.913334,-32.31362],[-59.578161,-31.809268],[-59.870796,-31.365154],[-60.501438,-31.424731]]]}},{"type":"Feature","properties":{"hex_id":"83c2e3fffffffff","population":14955631,"population_year":2025,"area_km2":8646.0,"population_density":1729.8,"all_players":8,"players_per_million":0.53,"player_ids":["padel:men:p000004","padel:men:p000007","padel:men:p000014","padel:men:p000026","padel:men:p100957","padel:men:p101157","padel:men:p202744","padel:women:p200005"],"label":"Buenos Aires","country":"Argentina"},"geometry":{"type":"Polygon","coordinates":[[[-58.126426,-34.977792],[-57.770125,-34.604602],[-58.07815,-34.129709],[-58.738685,-34.029993],[-59.071246,-34.523027],[-58.77656,-34.937002],[-58.567821,-34.91082],[-58.126426,-34.977792]]]}},{"type":"Feature","properties":{"hex_id":"83c2ecfffffffff","population":213851,"population_year":2025,"area_km2":8885.6,"population_density":24.1,"all_players":1,"players_per_million":4.68,"player_ids":["padel:men:p001511"],"label":"Chacabuco","country":"Argentina"},"geometry":{"type":"Polygon","coordinates":[[[-60.638811,-34.243789],[-60.984642,-34.736914],[-60.685386,-35.159145],[-60.04313,-35.087873],[-59.703097,-34.597086],[-59.999496,-34.175242],[-60.638811,-34.243789]]]}},{"type":"Feature","properties":{"hex_id":"83c350fffffffff","population":374583,"population_year":2025,"area_km2":8441.3,"population_density":44.4,"all_players":1,"players_per_million":2.67,"player_ids":["padel:men:p000391"],"label":"Bahía Blanca","country":"Argentina"},"geometry":{"type":"Polygon","coordinates":[[[-62.816892,-38.046353],[-63.06065,-38.360526],[-63.10695,-38.529825],[-62.643086,-38.956683],[-62.046138,-38.870939],[-61.961768,-38.533389],[-61.841997,-38.376751],[-62.147932,-37.977212],[-62.816892,-38.046353]]]}},{"type":"Feature","properties":{"hex_id":"83c35afffffffff","population":75723,"population_year":2025,"area_km2":8521.8,"population_density":8.9,"all_players":1,"players_per_million":13.21,"player_ids":["padel:men:p100879"],"label":"Olavarría","country":"Argentina"},"geometry":{"type":"Polygon","coordinates":[[[-60.732362,-36.061951],[-61.081595,-36.545032],[-60.779744,-36.952023],[-60.131524,-36.875693],[-59.788176,-36.394827],[-60.087137,-35.988084],[-60.732362,-36.061951]]]}},{"type":"Feature","properties":{"hex_id":"83c35cfffffffff","population":40083,"population_year":2025,"area_km2":8798.2,"population_density":4.6,"all_players":1,"players_per_million":24.95,"player_ids":["padel:men:p100983"],"label":"Deaireaux","country":"Argentina"},"geometry":{"type":"Polygon","coordinates":[[[-62.703185,-36.265389],[-63.065681,-36.747295],[-62.759792,-37.162506],[-62.093973,-37.095529],[-61.737189,-36.615624],[-62.040479,-36.200702],[-62.703185,-36.265389]]]}},{"type":"Feature","properties":{"hex_id":"83ce83fffffffff","population":60526,"population_year":2025,"area_km2":10356.9,"population_density":5.8,"all_players":1,"players_per_million":16.52,"player_ids":["padel:men:p000116"],"label":"San Martín de los Andes","country":"Argentina"},"geometry":{"type":"Polygon","coordinates":[[[-70.659211,-40.316101],[-70.420663,-39.781852],[-70.87692,-39.297776],[-71.573716,-39.340814],[-71.825333,-39.874026],[-71.36719,-40.365302],[-70.659211,-40.316101]]]}},{"type":"Feature","properties":{"hex_id":"83ce91fffffffff","population":7634,"population_year":2025,"area_km2":9922.7,"population_density":0.8,"all_players":1,"players_per_million":130.99,"player_ids":["padel:women:p000432"],"label":"Picún Leufu","country":"Argentina"},"geometry":{"type":"Polygon","coordinates":[[[-68.581756,-40.146316],[-68.370645,-39.616382],[-68.83112,-39.147045],[-69.505547,-39.200763],[-69.729651,-39.730191],[-69.266418,-40.206471],[-68.581756,-40.146316]]]}}]}