{"type":"FeatureCollection","metadata":{"population_source":"WorldPop Global 2 R2025A","population_source_url":"https://hub.worldpop.org/project/categories?id=3","population_license":"CC BY 4.0","population_year":2025,"raster_resolution":"1km","h3_resolution":3,"population_method":"official_country_rasters","occupied_cells":135,"mapped_players":199},"features":[{"type":"Feature","properties":{"hex_id":"830999fffffffff","population":1719569,"population_year":2025,"area_km2":8885.6,"population_density":193.5,"all_players":1,"players_per_million":0.58,"player_ids":["tennis:atp:134770"],"label":"Oslo","country":"Norway"},"geometry":{"type":"Polygon","coordinates":[[[9.350687,59.952276],[9.435996,59.466549],[10.432407,59.303039],[11.359873,59.622978],[11.292042,60.110099],[10.279089,60.275949],[9.350687,59.952276]]]}},{"type":"Feature","properties":{"hex_id":"830b9afffffffff","population":1391021,"population_year":2025,"area_km2":13220.0,"population_density":105.2,"all_players":1,"players_per_million":0.72,"player_ids":["tennis:wta:259799"],"label":"Krasnoyarsk","country":"Russia"},"geometry":{"type":"Polygon","coordinates":[[[91.234233,56.15432],[91.481214,55.515098],[92.547693,55.294858],[93.387021,55.707268],[93.169926,56.346531],[92.083414,56.573462],[91.234233,56.15432]]]}},{"type":"Feature","properties":{"hex_id":"831081fffffffff","population":2290644,"population_year":2025,"area_km2":13361.1,"population_density":171.4,"all_players":3,"players_per_million":1.31,"player_ids":["tennis:wta:201499","tennis:wta:214082","tennis:wta:223670"],"label":"Zhigulyovsk","country":"Russia"},"geometry":{"type":"Polygon","coordinates":[[[49.181376,53.396763],[49.90654,52.931103],[50.939936,53.088444],[51.269287,53.717269],[50.540162,54.190111],[49.485347,54.026852],[49.181376,53.396763]]]}},{"type":"Feature","properties":{"hex_id":"8310a6fffffffff","population":182943,"population_year":2025,"area_km2":12564.6,"population_density":14.6,"all_players":1,"players_per_million":5.47,"player_ids":["tennis:wta:221407"],"label":"Kamenka","country":"Russia"},"geometry":{"type":"Polygon","coordinates":[[[42.70554,53.301873],[43.461053,52.88535],[44.427308,53.093294],[44.654463,53.724805],[43.889329,54.147507],[42.906533,53.93242],[42.70554,53.301873]]]}},{"type":"Feature","properties":{"hex_id":"8310a8fffffffff","population":1870026,"population_year":2025,"area_km2":13096.6,"population_density":142.8,"all_players":1,"players_per_million":0.53,"player_ids":["tennis:wta:206368"],"label":"Kazan","country":"Russia"},"geometry":{"type":"Polygon","coordinates":[[[48.277284,55.56508],[49.044225,55.114208],[50.121233,55.283467],[50.453977,55.909579],[49.681787,56.367641],[48.581781,56.192297],[48.277284,55.56508]]]}},{"type":"Feature","properties":{"hex_id":"8310b3fffffffff","population":1400423,"population_year":2025,"area_km2":13012.9,"population_density":107.6,"all_players":1,"players_per_million":0.71,"player_ids":["tennis:wta:215713"],"label":"Saratov","country":"Russia"},"geometry":{"type":"Polygon","coordinates":[[[45.436487,50.959432],[46.144064,50.514189],[47.090495,50.695078],[47.346013,51.327847],[46.631767,51.779703],[45.668502,51.592085],[45.436487,50.959432]]]}},{"type":"Feature","properties":{"hex_id":"8310defffffffff","population":1693452,"population_year":2025,"area_km2":14123.1,"population_density":119.9,"all_players":1,"players_per_million":0.59,"player_ids":["tennis:wta:206420"],"label":"Chelyabinsk","country":"Russia"},"geometry":{"type":"Polygon","coordinates":[[[60.569802,55.241911],[61.229857,54.705431],[62.380124,54.7646],[62.899034,55.362812],[62.246931,55.906882],[61.067375,55.845102],[60.569802,55.241911]]]}},{"type":"Feature","properties":{"hex_id":"831106fffffffff","population":7002204,"population_year":2025,"area_km2":10356.9,"population_density":676.1,"all_players":1,"players_per_million":0.14,"player_ids":["tennis:atp:122330"],"label":"Gatchina","country":"Russia"},"geometry":{"type":"Polygon","coordinates":[[[29.391621,59.467399],[30.297301,59.186368],[31.223468,59.500836],[31.251638,60.104067],[30.321815,60.388128],[29.388249,60.065836],[29.391621,59.467399]]]}},{"type":"Feature","properties":{"hex_id":"831160fffffffff","population":101529,"population_year":2025,"area_km2":10010.0,"population_density":10.1,"all_players":1,"players_per_million":9.85,"player_ids":["tennis:wta:214643"],"label":"Olenegorsk","country":"Russia"},"geometry":{"type":"Polygon","coordinates":[[[32.915793,67.530251],[34.086053,67.26509],[35.367589,67.571878],[35.499134,68.15205],[34.292336,68.42287],[32.990888,68.107661],[32.915793,67.530251]]]}},{"type":"Feature","properties":{"hex_id":"83118cfffffffff","population":2149379,"population_year":2025,"area_km2":11792.7,"population_density":182.3,"all_players":1,"players_per_million":0.47,"player_ids":["tennis:wta:219875"],"label":"Zhukovsky","country":"Russia"},"geometry":{"type":"Polygon","coordinates":[[[37.971643,55.638414],[38.783921,55.268956],[39.744738,55.517589],[39.9074,56.143226],[39.080519,56.517902],[38.10557,56.261621],[37.971643,55.638414]]]}},{"type":"Feature","properties":{"hex_id":"8311aafffffffff","population":17642956,"population_year":2025,"area_km2":11534.2,"population_density":1529.6,"all_players":9,"players_per_million":0.51,"player_ids":["tennis:atp:106421","tennis:atp:111575","tennis:atp:126094","tennis:wta:201709","tennis:wta:213550","tennis:wta:214939","tennis:wta:214981","tennis:wta:215020","tennis:wta:221236"],"label":"Moscow","country":"Russia"},"geometry":{"type":"Polygon","coordinates":[[[36.214968,55.732318],[37.032624,55.377596],[37.971643,55.638414],[38.10557,56.261621],[37.271969,56.621119],[36.320428,56.352535],[36.214968,55.732318]]]}},{"type":"Feature","properties":{"hex_id":"83185bfffffffff","population":755918,"population_year":2025,"area_km2":12945.1,"population_density":58.4,"all_players":1,"players_per_million":1.32,"player_ids":["tennis:atp:105807"],"label":"Gijón","country":"Spain"},"geometry":{"type":"Polygon","coordinates":[[[-6.626676,44.274787],[-7.25963,43.849202],[-7.054985,43.215758],[-6.231988,43.009176],[-5.605093,43.431163],[-5.795078,44.06328],[-6.626676,44.274787]]]}},{"type":"Feature","properties":{"hex_id":"831942fffffffff","population":7293042,"population_year":2025,"area_km2":10924.8,"population_density":667.6,"all_players":1,"players_per_million":0.14,"player_ids":["tennis:wta:215936"],"label":"Mapped area","country":"United Kingdom"},"geometry":{"type":"Polygon","coordinates":[[[-1.609057,54.177066],[-2.359345,53.842543],[-2.178886,53.251551],[-1.268165,52.996914],[-0.529171,53.3287],[-0.689598,53.917795],[-1.609057,54.177066]]]}},{"type":"Feature","properties":{"hex_id":"831943fffffffff","population":3138363,"population_year":2025,"area_km2":10924.8,"population_density":287.3,"all_players":1,"players_per_million":0.32,"player_ids":["tennis:wta:211107"],"label":"Leicester","country":"United Kingdom"},"geometry":{"type":"Polygon","coordinates":[[[-0.529171,53.3287],[-1.268165,52.996914],[-1.103494,52.402317],[-0.219137,52.141681],[0.508374,52.470966],[0.362999,53.063327],[-0.529171,53.3287]]]}},{"type":"Feature","properties":{"hex_id":"831948fffffffff","population":1353290,"population_year":2025,"area_km2":10891.0,"population_density":124.3,"all_players":1,"players_per_million":0.74,"player_ids":["tennis:atp:209279"],"label":"Saint-Martin-Boulogne","country":"France"},"geometry":{"type":"Polygon","coordinates":[[[1.505381,51.605101],[0.789471,51.278095],[0.925401,50.677831],[1.759362,50.407376],[2.463609,50.732311],[2.345517,51.329719],[1.505381,51.605101]]]}},{"type":"Feature","properties":{"hex_id":"83194afffffffff","population":6871941,"population_year":2025,"area_km2":11131.6,"population_density":617.3,"all_players":2,"players_per_million":0.29,"player_ids":["tennis:atp:207733","tennis:wta:222661"],"label":"London","country":"United Kingdom"},"geometry":{"type":"Polygon","coordinates":[[[-0.069294,51.543996],[-0.785076,51.204689],[-0.631095,50.601911],[0.220599,50.340898],[0.925401,50.677831],[0.789471,51.278095],[-0.069294,51.543996]]]}},{"type":"Feature","properties":{"hex_id":"831968fffffffff","population":1217337,"population_year":2025,"area_km2":10260.8,"population_density":118.6,"all_players":2,"players_per_million":1.64,"player_ids":["tennis:atp:134868","tennis:atp:207411"],"label":"Haarlem","country":"Netherlands"},"geometry":{"type":"Polygon","coordinates":[[[4.302502,53.422988],[3.565733,53.128505],[3.67324,52.541669],[4.225481,52.349359],[4.515848,52.296999],[5.280448,52.68056],[5.171662,53.221433],[4.58117,53.325469],[4.302502,53.422988]]]}},{"type":"Feature","properties":{"hex_id":"831969fffffffff","population":7268023,"population_year":2025,"area_km2":10482.3,"population_density":693.4,"all_players":2,"players_per_million":0.28,"player_ids":["tennis:atp:122298","tennis:wta:215480"],"label":"Wageningen","country":"Netherlands"},"geometry":{"type":"Polygon","coordinates":[[[4.515848,52.296999],[4.628032,51.750066],[5.492877,51.584097],[6.259687,51.96477],[6.159603,52.514255],[5.280448,52.68056],[4.515848,52.296999]]]}},{"type":"Feature","properties":{"hex_id":"831972fffffffff","population":1944595,"population_year":2025,"area_km2":10648.1,"population_density":182.6,"all_players":1,"players_per_million":0.51,"player_ids":["tennis:atp:207985"],"label":"Edinburgh","country":"United Kingdom"},"geometry":{"type":"Polygon","coordinates":[[[-3.328181,56.747182],[-4.115017,56.416836],[-3.903181,55.840606],[-2.926718,55.595835],[-2.151313,55.922966],[-2.340901,56.498009],[-3.328181,56.747182]]]}},{"type":"Feature","properties":{"hex_id":"831e02fffffffff","population":1856223,"population_year":2025,"area_km2":12374.3,"population_density":150.0,"all_players":1,"players_per_million":0.54,"player_ids":["tennis:wta:211685"],"label":"Bratislava","country":"Slovakia"},"geometry":{"type":"Polygon","coordinates":[[[16.651518,48.117989],[16.6662,47.515042],[17.489488,47.234679],[18.306518,47.555293],[18.304795,48.159109],[17.473049,48.4415],[16.651518,48.117989]]]}},{"type":"Feature","properties":{"hex_id":"831e03fffffffff","population":3409653,"population_year":2025,"area_km2":12423.2,"population_density":274.5,"all_players":1,"players_per_million":0.29,"player_ids":["tennis:atp:206681"],"label":"Budapest","country":"Hungary"},"geometry":{"type":"Polygon","coordinates":[[[18.304795,48.159109],[18.306518,47.555293],[19.12677,47.262899],[19.952961,47.57214],[19.964297,48.176504],[19.136367,48.471139],[18.304795,48.159109]]]}},{"type":"Feature","properties":{"hex_id":"831e04fffffffff","population":1817549,"population_year":2025,"area_km2":11948.5,"population_density":152.1,"all_players":4,"players_per_million":2.2,"player_ids":["tennis:atp:207494","tennis:atp:210150","tennis:wta:214096","tennis:wta:222328"],"label":"Prostějov","country":"Czech Republic"},"geometry":{"type":"Polygon","coordinates":[[[16.606047,49.899182],[16.621447,49.310134],[17.464633,49.038043],[18.301266,49.352938],[18.299459,49.942801],[17.447388,50.217015],[16.606047,49.899182]]]}},{"type":"Feature","properties":{"hex_id":"831e06fffffffff","population":2442016,"population_year":2025,"area_km2":12134.7,"population_density":201.2,"all_players":2,"players_per_million":0.82,"player_ids":["tennis:wta:206252","tennis:wta:239383"],"label":"Brno","country":"Czech Republic"},"geometry":{"type":"Polygon","coordinates":[[[15.795773,48.983666],[15.817384,48.388123],[16.651518,48.117989],[17.473049,48.4415],[17.464633,49.038043],[16.621447,49.310134],[15.795773,48.983666]]]}},{"type":"Feature","properties":{"hex_id":"831e08fffffffff","population":1111521,"population_year":2025,"area_km2":12479.4,"population_density":89.1,"all_players":1,"players_per_million":0.9,"player_ids":["tennis:atp:105916"],"label":"Nyíregyháza","country":"Hungary"},"geometry":{"type":"Polygon","coordinates":[[[21.627265,48.169971],[21.602834,47.565383],[22.4129,47.24913],[23.253408,47.534933],[23.290904,48.139417],[22.474847,48.458263],[21.627265,48.169971]]]}},{"type":"Feature","properties":{"hex_id":"831e0afffffffff","population":1008795,"population_year":2025,"area_km2":12679.7,"population_density":79.6,"all_players":1,"players_per_million":0.99,"player_ids":["tennis:wta:214388"],"label":"Szeghalom","country":"Hungary"},"geometry":{"type":"Polygon","coordinates":[[[20.768802,47.267764],[20.751334,46.65651],[21.555106,46.342738],[22.382649,46.637799],[22.4129,47.24913],[21.602834,47.565383],[20.768802,47.267764]]]}},{"type":"Feature","properties":{"hex_id":"831e10fffffffff","population":1516552,"population_year":2025,"area_km2":12479.4,"population_density":121.5,"all_players":1,"players_per_million":0.66,"player_ids":["tennis:atp:209209"],"label":"Graz","country":"Austria"},"geometry":{"type":"Polygon","coordinates":[[[14.239654,47.109297],[14.272671,46.501617],[15.088333,46.234909],[15.880209,46.574304],[15.859594,47.183359],[15.034644,47.451699],[14.239654,47.109297]]]}},{"type":"Feature","properties":{"hex_id":"831e12fffffffff","population":1600283,"population_year":2025,"area_km2":12636.3,"population_density":126.6,"all_players":1,"players_per_million":0.62,"player_ids":["tennis:wta:215219"],"label":"Ljubljana","country":"Slovenia"},"geometry":{"type":"Polygon","coordinates":[[[13.492667,46.151948],[13.53091,45.538666],[14.337206,45.273432],[15.114564,45.62006],[15.088333,46.234909],[14.272671,46.501617],[13.492667,46.151948]]]}},{"type":"Feature","properties":{"hex_id":"831e13fffffffff","population":1925428,"population_year":2025,"area_km2":12716.0,"population_density":151.4,"all_players":2,"players_per_million":1.04,"player_ids":["tennis:wta:201548","tennis:wta:222045"],"label":"Orehovica","country":"Croatia"},"geometry":{"type":"Polygon","coordinates":[[[15.088333,46.234909],[15.114564,45.62006],[15.920499,45.343301],[16.708897,45.679719],[16.694884,46.295817],[15.880209,46.574304],[15.088333,46.234909]]]}},{"type":"Feature","properties":{"hex_id":"831e19fffffffff","population":1241784,"population_year":2025,"area_km2":12870.5,"population_density":96.5,"all_players":1,"players_per_million":0.81,"player_ids":["tennis:atp:111513"],"label":"Senta","country":"Serbia"},"geometry":{"type":"Polygon","coordinates":[[[19.930814,46.349978],[19.919997,45.732363],[20.717203,45.42096],[21.531792,45.724863],[21.555106,46.342738],[20.751334,46.65651],[19.930814,46.349978]]]}},{"type":"Feature","properties":{"hex_id":"831e1afffffffff","population":1014076,"population_year":2025,"area_km2":13005.4,"population_density":78.0,"all_players":1,"players_per_million":0.99,"player_ids":["tennis:wta:202499"],"label":"Osijek","country":"Croatia"},"geometry":{"type":"Polygon","coordinates":[[[17.513204,45.391389],[17.520869,44.768523],[18.31474,44.47068],[19.10845,44.793707],[19.112925,45.417356],[18.311527,45.717251],[17.513204,45.391389]]]}},{"type":"Feature","properties":{"hex_id":"831e1bfffffffff","population":2841412,"population_year":2025,"area_km2":13050.9,"population_density":217.7,"all_players":3,"players_per_million":1.06,"player_ids":["tennis:atp:104925","tennis:atp:200175","tennis:wta:215337"],"label":"Belgrade","country":"Serbia"},"geometry":{"type":"Polygon","coordinates":[[[19.112925,45.417356],[19.10845,44.793707],[19.898853,44.48456],[20.700526,44.796864],[20.717203,45.42096],[19.919997,45.732363],[19.112925,45.417356]]]}},{"type":"Feature","properties":{"hex_id":"831e1cfffffffff","population":972881,"population_year":2025,"area_km2":12607.6,"population_density":77.2,"all_players":1,"players_per_million":1.03,"player_ids":["tennis:wta:213646"],"label":"Veszprém","country":"Hungary"},"geometry":{"type":"Polygon","coordinates":[[[17.489488,47.234679],[17.497516,46.624566],[18.309883,46.334273],[19.122083,46.652051],[19.12677,47.262899],[18.306518,47.555293],[17.489488,47.234679]]]}},{"type":"Feature","properties":{"hex_id":"831e20fffffffff","population":1862322,"population_year":2025,"area_km2":11509.5,"population_density":161.8,"all_players":1,"players_per_million":0.54,"player_ids":["tennis:atp:128034"],"label":"Wrocław","country":"Poland"},"geometry":{"type":"Polygon","coordinates":[[[16.558313,51.637437],[16.574486,51.062894],[17.438554,50.79931],[18.295755,51.108086],[18.293856,51.683389],[17.420443,51.949219],[16.558313,51.637437]]]}},{"type":"Feature","properties":{"hex_id":"831e21fffffffff","population":1933723,"population_year":2025,"area_km2":11552.8,"population_density":167.4,"all_players":2,"players_per_million":1.03,"player_ids":["tennis:atp:111794","tennis:wta:211684"],"label":"Piotrków Trybunalski","country":"Poland"},"geometry":{"type":"Polygon","coordinates":[[[18.293856,51.683389],[18.295755,51.108086],[19.156508,50.831582],[20.023789,51.127987],[20.036282,51.703743],[19.167084,51.982705],[18.293856,51.683389]]]}},{"type":"Feature","properties":{"hex_id":"831e22fffffffff","population":1379775,"population_year":2025,"area_km2":11703.3,"population_density":117.9,"all_players":1,"players_per_million":0.72,"player_ids":["tennis:wta:211701"],"label":"Hradec Králové","country":"Czech Republic"},"geometry":{"type":"Polygon","coordinates":[[[15.728823,50.742054],[15.751501,50.160699],[16.606047,49.899182],[17.447388,50.217015],[17.438554,50.79931],[16.574486,51.062894],[15.728823,50.742054]]]}},{"type":"Feature","properties":{"hex_id":"831e24fffffffff","population":1792401,"population_year":2025,"area_km2":11261.2,"population_density":159.2,"all_players":1,"players_per_million":0.56,"player_ids":["tennis:wta:202663"],"label":"Poznań","country":"Poland"},"geometry":{"type":"Polygon","coordinates":[[[15.658506,52.45677],[15.682335,51.890142],[16.558313,51.637437],[17.420443,51.949219],[17.411159,52.516728],[16.525149,52.771637],[15.658506,52.45677]]]}},{"type":"Feature","properties":{"hex_id":"831e30fffffffff","population":1145888,"population_year":2025,"area_km2":11818.4,"population_density":97.0,"all_players":1,"players_per_million":0.87,"player_ids":["tennis:atp:207830"],"label":"Beroun","country":"Czech Republic"},"geometry":{"type":"Polygon","coordinates":[[[13.250346,49.739353],[13.292336,49.152852],[14.137456,48.90561],[14.950892,49.243294],[14.922075,49.831219],[14.066577,50.080093],[13.250346,49.739353]]]}},{"type":"Feature","properties":{"hex_id":"831e34fffffffff","population":1255753,"population_year":2025,"area_km2":11565.2,"population_density":108.6,"all_players":1,"players_per_million":0.8,"player_ids":["tennis:wta:214954"],"label":"Sokolov","country":"Czech Republic"},"geometry":{"type":"Polygon","coordinates":[[[12.345747,50.554275],[12.39539,49.975696],[13.250346,49.739353],[14.066577,50.080093],[14.030273,50.660207],[13.164316,50.898103],[12.345747,50.554275]]]}},{"type":"Feature","properties":{"hex_id":"831e35fffffffff","population":2996250,"population_year":2025,"area_km2":11640.2,"population_density":257.4,"all_players":3,"players_per_million":1.0,"player_ids":["tennis:atp:208103","tennis:wta:213631","tennis:wta:238184"],"label":"Prague","country":"Czech Republic"},"geometry":{"type":"Polygon","coordinates":[[[14.030273,50.660207],[14.066577,50.080093],[14.922075,49.831219],[15.751501,50.160699],[15.728823,50.742054],[14.863027,50.992748],[14.030273,50.660207]]]}},{"type":"Feature","properties":{"hex_id":"831e42fffffffff","population":1129115,"population_year":2025,"area_km2":12423.2,"population_density":90.9,"all_players":1,"players_per_million":0.89,"player_ids":["tennis:wta:213710"],"label":"Chișinău","country":"Moldova"},"geometry":{"type":"Polygon","coordinates":[[[28.257962,47.904438],[28.182097,47.302194],[28.956125,46.940583],[29.808444,47.178299],[29.896618,47.779169],[29.120247,48.143752],[28.257962,47.904438]]]}},{"type":"Feature","properties":{"hex_id":"831e5dfffffffff","population":1087315,"population_year":2025,"area_km2":12550.3,"population_density":86.6,"all_players":2,"players_per_million":1.84,"player_ids":["tennis:wta:202494","tennis:wta:215035"],"label":"Odesa","country":"Ukraine"},"geometry":{"type":"Polygon","coordinates":[[[30.570508,46.806148],[30.478426,46.199311],[31.22646,45.820028],[32.067709,46.044636],[32.17134,46.64964],[31.422272,47.03192],[30.570508,46.806148]]]}},{"type":"Feature","properties":{"hex_id":"831e63fffffffff","population":3667328,"population_year":2025,"area_km2":11754.3,"population_density":312.0,"all_players":2,"players_per_million":0.55,"player_ids":["tennis:wta:216146","tennis:wta:220332"],"label":"Kyiv","country":"Ukraine"},"geometry":{"type":"Polygon","coordinates":[[[29.464293,50.49356],[29.376228,49.913355],[30.169488,49.553741],[31.052695,49.771325],[31.153726,50.350024],[30.358689,50.712701],[29.464293,50.49356]]]}},{"type":"Feature","properties":{"hex_id":"831e80fffffffff","population":4856406,"population_year":2025,"area_km2":13258.9,"population_density":366.3,"all_players":1,"players_per_million":0.21,"player_ids":["tennis:atp:126610"],"label":"Rome","country":"Italy"},"geometry":{"type":"Polygon","coordinates":[[[12.199341,42.319259],[12.245097,41.684753],[13.015322,41.413495],[13.748722,41.775618],[13.713746,42.412148],[12.934527,42.684579],[12.199341,42.319259]]]}},{"type":"Feature","properties":{"hex_id":"831ea2fffffffff","population":2390766,"population_year":2025,"area_km2":12803.9,"population_density":186.7,"all_players":1,"players_per_million":0.42,"player_ids":["tennis:atp:207925"],"label":"Florence","country":"Italy"},"geometry":{"type":"Polygon","coordinates":[[[10.524864,44.082048],[10.583646,43.46084],[11.369193,43.208977],[12.105806,43.577473],[12.057997,44.200939],[11.262523,44.453696],[10.524864,44.082048]]]}},{"type":"Feature","properties":{"hex_id":"831ea3fffffffff","population":1273055,"population_year":2025,"area_km2":12915.2,"population_density":98.6,"all_players":2,"players_per_million":1.57,"player_ids":["tennis:atp:208134","tennis:wta:220714"],"label":"Pesaro","country":"Italy"},"geometry":{"type":"Polygon","coordinates":[[[12.057997,44.200939],[12.105806,43.577473],[12.893237,43.314735],[13.642239,43.674337],[13.605684,44.299755],[12.808805,44.563667],[12.057997,44.200939]]]}},{"type":"Feature","properties":{"hex_id":"831ea6fffffffff","population":2293027,"population_year":2025,"area_km2":12564.6,"population_density":182.5,"all_players":1,"players_per_million":0.44,"player_ids":["tennis:wta:211148"],"label":"Castelnuovo di Garfagnana","country":"Italy"},"geometry":{"type":"Polygon","coordinates":[[[9.666362,44.937924],[9.731941,44.323805],[10.524864,44.082048],[11.262523,44.453696],[11.207993,45.07018],[10.404667,45.312696],[9.666362,44.937924]]]}},{"type":"Feature","properties":{"hex_id":"831eb4fffffffff","population":282267,"population_year":2025,"area_km2":12543.2,"population_density":22.5,"all_players":1,"players_per_million":3.54,"player_ids":["tennis:atp:208286"],"label":"Sanremo","country":"Italy"},"geometry":{"type":"Polygon","coordinates":[[[7.509948,43.786609],[7.589687,43.17079],[8.368244,42.940145],[9.077677,43.325053],[9.008239,43.943707],[8.21897,44.174659],[7.509948,43.786609]]]}},{"type":"Feature","properties":{"hex_id":"831eb5fffffffff","population":1045035,"population_year":2025,"area_km2":12679.7,"population_density":82.4,"all_players":1,"players_per_million":0.96,"player_ids":["tennis:atp:207518"],"label":"Carrara","country":"Italy"},"geometry":{"type":"Polygon","coordinates":[[[9.008239,43.943707],[9.077677,43.325053],[9.86025,43.0839],[10.583646,43.46084],[10.524864,44.082048],[9.731941,44.323805],[9.008239,43.943707]]]}},{"type":"Feature","properties":{"hex_id":"831ec1fffffffff","population":1152464,"population_year":2025,"area_km2":13642.7,"population_density":84.5,"all_players":1,"players_per_million":0.87,"player_ids":["tennis:atp:105777"],"label":"Haskovo","country":"Bulgaria"},"geometry":{"type":"Polygon","coordinates":[[[24.524959,42.4932],[24.480935,41.85197],[25.225319,41.497196],[26.017648,41.780904],[26.072885,42.421413],[25.324619,42.778989],[24.524959,42.4932]]]}},{"type":"Feature","properties":{"hex_id":"831edafffffffff","population":3954535,"population_year":2025,"area_km2":14263.0,"population_density":277.3,"all_players":2,"players_per_million":0.51,"player_ids":["tennis:atp:126774","tennis:wta:206289"],"label":"Athens","country":"Greece"},"geometry":{"type":"Polygon","coordinates":[[[22.784149,38.644236],[22.754162,37.983543],[23.474781,37.630343],[24.229741,37.935113],[24.27013,38.595464],[23.545178,38.951439],[22.784149,38.644236]]]}},{"type":"Feature","properties":{"hex_id":"831eecfffffffff","population":3103366,"population_year":2025,"area_km2":13081.4,"population_density":237.2,"all_players":3,"players_per_million":0.97,"player_ids":["tennis:wta:201514","tennis:wta:211713","tennis:wta:211817"],"label":"Bucharest","country":"Romania"},"geometry":{"type":"Polygon","coordinates":[[[25.532273,45.296738],[25.479185,44.673329],[26.243563,44.320374],[27.064702,44.588046],[27.129673,45.210555],[26.361675,45.566347],[25.532273,45.296738]]]}},{"type":"Feature","properties":{"hex_id":"831ef0fffffffff","population":477585,"population_year":2025,"area_km2":13424.6,"population_density":35.6,"all_players":1,"players_per_million":2.09,"player_ids":["tennis:atp:209098"],"label":"Novi Pazar","country":"Serbia"},"geometry":{"type":"Polygon","coordinates":[[[19.099702,43.53434],[19.095425,42.898853],[19.86831,42.58307],[20.651982,42.900591],[20.667921,43.536564],[19.888519,43.854586],[19.099702,43.53434]]]}},{"type":"Feature","properties":{"hex_id":"831ef4fffffffff","population":1035172,"population_year":2025,"area_km2":13220.0,"population_density":78.3,"all_players":1,"players_per_million":0.97,"player_ids":["tennis:atp:106000"],"label":"Sarajevo","country":"Bosnia and Herzegovina"},"geometry":{"type":"Polygon","coordinates":[[[18.31474,44.47068],[18.316311,43.841343],[19.099702,43.53434],[19.888519,43.854586],[19.898853,44.48456],[19.10845,44.793707],[18.31474,44.47068]]]}},{"type":"Feature","properties":{"hex_id":"831ef6fffffffff","population":403736,"population_year":2025,"area_km2":13376.9,"population_density":30.2,"all_players":1,"players_per_million":2.48,"player_ids":["tennis:atp:105227"],"label":"Medjugorje","country":"Bosnia and Herzegovina"},"geometry":{"type":"Polygon","coordinates":[[[17.535856,43.510771],[17.543183,42.876114],[18.319382,42.571144],[19.095425,42.898853],[19.099702,43.53434],[18.316311,43.841343],[17.535856,43.510771]]]}},{"type":"Feature","properties":{"hex_id":"831f05fffffffff","population":2284708,"population_year":2025,"area_km2":10249.3,"population_density":222.9,"all_players":2,"players_per_million":0.88,"player_ids":["tennis:atp:208029","tennis:wta:220704"],"label":"Gentofte","country":"Denmark"},"geometry":{"type":"Polygon","coordinates":[[[11.860105,55.539449],[11.917787,55.005749],[12.839846,54.798544],[13.717125,55.123081],[13.674893,55.658102],[12.739823,55.867327],[11.860105,55.539449]]]}},{"type":"Feature","properties":{"hex_id":"831f12fffffffff","population":4974727,"population_year":2025,"area_km2":10857.3,"population_density":458.2,"all_players":1,"players_per_million":0.2,"player_ids":["tennis:atp:105526"],"label":"Warstein","country":"Germany"},"geometry":{"type":"Polygon","coordinates":[[[7.131986,51.786954],[7.223571,51.228954],[8.088631,51.039696],[8.875324,51.407718],[8.796415,51.967973],[7.918,52.158001],[7.131986,51.786954]]]}},{"type":"Feature","properties":{"hex_id":"831f15fffffffff","population":4282236,"population_year":2025,"area_km2":10530.0,"population_density":406.7,"all_players":2,"players_per_million":0.47,"player_ids":["tennis:atp:100644","tennis:wta:230870"],"label":"Hamburg","country":"Germany"},"geometry":{"type":"Polygon","coordinates":[[[8.551833,53.61915],[8.634702,53.073729],[9.526612,52.882702],[10.349128,53.235917],[10.280052,53.783253],[9.374531,53.975514],[8.551833,53.61915]]]}},{"type":"Feature","properties":{"hex_id":"831f4efffffffff","population":2519094,"population_year":2025,"area_km2":10913.5,"population_density":230.8,"all_players":1,"players_per_million":0.4,"player_ids":["tennis:wta:214544"],"label":"Minsk","country":"Belarus"},"geometry":{"type":"Polygon","coordinates":[[[26.437709,54.095766],[26.370175,53.543763],[27.226473,53.219843],[28.154343,53.444754],[28.236861,53.995816],[27.376613,54.322972],[26.437709,54.095766]]]}},{"type":"Feature","properties":{"hex_id":"831f53fffffffff","population":3001674,"population_year":2025,"area_km2":11369.1,"population_density":264.0,"all_players":1,"players_per_million":0.33,"player_ids":["tennis:wta:216347"],"label":"Warsaw","country":"Poland"},"geometry":{"type":"Polygon","coordinates":[[[20.939264,52.558682],[20.919057,51.990314],[21.782395,51.698278],[22.6731,51.971887],[22.708089,52.540228],[21.837606,52.835053],[20.939264,52.558682]]]}},{"type":"Feature","properties":{"hex_id":"831f60fffffffff","population":947486,"population_year":2025,"area_km2":10010.0,"population_density":94.7,"all_players":2,"players_per_million":2.11,"player_ids":["tennis:wta:211533","tennis:wta:221985"],"label":"Riga","country":"Latvia"},"geometry":{"type":"Polygon","coordinates":[[[23.051671,57.423255],[23.010739,56.901625],[23.934088,56.618589],[24.905246,56.853796],[24.963332,57.375003],[24.033159,57.661496],[23.051671,57.423255]]]}},{"type":"Feature","properties":{"hex_id":"831f83fffffffff","population":4695898,"population_year":2025,"area_km2":11812.0,"population_density":397.6,"all_players":1,"players_per_million":0.21,"player_ids":["tennis:wta:203530"],"label":"Zurich","country":"Switzerland"},"geometry":{"type":"Polygon","coordinates":[[[7.006321,47.39767],[7.093391,46.806293],[7.907014,46.596156],[8.645314,46.977068],[8.569415,47.571079],[7.743929,47.781588],[7.006321,47.39767]]]}},{"type":"Feature","properties":{"hex_id":"831f84fffffffff","population":1230363,"population_year":2025,"area_km2":11291.0,"population_density":109.0,"all_players":1,"players_per_million":0.81,"player_ids":["tennis:atp:200005"],"label":"Metz","country":"France"},"geometry":{"type":"Polygon","coordinates":[[[5.163511,48.943764],[5.26578,48.368556],[6.091769,48.180305],[6.828196,48.567179],[6.737081,49.14516],[5.898249,49.333537],[5.163511,48.943764]]]}},{"type":"Feature","properties":{"hex_id":"831f86fffffffff","population":524051,"population_year":2025,"area_km2":11417.6,"population_density":45.9,"all_players":1,"players_per_million":1.91,"player_ids":["tennis:wta:222391"],"label":"Dijon","country":"France"},"geometry":{"type":"Polygon","coordinates":[[[4.547162,47.973458],[4.652435,47.393027],[5.465773,47.204706],[6.186355,47.596926],[6.091769,48.180305],[5.26578,48.368556],[4.547162,47.973458]]]}},{"type":"Feature","properties":{"hex_id":"831f8bfffffffff","population":651537,"population_year":2025,"area_km2":12298.2,"population_density":53.0,"all_players":1,"players_per_million":1.53,"player_ids":["tennis:atp:206173"],"label":"Innichen","country":"Italy"},"geometry":{"type":"Polygon","coordinates":[[[11.039404,46.894874],[11.096453,46.290866],[11.910221,46.047428],[12.677318,46.406957],[12.632139,47.012951],[11.80791,47.257481],[11.039404,46.894874]]]}},{"type":"Feature","properties":{"hex_id":"831f8cfffffffff","population":2480992,"population_year":2025,"area_km2":11792.7,"population_density":210.4,"all_players":1,"players_per_million":0.4,"player_ids":["tennis:wta:213583"],"label":"Bad Saulgau","country":"Germany"},"geometry":{"type":"Polygon","coordinates":[[[9.251571,48.534678],[9.323357,47.94614],[10.15318,47.724095],[10.922654,48.089769],[10.86291,48.68049],[10.021547,48.903405],[9.251571,48.534678]]]}},{"type":"Feature","properties":{"hex_id":"831f8efffffffff","population":2930596,"population_year":2025,"area_km2":11935.4,"population_density":245.5,"all_players":3,"players_per_million":1.02,"player_ids":["tennis:wta:202505","tennis:wta:211814","tennis:wta:215899"],"label":"Flawil","country":"Switzerland"},"geometry":{"type":"Polygon","coordinates":[[[8.569415,47.571079],[8.645314,46.977068],[9.463672,46.755704],[10.217491,47.127717],[10.15318,47.724095],[9.323357,47.94614],[8.569415,47.571079]]]}},{"type":"Feature","properties":{"hex_id":"831f90fffffffff","population":2771086,"population_year":2025,"area_km2":11640.2,"population_density":238.1,"all_players":2,"players_per_million":0.72,"player_ids":["tennis:atp:208659","tennis:wta:221039"],"label":"Lyon","country":"France"},"geometry":{"type":"Polygon","coordinates":[[[3.369712,46.003392],[3.480263,45.413387],[4.268915,45.224369],[4.959125,45.625827],[4.858384,46.21913],[4.057494,46.407711],[3.369712,46.003392]]]}},{"type":"Feature","properties":{"hex_id":"831f98fffffffff","population":3290090,"population_year":2025,"area_km2":12188.8,"population_density":269.9,"all_players":1,"players_per_million":0.3,"player_ids":["tennis:atp:132283"],"label":"Turin","country":"Italy"},"geometry":{"type":"Polygon","coordinates":[[[7.263691,45.610704],[7.346976,45.00667],[8.142693,44.786129],[8.866286,45.169339],[8.793725,45.776109],[7.98674,45.996975],[7.263691,45.610704]]]}},{"type":"Feature","properties":{"hex_id":"831f99fffffffff","population":8499702,"population_year":2025,"area_km2":12318.9,"population_density":690.0,"all_players":1,"players_per_million":0.12,"player_ids":["tennis:atp:208233"],"label":"Busto Arsizio","country":"Italy"},"geometry":{"type":"Polygon","coordinates":[[[8.793725,45.776109],[8.866286,45.169339],[9.666362,44.937924],[10.404667,45.312696],[10.343213,45.921928],[9.53225,46.153971],[8.793725,45.776109]]]}},{"type":"Feature","properties":{"hex_id":"831fa4fffffffff","population":7133777,"population_year":2025,"area_km2":10626.5,"population_density":671.3,"all_players":2,"players_per_million":0.28,"player_ids":["tennis:atp:200267","tennis:wta:210722"],"label":"Lommel","country":"Belgium"},"geometry":{"type":"Polygon","coordinates":[[[3.881134,51.360376],[3.996418,50.807584],[4.847197,50.641723],[5.5966,51.028589],[5.492877,51.584097],[4.628032,51.750066],[3.881134,51.360376]]]}},{"type":"Feature","properties":{"hex_id":"831fa5fffffffff","population":7783236,"population_year":2025,"area_km2":10746.4,"population_density":724.3,"all_players":2,"players_per_million":0.26,"player_ids":["tennis:atp:127157","tennis:wta:214040"],"label":"Kempen","country":"Germany"},"geometry":{"type":"Polygon","coordinates":[[[5.492877,51.584097],[5.5966,51.028589],[6.455143,50.851215],[7.223571,51.228954],[7.131986,51.786954],[6.259687,51.96477],[5.492877,51.584097]]]}},{"type":"Feature","properties":{"hex_id":"831faafffffffff","population":5382251,"population_year":2025,"area_km2":11534.2,"population_density":466.6,"all_players":1,"players_per_million":0.19,"player_ids":["tennis:wta:201696"],"label":"Filderstadt","country":"Germany"},"geometry":{"type":"Polygon","coordinates":[[[8.334632,49.326261],[8.414101,48.74575],[9.251571,48.534678],[10.021547,48.903405],[9.954177,49.486187],[9.104617,49.69802],[8.334632,49.326261]]]}},{"type":"Feature","properties":{"hex_id":"831fb0fffffffff","population":2519655,"population_year":2025,"area_km2":11057.7,"population_density":227.9,"all_players":1,"players_per_million":0.4,"player_ids":["tennis:atp:209950"],"label":"Bondoufle","country":"France"},"geometry":{"type":"Polygon","coordinates":[[[2.120222,48.594025],[2.235478,47.985628],[2.758126,47.804469],[3.028335,47.748075],[3.728605,48.150804],[3.615703,48.72301],[3.06661,48.834678],[2.802853,48.926779],[2.120222,48.594025]]]}},{"type":"Feature","properties":{"hex_id":"831fb4fffffffff","population":10916515,"population_year":2025,"area_km2":11061.9,"population_density":986.9,"all_players":6,"players_per_million":0.55,"player_ids":["tennis:atp:104792","tennis:atp:105173","tennis:atp:111460","tennis:atp:124186","tennis:atp:144895","tennis:atp:208316"],"label":"Neuilly-sur-Seine","country":"France"},"geometry":{"type":"Polygon","coordinates":[[[1.882244,49.805032],[1.18851,49.470279],[1.315872,48.863254],[2.120222,48.594025],[2.802853,48.926779],[2.692197,49.530714],[1.882244,49.805032]]]}},{"type":"Feature","properties":{"hex_id":"83262dfffffffff","population":257436,"population_year":2025,"area_km2":12636.3,"population_density":20.4,"all_players":1,"players_per_million":3.88,"player_ids":["tennis:atp:209920"],"label":"Rochester, Minnesota","country":"United States"},"geometry":{"type":"Polygon","coordinates":[[[-92.256593,44.223095],[-92.8541,43.783029],[-92.582687,43.192163],[-91.729823,43.034792],[-91.129179,43.465409],[-91.384239,44.06279],[-92.256593,44.223095]]]}},{"type":"Feature","properties":{"hex_id":"832675fffffffff","population":505442,"population_year":2025,"area_km2":12188.8,"population_density":41.5,"all_players":1,"players_per_million":1.98,"player_ids":["tennis:wta:201619"],"label":"Rock Island","country":"United States"},"geometry":{"type":"Polygon","coordinates":[[[-90.401697,41.691368],[-90.987644,41.274622],[-90.752158,40.694374],[-89.945935,40.52508],[-89.358359,40.932577],[-89.578398,41.518555],[-90.401697,41.691368]]]}},{"type":"Feature","properties":{"hex_id":"83274afffffffff","population":46849,"population_year":2025,"area_km2":12679.7,"population_density":3.7,"all_players":1,"players_per_million":21.35,"player_ids":["tennis:atp:124187"],"label":"St. Joseph","country":"United States"},"geometry":{"type":"Polygon","coordinates":[[[-87.088558,43.161775],[-87.729334,42.752167],[-87.526255,42.152917],[-86.699978,41.958309],[-86.059782,42.358364],[-86.245058,42.962497],[-87.088558,43.161775]]]}},{"type":"Feature","properties":{"hex_id":"832830fffffffff","population":5390523,"population_year":2025,"area_km2":12833.4,"population_density":420.0,"all_players":1,"players_per_million":0.19,"player_ids":["tennis:wta:220465"],"label":"Walnut Creek","country":"United States"},"geometry":{"type":"Polygon","coordinates":[[[-121.764466,37.675694],[-121.389711,38.251087],[-121.822972,38.767388],[-122.631058,38.705571],[-122.997641,38.130127],[-122.564417,37.616538],[-121.764466,37.675694]]]}},{"type":"Feature","properties":{"hex_id":"832832fffffffff","population":2731247,"population_year":2025,"area_km2":12870.5,"population_density":212.2,"all_players":1,"players_per_million":0.37,"player_ids":["tennis:atp:202385"],"label":"Sacramento","country":"United States"},"geometry":{"type":"Polygon","coordinates":[[[-120.578459,38.303656],[-120.19218,38.874913],[-120.625018,39.393868],[-121.444673,39.3389],[-121.822972,38.767388],[-121.389711,38.251087],[-120.578459,38.303656]]]}},{"type":"Feature","properties":{"hex_id":"8329a0fffffffff","population":7767902,"population_year":2025,"area_km2":13942.8,"population_density":557.1,"all_players":2,"players_per_million":0.26,"player_ids":["tennis:atp:210506","tennis:atp:210530"],"label":"Irvine","country":"United States"},"geometry":{"type":"Polygon","coordinates":[[[-116.844972,33.407616],[-116.449556,33.986961],[-116.851778,34.547853],[-117.651276,34.526528],[-118.040386,33.946172],[-117.636417,33.388145],[-116.844972,33.407616]]]}},{"type":"Feature","properties":{"hex_id":"8329a1fffffffff","population":7894449,"population_year":2025,"area_km2":13766.4,"population_density":573.5,"all_players":2,"players_per_million":0.25,"player_ids":["tennis:atp:106218","tennis:atp:207182"],"label":"Thousand Oaks","country":"United States"},"geometry":{"type":"Polygon","coordinates":[[[-118.040386,33.946172],[-117.651276,34.526528],[-118.059439,35.079776],[-118.858147,35.049768],[-119.240554,34.468622],[-118.831067,33.918266],[-118.040386,33.946172]]]}},{"type":"Feature","properties":{"hex_id":"8329a4fffffffff","population":5801541,"population_year":2025,"area_km2":14071.2,"population_density":412.3,"all_players":2,"players_per_million":0.34,"player_ids":["tennis:atp:126203","tennis:atp:206909"],"label":"Rancho Santa Fe","country":"United States"},"geometry":{"type":"Polygon","coordinates":[[[-116.838302,32.260383],[-116.446827,32.842254],[-116.844972,33.407616],[-117.636417,33.388145],[-118.021715,32.805205],[-117.621854,32.242798],[-116.838302,32.260383]]]}},{"type":"Feature","properties":{"hex_id":"8329a5fffffffff","population":3788026,"population_year":2025,"area_km2":13900.5,"population_density":272.5,"all_players":1,"players_per_million":0.26,"player_ids":["tennis:wta:260300"],"label":"Torrance","country":"United States"},"geometry":{"type":"Polygon","coordinates":[[[-118.021715,32.805205],[-117.636417,33.388145],[-118.040386,33.946172],[-118.831067,33.918266],[-119.209803,33.334481],[-118.804528,32.779438],[-118.021715,32.805205]]]}},{"type":"Feature","properties":{"hex_id":"8329abfffffffff","population":1134352,"population_year":2025,"area_km2":13258.9,"population_density":85.6,"all_players":1,"players_per_million":0.88,"player_ids":["tennis:atp:210319"],"label":"Fresno","country":"United States"},"geometry":{"type":"Polygon","coordinates":[[[-119.303964,36.712984],[-118.914,37.287613],[-119.336664,37.821673],[-120.150308,37.778361],[-120.532864,37.20324],[-120.109299,36.671914],[-119.303964,36.712984]]]}},{"type":"Feature","properties":{"hex_id":"832a10fffffffff","population":17834994,"population_year":2025,"area_km2":12479.4,"population_density":1429.2,"all_players":4,"players_per_million":0.22,"player_ids":["tennis:atp:206499","tennis:atp:208118","tennis:wta:211651","tennis:wta:215613"],"label":"New York City","country":"United States"},"geometry":{"type":"Polygon","coordinates":[[[-73.803296,41.465407],[-74.532183,41.140409],[-74.501617,40.535843],[-73.761104,40.255982],[-73.041153,40.572801],[-73.052763,41.177546],[-73.803296,41.465407]]]}},{"type":"Feature","properties":{"hex_id":"832a13fffffffff","population":5451326,"population_year":2025,"area_km2":12270.7,"population_density":444.3,"all_players":2,"players_per_million":0.37,"player_ids":["tennis:atp:126205","tennis:wta:216153"],"label":"Camden County","country":"United States"},"geometry":{"type":"Polygon","coordinates":[[[-74.501617,40.535843],[-75.211791,40.210041],[-75.173274,39.612676],[-74.442775,39.340569],[-73.740804,39.658184],[-73.761104,40.255982],[-74.501617,40.535843]]]}},{"type":"Feature","properties":{"hex_id":"832a93fffffffff","population":2411444,"population_year":2025,"area_km2":11988.0,"population_density":201.2,"all_players":2,"players_per_million":0.83,"player_ids":["tennis:wta:216083","tennis:wta:220548"],"label":"Mason","country":"United States"},"geometry":{"type":"Polygon","coordinates":[[[-84.580952,39.773484],[-85.200755,39.395191],[-85.041311,38.814779],[-84.278055,38.60875],[-83.660277,38.977984],[-83.803574,39.56222],[-84.580952,39.773484]]]}},{"type":"Feature","properties":{"hex_id":"832aa6fffffffff","population":864087,"population_year":2025,"area_km2":12870.5,"population_density":67.1,"all_players":1,"players_per_million":1.16,"player_ids":["tennis:wta:202468"],"label":"Buffalo","country":"United States"},"geometry":{"type":"Polygon","coordinates":[[[-78.507232,43.105571],[-79.227281,42.744533],[-79.133579,42.130756],[-78.339703,41.875984],[-77.626195,42.227949],[-77.699924,42.843644],[-78.507232,43.105571]]]}},{"type":"Feature","properties":{"hex_id":"832aa8fffffffff","population":6574928,"population_year":2025,"area_km2":12047.7,"population_density":545.7,"all_players":2,"players_per_million":0.3,"player_ids":["tennis:atp:126207","tennis:wta:221024"],"label":"Hyattsville","country":"United States"},"geometry":{"type":"Polygon","coordinates":[[[-76.603499,39.549602],[-77.285017,39.215387],[-77.221804,38.626656],[-76.494397,38.370874],[-75.819591,38.696714],[-75.865429,39.286605],[-76.603499,39.549602]]]}},{"type":"Feature","properties":{"hex_id":"832aacfffffffff","population":3961424,"population_year":2025,"area_km2":12270.7,"population_density":322.8,"all_players":1,"players_per_million":0.25,"player_ids":["tennis:wta:215983"],"label":"King of Prussia","country":"United States"},"geometry":{"type":"Polygon","coordinates":[[[-75.960619,40.480497],[-76.660126,40.14602],[-76.603499,39.549602],[-75.865429,39.286605],[-75.173274,39.612676],[-75.211791,40.210041],[-75.960619,40.480497]]]}},{"type":"Feature","properties":{"hex_id":"832ab2fffffffff","population":4198661,"population_year":2025,"area_km2":12716.0,"population_density":330.2,"all_players":1,"players_per_million":0.24,"player_ids":["tennis:wta:233741"],"label":"Detroit","country":"United States"},"geometry":{"type":"Polygon","coordinates":[[[-83.07729,42.715021],[-83.75145,42.328986],[-83.600197,41.724215],[-82.793334,41.501851],[-82.122513,41.878477],[-82.255049,42.486775],[-83.07729,42.715021]]]}},{"type":"Feature","properties":{"hex_id":"832b9bfffffffff","population":7907887,"population_year":2025,"area_km2":13050.9,"population_density":605.9,"all_players":2,"players_per_million":0.25,"player_ids":["tennis:atp:126214","tennis:wta:221054"],"label":"Toronto","country":"Canada"},"geometry":{"type":"Polygon","coordinates":[[[-79.42239,43.984339],[-80.148592,43.614015],[-80.040798,42.99531],[-79.227281,42.744533],[-78.507232,43.105571],[-78.594427,43.726557],[-79.42239,43.984339]]]}},{"type":"Feature","properties":{"hex_id":"832baafffffffff","population":4993353,"population_year":2025,"area_km2":13456.5,"population_density":371.1,"all_players":3,"players_per_million":0.6,"player_ids":["tennis:atp:200000","tennis:atp:209113","tennis:wta:220367"],"label":"Montreal","country":"Canada"},"geometry":{"type":"Polygon","coordinates":[[[-73.157758,46.169919],[-73.970085,45.834008],[-73.944231,45.197835],[-73.129291,44.897538],[-72.328377,45.224875],[-72.330983,45.860952],[-73.157758,46.169919]]]}},{"type":"Feature","properties":{"hex_id":"832d44fffffffff","population":2254846,"population_year":2025,"area_km2":11948.5,"population_density":188.7,"all_players":1,"players_per_million":0.44,"player_ids":["tennis:atp:207686"],"label":"Rostov-on-Don","country":"Russia"},"geometry":{"type":"Polygon","coordinates":[[[38.692906,46.99246],[39.364819,46.589298],[40.166863,46.802217],[40.307011,47.425885],[39.625391,47.834416],[38.813317,47.613834],[38.692906,46.99246]]]}},{"type":"Feature","properties":{"hex_id":"832db0fffffffff","population":9235127,"population_year":2025,"area_km2":14123.1,"population_density":653.9,"all_players":1,"players_per_million":0.11,"player_ids":["tennis:atp:133430"],"label":"Tel Aviv","country":"Israel"},"geometry":{"type":"Polygon","coordinates":[[[34.376792,32.745873],[34.274424,32.083538],[34.889794,31.669446],[35.606927,31.913957],[35.717109,32.573048],[35.102423,32.990903],[34.376792,32.745873]]]}},{"type":"Feature","properties":{"hex_id":"832e61fffffffff","population":16062419,"population_year":2025,"area_km2":10435.0,"population_density":1539.3,"all_players":1,"players_per_million":0.06,"player_ids":["tennis:wta:211768"],"label":"Chūō-ku","country":"Japan"},"geometry":{"type":"Polygon","coordinates":[[[136.284758,34.544565],[136.074341,35.125905],[135.425844,35.264059],[134.998437,34.823901],[135.213088,34.249062],[135.851025,34.107905],[136.284758,34.544565]]]}},{"type":"Feature","properties":{"hex_id":"832f5afffffffff","population":24486504,"population_year":2025,"area_km2":11478.7,"population_density":2133.2,"all_players":1,"players_per_million":0.04,"player_ids":["tennis:atp:208278"],"label":"Kawasaki","country":"Japan"},"geometry":{"type":"Polygon","coordinates":[[[140.827794,35.672072],[140.638685,36.278739],[139.948213,36.441778],[139.458427,36.000295],[139.653549,35.399825],[140.332575,35.234652],[140.827794,35.672072]]]}},{"type":"Feature","properties":{"hex_id":"833825fffffffff","population":1247478,"population_year":2025,"area_km2":12395.2,"population_density":100.6,"all_players":1,"players_per_million":0.8,"player_ids":["tennis:atp:207989"],"label":"El Palmar","country":"Spain"},"geometry":{"type":"Polygon","coordinates":[[[-1.416234,38.115997],[-2.001062,37.704074],[-1.863369,37.071291],[-1.153048,36.852999],[-0.575154,37.26165],[-0.700647,37.891827],[-1.416234,38.115997]]]}},{"type":"Feature","properties":{"hex_id":"83386afffffffff","population":2174533,"population_year":2025,"area_km2":13799.7,"population_density":157.6,"all_players":1,"players_per_million":0.46,"player_ids":["tennis:wta:202460"],"label":"Ksar Hellal","country":"Tunisia"},"geometry":{"type":"Polygon","coordinates":[[[9.780055,36.300731],[9.838802,35.645857],[10.558256,35.370372],[11.227441,35.748985],[11.177784,36.406698],[10.449786,36.682996],[9.780055,36.300731]]]}},{"type":"Feature","properties":{"hex_id":"833919fffffffff","population":1714556,"population_year":2025,"area_km2":12870.5,"population_density":133.2,"all_players":1,"players_per_million":0.58,"player_ids":["tennis:atp:200221"],"label":"Málaga","country":"Spain"},"geometry":{"type":"Polygon","coordinates":[[[-4.048871,37.708867],[-4.630214,37.277566],[-4.468042,36.640556],[-3.736744,36.43675],[-3.161409,36.864345],[-3.311341,37.499409],[-4.048871,37.708867]]]}},{"type":"Feature","properties":{"hex_id":"833920fffffffff","population":1541450,"population_year":2025,"area_km2":13313.8,"population_density":115.8,"all_players":1,"players_per_million":0.65,"player_ids":["tennis:wta:222601"],"label":"Vilagarcía de Arousa","country":"Spain"},"geometry":{"type":"Polygon","coordinates":[[[-8.510499,42.979425],[-9.128239,42.535464],[-8.908305,41.898766],[-8.084602,41.706837],[-7.471834,42.1469],[-7.67772,42.782741],[-8.510499,42.979425]]]}},{"type":"Feature","properties":{"hex_id":"833922fffffffff","population":3258630,"population_year":2025,"area_km2":13448.5,"population_density":242.3,"all_players":1,"players_per_million":0.31,"player_ids":["tennis:atp:132686"],"label":"Maia","country":"Portugal"},"geometry":{"type":"Polygon","coordinates":[[[-8.908305,41.898766],[-9.515993,41.448057],[-9.295415,40.80947],[-8.480681,40.6223],[-7.877634,41.069006],[-8.084602,41.706837],[-8.908305,41.898766]]]}},{"type":"Feature","properties":{"hex_id":"833954fffffffff","population":2781027,"population_year":2025,"area_km2":12188.8,"population_density":228.2,"all_players":2,"players_per_million":0.72,"player_ids":["tennis:atp:105138","tennis:atp:124079"],"label":"Castellón de la Plana","country":"Spain"},"geometry":{"type":"Polygon","coordinates":[[[-0.49009,40.182979],[-1.091146,39.784657],[-0.95858,39.153492],[-0.237765,38.923477],[0.35567,39.31886],[0.235904,39.947158],[-0.49009,40.182979]]]}},{"type":"Feature","properties":{"hex_id":"83395cfffffffff","population":233727,"population_year":2025,"area_km2":12458.3,"population_density":18.8,"all_players":1,"players_per_million":4.28,"player_ids":["tennis:atp:144719"],"label":"Santanyí","country":"Spain"},"geometry":{"type":"Polygon","coordinates":[[[2.409691,39.323588],[2.517584,38.702027],[3.241901,38.489134],[3.868776,38.898629],[3.768973,39.524231],[3.0341,39.73632],[2.409691,39.323588]]]}},{"type":"Feature","properties":{"hex_id":"833960fffffffff","population":1981057,"population_year":2025,"area_km2":11692.4,"population_density":169.4,"all_players":1,"players_per_million":0.5,"player_ids":["tennis:atp:200384"],"label":"Toulouse","country":"France"},"geometry":{"type":"Polygon","coordinates":[[[0.863645,43.838891],[0.983681,43.215794],[1.479021,43.047512],[1.731415,42.986442],[2.376288,43.400946],[2.261329,43.999258],[1.748812,44.119982],[1.498849,44.205806],[0.863645,43.838891]]]}},{"type":"Feature","properties":{"hex_id":"833969fffffffff","population":1583636,"population_year":2025,"area_km2":12395.2,"population_density":127.8,"all_players":2,"players_per_million":1.26,"player_ids":["tennis:atp:126239","tennis:atp:200473"],"label":"Gassin","country":"France"},"geometry":{"type":"Polygon","coordinates":[[[6.03167,43.611509],[6.121326,42.998792],[6.894879,42.778417],[7.589687,43.17079],[7.509948,43.786609],[6.725378,44.00699],[6.03167,43.611509]]]}},{"type":"Feature","properties":{"hex_id":"83396cfffffffff","population":2034996,"population_year":2025,"area_km2":11988.0,"population_density":169.8,"all_players":2,"players_per_million":0.98,"player_ids":["tennis:atp:126127","tennis:atp:209070"],"label":"Montpellier","country":"France"},"geometry":{"type":"Polygon","coordinates":[[[3.696702,44.221235],[3.802654,43.619279],[4.574932,43.41921],[5.252785,43.821585],[5.156296,44.426959],[4.372371,44.626573],[3.696702,44.221235]]]}},{"type":"Feature","properties":{"hex_id":"833e62fffffffff","population":32479140,"population_year":2025,"area_km2":14586.4,"population_density":2226.7,"all_players":1,"players_per_million":0.03,"player_ids":["tennis:wta:210886"],"label":"Cairo","country":"Egypt"},"geometry":{"type":"Polygon","coordinates":[[[30.608926,30.098179],[30.531842,29.424459],[31.156426,29.02702],[31.858904,29.299406],[31.944037,29.970681],[31.3187,30.372052],[30.608926,30.098179]]]}},{"type":"Feature","properties":{"hex_id":"834085fffffffff","population":2724583,"population_year":2025,"area_km2":10691.6,"population_density":254.8,"all_players":1,"players_per_million":0.37,"player_ids":["tennis:wta:221012"],"label":"Shiyan","country":"People's Republic of China"},"geometry":{"type":"Polygon","coordinates":[[[112.029041,32.242277],[111.884182,32.805814],[111.219321,33.036395],[110.699272,32.702238],[110.848205,32.136454],[111.513128,31.907057],[112.029041,32.242277]]]}},{"type":"Feature","properties":{"hex_id":"83411cfffffffff","population":32618370,"population_year":2025,"area_km2":12027.7,"population_density":2711.9,"all_players":1,"players_per_million":0.03,"player_ids":["tennis:wta:216133"],"label":"Shenzhen","country":"People's Republic of China"},"geometry":{"type":"Polygon","coordinates":[[[114.855932,22.520124],[114.726111,23.133955],[114.10474,23.370163],[113.612713,22.990107],[113.74641,22.372984],[114.368265,22.139203],[114.855932,22.520124]]]}},{"type":"Feature","properties":{"hex_id":"83441afffffffff","population":4188119,"population_year":2025,"area_km2":11565.2,"population_density":362.1,"all_players":1,"players_per_million":0.24,"player_ids":["tennis:wta:203389"],"label":"St. Petersburg","country":"United States"},"geometry":{"type":"Polygon","coordinates":[[[-82.253729,27.587841],[-81.797694,28.027952],[-81.966494,28.631807],[-82.599304,28.798396],[-83.060213,28.355873],[-82.883444,27.749188],[-82.253729,27.587841]]]}},{"type":"Feature","properties":{"hex_id":"83441efffffffff","population":1159405,"population_year":2025,"area_km2":11640.2,"population_density":99.6,"all_players":1,"players_per_million":0.86,"player_ids":["tennis:atp:200624"],"label":"Bradenton","country":"United States"},"geometry":{"type":"Polygon","coordinates":[[[-82.536746,26.538801],[-82.084301,26.984013],[-82.253729,27.587841],[-82.883444,27.749188],[-83.340621,27.301399],[-83.163358,26.694856],[-82.536746,26.538801]]]}},{"type":"Feature","properties":{"hex_id":"8344aefffffffff","population":1495063,"population_year":2025,"area_km2":10947.5,"population_density":136.6,"all_players":1,"players_per_million":0.67,"player_ids":["tennis:wta:221103"],"label":"Delray Beach","country":"United States"},"geometry":{"type":"Polygon","coordinates":[[[-79.655984,26.333663],[-79.211732,26.761492],[-79.358798,27.355871],[-79.957715,27.52564],[-80.407147,27.095513],[-80.252477,26.497928],[-79.655984,26.333663]]]}},{"type":"Feature","properties":{"hex_id":"8344c1fffffffff","population":5328708,"population_year":2025,"area_km2":11678.0,"population_density":456.3,"all_players":2,"players_per_million":0.38,"player_ids":["tennis:atp:210097","tennis:wta:219917"],"label":"Atlanta","country":"United States"},"geometry":{"type":"Polygon","coordinates":[[[-83.883855,33.049852],[-83.401132,33.478441],[-83.591669,34.083947],[-84.273825,34.263584],[-84.761579,33.833075],[-84.562163,33.224865],[-83.883855,33.049852]]]}},{"type":"Feature","properties":{"hex_id":"8344ccfffffffff","population":1329536,"population_year":2025,"area_km2":11792.7,"population_density":112.7,"all_players":1,"players_per_million":0.75,"player_ids":["tennis:wta:220520"],"label":"Calhoun","country":"United States"},"geometry":{"type":"Polygon","coordinates":[[[-84.761579,33.833075],[-84.273825,34.263584],[-84.472881,34.869506],[-85.168742,35.047476],[-85.661389,34.615039],[-85.453304,34.006577],[-84.761579,33.833075]]]}},{"type":"Feature","properties":{"hex_id":"8344d8fffffffff","population":1822560,"population_year":2025,"area_km2":11057.7,"population_density":164.8,"all_players":1,"players_per_million":0.55,"player_ids":["tennis:wta:239475"],"label":"Charlotte","country":"United States"},"geometry":{"type":"Polygon","coordinates":[[[-81.285062,34.542036],[-80.962413,34.812203],[-80.764551,34.92272],[-80.863541,35.476502],[-81.56765,35.695929],[-81.964648,35.469269],[-82.12783,35.333393],[-81.94686,34.733211],[-81.285062,34.542036]]]}},{"type":"Feature","properties":{"hex_id":"834995fffffffff","population":24440832,"population_year":2025,"area_km2":14280.6,"population_density":1711.5,"all_players":1,"players_per_million":0.04,"player_ids":["tennis:wta:213887"],"label":"Mexico City","country":"Mexico"},"geometry":{"type":"Polygon","coordinates":[[[-98.549393,18.976465],[-98.122773,19.512595],[-98.392604,20.126692],[-99.095052,20.20349],[-99.521944,19.663326],[-99.246183,19.050422],[-98.549393,18.976465]]]}},{"type":"Feature","properties":{"hex_id":"836505fffffffff","population":10740103,"population_year":2025,"area_km2":14423.2,"population_density":744.6,"all_players":1,"players_per_million":0.09,"player_ids":["tennis:wta:220416"],"label":"Kuala Lumpur","country":"Malaysia"},"geometry":{"type":"Polygon","coordinates":[[[102.265566,2.732418],[102.105795,3.379974],[101.459579,3.559439],[100.974489,3.089186],[101.136946,2.441467],[101.781836,2.264143],[102.265566,2.732418]]]}},{"type":"Feature","properties":{"hex_id":"836618fffffffff","population":4786459,"population_year":2025,"area_km2":12833.4,"population_density":373.0,"all_players":1,"players_per_million":0.21,"player_ids":["tennis:wta:215306"],"label":"Medellín","country":"Colombia"},"geometry":{"type":"Polygon","coordinates":[[[-76.312131,7.051353],[-76.686519,6.558891],[-76.415912,5.982402],[-75.770717,5.901439],[-75.398652,6.396072],[-75.669417,6.969499],[-76.312131,7.051353]]]}},{"type":"Feature","properties":{"hex_id":"83662bfffffffff","population":1936474,"population_year":2025,"area_km2":12047.7,"population_density":160.7,"all_players":1,"players_per_million":0.52,"player_ids":["tennis:wta:215785"],"label":"Cúcuta","country":"Colombia"},"geometry":{"type":"Polygon","coordinates":[[[-72.309956,8.637054],[-72.667585,8.16392],[-72.397398,7.600406],[-71.770072,7.513552],[-71.415463,7.988717],[-71.685122,8.54871],[-72.309956,8.637054]]]}},{"type":"Feature","properties":{"hex_id":"83694efffffffff","population":27756486,"population_year":2025,"area_km2":12607.6,"population_density":2201.6,"all_players":1,"players_per_million":0.04,"player_ids":["tennis:wta:223253"],"label":"Quezon City","country":"Philippines"},"geometry":{"type":"Polygon","coordinates":[[[120.818686,14.722923],[120.936616,14.106],[121.537485,13.923581],[122.023502,14.361208],[121.905235,14.980976],[121.301266,15.160283],[120.818686,14.722923]]]}},{"type":"Feature","properties":{"hex_id":"838c10fffffffff","population":36914560,"population_year":2025,"area_km2":12479.4,"population_density":2958.0,"all_players":1,"players_per_million":0.03,"player_ids":["tennis:wta:222145"],"label":"Jakarta","country":"Indonesia"},"geometry":{"type":"Polygon","coordinates":[[[107.488396,-6.782995],[107.347404,-6.191252],[106.739363,-6.041646],[106.272874,-6.486988],[106.4168,-7.079205],[107.0243,-7.225632],[107.488396,-6.782995]]]}},{"type":"Feature","properties":{"hex_id":"839d0afffffffff","population":15588,"population_year":2025,"area_km2":13258.9,"population_density":1.2,"all_players":1,"players_per_million":64.15,"player_ids":["tennis:atp:200443"],"label":"Home Hill","country":"Australia"},"geometry":{"type":"Polygon","coordinates":[[[148.518368,-19.489087],[148.391945,-18.870025],[147.744098,-18.672653],[147.217062,-19.090051],[147.335389,-19.710104],[147.988887,-19.911816],[148.518368,-19.489087]]]}},{"type":"Feature","properties":{"hex_id":"83a726fffffffff","population":1846194,"population_year":2025,"area_km2":9765.8,"population_density":189.0,"all_players":1,"players_per_million":0.54,"player_ids":["tennis:atp:209262"],"label":"Perth","country":"Australia"},"geometry":{"type":"Polygon","coordinates":[[[116.156806,-31.717896],[115.668386,-31.333698],[115.004431,-31.434051],[114.818313,-31.922938],[115.307453,-32.314951],[115.982101,-32.210194],[116.156806,-31.717896]]]}},{"type":"Feature","properties":{"hex_id":"83a810fffffffff","population":24232036,"population_year":2025,"area_km2":12479.4,"population_density":1941.8,"all_players":1,"players_per_million":0.04,"player_ids":["tennis:wta:206242"],"label":"São Paulo","country":"Brazil"},"geometry":{"type":"Polygon","coordinates":[[[-46.29901,-24.248724],[-45.933728,-23.740374],[-46.268552,-23.19855],[-46.967078,-23.166485],[-47.331841,-23.675521],[-46.998649,-24.215936],[-46.29901,-24.248724]]]}},{"type":"Feature","properties":{"hex_id":"83a8a0fffffffff","population":8274783,"population_year":2025,"area_km2":12679.7,"population_density":652.6,"all_players":1,"players_per_million":0.12,"player_ids":["tennis:atp:211663"],"label":"Rio de Janeiro","country":"Brazil"},"geometry":{"type":"Polygon","coordinates":[[[-43.124812,-23.832505],[-42.760671,-23.312736],[-43.099555,-22.773798],[-43.801686,-22.755715],[-44.166042,-23.27637],[-43.828106,-23.81422],[-43.124812,-23.832505]]]}},{"type":"Feature","properties":{"hex_id":"83b304fffffffff","population":609532,"population_year":2025,"area_km2":13361.1,"population_density":45.6,"all_players":1,"players_per_million":1.64,"player_ids":["tennis:atp:106426"],"label":"Arica","country":"Chile"},"geometry":{"type":"Polygon","coordinates":[[[-70.420211,-17.44972],[-70.79983,-18.000376],[-70.506905,-18.578298],[-69.835305,-18.603631],[-69.459601,-18.05392],[-69.751537,-17.477936],[-70.420211,-17.44972]]]}},{"type":"Feature","properties":{"hex_id":"83bcc3fffffffff","population":10165897,"population_year":2025,"area_km2":13816.5,"population_density":735.8,"all_players":1,"players_per_million":0.1,"player_ids":["tennis:atp:111815"],"label":"Johannesburg","country":"South Africa"},"geometry":{"type":"Polygon","coordinates":[[[28.252135,-26.609142],[28.292681,-25.962826],[27.674042,-25.604797],[27.013681,-25.892672],[26.969404,-26.538665],[27.589205,-26.897137],[28.252135,-26.609142]]]}},{"type":"Feature","properties":{"hex_id":"83be0efffffffff","population":2059884,"population_year":2025,"area_km2":14922.2,"population_density":138.0,"all_players":3,"players_per_million":1.46,"player_ids":["tennis:atp:126846","tennis:atp:200282","tennis:atp:200615"],"label":"Sydney","country":"Australia"},"geometry":{"type":"Polygon","coordinates":[[[152.602318,-33.997],[152.420459,-33.332138],[151.64327,-33.128216],[151.038963,-33.586023],[151.210157,-34.25249],[151.996416,-34.459593],[152.602318,-33.997]]]}},{"type":"Feature","properties":{"hex_id":"83c203fffffffff","population":691818,"population_year":2025,"area_km2":7725.5,"population_density":89.5,"all_players":2,"players_per_million":2.89,"player_ids":["tennis:atp:207681","tennis:wta:221333"],"label":"Mar del Plata","country":"Argentina"},"geometry":{"type":"Polygon","coordinates":[[[-57.33946,-38.763897],[-56.978292,-38.422884],[-57.291796,-37.980681],[-57.962724,-37.880975],[-58.295648,-38.352175],[-57.99771,-38.728564],[-57.787802,-38.697249],[-57.33946,-38.763897]]]}},{"type":"Feature","properties":{"hex_id":"83c218fffffffff","population":83785,"population_year":2025,"area_km2":8112.8,"population_density":10.3,"all_players":1,"players_per_million":11.94,"player_ids":["tennis:atp:209260"],"label":"Villa Gesell","country":"Argentina"},"geometry":{"type":"Polygon","coordinates":[[[-56.254184,-37.72598],[-55.891299,-37.370021],[-56.208046,-36.919366],[-56.884113,-36.826192],[-57.244275,-37.182789],[-56.931131,-37.631919],[-56.254184,-37.72598]]]}},{"type":"Feature","properties":{"hex_id":"83c2e2fffffffff","population":832474,"population_year":2025,"area_km2":8604.7,"population_density":96.7,"all_players":1,"players_per_million":1.2,"player_ids":["tennis:atp:144869"],"label":"La Plata","country":"Argentina"},"geometry":{"type":"Polygon","coordinates":[[[-57.14966,-35.542611],[-56.790499,-35.17012],[-57.102564,-34.700194],[-57.770125,-34.604602],[-58.126426,-34.977792],[-57.818061,-35.445874],[-57.14966,-35.542611]]]}},{"type":"Feature","properties":{"hex_id":"83c2e3fffffffff","population":14955631,"population_year":2025,"area_km2":8646.0,"population_density":1729.8,"all_players":4,"players_per_million":0.27,"player_ids":["tennis:atp:200116","tennis:atp:202103","tennis:atp:202104","tennis:atp:207678"],"label":"Buenos Aires","country":"Argentina"},"geometry":{"type":"Polygon","coordinates":[[[-58.126426,-34.977792],[-57.770125,-34.604602],[-58.07815,-34.129709],[-58.738685,-34.029993],[-59.071246,-34.523027],[-58.77656,-34.937002],[-58.567821,-34.91082],[-58.126426,-34.977792]]]}},{"type":"Feature","properties":{"hex_id":"83c35bfffffffff","population":62888,"population_year":2025,"area_km2":8704.4,"population_density":7.2,"all_players":1,"players_per_million":15.9,"player_ids":["tennis:atp:208363"],"label":"9 de Julio","country":"Argentina"},"geometry":{"type":"Polygon","coordinates":[[[-60.685386,-35.159145],[-61.03291,-35.647329],[-60.732362,-36.061951],[-60.087137,-35.988084],[-59.745454,-35.502181],[-60.04313,-35.087873],[-60.685386,-35.159145]]]}},{"type":"Feature","properties":{"hex_id":"83da81fffffffff","population":41547,"population_year":2025,"area_km2":13361.1,"population_density":3.1,"all_players":1,"players_per_million":24.07,"player_ids":["tennis:wta:215138"],"label":"Te Anau","country":"New Zealand"},"geometry":{"type":"Polygon","coordinates":[[[169.397004,-45.596241],[169.049652,-45.007891],[168.148031,-44.9406],[167.578363,-45.46296],[167.917904,-46.055866],[168.835164,-46.121865],[169.397004,-45.596241]]]}}]}