{"type":"FeatureCollection","metadata":{"population_source":"WorldPop Global 2 R2025A","population_source_url":"https://hub.worldpop.org/project/categories?id=3","population_license":"CC BY 4.0","population_year":2025,"raster_resolution":"1km","h3_resolution":2,"population_method":"official_country_rasters","occupied_cells":95,"mapped_players":199},"features":[{"type":"Feature","properties":{"hex_id":"82099ffffffffff","population":2587703,"population_year":2025,"area_km2":63447.1,"population_density":40.8,"all_players":1,"players_per_million":0.39,"player_ids":["tennis:atp:134770"],"label":"Oslo","country":"Norway"},"geometry":{"type":"Polygon","coordinates":[[[7.438464,59.76718],[6.766113,58.447096],[8.799628,57.640256],[11.555978,58.130531],[12.360313,59.444957],[10.279089,60.275949],[7.438464,59.76718]]]}},{"type":"Feature","properties":{"hex_id":"820b9ffffffffff","population":1776390,"population_year":2025,"area_km2":92775.6,"population_density":19.1,"all_players":1,"players_per_million":0.56,"player_ids":["tennis:wta:259799"],"label":"Krasnoyarsk","country":"Russia"},"geometry":{"type":"Polygon","coordinates":[[[88.417425,57.832602],[88.185607,56.123457],[90.656161,55.086997],[93.387021,55.707268],[93.821625,57.385984],[91.329458,58.476866],[88.417425,57.832602]]]}},{"type":"Feature","properties":{"hex_id":"821087fffffffff","population":3828605,"population_year":2025,"area_km2":92775.6,"population_density":41.3,"all_players":3,"players_per_million":0.78,"player_ids":["tennis:wta:201499","tennis:wta:214082","tennis:wta:223670"],"label":"Zhigulyovsk","country":"Russia"},"geometry":{"type":"Polygon","coordinates":[[[46.15294,52.857013],[47.346013,51.327847],[50.006843,51.196513],[51.649132,52.608933],[50.540162,54.190111],[47.695719,54.306703],[46.15294,52.857013]]]}},{"type":"Feature","properties":{"hex_id":"8210a7fffffffff","population":2366100,"population_year":2025,"area_km2":88726.5,"population_density":26.7,"all_players":1,"players_per_million":0.42,"player_ids":["tennis:wta:221407"],"label":"Kamenka","country":"Russia"},"geometry":{"type":"Polygon","coordinates":[[[42.130975,54.34055],[43.461053,52.88535],[46.15294,52.857013],[47.695719,54.306703],[46.429777,55.815863],[43.547482,55.820804],[42.130975,54.34055]]]}},{"type":"Feature","properties":{"hex_id":"8210affffffffff","population":5121080,"population_year":2025,"area_km2":91641.3,"population_density":55.9,"all_players":1,"players_per_million":0.2,"player_ids":["tennis:wta:206368"],"label":"Kazan","country":"Russia"},"geometry":{"type":"Polygon","coordinates":[[[46.429777,55.815863],[47.695719,54.306703],[50.540162,54.190111],[52.317891,55.595312],[51.151314,57.156372],[48.096497,57.260274],[46.429777,55.815863]]]}},{"type":"Feature","properties":{"hex_id":"8210b7fffffffff","population":2276908,"population_year":2025,"area_km2":89440.6,"population_density":25.5,"all_players":1,"players_per_million":0.44,"player_ids":["tennis:wta:215713"],"label":"Saratov","country":"Russia"},"geometry":{"type":"Polygon","coordinates":[[[42.136829,51.409437],[43.385219,49.934262],[45.91025,49.881597],[47.346013,51.327847],[46.15294,52.857013],[43.461053,52.88535],[42.136829,51.409437]]]}},{"type":"Feature","properties":{"hex_id":"8210dffffffffff","population":3902687,"population_year":2025,"area_km2":98815.5,"population_density":39.5,"all_players":1,"players_per_million":0.26,"player_ids":["tennis:wta:206420"],"label":"Chelyabinsk","country":"Russia"},"geometry":{"type":"Polygon","coordinates":[[[60.388277,56.376181],[61.229857,54.705431],[64.158618,54.257565],[66.431592,55.460835],[65.773216,57.164207],[62.649517,57.633408],[60.388277,56.376181]]]}},{"type":"Feature","properties":{"hex_id":"821107fffffffff","population":7470337,"population_year":2025,"area_km2":73030.9,"population_density":102.3,"all_players":1,"players_per_million":0.13,"player_ids":["tennis:atp:122330"],"label":"Gatchina","country":"Russia"},"geometry":{"type":"Polygon","coordinates":[[[28.460566,60.334788],[30.297301,59.186368],[33.088007,59.508536],[34.230386,61.023294],[32.364306,62.22127],[29.377404,61.853155],[28.460566,60.334788]]]}},{"type":"Feature","properties":{"hex_id":"821167fffffffff","population":502729,"population_year":2025,"area_km2":70058.2,"population_density":7.2,"all_players":1,"players_per_million":1.99,"player_ids":["tennis:wta:214643"],"label":"Olenegorsk","country":"Russia"},"geometry":{"type":"Polygon","coordinates":[[[30.513875,67.453223],[32.775118,66.367187],[36.382243,66.701436],[38.05104,68.158205],[35.780975,69.303255],[31.83128,68.929958],[30.513875,67.453223]]]}},{"type":"Feature","properties":{"hex_id":"82118ffffffffff","population":5039192,"population_year":2025,"area_km2":84307.8,"population_density":59.8,"all_players":1,"players_per_million":0.2,"player_ids":["tennis:wta:219875"],"label":"Zhukovsky","country":"Russia"},"geometry":{"type":"Polygon","coordinates":[[[37.971643,55.638414],[39.434182,54.264707],[42.130975,54.34055],[43.547482,55.820804],[42.124277,57.248783],[39.236041,57.141268],[37.971643,55.638414]]]}},{"type":"Feature","properties":{"hex_id":"8211affffffffff","population":18096890,"population_year":2025,"area_km2":79647.5,"population_density":227.2,"all_players":9,"players_per_million":0.5,"player_ids":["tennis:atp:106421","tennis:atp:111575","tennis:atp:126094","tennis:wta:201709","tennis:wta:213550","tennis:wta:214939","tennis:wta:214981","tennis:wta:215020","tennis:wta:221236"],"label":"Moscow","country":"Russia"},"geometry":{"type":"Polygon","coordinates":[[[33.713464,56.746598],[35.299111,55.46002],[37.971643,55.638414],[39.236041,57.141268],[37.661108,58.480663],[34.802815,58.263078],[33.713464,56.746598]]]}},{"type":"Feature","properties":{"hex_id":"82185ffffffffff","population":956632,"population_year":2025,"area_km2":89440.6,"population_density":10.7,"all_players":1,"players_per_million":1.05,"player_ids":["tennis:atp:105807"],"label":"Gijón","country":"Spain"},"geometry":{"type":"Polygon","coordinates":[[[-5.733942,46.36037],[-7.898252,45.74022],[-8.101589,44.050631],[-6.231988,43.009176],[-4.162635,43.625899],[-3.870647,45.286766],[-5.733942,46.36037]]]}},{"type":"Feature","properties":{"hex_id":"821947fffffffff","population":12519310,"population_year":2025,"area_km2":74863.4,"population_density":167.2,"all_players":1,"players_per_million":0.08,"player_ids":["tennis:wta:215936"],"label":"Mapped area","country":"United Kingdom"},"geometry":{"type":"Polygon","coordinates":[[[0.670759,55.133806],[-1.785543,54.762388],[-2.178886,53.251551],[-0.219137,52.141681],[2.101314,52.517134],[2.592789,53.997752],[0.670759,55.133806]]]}},{"type":"Feature","properties":{"hex_id":"82194ffffffffff","population":23325550,"population_year":2025,"area_km2":76219.8,"population_density":306.0,"all_players":3,"players_per_million":0.13,"player_ids":["tennis:atp:207733","tennis:atp:209279","tennis:wta:222661"],"label":"London","country":"United Kingdom"},"geometry":{"type":"Polygon","coordinates":[[[2.101314,52.517134],[-0.219137,52.141681],[-0.631095,50.601911],[1.18851,49.470279],[3.384772,49.85377],[3.881134,51.360376],[2.101314,52.517134]]]}},{"type":"Feature","properties":{"hex_id":"82195ffffffffff","population":22721748,"population_year":2025,"area_km2":79647.5,"population_density":285.3,"all_players":1,"players_per_million":0.04,"player_ids":["tennis:wta:211107"],"label":"Leicester","country":"United Kingdom"},"geometry":{"type":"Polygon","coordinates":[[[-2.178886,53.251551],[-4.578382,52.792439],[-4.88976,51.223728],[-2.906528,50.142292],[-0.631095,50.601911],[-0.219137,52.141681],[-2.178886,53.251551]]]}},{"type":"Feature","properties":{"hex_id":"82196ffffffffff","population":13271725,"population_year":2025,"area_km2":72289.7,"population_density":183.6,"all_players":4,"players_per_million":0.3,"player_ids":["tennis:atp:122298","tennis:atp:134868","tennis:atp:207411","tennis:wta:215480"],"label":"Haarlem","country":"Netherlands"},"geometry":{"type":"Polygon","coordinates":[[[4.948742,54.288287],[2.592789,53.997752],[2.101314,52.517134],[3.881134,51.360376],[6.259687,51.96477],[6.848229,53.43156],[4.948742,54.288287]]]}},{"type":"Feature","properties":{"hex_id":"821977fffffffff","population":4073107,"population_year":2025,"area_km2":73030.9,"population_density":55.8,"all_players":1,"players_per_million":0.25,"player_ids":["tennis:atp:207985"],"label":"Edinburgh","country":"United Kingdom"},"geometry":{"type":"Polygon","coordinates":[[[-0.931587,57.689497],[-3.536381,57.317288],[-3.903181,55.840606],[-1.785543,54.762388],[0.670759,55.133806],[1.152198,56.583354],[-0.931587,57.689497]]]}},{"type":"Feature","properties":{"hex_id":"821e07fffffffff","population":15880792,"population_year":2025,"area_km2":85294.5,"population_density":186.2,"all_players":7,"players_per_million":0.44,"player_ids":["tennis:atp:206681","tennis:atp:207494","tennis:atp:210150","tennis:wta:206252","tennis:wta:211685","tennis:wta:214096","tennis:wta:222328"],"label":"Prostějov","country":"Czech Republic"},"geometry":{"type":"Polygon","coordinates":[[[16.606047,49.899182],[15.817384,48.388123],[17.489488,47.234679],[19.952961,47.57214],[20.822886,49.074367],[19.15135,50.248654],[16.606047,49.899182]]]}},{"type":"Feature","properties":{"hex_id":"821e0ffffffffff","population":6622895,"population_year":2025,"area_km2":87326.6,"population_density":75.8,"all_players":2,"players_per_million":0.3,"player_ids":["tennis:atp:105916","tennis:wta:214388"],"label":"Nyíregyháza","country":"Hungary"},"geometry":{"type":"Polygon","coordinates":[[[20.822886,49.074367],[19.952961,47.57214],[21.555106,46.342738],[24.013384,46.595885],[24.952412,48.084867],[23.367705,49.334469],[20.822886,49.074367]]]}},{"type":"Feature","properties":{"hex_id":"821e17fffffffff","population":8258126,"population_year":2025,"area_km2":87326.6,"population_density":94.6,"all_players":4,"players_per_million":0.48,"player_ids":["tennis:atp:209209","tennis:wta:201548","tennis:wta:215219","tennis:wta:222045"],"label":"Graz","country":"Croatia"},"geometry":{"type":"Polygon","coordinates":[[[13.374348,47.965938],[12.677318,46.406957],[14.337206,45.273432],[16.708897,45.679719],[17.489488,47.234679],[15.817384,48.388123],[13.374348,47.965938]]]}},{"type":"Feature","properties":{"hex_id":"821e1ffffffffff","population":8697926,"population_year":2025,"area_km2":89801.2,"population_density":96.9,"all_players":6,"players_per_million":0.69,"player_ids":["tennis:atp:104925","tennis:atp:111513","tennis:atp:200175","tennis:wta:202499","tennis:wta:213646","tennis:wta:215337"],"label":"Belgrade","country":"Serbia"},"geometry":{"type":"Polygon","coordinates":[[[17.489488,47.234679],[16.708897,45.679719],[18.31474,44.47068],[20.700526,44.796864],[21.555106,46.342738],[19.952961,47.57214],[17.489488,47.234679]]]}},{"type":"Feature","properties":{"hex_id":"821e27fffffffff","population":12111129,"population_year":2025,"area_km2":80544.7,"population_density":150.4,"all_players":4,"players_per_million":0.33,"player_ids":["tennis:atp:111794","tennis:atp:128034","tennis:wta:202663","tennis:wta:211684"],"label":"Piotrków Trybunalski","country":"Poland"},"geometry":{"type":"Polygon","coordinates":[[[15.658506,52.45677],[14.863027,50.992748],[16.606047,49.899182],[19.15135,50.248654],[20.036282,51.703743],[18.289963,52.819052],[15.658506,52.45677]]]}},{"type":"Feature","properties":{"hex_id":"821e37fffffffff","population":10279073,"population_year":2025,"area_km2":82705.0,"population_density":124.3,"all_players":7,"players_per_million":0.68,"player_ids":["tennis:atp:207830","tennis:atp:208103","tennis:wta:211701","tennis:wta:213631","tennis:wta:214954","tennis:wta:238184","tennis:wta:239383"],"label":"Prague","country":"Czech Republic"},"geometry":{"type":"Polygon","coordinates":[[[12.345747,50.554275],[11.648396,49.039345],[13.374348,47.965938],[15.817384,48.388123],[16.606047,49.899182],[14.863027,50.992748],[12.345747,50.554275]]]}},{"type":"Feature","properties":{"hex_id":"821e57fffffffff","population":6962930,"population_year":2025,"area_km2":88726.5,"population_density":78.5,"all_players":1,"players_per_million":0.14,"player_ids":["tennis:wta:213710"],"label":"Chișinău","country":"Moldova"},"geometry":{"type":"Polygon","coordinates":[[[24.952412,48.084867],[24.013384,46.595885],[25.532273,45.296738],[27.961374,45.468587],[28.956125,46.940583],[27.469819,48.258057],[24.952412,48.084867]]]}},{"type":"Feature","properties":{"hex_id":"821e5ffffffffff","population":2872391,"population_year":2025,"area_km2":89440.6,"population_density":32.1,"all_players":2,"players_per_million":0.7,"player_ids":["tennis:wta:202494","tennis:wta:215035"],"label":"Odesa","country":"Ukraine"},"geometry":{"type":"Polygon","coordinates":[[[28.956125,46.940583],[27.961374,45.468587],[29.387082,44.107766],[31.765884,44.203681],[32.802663,45.655674],[31.422272,47.03192],[28.956125,46.940583]]]}},{"type":"Feature","properties":{"hex_id":"821e67fffffffff","population":5717680,"population_year":2025,"area_km2":80847.5,"population_density":70.7,"all_players":2,"players_per_million":0.35,"player_ids":["tennis:wta:216146","tennis:wta:220332"],"label":"Kyiv","country":"Ukraine"},"geometry":{"type":"Polygon","coordinates":[[[27.993406,52.327164],[26.940864,50.952157],[28.492806,49.683116],[31.052695,49.771325],[32.156918,51.126789],[30.654128,52.413789],[27.993406,52.327164]]]}},{"type":"Feature","properties":{"hex_id":"821e87fffffffff","population":12834722,"population_year":2025,"area_km2":92775.6,"population_density":138.3,"all_players":2,"players_per_million":0.16,"player_ids":["tennis:atp:126610","tennis:wta:220714"],"label":"Rome","country":"Italy"},"geometry":{"type":"Polygon","coordinates":[[[11.369193,43.208977],[10.754951,41.575053],[12.334661,40.405578],[14.548451,40.851244],[15.239936,42.485371],[13.642239,43.674337],[11.369193,43.208977]]]}},{"type":"Feature","properties":{"hex_id":"821ea7fffffffff","population":14372848,"population_year":2025,"area_km2":88726.5,"population_density":162.0,"all_players":4,"players_per_million":0.28,"player_ids":["tennis:atp:207518","tennis:atp:207925","tennis:atp:208134","tennis:wta:211148"],"label":"Carrara","country":"Italy"},"geometry":{"type":"Polygon","coordinates":[[[10.343213,45.921928],[9.731941,44.323805],[11.369193,43.208977],[13.642239,43.674337],[14.337206,45.273432],[12.677318,46.406957],[10.343213,45.921928]]]}},{"type":"Feature","properties":{"hex_id":"821eaffffffffff","population":2469114,"population_year":2025,"area_km2":91641.3,"population_density":26.9,"all_players":1,"players_per_million":0.41,"player_ids":["tennis:atp:105227"],"label":"Medjugorje","country":"Bosnia and Herzegovina"},"geometry":{"type":"Polygon","coordinates":[[[14.337206,45.273432],[13.642239,43.674337],[15.239936,42.485371],[17.543183,42.876114],[18.31474,44.47068],[16.708897,45.679719],[14.337206,45.273432]]]}},{"type":"Feature","properties":{"hex_id":"821eb7fffffffff","population":1850797,"population_year":2025,"area_km2":89440.6,"population_density":20.7,"all_players":1,"players_per_million":0.54,"player_ids":["tennis:atp:208286"],"label":"Sanremo","country":"Italy"},"geometry":{"type":"Polygon","coordinates":[[[7.509948,43.786609],[6.97784,42.158616],[8.584299,41.06115],[10.754951,41.575053],[11.369193,43.208977],[9.731941,44.323805],[7.509948,43.786609]]]}},{"type":"Feature","properties":{"hex_id":"821ec7fffffffff","population":6669519,"population_year":2025,"area_km2":95515.4,"population_density":69.8,"all_players":1,"players_per_million":0.15,"player_ids":["tennis:atp:105777"],"label":"Haskovo","country":"Bulgaria"},"geometry":{"type":"Polygon","coordinates":[[[22.238177,43.517311],[21.399102,41.932468],[22.87671,40.608844],[25.176743,40.851016],[26.072885,42.421413],[24.614981,43.76451],[22.238177,43.517311]]]}},{"type":"Feature","properties":{"hex_id":"821edffffffffff","population":5052529,"population_year":2025,"area_km2":98815.5,"population_density":51.1,"all_players":2,"players_per_million":0.4,"player_ids":["tennis:atp:126774","tennis:wta:206289"],"label":"Athens","country":"Greece"},"geometry":{"type":"Polygon","coordinates":[[[22.87671,40.608844],[22.053163,38.990886],[23.474781,37.630343],[25.702401,37.868316],[26.578016,39.470649],[25.176743,40.851016],[22.87671,40.608844]]]}},{"type":"Feature","properties":{"hex_id":"821eeffffffffff","population":7816430,"population_year":2025,"area_km2":92775.6,"population_density":84.3,"all_players":3,"players_per_million":0.38,"player_ids":["tennis:wta:201514","tennis:wta:211713","tennis:wta:211817"],"label":"Bucharest","country":"Romania"},"geometry":{"type":"Polygon","coordinates":[[[25.532273,45.296738],[24.614981,43.76451],[26.072885,42.421413],[28.419296,42.593125],[29.387082,44.107766],[27.961374,45.468587],[25.532273,45.296738]]]}},{"type":"Feature","properties":{"hex_id":"821ef7fffffffff","population":5580375,"population_year":2025,"area_km2":93933.6,"population_density":59.4,"all_players":2,"players_per_million":0.36,"player_ids":["tennis:atp:106000","tennis:atp:209098"],"label":"Sarajevo","country":"Bosnia and Herzegovina"},"geometry":{"type":"Polygon","coordinates":[[[18.31474,44.47068],[17.543183,42.876114],[19.087059,41.616885],[21.399102,41.932468],[22.238177,43.517311],[20.700526,44.796864],[18.31474,44.47068]]]}},{"type":"Feature","properties":{"hex_id":"821f07fffffffff","population":6981829,"population_year":2025,"area_km2":73030.9,"population_density":95.6,"all_players":2,"players_per_million":0.29,"player_ids":["tennis:atp:208029","tennis:wta:220704"],"label":"Gentofte","country":"Denmark"},"geometry":{"type":"Polygon","coordinates":[[[10.065692,55.394879],[9.374531,53.975514],[11.24517,53.03204],[13.839529,53.487245],[14.640207,54.902182],[12.739823,55.867327],[10.065692,55.394879]]]}},{"type":"Feature","properties":{"hex_id":"821f17fffffffff","population":19193666,"population_year":2025,"area_km2":74863.4,"population_density":256.4,"all_players":3,"players_per_million":0.16,"player_ids":["tennis:atp:100644","tennis:atp:105526","tennis:wta:230870"],"label":"Hamburg","country":"Germany"},"geometry":{"type":"Polygon","coordinates":[[[6.848229,53.43156],[6.259687,51.96477],[8.088631,51.039696],[10.549623,51.56399],[11.24517,53.03204],[9.374531,53.975514],[6.848229,53.43156]]]}},{"type":"Feature","properties":{"hex_id":"821f4ffffffffff","population":4575430,"population_year":2025,"area_km2":76219.8,"population_density":60.0,"all_players":1,"players_per_million":0.22,"player_ids":["tennis:wta:214544"],"label":"Minsk","country":"Belarus"},"geometry":{"type":"Polygon","coordinates":[[[27.453627,54.866734],[26.370175,53.543763],[27.993406,52.327164],[30.654128,52.413789],[31.795225,53.716817],[30.223065,54.953382],[27.453627,54.866734]]]}},{"type":"Feature","properties":{"hex_id":"821f57fffffffff","population":8583259,"population_year":2025,"area_km2":77902.3,"population_density":110.2,"all_players":1,"players_per_million":0.12,"player_ids":["tennis:wta:216347"],"label":"Warsaw","country":"Poland"},"geometry":{"type":"Polygon","coordinates":[[[19.189333,54.224652],[18.289963,52.819052],[20.036282,51.703743],[22.6731,51.971887],[23.657106,53.363901],[21.924017,54.501998],[19.189333,54.224652]]]}},{"type":"Feature","properties":{"hex_id":"821f67fffffffff","population":1840881,"population_year":2025,"area_km2":70058.2,"population_density":26.3,"all_players":2,"players_per_million":1.09,"player_ids":["tennis:wta:211533","tennis:wta:221985"],"label":"Riga","country":"Latvia"},"geometry":{"type":"Polygon","coordinates":[[[22.144282,58.209221],[21.114076,56.920734],[22.931053,55.842561],[25.752737,56.027899],[26.868471,57.29788],[25.082722,58.401545],[22.144282,58.209221]]]}},{"type":"Feature","properties":{"hex_id":"821f87fffffffff","population":16111686,"population_year":2025,"area_km2":80847.5,"population_density":199.3,"all_players":3,"players_per_million":0.19,"player_ids":["tennis:atp:200005","tennis:wta:203530","tennis:wta:222391"],"label":"Metz","country":"France"},"geometry":{"type":"Polygon","coordinates":[[[5.163511,48.943764],[4.652435,47.393027],[6.371339,46.417017],[8.645314,46.977068],[9.251571,48.534678],[7.489806,49.526212],[5.163511,48.943764]]]}},{"type":"Feature","properties":{"hex_id":"821f8ffffffffff","population":12778297,"population_year":2025,"area_km2":84307.8,"population_density":151.6,"all_players":5,"players_per_million":0.39,"player_ids":["tennis:atp:206173","tennis:wta:202505","tennis:wta:211814","tennis:wta:213583","tennis:wta:215899"],"label":"Innichen","country":"Switzerland"},"geometry":{"type":"Polygon","coordinates":[[[9.251571,48.534678],[8.645314,46.977068],[10.343213,45.921928],[12.677318,46.406957],[13.374348,47.965938],[11.648396,49.039345],[9.251571,48.534678]]]}},{"type":"Feature","properties":{"hex_id":"821f97fffffffff","population":9069390,"population_year":2025,"area_km2":81458.9,"population_density":111.3,"all_players":2,"players_per_million":0.22,"player_ids":["tennis:atp:208659","tennis:wta:221039"],"label":"Lyon","country":"France"},"geometry":{"type":"Polygon","coordinates":[[[2.458902,46.763731],[2.026569,45.184249],[3.696702,44.221235],[5.848477,44.82547],[6.371339,46.417017],[4.652435,47.393027],[2.458902,46.763731]]]}},{"type":"Feature","properties":{"hex_id":"821f9ffffffffff","population":16398717,"population_year":2025,"area_km2":85294.5,"population_density":192.3,"all_players":2,"players_per_million":0.12,"player_ids":["tennis:atp:132283","tennis:atp:208233"],"label":"Turin","country":"Italy"},"geometry":{"type":"Polygon","coordinates":[[[6.371339,46.417017],[5.848477,44.82547],[7.509948,43.786609],[9.731941,44.323805],[10.343213,45.921928],[8.645314,46.977068],[6.371339,46.417017]]]}},{"type":"Feature","properties":{"hex_id":"821fa7fffffffff","population":28149582,"population_year":2025,"area_km2":76219.8,"population_density":369.3,"all_players":4,"players_per_million":0.14,"player_ids":["tennis:atp:127157","tennis:atp:200267","tennis:wta:210722","tennis:wta:214040"],"label":"Lommel","country":"Belgium"},"geometry":{"type":"Polygon","coordinates":[[[3.881134,51.360376],[3.384772,49.85377],[5.163511,48.943764],[7.489806,49.526212],[8.088631,51.039696],[6.259687,51.96477],[3.881134,51.360376]]]}},{"type":"Feature","properties":{"hex_id":"821faffffffffff","population":20512004,"population_year":2025,"area_km2":79647.5,"population_density":257.5,"all_players":1,"players_per_million":0.05,"player_ids":["tennis:wta:201696"],"label":"Filderstadt","country":"Germany"},"geometry":{"type":"Polygon","coordinates":[[[8.088631,51.039696],[7.489806,49.526212],[9.251571,48.534678],[11.648396,49.039345],[12.345747,50.554275],[10.549623,51.56399],[8.088631,51.039696]]]}},{"type":"Feature","properties":{"hex_id":"821fb7fffffffff","population":17326098,"population_year":2025,"area_km2":77926.1,"population_density":222.3,"all_players":7,"players_per_million":0.4,"player_ids":["tennis:atp:104792","tennis:atp:105173","tennis:atp:111460","tennis:atp:124186","tennis:atp:144895","tennis:atp:208316","tennis:atp:209950"],"label":"Neuilly-sur-Seine","country":"France"},"geometry":{"type":"Polygon","coordinates":[[[1.18851,49.470279],[0.764026,47.90745],[2.458902,46.763731],[4.652435,47.393027],[5.163511,48.943764],[3.384772,49.85377],[1.18851,49.470279]]]}},{"type":"Feature","properties":{"hex_id":"82262ffffffffff","population":2511826,"population_year":2025,"area_km2":87326.6,"population_density":28.8,"all_players":1,"players_per_million":0.4,"player_ids":["tennis:atp:209920"],"label":"Rochester, Minnesota","country":"United States"},"geometry":{"type":"Polygon","coordinates":[[[-93.418118,44.972526],[-95.464507,44.208686],[-95.412903,42.599409],[-93.458032,41.743249],[-91.476262,42.44496],[-91.384239,44.06279],[-93.418118,44.972526]]]}},{"type":"Feature","properties":{"hex_id":"822677fffffffff","population":1707453,"population_year":2025,"area_km2":85321.7,"population_density":20.0,"all_players":1,"players_per_million":0.59,"player_ids":["tennis:wta:201619"],"label":"Rock Island","country":"United States"},"geometry":{"type":"Polygon","coordinates":[[[-91.476262,42.44496],[-93.458032,41.743249],[-93.407414,40.114355],[-91.54335,39.225656],[-89.726216,39.947222],[-89.578398,41.518555],[-91.476262,42.44496]]]}},{"type":"Feature","properties":{"hex_id":"82274ffffffffff","population":6546722,"population_year":2025,"area_km2":89440.6,"population_density":73.2,"all_players":1,"players_per_million":0.15,"player_ids":["tennis:atp:124187"],"label":"St. Joseph","country":"United States"},"geometry":{"type":"Polygon","coordinates":[[[-85.090138,44.382483],[-87.290551,43.768738],[-87.526255,42.152917],[-85.703199,41.161269],[-83.600197,41.724215],[-83.224953,43.327485],[-85.090138,44.382483]]]}},{"type":"Feature","properties":{"hex_id":"822837fffffffff","population":14366819,"population_year":2025,"area_km2":89801.2,"population_density":160.0,"all_players":2,"players_per_million":0.14,"player_ids":["tennis:atp:202385","tennis:wta:220465"],"label":"Sacramento","country":"United States"},"geometry":{"type":"Polygon","coordinates":[[[-121.707157,36.574218],[-120.150308,37.778361],[-120.625018,39.393868],[-122.699099,39.784231],[-124.231246,38.566387],[-123.715986,36.972296],[-121.707157,36.574218]]]}},{"type":"Feature","properties":{"hex_id":"8229a7fffffffff","population":26139253,"population_year":2025,"area_km2":97556.0,"population_density":267.9,"all_players":7,"players_per_million":0.27,"player_ids":["tennis:atp:106218","tennis:atp:126203","tennis:atp:206909","tennis:atp:207182","tennis:atp:210506","tennis:atp:210530","tennis:wta:260300"],"label":"Rancho Santa Fe","country":"United States"},"geometry":{"type":"Polygon","coordinates":[[[-116.838302,32.260383],[-115.254005,33.431536],[-115.644549,35.13856],[-117.666441,35.65712],[-119.240554,34.468622],[-118.804528,32.779438],[-116.838302,32.260383]]]}},{"type":"Feature","properties":{"hex_id":"8229affffffffff","population":3828785,"population_year":2025,"area_km2":93933.6,"population_density":40.8,"all_players":1,"players_per_million":0.26,"player_ids":["tennis:atp:210319"],"label":"Fresno","country":"United States"},"geometry":{"type":"Polygon","coordinates":[[[-119.240554,34.468622],[-117.666441,35.65712],[-118.098739,37.321697],[-120.150308,37.778361],[-121.707157,36.574218],[-121.231482,34.929532],[-119.240554,34.468622]]]}},{"type":"Feature","properties":{"hex_id":"822a17fffffffff","population":30364242,"population_year":2025,"area_km2":87326.6,"population_density":347.7,"all_players":7,"players_per_million":0.23,"player_ids":["tennis:atp:126205","tennis:atp:206499","tennis:atp:208118","tennis:wta:211651","tennis:wta:215613","tennis:wta:215983","tennis:wta:216153"],"label":"New York City","country":"United States"},"geometry":{"type":"Polygon","coordinates":[[[-73.076912,42.400493],[-75.333452,42.029564],[-75.960619,40.480497],[-74.442775,39.340569],[-72.307877,39.686062],[-71.573772,41.195725],[-73.076912,42.400493]]]}},{"type":"Feature","properties":{"hex_id":"822a97fffffffff","population":8425121,"population_year":2025,"area_km2":85627.7,"population_density":98.4,"all_players":2,"players_per_million":0.24,"player_ids":["tennis:wta:216083","tennis:wta:220548"],"label":"Mason","country":"United States"},"geometry":{"type":"Polygon","coordinates":[[[-83.600197,41.724215],[-85.703199,41.161269],[-85.979328,39.596509],[-84.278055,38.60875],[-82.267059,39.125451],[-81.867503,40.674246],[-83.600197,41.724215]]]}},{"type":"Feature","properties":{"hex_id":"822aaffffffffff","population":16213426,"population_year":2025,"area_km2":84307.8,"population_density":192.3,"all_players":2,"players_per_million":0.12,"player_ids":["tennis:atp:126207","tennis:wta:221024"],"label":"Hyattsville","country":"United States"},"geometry":{"type":"Polygon","coordinates":[[[-75.960619,40.480497],[-78.104271,40.06406],[-78.619418,38.540002],[-77.099922,37.463561],[-75.063317,37.849069],[-74.442775,39.340569],[-75.960619,40.480497]]]}},{"type":"Feature","properties":{"hex_id":"822ab7fffffffff","population":10815218,"population_year":2025,"area_km2":89440.6,"population_density":120.9,"all_players":1,"players_per_million":0.09,"player_ids":["tennis:wta:233741"],"label":"Detroit","country":"United States"},"geometry":{"type":"Polygon","coordinates":[[[-80.982253,43.86012],[-83.224953,43.327485],[-83.600197,41.724215],[-81.867503,40.674246],[-79.734069,41.163834],[-79.227281,42.744533],[-80.982253,43.86012]]]}},{"type":"Feature","properties":{"hex_id":"822b9ffffffffff","population":11744141,"population_year":2025,"area_km2":92775.6,"population_density":126.6,"all_players":3,"players_per_million":0.26,"player_ids":["tennis:atp:126214","tennis:wta:202468","tennis:wta:221054"],"label":"Toronto","country":"Canada"},"geometry":{"type":"Polygon","coordinates":[[[-78.100366,45.982432],[-80.490261,45.49319],[-80.982253,43.86012],[-79.227281,42.744533],[-76.966258,43.195408],[-76.33587,44.798413],[-78.100366,45.982432]]]}},{"type":"Feature","properties":{"hex_id":"822baffffffffff","population":6643169,"population_year":2025,"area_km2":93933.6,"population_density":70.7,"all_players":3,"players_per_million":0.45,"player_ids":["tennis:atp:200000","tennis:atp:209113","tennis:wta:220367"],"label":"Montreal","country":"Canada"},"geometry":{"type":"Polygon","coordinates":[[[-70.65056,47.146099],[-73.17262,46.811656],[-73.944231,45.197835],[-72.323382,43.964363],[-69.955068,44.277849],[-69.060562,45.844655],[-70.65056,47.146099]]]}},{"type":"Feature","properties":{"hex_id":"822d47fffffffff","population":4364585,"population_year":2025,"area_km2":85294.5,"population_density":51.2,"all_players":1,"players_per_million":0.23,"player_ids":["tennis:atp:207686"],"label":"Rostov-on-Don","country":"Russia"},"geometry":{"type":"Polygon","coordinates":[[[38.692906,46.99246],[39.897167,45.559577],[42.146575,45.539505],[43.318144,46.98313],[42.14199,48.470618],[39.760902,48.458995],[38.692906,46.99246]]]}},{"type":"Feature","properties":{"hex_id":"822db7fffffffff","population":31744678,"population_year":2025,"area_km2":98815.5,"population_density":321.3,"all_players":1,"players_per_million":0.03,"player_ids":["tennis:atp:133430"],"label":"Tel Aviv","country":"Israel"},"geometry":{"type":"Polygon","coordinates":[[[33.851253,33.82016],[32.928331,32.240102],[34.073508,30.754985],[36.099347,30.835944],[37.042325,32.387471],[35.941661,33.88647],[33.851253,33.82016]]]}},{"type":"Feature","properties":{"hex_id":"822e67fffffffff","population":29949728,"population_year":2025,"area_km2":74863.4,"population_density":400.1,"all_players":1,"players_per_million":0.03,"player_ids":["tennis:wta:211768"],"label":"Chūō-ku","country":"Japan"},"geometry":{"type":"Polygon","coordinates":[[[138.240188,34.090249],[138.304265,35.714832],[136.756542,36.594877],[135.209181,35.840284],[135.213088,34.249062],[136.697641,33.378798],[138.240188,34.090249]]]}},{"type":"Feature","properties":{"hex_id":"822f5ffffffffff","population":40494200,"population_year":2025,"area_km2":79647.5,"population_density":508.4,"all_players":1,"players_per_million":0.02,"player_ids":["tennis:atp:208278"],"label":"Kawasaki","country":"Japan"},"geometry":{"type":"Polygon","coordinates":[[[141.379662,33.846135],[141.516472,35.500079],[139.948213,36.441778],[138.304265,35.714832],[138.240188,34.090249],[139.748325,33.162808],[141.379662,33.846135]]]}},{"type":"Feature","properties":{"hex_id":"823827fffffffff","population":4893624,"population_year":2025,"area_km2":87326.6,"population_density":56.0,"all_players":1,"players_per_million":0.2,"player_ids":["tennis:atp:207989"],"label":"El Palmar","country":"Spain"},"geometry":{"type":"Polygon","coordinates":[[[-1.416234,38.115997],[-3.311341,37.499409],[-3.584806,35.801656],[-2.027587,34.757091],[-0.211854,35.375671],[0.123807,37.036562],[-1.416234,38.115997]]]}},{"type":"Feature","properties":{"hex_id":"82386ffffffffff","population":6956653,"population_year":2025,"area_km2":96323.1,"population_density":72.2,"all_players":1,"players_per_million":0.14,"player_ids":["tennis:wta:202460"],"label":"Ksar Hellal","country":"Tunisia"},"geometry":{"type":"Polygon","coordinates":[[[9.598985,38.251433],[9.054678,36.567851],[10.558256,35.370372],[12.629035,35.836663],[13.244313,37.523712],[11.719175,38.741667],[9.598985,38.251433]]]}},{"type":"Feature","properties":{"hex_id":"82391ffffffffff","population":8248421,"population_year":2025,"area_km2":91641.3,"population_density":90.0,"all_players":1,"players_per_million":0.12,"player_ids":["tennis:atp:200221"],"label":"Málaga","country":"Spain"},"geometry":{"type":"Polygon","coordinates":[[[-4.963456,38.552712],[-6.898506,37.871743],[-7.101894,36.141695],[-5.442348,35.124424],[-3.584806,35.801656],[-3.311341,37.499409],[-4.963456,38.552712]]]}},{"type":"Feature","properties":{"hex_id":"823927fffffffff","population":6536997,"population_year":2025,"area_km2":93159.0,"population_density":70.2,"all_players":2,"players_per_million":0.31,"player_ids":["tennis:atp:132686","tennis:wta:222601"],"label":"Maia","country":"Portugal"},"geometry":{"type":"Polygon","coordinates":[[[-8.101589,44.050631],[-10.203219,43.356947],[-10.347941,41.63003],[-8.480681,40.6223],[-6.464182,41.30856],[-6.231988,43.009176],[-8.101589,44.050631]]]}},{"type":"Feature","properties":{"hex_id":"823957fffffffff","population":5978276,"population_year":2025,"area_km2":85321.7,"population_density":70.1,"all_players":2,"players_per_million":0.33,"player_ids":["tennis:atp:105138","tennis:atp:124079"],"label":"Castellón de la Plana","country":"Spain"},"geometry":{"type":"Polygon","coordinates":[[[-1.091146,39.784657],[-1.416234,38.115997],[0.123807,37.036562],[2.015255,37.664358],[2.409691,39.323588],[0.837298,40.335353],[-1.091146,39.784657]]]}},{"type":"Feature","properties":{"hex_id":"82395ffffffffff","population":1297971,"population_year":2025,"area_km2":88726.5,"population_density":14.6,"all_players":1,"players_per_million":0.77,"player_ids":["tennis:atp:144719"],"label":"Santanyí","country":"Spain"},"geometry":{"type":"Polygon","coordinates":[[[2.409691,39.323588],[2.015255,37.664358],[3.543589,36.597898],[5.50797,37.176342],[5.978055,38.850564],[4.408495,39.931959],[2.409691,39.323588]]]}},{"type":"Feature","properties":{"hex_id":"823967fffffffff","population":5102029,"population_year":2025,"area_km2":82416.4,"population_density":61.9,"all_players":1,"players_per_million":0.2,"player_ids":["tennis:atp:200384"],"label":"Toulouse","country":"France"},"geometry":{"type":"Polygon","coordinates":[[[-0.028005,44.712978],[-0.397973,43.08589],[1.216871,41.967575],[3.24935,42.604792],[3.696702,44.221235],[2.026569,45.184249],[-0.028005,44.712978]]]}},{"type":"Feature","properties":{"hex_id":"82396ffffffffff","population":6845595,"population_year":2025,"area_km2":85627.7,"population_density":79.9,"all_players":4,"players_per_million":0.58,"player_ids":["tennis:atp:126127","tennis:atp:126239","tennis:atp:200473","tennis:atp:209070"],"label":"Gassin","country":"France"},"geometry":{"type":"Polygon","coordinates":[[[3.696702,44.221235],[3.24935,42.604792],[4.868332,41.580315],[6.97784,42.158616],[7.509948,43.786609],[5.848477,44.82547],[3.696702,44.221235]]]}},{"type":"Feature","properties":{"hex_id":"823e67fffffffff","population":74086568,"population_year":2025,"area_km2":101417.2,"population_density":730.5,"all_players":1,"players_per_million":0.01,"player_ids":["tennis:wta:210886"],"label":"Cairo","country":"Egypt"},"geometry":{"type":"Polygon","coordinates":[[[30.84614,32.114366],[29.97458,30.494221],[31.156426,29.02702],[33.175397,29.162053],[34.073508,30.754985],[32.928331,32.240102],[30.84614,32.114366]]]}},{"type":"Feature","properties":{"hex_id":"824087fffffffff","population":22138896,"population_year":2025,"area_km2":73030.9,"population_density":303.1,"all_players":1,"players_per_million":0.05,"player_ids":["tennis:wta:221012"],"label":"Shiyan","country":"People's Republic of China"},"geometry":{"type":"Polygon","coordinates":[[[113.198506,32.33604],[113.430542,33.770896],[111.966036,34.789455],[110.247342,34.374792],[110.027044,32.927676],[111.513128,31.907057],[113.198506,32.33604]]]}},{"type":"Feature","properties":{"hex_id":"82411ffffffffff","population":84435088,"population_year":2025,"area_km2":84307.8,"population_density":1001.5,"all_players":1,"players_per_million":0.01,"player_ids":["tennis:wta:216133"],"label":"Shenzhen","country":"People's Republic of China"},"geometry":{"type":"Polygon","coordinates":[[[114.855932,22.520124],[115.085055,24.116355],[113.703767,25.199133],[112.070422,24.683011],[111.851065,23.06606],[113.254772,21.985685],[114.855932,22.520124]]]}},{"type":"Feature","properties":{"hex_id":"82441ffffffffff","population":5165806,"population_year":2025,"area_km2":82705.0,"population_density":62.5,"all_players":2,"players_per_million":0.39,"player_ids":["tennis:atp:200624","tennis:wta:203389"],"label":"Bradenton","country":"United States"},"geometry":{"type":"Polygon","coordinates":[[[-83.616841,26.242156],[-82.084301,26.984013],[-81.966494,28.631807],[-83.420798,29.571467],[-85.007143,28.83498],[-85.084348,27.153536],[-83.616841,26.242156]]]}},{"type":"Feature","properties":{"hex_id":"8244affffffffff","population":7848067,"population_year":2025,"area_km2":77902.3,"population_density":100.7,"all_players":1,"players_per_million":0.13,"player_ids":["tennis:wta:221103"],"label":"Delray Beach","country":"United States"},"geometry":{"type":"Polygon","coordinates":[[[-80.698565,26.062694],[-79.211732,26.761492],[-79.057436,28.372892],[-80.425375,29.321821],[-81.966494,28.631807],[-82.084301,26.984013],[-80.698565,26.062694]]]}},{"type":"Feature","properties":{"hex_id":"8244c7fffffffff","population":6948496,"population_year":2025,"area_km2":80847.5,"population_density":85.9,"all_players":2,"players_per_million":0.29,"player_ids":["tennis:atp:210097","tennis:wta:219917"],"label":"Atlanta","country":"United States"},"geometry":{"type":"Polygon","coordinates":[[[-83.318504,31.226884],[-81.720688,31.908012],[-81.592393,33.531156],[-83.104736,34.505705],[-84.761579,33.833075],[-84.845862,32.177532],[-83.318504,31.226884]]]}},{"type":"Feature","properties":{"hex_id":"8244cffffffffff","population":5279881,"population_year":2025,"area_km2":81458.9,"population_density":64.8,"all_players":1,"players_per_million":0.19,"player_ids":["tennis:wta:220520"],"label":"Calhoun","country":"United States"},"geometry":{"type":"Polygon","coordinates":[[[-84.761579,33.833075],[-83.104736,34.505705],[-82.992984,36.123996],[-84.585167,37.099589],[-86.303213,36.434527],[-86.366648,34.786557],[-84.761579,33.833075]]]}},{"type":"Feature","properties":{"hex_id":"8244dffffffffff","population":7412190,"population_year":2025,"area_km2":77926.1,"population_density":95.1,"all_players":1,"players_per_million":0.13,"player_ids":["tennis:wta:239475"],"label":"Charlotte","country":"United States"},"geometry":{"type":"Polygon","coordinates":[[[-81.592393,33.531156],[-79.985888,34.15372],[-79.557618,35.583567],[-81.068449,36.598719],[-82.992984,36.123996],[-83.104736,34.505705],[-81.592393,33.531156]]]}},{"type":"Feature","properties":{"hex_id":"824997fffffffff","population":36941748,"population_year":2025,"area_km2":99241.3,"population_density":372.2,"all_players":1,"players_per_million":0.03,"player_ids":["tennis:wta:213887"],"label":"Mexico City","country":"Mexico"},"geometry":{"type":"Polygon","coordinates":[[[-97.591937,18.289686],[-96.05021,19.269007],[-96.130285,21.025118],[-97.798077,21.815236],[-99.372387,20.819245],[-99.246183,19.050422],[-97.591937,18.289686]]]}},{"type":"Feature","properties":{"hex_id":"826507fffffffff","population":16316980,"population_year":2025,"area_km2":101417.2,"population_density":160.9,"all_players":1,"players_per_million":0.06,"player_ids":["tennis:wta:220416"],"label":"Kuala Lumpur","country":"Malaysia"},"geometry":{"type":"Polygon","coordinates":[[[103.391464,3.021473],[103.562917,4.785999],[102.110437,5.805283],[100.482799,5.043918],[100.325985,3.267721],[101.781836,2.264143],[103.391464,3.021473]]]}},{"type":"Feature","properties":{"hex_id":"82661ffffffffff","population":7780378,"population_year":2025,"area_km2":89801.2,"population_density":86.6,"all_players":1,"players_per_million":0.13,"player_ids":["tennis:wta:215306"],"label":"Medellín","country":"Colombia"},"geometry":{"type":"Polygon","coordinates":[[[-76.209101,8.107689],[-77.602263,7.212914],[-77.440699,5.563142],[-75.87276,4.821344],[-74.485771,5.737922],[-74.660215,7.374064],[-76.209101,8.107689]]]}},{"type":"Feature","properties":{"hex_id":"82662ffffffffff","population":4027206,"population_year":2025,"area_km2":82705.0,"population_density":48.7,"all_players":1,"players_per_million":0.25,"player_ids":["tennis:wta:215785"],"label":"Cúcuta","country":"Colombia"},"geometry":{"type":"Polygon","coordinates":[[[-72.136993,10.670248],[-73.475279,9.837525],[-73.297376,8.250538],[-71.770072,7.513552],[-70.443514,8.370077],[-70.63217,9.939436],[-72.136993,10.670248]]]}},{"type":"Feature","properties":{"hex_id":"82694ffffffffff","population":24247750,"population_year":2025,"area_km2":89440.6,"population_density":271.1,"all_players":1,"players_per_million":0.04,"player_ids":["tennis:wta:223253"],"label":"Quezon City","country":"Philippines"},"geometry":{"type":"Polygon","coordinates":[[[121.18304,15.773842],[120.936616,14.106],[122.259784,13.112603],[123.854824,13.797501],[124.115521,15.488093],[122.767069,16.471189],[121.18304,15.773842]]]}},{"type":"Feature","properties":{"hex_id":"828c17fffffffff","population":67248248,"population_year":2025,"area_km2":87326.6,"population_density":770.1,"all_players":1,"players_per_million":0.01,"player_ids":["tennis:wta:222145"],"label":"Jakarta","country":"Indonesia"},"geometry":{"type":"Polygon","coordinates":[[[108.229928,-7.513552],[108.415879,-5.894708],[107.063382,-4.995193],[105.514229,-5.737922],[105.339785,-7.374064],[106.702624,-8.250538],[108.229928,-7.513552]]]}},{"type":"Feature","properties":{"hex_id":"829d0ffffffffff","population":281851,"population_year":2025,"area_km2":93933.6,"population_density":3.0,"all_players":1,"players_per_million":3.55,"player_ids":["tennis:atp:200443"],"label":"Home Hill","country":"Australia"},"geometry":{"type":"Polygon","coordinates":[[[148.908355,-21.368239],[149.1751,-19.686219],[147.744098,-18.672653],[146.041409,-19.302203],[145.721377,-20.964646],[147.156222,-22.017841],[148.908355,-21.368239]]]}},{"type":"Feature","properties":{"hex_id":"82a727fffffffff","population":1275914,"population_year":2025,"area_km2":68186.6,"population_density":18.7,"all_players":1,"players_per_million":0.78,"player_ids":["tennis:atp:209262"],"label":"Perth","country":"Australia"},"geometry":{"type":"Polygon","coordinates":[[[116.156806,-31.717896],[115.365356,-30.470522],[113.5891,-30.27389],[112.519247,-31.318696],[113.256895,-32.609931],[115.121218,-32.812717],[116.156806,-31.717896]]]}},{"type":"Feature","properties":{"hex_id":"82a817fffffffff","population":35227396,"population_year":2025,"area_km2":87326.6,"population_density":403.4,"all_players":1,"players_per_million":0.03,"player_ids":["tennis:wta:206242"],"label":"São Paulo","country":"Brazil"},"geometry":{"type":"Polygon","coordinates":[[[-46.329568,-25.285204],[-44.896021,-24.304788],[-45.204057,-22.710396],[-46.93561,-22.103817],[-48.35944,-23.093332],[-48.061859,-24.679886],[-46.329568,-25.285204]]]}},{"type":"Feature","properties":{"hex_id":"82a8a7fffffffff","population":15397379,"population_year":2025,"area_km2":88726.5,"population_density":173.5,"all_players":1,"players_per_million":0.06,"player_ids":["tennis:atp:211663"],"label":"Rio de Janeiro","country":"Brazil"},"geometry":{"type":"Polygon","coordinates":[[[-43.150153,-24.877664],[-41.71736,-23.859502],[-42.034051,-22.260838],[-43.775354,-21.684143],[-45.204057,-22.710396],[-44.896021,-24.304788],[-43.150153,-24.877664]]]}},{"type":"Feature","properties":{"hex_id":"82b307fffffffff","population":971904,"population_year":2025,"area_km2":92775.6,"population_density":10.5,"all_players":1,"players_per_million":1.03,"player_ids":["tennis:atp:106426"],"label":"Arica","country":"Chile"},"geometry":{"type":"Polygon","coordinates":[[[-70.420211,-17.44972],[-71.860208,-18.520006],[-71.658692,-20.223235],[-70.00489,-20.836911],[-68.581567,-19.760708],[-68.794887,-18.077041],[-70.420211,-17.44972]]]}},{"type":"Feature","properties":{"hex_id":"82bcc7fffffffff","population":16401038,"population_year":2025,"area_km2":95515.4,"population_density":171.7,"all_players":1,"players_per_million":0.06,"player_ids":["tennis:atp:111815"],"label":"Johannesburg","country":"South Africa"},"geometry":{"type":"Polygon","coordinates":[[[29.424697,-28.585894],[30.161044,-27.015106],[28.952033,-25.669244],[27.013681,-25.892672],[26.259296,-27.461202],[27.460057,-28.808795],[29.424697,-28.585894]]]}},{"type":"Feature","properties":{"hex_id":"82be0ffffffffff","population":6793674,"population_year":2025,"area_km2":104135.0,"population_density":65.2,"all_players":3,"players_per_million":0.44,"player_ids":["tennis:atp:126846","tennis:atp:200282","tennis:atp:200615"],"label":"Sydney","country":"Australia"},"geometry":{"type":"Polygon","coordinates":[[[152.177285,-35.125129],[152.420459,-33.332138],[150.704674,-32.253721],[148.729494,-32.935272],[148.409969,-34.714468],[150.140595,-35.826845],[152.177285,-35.125129]]]}},{"type":"Feature","properties":{"hex_id":"82c21ffffffffff","population":718809,"population_year":2025,"area_km2":56786.6,"population_density":12.7,"all_players":3,"players_per_million":4.17,"player_ids":["tennis:atp:207681","tennis:atp:209260","tennis:wta:221333"],"label":"Mar del Plata","country":"Argentina"},"geometry":{"type":"Polygon","coordinates":[[[-56.300463,-38.517762],[-54.888123,-37.903324],[-55.164004,-36.642936],[-56.837235,-36.005614],[-58.223405,-36.629598],[-57.962724,-37.880975],[-56.300463,-38.517762]]]}},{"type":"Feature","properties":{"hex_id":"82c2e7fffffffff","population":16637306,"population_year":2025,"area_km2":59429.4,"population_density":280.0,"all_players":5,"players_per_million":0.3,"player_ids":["tennis:atp:144869","tennis:atp:200116","tennis:atp:202103","tennis:atp:202104","tennis:atp:207678"],"label":"Buenos Aires","country":"Argentina"},"geometry":{"type":"Polygon","coordinates":[[[-58.223405,-36.629598],[-56.837235,-36.005614],[-57.102564,-34.700194],[-58.738685,-34.029993],[-60.04313,-35.087873],[-59.788176,-36.394827],[-58.223405,-36.629598]]]}},{"type":"Feature","properties":{"hex_id":"82c35ffffffffff","population":427773,"population_year":2025,"area_km2":61279.2,"population_density":7.0,"all_players":1,"players_per_million":2.34,"player_ids":["tennis:atp:208363"],"label":"9 de Julio","country":"Argentina"},"geometry":{"type":"Polygon","coordinates":[[[-61.634178,-34.802491],[-63.007756,-35.842443],[-62.759792,-37.162506],[-61.130701,-37.429854],[-59.788176,-36.394827],[-60.04313,-35.087873],[-61.634178,-34.802491]]]}},{"type":"Feature","properties":{"hex_id":"82da8ffffffffff","population":5997,"population_year":2025,"area_km2":95515.4,"population_density":0.1,"all_players":1,"players_per_million":166.75,"player_ids":["tennis:wta:215138"],"label":"Te Anau","country":"New Zealand"},"geometry":{"type":"Polygon","coordinates":[[[167.917904,-46.055866],[167.812345,-44.343676],[165.698836,-43.569029],[163.614305,-44.491235],[163.615367,-46.218991],[165.806823,-47.010136],[167.917904,-46.055866]]]}}]}