{"type":"FeatureCollection","metadata":{"population_source":"WorldPop Global 2 R2025A","population_source_url":"https://hub.worldpop.org/project/categories?id=3","population_license":"CC BY 4.0","population_year":2025,"raster_resolution":"1km","h3_resolution":1,"population_method":"official_country_rasters","occupied_cells":55,"mapped_players":199},"features":[{"type":"Feature","properties":{"hex_id":"8109bffffffffff","population":4354591,"population_year":2025,"area_km2":447684.2,"population_density":9.7,"all_players":1,"players_per_million":0.23,"player_ids":["tennis:atp:134770"],"label":"Oslo","country":"Norway"},"geometry":{"type":"Polygon","coordinates":[[[4.012621,63.327061],[-2.297526,61.54551],[-0.931587,57.689497],[5.523647,55.706768],[11.555978,58.130531],[11.08066,61.540515],[8.644221,61.890838],[4.012621,63.327061]]]}},{"type":"Feature","properties":{"hex_id":"810bbffffffffff","population":8932382,"population_year":2025,"area_km2":666617.1,"population_density":13.4,"all_players":1,"players_per_million":0.11,"player_ids":["tennis:wta:259799"],"label":"Krasnoyarsk","country":"Russia"},"geometry":{"type":"Polygon","coordinates":[[[77.086922,58.009332],[80.202852,53.696279],[87.772964,52.654203],[93.387021,55.707268],[91.709638,60.139795],[82.82708,61.436708],[77.086922,58.009332]]]}},{"type":"Feature","properties":{"hex_id":"8110bffffffffff","population":17682128,"population_year":2025,"area_km2":647632.6,"population_density":27.3,"all_players":6,"players_per_million":0.34,"player_ids":["tennis:wta:201499","tennis:wta:206368","tennis:wta:214082","tennis:wta:215713","tennis:wta:221407","tennis:wta:223670"],"label":"Zhigulyovsk","country":"Russia"},"geometry":{"type":"Polygon","coordinates":[[[42.136829,51.409437],[47.038223,48.339942],[53.670494,49.372118],[56.286118,53.745323],[51.151314,57.156372],[43.547482,55.820804],[42.136829,51.409437]]]}},{"type":"Feature","properties":{"hex_id":"8110fffffffffff","population":15835980,"population_year":2025,"area_km2":666617.1,"population_density":23.8,"all_players":1,"players_per_million":0.06,"player_ids":["tennis:wta:206420"],"label":"Chelyabinsk","country":"Russia"},"geometry":{"type":"Polygon","coordinates":[[[51.151314,57.156372],[56.286118,53.745323],[64.158618,54.257565],[68.256323,58.319104],[63.444622,62.11439],[53.982547,61.440921],[51.151314,57.156372]]]}},{"type":"Feature","properties":{"hex_id":"81113ffffffffff","population":12600486,"population_year":2025,"area_km2":510516.1,"population_density":24.7,"all_players":1,"players_per_million":0.08,"player_ids":["tennis:atp:122330"],"label":"Gatchina","country":"Russia"},"geometry":{"type":"Polygon","coordinates":[[[25.082722,58.401545],[31.095814,56.470005],[37.661108,58.480663],[38.741468,62.771655],[31.517537,64.873037],[24.517172,62.478113],[25.082722,58.401545]]]}},{"type":"Feature","properties":{"hex_id":"81117ffffffffff","population":1086228,"population_year":2025,"area_km2":523941.7,"population_density":2.1,"all_players":1,"players_per_million":0.92,"player_ids":["tennis:wta:214643"],"label":"Olenegorsk","country":"Russia"},"geometry":{"type":"Polygon","coordinates":[[[31.517537,64.873037],[38.741468,62.771655],[47.556244,64.441746],[50.524201,68.529879],[46.472291,69.828553],[41.097497,70.96472],[31.83128,68.929958],[31.517537,64.873037]]]}},{"type":"Feature","properties":{"hex_id":"8111bffffffffff","population":41364282,"population_year":2025,"area_km2":565620.1,"population_density":73.1,"all_players":10,"players_per_million":0.24,"player_ids":["tennis:atp:106421","tennis:atp:111575","tennis:atp:126094","tennis:wta:201709","tennis:wta:213550","tennis:wta:214939","tennis:wta:214981","tennis:wta:215020","tennis:wta:219875","tennis:wta:221236"],"label":"Moscow","country":"Russia"},"geometry":{"type":"Polygon","coordinates":[[[30.654128,52.413789],[36.116724,49.779343],[42.136829,51.409437],[43.547482,55.820804],[37.661108,58.480663],[31.095814,56.470005],[31.017704,54.340219],[30.654128,52.413789]]]}},{"type":"Feature","properties":{"hex_id":"81187ffffffffff","population":21776966,"population_year":2025,"area_km2":595741.2,"population_density":36.6,"all_players":1,"players_per_million":0.05,"player_ids":["tennis:atp:105807"],"label":"Gijón","country":"Spain"},"geometry":{"type":"Polygon","coordinates":[[[-4.88976,51.223728],[-9.724736,48.430094],[-8.101589,44.050631],[-2.417796,42.54048],[2.026569,45.184249],[1.18851,49.470279],[-4.88976,51.223728]]]}},{"type":"Feature","properties":{"hex_id":"81197ffffffffff","population":88036357,"population_year":2025,"area_km2":523941.7,"population_density":168.0,"all_players":10,"players_per_million":0.11,"player_ids":["tennis:atp:122298","tennis:atp:134868","tennis:atp:207411","tennis:atp:207733","tennis:atp:207985","tennis:atp:209279","tennis:wta:211107","tennis:wta:215480","tennis:wta:215936","tennis:wta:222661"],"label":"Haarlem","country":"United Kingdom"},"geometry":{"type":"Polygon","coordinates":[[[-0.931587,57.689497],[-6.436337,55.37739],[-4.88976,51.223728],[1.18851,49.470279],[3.630009,50.610463],[6.259687,51.96477],[5.523647,55.706768],[-0.931587,57.689497]]]}},{"type":"Feature","properties":{"hex_id":"811e3ffffffffff","population":71057199,"population_year":2025,"area_km2":595741.2,"population_density":119.3,"all_players":26,"players_per_million":0.37,"player_ids":["tennis:atp:105916","tennis:atp:111513","tennis:atp:111794","tennis:atp:128034","tennis:atp:206681","tennis:atp:207494","tennis:atp:207830","tennis:atp:208103","tennis:atp:209209","tennis:atp:210150","tennis:wta:201548","tennis:wta:202499","tennis:wta:206252","tennis:wta:211684","tennis:wta:211685","tennis:wta:211701","tennis:wta:213631","tennis:wta:213646","tennis:wta:214096","tennis:wta:214388","tennis:wta:214954","tennis:wta:215219","tennis:wta:222045","tennis:wta:222328","tennis:wta:238184","tennis:wta:239383"],"label":"Prague","country":"Czech Republic"},"geometry":{"type":"Polygon","coordinates":[[[12.345747,50.554275],[12.677318,46.406957],[18.31474,44.47068],[24.013384,46.595885],[24.329,50.776322],[18.289963,52.819052],[12.345747,50.554275]]]}},{"type":"Feature","properties":{"hex_id":"811e7ffffffffff","population":33092235,"population_year":2025,"area_km2":595741.2,"population_density":55.5,"all_players":5,"players_per_million":0.15,"player_ids":["tennis:wta:202494","tennis:wta:213710","tennis:wta:215035","tennis:wta:216146","tennis:wta:220332"],"label":"Odesa","country":"Ukraine"},"geometry":{"type":"Polygon","coordinates":[[[24.329,50.776322],[24.013384,46.595885],[29.387082,44.107766],[35.197789,45.672385],[36.116724,49.779343],[30.654128,52.413789],[24.329,50.776322]]]}},{"type":"Feature","properties":{"hex_id":"811ebffffffffff","population":42059136,"population_year":2025,"area_km2":647632.6,"population_density":64.9,"all_players":8,"players_per_million":0.19,"player_ids":["tennis:atp:105227","tennis:atp:126610","tennis:atp:207518","tennis:atp:207925","tennis:atp:208134","tennis:atp:208286","tennis:wta:211148","tennis:wta:220714"],"label":"Carrara","country":"Italy"},"geometry":{"type":"Polygon","coordinates":[[[7.509948,43.786609],[8.045142,39.402136],[13.244313,37.523712],[18.32526,39.988178],[18.31474,44.47068],[12.677318,46.406957],[7.509948,43.786609]]]}},{"type":"Feature","properties":{"hex_id":"811efffffffffff","population":50991723,"population_year":2025,"area_km2":666617.1,"population_density":76.5,"all_players":11,"players_per_million":0.22,"player_ids":["tennis:atp:104925","tennis:atp:105777","tennis:atp:106000","tennis:atp:126774","tennis:atp:200175","tennis:atp:209098","tennis:wta:201514","tennis:wta:206289","tennis:wta:211713","tennis:wta:211817","tennis:wta:215337"],"label":"Belgrade","country":"Serbia"},"geometry":{"type":"Polygon","coordinates":[[[18.31474,44.47068],[18.32526,39.988178],[23.474781,37.630343],[28.846869,39.643311],[29.387082,44.107766],[24.013384,46.595885],[18.31474,44.47068]]]}},{"type":"Feature","properties":{"hex_id":"811f3ffffffffff","population":49754999,"population_year":2025,"area_km2":510516.1,"population_density":97.5,"all_players":5,"players_per_million":0.1,"player_ids":["tennis:atp:100644","tennis:atp:208029","tennis:wta:202663","tennis:wta:220704","tennis:wta:230870"],"label":"Hamburg","country":"Germany"},"geometry":{"type":"Polygon","coordinates":[[[5.523647,55.706768],[6.259687,51.96477],[12.345747,50.554275],[18.289963,52.819052],[18.275236,56.632953],[11.555978,58.130531],[5.523647,55.706768]]]}},{"type":"Feature","properties":{"hex_id":"811f7ffffffffff","population":25290714,"population_year":2025,"area_km2":523941.7,"population_density":48.3,"all_players":4,"players_per_million":0.16,"player_ids":["tennis:wta:211533","tennis:wta:214544","tennis:wta:216347","tennis:wta:221985"],"label":"Riga","country":"Latvia"},"geometry":{"type":"Polygon","coordinates":[[[18.275236,56.632953],[18.289963,52.819052],[24.329,50.776322],[30.654128,52.413789],[31.017704,54.340219],[31.095814,56.470005],[25.082722,58.401545],[18.275236,56.632953]]]}},{"type":"Feature","properties":{"hex_id":"811fbffffffffff","population":119418410,"population_year":2025,"area_km2":565620.1,"population_density":211.1,"all_players":25,"players_per_million":0.21,"player_ids":["tennis:atp:104792","tennis:atp:105173","tennis:atp:105526","tennis:atp:111460","tennis:atp:124186","tennis:atp:127157","tennis:atp:132283","tennis:atp:144895","tennis:atp:200005","tennis:atp:200267","tennis:atp:206173","tennis:atp:208233","tennis:atp:208316","tennis:atp:208659","tennis:atp:209950","tennis:wta:201696","tennis:wta:202505","tennis:wta:203530","tennis:wta:210722","tennis:wta:211814","tennis:wta:213583","tennis:wta:214040","tennis:wta:215899","tennis:wta:221039","tennis:wta:222391"],"label":"Neuilly-sur-Seine","country":"France"},"geometry":{"type":"Polygon","coordinates":[[[1.18851,49.470279],[2.026569,45.184249],[7.509948,43.786609],[12.677318,46.406957],[12.345747,50.554275],[6.259687,51.96477],[3.630009,50.610463],[1.18851,49.470279]]]}},{"type":"Feature","properties":{"hex_id":"81263ffffffffff","population":10240947,"population_year":2025,"area_km2":614937.0,"population_density":16.7,"all_players":1,"players_per_million":0.1,"player_ids":["tennis:atp:209920"],"label":"Rochester, Minnesota","country":"United States"},"geometry":{"type":"Polygon","coordinates":[[[-99.917049,47.471519],[-102.323756,45.197628],[-103.535954,44.08338],[-101.04033,40.088597],[-95.246862,39.326803],[-92.81941,41.451207],[-91.476262,42.44496],[-93.395849,46.63002],[-99.917049,47.471519]]]}},{"type":"Feature","properties":{"hex_id":"81267ffffffffff","population":25791718,"population_year":2025,"area_km2":602082.0,"population_density":42.8,"all_players":1,"players_per_million":0.04,"player_ids":["tennis:wta:201619"],"label":"Rock Island","country":"United States"},"geometry":{"type":"Polygon","coordinates":[[[-88.065886,34.059836],[-84.585167,37.099589],[-85.703199,41.161269],[-91.476262,42.44496],[-92.81941,41.451207],[-95.246862,39.326803],[-93.265212,35.090108],[-88.065886,34.059836]]]}},{"type":"Feature","properties":{"hex_id":"81277ffffffffff","population":23070026,"population_year":2025,"area_km2":647632.6,"population_density":35.6,"all_players":1,"players_per_million":0.04,"player_ids":["tennis:atp:124187"],"label":"St. Joseph","country":"United States"},"geometry":{"type":"Polygon","coordinates":[[[-88.654124,49.812423],[-93.395849,46.63002],[-91.476262,42.44496],[-85.703199,41.161269],[-80.982253,43.86012],[-81.919627,48.295316],[-88.654124,49.812423]]]}},{"type":"Feature","properties":{"hex_id":"81283ffffffffff","population":15759816,"population_year":2025,"area_km2":595741.2,"population_density":26.5,"all_players":2,"players_per_million":0.13,"player_ids":["tennis:atp:202385","tennis:wta:220465"],"label":"Sacramento","country":"United States"},"geometry":{"type":"Polygon","coordinates":[[[-121.707157,36.574218],[-119.002282,40.570572],[-122.134831,44.057691],[-127.958662,43.419208],[-130.222638,39.442424],[-127.138101,36.079796],[-121.707157,36.574218]]]}},{"type":"Feature","properties":{"hex_id":"8129bffffffffff","population":31485482,"population_year":2025,"area_km2":666617.1,"population_density":47.2,"all_players":7,"players_per_million":0.22,"player_ids":["tennis:atp:106218","tennis:atp:126203","tennis:atp:207182","tennis:atp:210319","tennis:atp:210506","tennis:atp:210530","tennis:wta:260300"],"label":"Rancho Santa Fe","country":"United States"},"geometry":{"type":"Polygon","coordinates":[[[-113.268008,32.856905],[-110.257485,36.800197],[-113.046271,40.72062],[-119.002282,40.570572],[-121.707157,36.574218],[-118.804528,32.779438],[-113.268008,32.856905]]]}},{"type":"Feature","properties":{"hex_id":"812a3ffffffffff","population":39671228,"population_year":2025,"area_km2":595741.2,"population_density":66.6,"all_players":6,"players_per_million":0.15,"player_ids":["tennis:atp:126205","tennis:atp:206499","tennis:atp:208118","tennis:wta:211651","tennis:wta:215613","tennis:wta:216153"],"label":"New York City","country":"United States"},"geometry":{"type":"Polygon","coordinates":[[[-69.955068,44.277849],[-75.333452,42.029564],[-75.063317,37.849069],[-70.311412,35.933887],[-65.448142,37.822091],[-64.835193,41.948534],[-69.955068,44.277849]]]}},{"type":"Feature","properties":{"hex_id":"812abffffffffff","population":54889027,"population_year":2025,"area_km2":595741.2,"population_density":92.1,"all_players":7,"players_per_million":0.13,"player_ids":["tennis:atp:126207","tennis:wta:202468","tennis:wta:215983","tennis:wta:216083","tennis:wta:220548","tennis:wta:221024","tennis:wta:233741"],"label":"Hyattsville","country":"United States"},"geometry":{"type":"Polygon","coordinates":[[[-80.982253,43.86012],[-85.703199,41.161269],[-84.585167,37.099589],[-79.557618,35.583567],[-75.063317,37.849069],[-75.333452,42.029564],[-80.982253,43.86012]]]}},{"type":"Feature","properties":{"hex_id":"812bbffffffffff","population":23927662,"population_year":2025,"area_km2":666617.1,"population_density":35.9,"all_players":5,"players_per_million":0.21,"player_ids":["tennis:atp:126214","tennis:atp:200000","tennis:atp:209113","tennis:wta:220367","tennis:wta:221054"],"label":"Montreal","country":"Canada"},"geometry":{"type":"Polygon","coordinates":[[[-76.057729,50.990211],[-81.919627,48.295316],[-80.982253,43.86012],[-75.333452,42.029564],[-69.955068,44.277849],[-69.719479,48.757432],[-76.057729,50.990211]]]}},{"type":"Feature","properties":{"hex_id":"812d7ffffffffff","population":24372623,"population_year":2025,"area_km2":602082.0,"population_density":40.5,"all_players":1,"players_per_million":0.04,"player_ids":["tennis:atp:207686"],"label":"Rostov-on-Don","country":"Russia"},"geometry":{"type":"Polygon","coordinates":[[[35.197789,45.672385],[39.938746,42.736298],[41.788831,43.124283],[45.504839,43.945519],[47.038223,48.339942],[42.136829,51.409437],[36.116724,49.779343],[35.197789,45.672385]]]}},{"type":"Feature","properties":{"hex_id":"812dbffffffffff","population":70393013,"population_year":2025,"area_km2":666617.1,"population_density":105.6,"all_players":1,"players_per_million":0.01,"player_ids":["tennis:atp:133430"],"label":"Tel Aviv","country":"Israel"},"geometry":{"type":"Polygon","coordinates":[[[33.614584,36.858664],[32.928331,32.240102],[37.164282,29.339076],[42.026294,30.891357],[43.074401,35.326156],[38.930218,38.400687],[33.614584,36.858664]]]}},{"type":"Feature","properties":{"hex_id":"812e7ffffffffff","population":52072688,"population_year":2025,"area_km2":510516.1,"population_density":102.0,"all_players":1,"players_per_million":0.02,"player_ids":["tennis:wta:211768"],"label":"Chūō-ku","country":"Japan"},"geometry":{"type":"Polygon","coordinates":[[[139.948213,36.441778],[138.515018,40.617501],[133.570126,41.410447],[130.657533,38.194564],[132.308377,34.331159],[136.697641,33.378798],[139.948213,36.441778]]]}},{"type":"Feature","properties":{"hex_id":"812f7ffffffffff","population":38419612,"population_year":2025,"area_km2":565620.1,"population_density":67.9,"all_players":1,"players_per_million":0.03,"player_ids":["tennis:atp:208278"],"label":"Kawasaki","country":"Japan"},"geometry":{"type":"Polygon","coordinates":[[[145.91104,30.789834],[144.831325,35.18743],[139.948213,36.441778],[136.697641,33.378798],[137.3956,31.331749],[137.800087,29.424814],[142.433222,27.949606],[145.91104,30.789834]]]}},{"type":"Feature","properties":{"hex_id":"81383ffffffffff","population":31514301,"population_year":2025,"area_km2":614937.0,"population_density":51.2,"all_players":1,"players_per_million":0.03,"player_ids":["tennis:atp:207989"],"label":"El Palmar","country":"Spain"},"geometry":{"type":"Polygon","coordinates":[[[-5.442348,35.124424],[-4.341769,30.698974],[-1.240802,29.828776],[0.260947,29.300375],[4.204174,32.110107],[3.543589,36.597898],[0.238716,37.588846],[-1.416234,38.115997],[-5.442348,35.124424]]]}},{"type":"Feature","properties":{"hex_id":"81387ffffffffff","population":36845141,"population_year":2025,"area_km2":666617.1,"population_density":55.3,"all_players":1,"players_per_million":0.03,"player_ids":["tennis:wta:202460"],"label":"Ksar Hellal","country":"Tunisia"},"geometry":{"type":"Polygon","coordinates":[[[3.543589,36.597898],[4.204174,32.110107],[8.974636,30.254841],[13.48858,32.875015],[13.244313,37.523712],[8.045142,39.402136],[3.543589,36.597898]]]}},{"type":"Feature","properties":{"hex_id":"81393ffffffffff","population":34532782,"population_year":2025,"area_km2":647632.6,"population_density":53.3,"all_players":3,"players_per_million":0.09,"player_ids":["tennis:atp:132686","tennis:atp:200221","tennis:wta:222601"],"label":"Málaga","country":"Spain"},"geometry":{"type":"Polygon","coordinates":[[[-8.101589,44.050631],[-12.384127,40.869133],[-10.744488,36.38323],[-5.442348,35.124424],[-1.416234,38.115997],[-2.417796,42.54048],[-8.101589,44.050631]]]}},{"type":"Feature","properties":{"hex_id":"81397ffffffffff","population":31465600,"population_year":2025,"area_km2":602082.0,"population_density":52.3,"all_players":8,"players_per_million":0.25,"player_ids":["tennis:atp:105138","tennis:atp:124079","tennis:atp:126127","tennis:atp:126239","tennis:atp:144719","tennis:atp:200384","tennis:atp:200473","tennis:atp:209070"],"label":"Gassin","country":"France"},"geometry":{"type":"Polygon","coordinates":[[[-2.417796,42.54048],[-1.416234,38.115997],[0.238716,37.588846],[3.543589,36.597898],[8.045142,39.402136],[7.509948,43.786609],[2.026569,45.184249],[-2.417796,42.54048]]]}},{"type":"Feature","properties":{"hex_id":"813e7ffffffffff","population":111131590,"population_year":2025,"area_km2":707475.0,"population_density":157.1,"all_players":1,"players_per_million":0.01,"player_ids":["tennis:wta:210886"],"label":"Cairo","country":"Egypt"},"geometry":{"type":"Polygon","coordinates":[[[27.91173,30.313709],[27.504443,25.566739],[31.724402,22.868397],[36.387576,24.725676],[37.164282,29.339076],[32.928331,32.240102],[27.91173,30.313709]]]}},{"type":"Feature","properties":{"hex_id":"8140bffffffffff","population":191913808,"population_year":2025,"area_km2":510516.1,"population_density":375.9,"all_players":1,"players_per_million":0.01,"player_ids":["tennis:wta:221012"],"label":"Shiyan","country":"People's Republic of China"},"geometry":{"type":"Polygon","coordinates":[[[116.2613,31.680908],[115.340961,35.522424],[110.694611,37.163896],[106.967721,34.902991],[108.088674,30.953537],[112.740922,29.367232],[116.2613,31.680908]]]}},{"type":"Feature","properties":{"hex_id":"81413ffffffffff","population":120800976,"population_year":2025,"area_km2":595741.2,"population_density":202.8,"all_players":1,"players_per_million":0.01,"player_ids":["tennis:wta:216133"],"label":"Shenzhen","country":"People's Republic of China"},"geometry":{"type":"Polygon","coordinates":[[[118.803002,19.252195],[117.990477,23.508952],[113.703767,25.199133],[110.205767,22.499632],[111.205113,18.077041],[115.517768,16.517912],[118.803002,19.252195]]]}},{"type":"Feature","properties":{"hex_id":"81443ffffffffff","population":10265740,"population_year":2025,"area_km2":595741.2,"population_density":17.2,"all_players":2,"players_per_million":0.19,"player_ids":["tennis:atp:200624","tennis:wta:203389"],"label":"Bradenton","country":"United States"},"geometry":{"type":"Polygon","coordinates":[[[-83.891248,21.244199],[-80.82969,24.429618],[-81.966494,28.631807],[-86.545778,29.759287],[-89.807712,26.426478],[-88.2959,22.120731],[-83.891248,21.244199]]]}},{"type":"Feature","properties":{"hex_id":"8144bffffffffff","population":13618822,"population_year":2025,"area_km2":510516.1,"population_density":26.7,"all_players":1,"players_per_million":0.07,"player_ids":["tennis:wta:221103"],"label":"Delray Beach","country":"United States"},"geometry":{"type":"Polygon","coordinates":[[[-76.831217,23.342863],[-73.868279,26.190449],[-74.640468,30.219492],[-78.735928,31.57726],[-81.966494,28.631807],[-80.82969,24.429618],[-76.831217,23.342863]]]}},{"type":"Feature","properties":{"hex_id":"8144fffffffffff","population":31558550,"population_year":2025,"area_km2":565620.1,"population_density":55.8,"all_players":4,"players_per_million":0.13,"player_ids":["tennis:atp:210097","tennis:wta:219917","tennis:wta:220520","tennis:wta:239475"],"label":"Atlanta","country":"United States"},"geometry":{"type":"Polygon","coordinates":[[[-81.966494,28.631807],[-78.735928,31.57726],[-79.270109,33.659462],[-79.557618,35.583567],[-84.585167,37.099589],[-88.065886,34.059836],[-86.545778,29.759287],[-81.966494,28.631807]]]}},{"type":"Feature","properties":{"hex_id":"81487ffffffffff","population":7407980,"population_year":2025,"area_km2":707475.0,"population_density":10.5,"all_players":1,"players_per_million":0.13,"player_ids":["tennis:atp:206909"],"label":"San Diego","country":"United States"},"geometry":{"type":"Polygon","coordinates":[[[-113.460448,24.671634],[-110.662618,28.72381],[-113.268008,32.856905],[-118.804528,32.779438],[-121.336628,28.653019],[-118.632643,24.676155],[-113.460448,24.671634]]]}},{"type":"Feature","properties":{"hex_id":"8149bffffffffff","population":82320512,"population_year":2025,"area_km2":707475.0,"population_density":116.4,"all_players":1,"players_per_million":0.01,"player_ids":["tennis:wta:213887"],"label":"Mexico City","country":"Mexico"},"geometry":{"type":"Polygon","coordinates":[[[-99.004086,15.55132],[-96.05021,19.269007],[-97.905634,23.589794],[-103.011626,24.121727],[-105.946435,20.212679],[-103.819339,15.969878],[-99.004086,15.55132]]]}},{"type":"Feature","properties":{"hex_id":"81653ffffffffff","population":56430944,"population_year":2025,"area_km2":707475.0,"population_density":79.8,"all_players":1,"players_per_million":0.02,"player_ids":["tennis:wta:220416"],"label":"Kuala Lumpur","country":"Malaysia"},"geometry":{"type":"Polygon","coordinates":[[[106.411683,2.770303],[105.357168,7.303219],[100.801361,8.618891],[97.373041,5.289412],[98.560859,0.741795],[103.053645,-0.468955],[106.411683,2.770303]]]}},{"type":"Feature","properties":{"hex_id":"81663ffffffffff","population":31391637,"population_year":2025,"area_km2":595741.2,"population_density":52.7,"all_players":2,"players_per_million":0.06,"player_ids":["tennis:wta:215306","tennis:wta:215785"],"label":"Medellín","country":"Colombia"},"geometry":{"type":"Polygon","coordinates":[[[-76.701678,12.819508],[-79.317401,9.553624],[-77.440699,5.563142],[-72.936618,4.995193],[-70.443514,8.370077],[-72.317998,12.204723],[-76.701678,12.819508]]]}},{"type":"Feature","properties":{"hex_id":"81697ffffffffff","population":61355356,"population_year":2025,"area_km2":602082.0,"population_density":101.9,"all_players":1,"players_per_million":0.02,"player_ids":["tennis:wta:223253"],"label":"Quezon City","country":"Philippines"},"geometry":{"type":"Polygon","coordinates":[[[115.517768,16.517912],[116.372319,12.105102],[117.720512,11.610617],[120.449366,10.736966],[123.854824,13.797501],[123.023555,18.12707],[118.803002,19.252195],[115.517768,16.517912]]]}},{"type":"Feature","properties":{"hex_id":"818c3ffffffffff","population":79592304,"population_year":2025,"area_km2":595741.2,"population_density":133.6,"all_players":1,"players_per_million":0.01,"player_ids":["tennis:wta:222145"],"label":"Jakarta","country":"Indonesia"},"geometry":{"type":"Polygon","coordinates":[[[109.36783,-9.939436],[108.415879,-5.894708],[104.12724,-4.821344],[100.834961,-7.941424],[101.922406,-11.987752],[106.173775,-12.921604],[109.36783,-9.939436]]]}},{"type":"Feature","properties":{"hex_id":"819d3ffffffffff","population":666690,"population_year":2025,"area_km2":666617.1,"population_density":1.0,"all_players":1,"players_per_million":1.5,"player_ids":["tennis:atp:200443"],"label":"Home Hill","country":"Australia"},"geometry":{"type":"Polygon","coordinates":[[[155.419957,-21.999746],[154.220719,-17.66142],[149.681051,-16.397259],[146.041409,-19.302203],[146.846074,-23.721804],[151.703594,-25.170738],[155.419957,-21.999746]]]}},{"type":"Feature","properties":{"hex_id":"81a73ffffffffff","population":2011346,"population_year":2025,"area_km2":447684.2,"population_density":4.5,"all_players":1,"players_per_million":0.5,"player_ids":["tennis:atp:209262"],"label":"Perth","country":"Australia"},"geometry":{"type":"Polygon","coordinates":[[[118.588203,-27.826272],[115.570257,-25.722246],[114.395275,-26.30569],[111.552066,-26.654916],[110.054805,-29.808573],[113.256895,-32.609931],[117.977474,-31.877886],[118.588203,-27.826272]]]}},{"type":"Feature","properties":{"hex_id":"81a83ffffffffff","population":63293155,"population_year":2025,"area_km2":595741.2,"population_density":106.2,"all_players":1,"players_per_million":0.02,"player_ids":["tennis:wta:206242"],"label":"São Paulo","country":"Brazil"},"geometry":{"type":"Polygon","coordinates":[[[-47.461171,-27.760044],[-44.896021,-24.304788],[-47.235943,-20.470042],[-52.046783,-20.176039],[-54.552341,-23.657242],[-52.323074,-27.407025],[-47.461171,-27.760044]]]}},{"type":"Feature","properties":{"hex_id":"81a8bffffffffff","population":38630964,"population_year":2025,"area_km2":647632.6,"population_density":59.6,"all_players":1,"players_per_million":0.03,"player_ids":["tennis:atp:211663"],"label":"Rio de Janeiro","country":"Brazil"},"geometry":{"type":"Polygon","coordinates":[[[-39.968603,-24.399277],[-37.456339,-20.657406],[-39.830275,-16.779215],[-44.70061,-16.685821],[-47.235943,-20.470042],[-44.896021,-24.304788],[-39.968603,-24.399277]]]}},{"type":"Feature","properties":{"hex_id":"81b33ffffffffff","population":7923462,"population_year":2025,"area_km2":647632.6,"population_density":12.2,"all_players":1,"players_per_million":0.13,"player_ids":["tennis:atp:106426"],"label":"Arica","country":"Chile"},"geometry":{"type":"Polygon","coordinates":[[[-72.257376,-15.063301],[-75.001372,-18.920583],[-72.931331,-22.965031],[-68.148935,-23.06606],[-65.596341,-19.258865],[-67.619263,-15.302305],[-72.257376,-15.063301]]]}},{"type":"Feature","properties":{"hex_id":"81bcfffffffffff","population":54771011,"population_year":2025,"area_km2":666617.1,"population_density":82.2,"all_players":1,"players_per_million":0.02,"player_ids":["tennis:atp:111815"],"label":"Johannesburg","country":"South Africa"},"geometry":{"type":"Polygon","coordinates":[[[32.620327,-29.624454],[32.812319,-25.145186],[28.491882,-22.684204],[23.910011,-24.696711],[23.533518,-29.166646],[27.918941,-31.644147],[32.620327,-29.624454]]]}},{"type":"Feature","properties":{"hex_id":"81be3ffffffffff","population":7422285,"population_year":2025,"area_km2":729486.9,"population_density":10.2,"all_players":3,"players_per_million":0.4,"player_ids":["tennis:atp:126846","tennis:atp:200282","tennis:atp:200615"],"label":"Sydney","country":"Australia"},"geometry":{"type":"Polygon","coordinates":[[[159.810679,-35.59178],[158.196039,-31.026208],[152.877292,-29.753699],[148.729494,-32.935272],[149.839959,-37.608844],[155.640338,-39.007712],[159.810679,-35.59178]]]}},{"type":"Feature","properties":{"hex_id":"81c23ffffffffff","population":1573459,"population_year":2025,"area_km2":328434.6,"population_density":4.8,"all_players":3,"players_per_million":1.91,"player_ids":["tennis:atp:207681","tennis:atp:209260","tennis:wta:221333"],"label":"Mar del Plata","country":"Argentina"},"geometry":{"type":"Polygon","coordinates":[[[-57.995322,-42.261113],[-54.914171,-41.118552],[-53.849703,-40.222115],[-54.414766,-37.691245],[-55.164004,-36.642936],[-58.309846,-36.205283],[-59.788176,-36.394827],[-61.417115,-38.614967],[-61.702806,-39.800882],[-59.444119,-41.717194],[-57.995322,-42.261113]]]}},{"type":"Feature","properties":{"hex_id":"81c2fffffffffff","population":24752838,"population_year":2025,"area_km2":447684.2,"population_density":55.3,"all_players":5,"players_per_million":0.2,"player_ids":["tennis:atp:144869","tennis:atp:200116","tennis:atp:202103","tennis:atp:202104","tennis:atp:207678"],"label":"Buenos Aires","country":"Argentina"},"geometry":{"type":"Polygon","coordinates":[[[-55.164004,-36.642936],[-52.605486,-33.936306],[-54.854902,-30.51203],[-59.496606,-29.892985],[-61.882735,-33.439024],[-59.788176,-36.394827],[-58.309846,-36.205283],[-55.164004,-36.642936]]]}},{"type":"Feature","properties":{"hex_id":"81c37ffffffffff","population":2105932,"population_year":2025,"area_km2":447684.2,"population_density":4.7,"all_players":1,"players_per_million":0.47,"player_ids":["tennis:atp:208363"],"label":"9 de Julio","country":"Argentina"},"geometry":{"type":"Polygon","coordinates":[[[-66.569458,-33.770896],[-69.305389,-37.163896],[-66.103092,-40.399611],[-61.702806,-39.800882],[-61.417115,-38.614967],[-59.788176,-36.394827],[-61.882735,-33.439024],[-66.569458,-33.770896]]]}},{"type":"Feature","properties":{"hex_id":"81dabffffffffff","population":1120976,"population_year":2025,"area_km2":647632.6,"population_density":1.7,"all_players":1,"players_per_million":0.89,"player_ids":["tennis:wta:215138"],"label":"Te Anau","country":"New Zealand"},"geometry":{"type":"Polygon","coordinates":[[[176.129353,-45.286766],[173.535818,-41.30856],[167.615873,-40.869133],[163.614305,-44.491235],[165.865034,-48.699061],[172.539491,-49.056818],[176.129353,-45.286766]]]}}]}