{"type":"FeatureCollection","metadata":{"population_source":"WorldPop Global 2 R2025A","population_source_url":"https://hub.worldpop.org/project/categories?id=3","population_license":"CC BY 4.0","population_year":2025,"raster_resolution":"1km","h3_resolution":2,"population_method":"official_country_rasters","occupied_cells":36,"mapped_players":284},"features":[{"type":"Feature","properties":{"hex_id":"821947fffffffff","population":12519310,"population_year":2025,"area_km2":74863.4,"population_density":167.2,"all_players":2,"players_per_million":0.16,"player_ids":["nrl:1035295","nrl:995664"],"label":"Halifax","country":"United Kingdom"},"geometry":{"type":"Polygon","coordinates":[[[0.670759,55.133806],[-1.785543,54.762388],[-2.178886,53.251551],[-0.219137,52.141681],[2.101314,52.517134],[2.592789,53.997752],[0.670759,55.133806]]]}},{"type":"Feature","properties":{"hex_id":"82194ffffffffff","population":23325550,"population_year":2025,"area_km2":76219.8,"population_density":306.0,"all_players":1,"players_per_million":0.04,"player_ids":["nrl:1035305"],"label":"Bromley","country":"United Kingdom"},"geometry":{"type":"Polygon","coordinates":[[[2.101314,52.517134],[-0.219137,52.141681],[-0.631095,50.601911],[1.18851,49.470279],[3.384772,49.85377],[3.881134,51.360376],[2.101314,52.517134]]]}},{"type":"Feature","properties":{"hex_id":"821957fffffffff","population":9970811,"population_year":2025,"area_km2":77902.3,"population_density":128.0,"all_players":1,"players_per_million":0.1,"player_ids":["nrl:1018095"],"label":"Burnley","country":"United Kingdom"},"geometry":{"type":"Polygon","coordinates":[[[-3.903181,55.840606],[-6.436337,55.37739],[-6.713499,53.841054],[-4.578382,52.792439],[-2.178886,53.251551],[-1.785543,54.762388],[-3.903181,55.840606]]]}},{"type":"Feature","properties":{"hex_id":"829a07fffffffff","population":35224,"population_year":2025,"area_km2":85294.5,"population_density":0.4,"all_players":1,"players_per_million":28.39,"player_ids":["nrl:1019591"],"label":"Samoa","country":"Samoa"},"geometry":{"type":"Polygon","coordinates":[[[-173.251141,-15.703742],[-172.01383,-14.492671],[-172.421258,-12.932376],[-174.019047,-12.584546],[-175.234175,-13.763786],[-174.874053,-15.321955],[-173.251141,-15.703742]]]}},{"type":"Feature","properties":{"hex_id":"829a17fffffffff","population":183415,"population_year":2025,"area_km2":87326.6,"population_density":2.1,"all_players":2,"players_per_million":10.9,"player_ids":["nrl:1018244","nrl:31860"],"label":"Apia","country":"Samoa"},"geometry":{"type":"Polygon","coordinates":[[[-170.353594,-14.849664],[-169.130218,-13.615008],[-169.583712,-12.057325],[-171.215063,-11.730952],[-172.421258,-12.932376],[-172.01383,-14.492671],[-170.353594,-14.849664]]]}},{"type":"Feature","properties":{"hex_id":"829a27fffffffff","population":742,"population_year":2025,"area_km2":87326.6,"population_density":0.0,"all_players":1,"players_per_million":1347.71,"player_ids":["nrl:1019602"],"label":"Hihifo","country":"Tonga"},"geometry":{"type":"Polygon","coordinates":[[[-174.117737,-18.516052],[-172.848251,-17.303049],[-173.251141,-15.703742],[-174.874053,-15.321955],[-176.118813,-16.504758],[-175.765706,-18.098845],[-174.117737,-18.516052]]]}},{"type":"Feature","properties":{"hex_id":"829b0ffffffffff","population":83243,"population_year":2025,"area_km2":88726.5,"population_density":0.9,"all_players":3,"players_per_million":36.04,"player_ids":["nrl:1024255","nrl:991683","nrl:991733"],"label":"Tonga","country":"Tonga"},"geometry":{"type":"Polygon","coordinates":[[[-175.023114,-21.354467],[-173.720388,-20.147737],[-174.117737,-18.516052],[-175.765706,-18.098845],[-177.040922,-19.277482],[-176.695951,-20.900756],[-175.023114,-21.354467]]]}},{"type":"Feature","properties":{"hex_id":"829b4ffffffffff","population":280054,"population_year":2025,"area_km2":76219.8,"population_density":3.7,"all_players":1,"players_per_million":3.57,"player_ids":["nrl:1019571"],"label":"Labasa","country":"Fiji"},"geometry":{"type":"Polygon","coordinates":[[[178.28869,-17.935405],[179.529521,-16.820062],[179.264839,-15.279832],[177.806295,-14.869645],[176.59937,-15.959635],[176.817276,-17.484598],[178.28869,-17.935405]]]}},{"type":"Feature","properties":{"hex_id":"829b6ffffffffff","population":224985,"population_year":2025,"area_km2":77926.1,"population_density":2.9,"all_players":3,"players_per_million":13.33,"player_ids":["nrl:1010562","nrl:991512","nrl:995953"],"label":"Fiji","country":"Fiji"},"geometry":{"type":"Polygon","coordinates":[[[177.275284,-20.605456],[178.542076,-19.50491],[178.28869,-17.935405],[176.817276,-17.484598],[175.52712,-18.297333],[175.734207,-19.872972],[177.275284,-20.605456]]]}},{"type":"Feature","properties":{"hex_id":"829c27fffffffff","population":281513,"population_year":2025,"area_km2":89801.2,"population_density":3.1,"all_players":4,"players_per_million":14.21,"player_ids":["nrl:1008489","nrl:1011014","nrl:1019546","nrl:1024034"],"label":"Cairns","country":"Australia"},"geometry":{"type":"Polygon","coordinates":[[[147.744098,-18.672653],[148.022908,-17.036467],[146.649213,-16.050054],[144.994471,-16.660534],[144.666553,-18.275823],[146.041409,-19.302203],[147.744098,-18.672653]]]}},{"type":"Feature","properties":{"hex_id":"829caffffffffff","population":741742,"population_year":2025,"area_km2":91641.3,"population_density":8.1,"all_players":1,"players_per_million":1.35,"player_ids":["nrl:1018053"],"label":"Port Moresby","country":"Papua New Guinea"},"geometry":{"type":"Polygon","coordinates":[[[144.923965,-9.177781],[144.610282,-10.838676],[145.937458,-11.86553],[147.566922,-11.247519],[147.882776,-9.602383],[146.567439,-8.559185],[144.923965,-9.177781]]]}},{"type":"Feature","properties":{"hex_id":"829d07fffffffff","population":118188,"population_year":2025,"area_km2":95515.4,"population_density":1.2,"all_players":3,"players_per_million":25.38,"player_ids":["nrl:1014524","nrl:1035307","nrl:31667"],"label":"Mackay","country":"Australia"},"geometry":{"type":"Polygon","coordinates":[[[152.147812,-21.714895],[152.357837,-20.018985],[150.877666,-19.023527],[149.1751,-19.686219],[148.908355,-21.368239],[150.400035,-22.402303],[152.147812,-21.714895]]]}},{"type":"Feature","properties":{"hex_id":"829d0ffffffffff","population":281851,"population_year":2025,"area_km2":93933.6,"population_density":3.0,"all_players":4,"players_per_million":14.19,"player_ids":["nrl:1007454","nrl:1019574","nrl:991347","nrl:995647"],"label":"Townsville","country":"Australia"},"geometry":{"type":"Polygon","coordinates":[[[148.908355,-21.368239],[149.1751,-19.686219],[147.744098,-18.672653],[146.041409,-19.302203],[145.721377,-20.964646],[147.156222,-22.017841],[148.908355,-21.368239]]]}},{"type":"Feature","properties":{"hex_id":"829d27fffffffff","population":282045,"population_year":2025,"area_km2":98815.5,"population_density":2.9,"all_players":5,"players_per_million":17.73,"player_ids":["nrl:1011004","nrl:1037475","nrl:31435","nrl:995276","nrl:995954"],"label":"Rockhampton","country":"Australia"},"geometry":{"type":"Polygon","coordinates":[[[153.49711,-24.457404],[153.68821,-22.724174],[152.147812,-21.714895],[150.400035,-22.402303],[150.147735,-24.124022],[151.703594,-25.170738],[153.49711,-24.457404]]]}},{"type":"Feature","properties":{"hex_id":"829d2ffffffffff","population":54629,"population_year":2025,"area_km2":97556.0,"population_density":0.6,"all_players":1,"players_per_million":18.31,"player_ids":["nrl:1019536"],"label":"Emerald","country":"Australia"},"geometry":{"type":"Polygon","coordinates":[[[150.147735,-24.124022],[150.400035,-22.402303],[148.908355,-21.368239],[147.156222,-22.017841],[146.846074,-23.721804],[148.3448,-24.794703],[150.147735,-24.124022]]]}},{"type":"Feature","properties":{"hex_id":"829d47fffffffff","population":1519,"population_year":2025,"area_km2":92775.6,"population_density":0.0,"all_players":1,"players_per_million":658.33,"player_ids":["nrl:31888"],"label":"Winton","country":"Australia"},"geometry":{"type":"Polygon","coordinates":[[[143.612441,-23.257094],[143.976131,-21.576588],[142.604744,-20.510244],[140.876817,-21.085496],[140.46461,-22.73753],[141.827355,-23.84325],[143.612441,-23.257094]]]}},{"type":"Feature","properties":{"hex_id":"82a79ffffffffff","population":19127,"population_year":2025,"area_km2":63447.1,"population_density":0.3,"all_players":1,"players_per_million":52.28,"player_ids":["nrl:999915"],"label":"Port Hedland","country":"Australia"},"geometry":{"type":"Polygon","coordinates":[[[117.368616,-20.409175],[117.154471,-21.72916],[118.358316,-22.744753],[119.802504,-22.454764],[120.029966,-21.126412],[118.799983,-20.095984],[117.368616,-20.409175]]]}},{"type":"Feature","properties":{"hex_id":"82b847fffffffff","population":36623,"population_year":2025,"area_km2":73030.9,"population_density":0.5,"all_players":1,"players_per_million":27.31,"player_ids":["nrl:995877"],"label":"Kalgoorlie","country":"Australia"},"geometry":{"type":"Polygon","coordinates":[[[122.93646,-31.250235],[123.628913,-29.747113],[122.650494,-28.526013],[121.027628,-28.788084],[120.321783,-30.245641],[121.250533,-31.486075],[122.93646,-31.250235]]]}},{"type":"Feature","properties":{"hex_id":"82b8affffffffff","population":3043,"population_year":2025,"area_km2":84307.8,"population_density":0.0,"all_players":1,"players_per_million":328.62,"player_ids":["nrl:1029654"],"label":"Australia","country":"Australia"},"geometry":{"type":"Polygon","coordinates":[[[132.907659,-26.387727],[133.449413,-24.772309],[132.266152,-23.624775],[130.571313,-24.059671],[129.997591,-25.633576],[131.148852,-26.813924],[132.907659,-26.387727]]]}},{"type":"Feature","properties":{"hex_id":"82b917fffffffff","population":1613160,"population_year":2025,"area_km2":95515.4,"population_density":16.9,"all_players":2,"players_per_million":1.24,"player_ids":["nrl:1019537","nrl:1023715"],"label":"Adelaide","country":"Australia"},"geometry":{"type":"Polygon","coordinates":[[[138.617833,-35.797135],[139.129671,-34.088237],[137.662578,-32.868454],[135.707627,-33.326136],[135.142328,-34.999661],[136.582892,-36.251125],[138.617833,-35.797135]]]}},{"type":"Feature","properties":{"hex_id":"82bb0ffffffffff","population":580554,"population_year":2025,"area_km2":88726.5,"population_density":6.5,"all_players":6,"players_per_million":10.33,"player_ids":["nrl:1012706","nrl:1019553","nrl:1019554","nrl:991256","nrl:996042","nrl:996043"],"label":"Hastings","country":"New Zealand"},"geometry":{"type":"Polygon","coordinates":[[[178.908854,-39.784657],[178.583766,-38.115997],[176.688659,-37.499409],[175.036544,-38.552712],[175.291773,-40.256026],[177.271382,-40.871785],[178.908854,-39.784657]]]}},{"type":"Feature","properties":{"hex_id":"82bb2ffffffffff","population":699829,"population_year":2025,"area_km2":89440.6,"population_density":7.8,"all_players":7,"players_per_million":10.0,"player_ids":["nrl:1014503","nrl:1021314","nrl:31881","nrl:991497","nrl:995921","nrl:995944","nrl:995970"],"label":"Wellington","country":"New Zealand"},"geometry":{"type":"Polygon","coordinates":[[[177.582204,-42.54048],[177.271382,-40.871785],[175.291773,-40.256026],[173.535818,-41.30856],[173.768012,-43.009176],[175.837365,-43.625899],[177.582204,-42.54048]]]}},{"type":"Feature","properties":{"hex_id":"82bb57fffffffff","population":2517968,"population_year":2025,"area_km2":91641.3,"population_density":27.5,"all_players":44,"players_per_million":17.47,"player_ids":["nrl:1000006","nrl:1007404","nrl:1007443","nrl:1009175","nrl:1011025","nrl:1011034","nrl:1011039","nrl:1014522","nrl:1014527","nrl:1014529","nrl:1014536","nrl:1016793","nrl:1018245","nrl:1018303","nrl:1018534","nrl:1019547","nrl:1019565","nrl:1019576","nrl:1021754","nrl:1022682","nrl:1023577","nrl:1024167","nrl:1024313","nrl:1025408","nrl:31475","nrl:31613","nrl:31635","nrl:31677","nrl:31768","nrl:31804","nrl:31816","nrl:31835","nrl:31874","nrl:31932","nrl:991253","nrl:991557","nrl:991680","nrl:995840","nrl:995932","nrl:995959","nrl:996164","nrl:998432","nrl:999917","nrl:999956"],"label":"Auckland","country":"New Zealand"},"geometry":{"type":"Polygon","coordinates":[[[176.688659,-37.499409],[176.415194,-35.801656],[174.557652,-35.124424],[172.898106,-36.141695],[173.101494,-37.871743],[175.036544,-38.552712],[176.688659,-37.499409]]]}},{"type":"Feature","properties":{"hex_id":"82bb5ffffffffff","population":74015,"population_year":2025,"area_km2":93933.6,"population_density":0.8,"all_players":1,"players_per_million":13.51,"player_ids":["nrl:998460"],"label":"Rawene","country":"New Zealand"},"geometry":{"type":"Polygon","coordinates":[[[174.557652,-35.124424],[174.332728,-33.405709],[172.516106,-32.674254],[170.855539,-33.653759],[171.010927,-35.401916],[172.898106,-36.141695],[174.557652,-35.124424]]]}},{"type":"Feature","properties":{"hex_id":"82bb77fffffffff","population":202389,"population_year":2025,"area_km2":92775.6,"population_density":2.2,"all_players":3,"players_per_million":14.82,"player_ids":["nrl:1011029","nrl:991290","nrl:991506"],"label":"New Plymouth","country":"New Zealand"},"geometry":{"type":"Polygon","coordinates":[[[175.291773,-40.256026],[175.036544,-38.552712],[173.101494,-37.871743],[171.342352,-38.889432],[171.519319,-40.6223],[173.535818,-41.30856],[175.291773,-40.256026]]]}},{"type":"Feature","properties":{"hex_id":"82be0ffffffffff","population":6793674,"population_year":2025,"area_km2":104135.0,"population_density":65.2,"all_players":109,"players_per_million":16.04,"player_ids":["nrl:1000003","nrl:1000031","nrl:1002028","nrl:1002057","nrl:1002504","nrl:1002528","nrl:1002561","nrl:1002839","nrl:1002866","nrl:1003674","nrl:1007456","nrl:1007457","nrl:1007459","nrl:1007531","nrl:1007533","nrl:1010021","nrl:1010603","nrl:1010991","nrl:1010995","nrl:1011009","nrl:1011011","nrl:1011012","nrl:1011017","nrl:1011018","nrl:1011024","nrl:1011032","nrl:1011035","nrl:1013034","nrl:1013613","nrl:1014514","nrl:1014532","nrl:1014534","nrl:1015573","nrl:1016084","nrl:1016344","nrl:1017153","nrl:1017275","nrl:1017453","nrl:1018246","nrl:1018247","nrl:1018344","nrl:1018453","nrl:1018494","nrl:1019538","nrl:1019540","nrl:1019545","nrl:1019552","nrl:1019564","nrl:1019581","nrl:1019595","nrl:1019597","nrl:1019897","nrl:1020658","nrl:1021284","nrl:1021748","nrl:1023463","nrl:1023552","nrl:1023615","nrl:1023864","nrl:1023975","nrl:1024033","nrl:1024035","nrl:1024143","nrl:1025372","nrl:1032436","nrl:1037941","nrl:1042735","nrl:31756","nrl:31759","nrl:31770","nrl:31793","nrl:31799","nrl:31849","nrl:31867","nrl:31868","nrl:31897","nrl:31912","nrl:31917","nrl:990750","nrl:991438","nrl:991459","nrl:991519","nrl:991536","nrl:991587","nrl:991600","nrl:991606","nrl:991722","nrl:991743","nrl:995278","nrl:995281","nrl:995794","nrl:995878","nrl:995886","nrl:995915","nrl:995957","nrl:996003","nrl:996008","nrl:996013","nrl:996089","nrl:997794","nrl:997798","nrl:997956","nrl:998433","nrl:998593","nrl:999903","nrl:999904","nrl:999942","nrl:999971","nrl:999978"],"label":"Sydney","country":"Australia"},"geometry":{"type":"Polygon","coordinates":[[[152.177285,-35.125129],[152.420459,-33.332138],[150.704674,-32.253721],[148.729494,-32.935272],[148.409969,-34.714468],[150.140595,-35.826845],[152.177285,-35.125129]]]}},{"type":"Feature","properties":{"hex_id":"82be1ffffffffff","population":705420,"population_year":2025,"area_km2":104135.0,"population_density":6.8,"all_players":8,"players_per_million":11.34,"player_ids":["nrl:1003182","nrl:1014510","nrl:1019560","nrl:1019580","nrl:1019584","nrl:991325","nrl:996152","nrl:998416"],"label":"Maitland","country":"Australia"},"geometry":{"type":"Polygon","coordinates":[[[154.381433,-32.591652],[154.572365,-30.798114],[152.877292,-29.753699],[150.969593,-30.469788],[150.704674,-32.253721],[152.420459,-33.332138],[154.381433,-32.591652]]]}},{"type":"Feature","properties":{"hex_id":"82be2ffffffffff","population":19112,"population_year":2025,"area_km2":104135.0,"population_density":0.2,"all_players":1,"players_per_million":52.32,"player_ids":["nrl:1019589"],"label":"Narooma","country":"Australia"},"geometry":{"type":"Polygon","coordinates":[[[153.757233,-37.977427],[153.974425,-36.184902],[152.177285,-35.125129],[150.140595,-35.826845],[149.839959,-37.608844],[151.658152,-38.70068],[153.757233,-37.977427]]]}},{"type":"Feature","properties":{"hex_id":"82be57fffffffff","population":140987,"population_year":2025,"area_km2":102761.2,"population_density":1.4,"all_players":8,"players_per_million":56.74,"player_ids":["nrl:1011023","nrl:1012211","nrl:1018454","nrl:1020463","nrl:1023614","nrl:1035338","nrl:31765","nrl:999463"],"label":"Temora","country":"Australia"},"geometry":{"type":"Polygon","coordinates":[[[148.409969,-34.714468],[148.729494,-32.935272],[147.080812,-31.813113],[145.107938,-32.435886],[144.717645,-34.194236],[146.369194,-35.351443],[148.409969,-34.714468]]]}},{"type":"Feature","properties":{"hex_id":"82be77fffffffff","population":912055,"population_year":2025,"area_km2":103215.8,"population_density":8.8,"all_players":10,"players_per_million":10.96,"player_ids":["nrl:1000038","nrl:1002007","nrl:1002837","nrl:1014508","nrl:1014535","nrl:1043405","nrl:31676","nrl:991267","nrl:996016","nrl:997799"],"label":"Canberra","country":"Australia"},"geometry":{"type":"Polygon","coordinates":[[[149.839959,-37.608844],[150.140595,-35.826845],[148.409969,-34.714468],[146.369194,-35.351443],[145.990588,-37.115507],[147.728894,-38.261419],[149.839959,-37.608844]]]}},{"type":"Feature","properties":{"hex_id":"82be8ffffffffff","population":3414014,"population_year":2025,"area_km2":101417.2,"population_density":33.7,"all_players":22,"players_per_million":6.44,"player_ids":["nrl:1009576","nrl:1011002","nrl:1011041","nrl:1013240","nrl:1013450","nrl:1014509","nrl:1014525","nrl:1014531","nrl:1019578","nrl:1021313","nrl:1021326","nrl:1022684","nrl:1023713","nrl:1023863","nrl:1024393","nrl:1027753","nrl:31555","nrl:991249","nrl:995808","nrl:995850","nrl:996051","nrl:999894"],"label":"Brisbane","country":"Australia"},"geometry":{"type":"Polygon","coordinates":[[[154.931553,-27.234921],[155.100683,-25.47207],[153.49711,-24.457404],[151.703594,-25.170738],[151.46847,-26.924893],[153.092109,-27.975349],[154.931553,-27.234921]]]}},{"type":"Feature","properties":{"hex_id":"82beaffffffffff","population":860278,"population_year":2025,"area_km2":103215.8,"population_density":8.3,"all_players":6,"players_per_million":6.97,"player_ids":["nrl:1007399","nrl:1011020","nrl:1023553","nrl:991595","nrl:995895","nrl:997958"],"label":"Murwillumbah","country":"Australia"},"geometry":{"type":"Polygon","coordinates":[[[156.457483,-30.029487],[156.601213,-28.245627],[154.931553,-27.234921],[153.092109,-27.975349],[152.877292,-29.753699],[154.572365,-30.798114],[156.457483,-30.029487]]]}},{"type":"Feature","properties":{"hex_id":"82bedffffffffff","population":7675,"population_year":2025,"area_km2":98815.5,"population_density":0.1,"all_players":1,"players_per_million":130.29,"player_ids":["nrl:991257"],"label":"Charleville","country":"Australia"},"geometry":{"type":"Polygon","coordinates":[[[148.046867,-26.533408],[148.3448,-24.794703],[146.846074,-23.721804],[145.046204,-24.349751],[144.689806,-26.066751],[146.190365,-27.178209],[148.046867,-26.533408]]]}},{"type":"Feature","properties":{"hex_id":"82bee7fffffffff","population":158706,"population_year":2025,"area_km2":103215.8,"population_density":1.5,"all_players":9,"players_per_million":56.71,"player_ids":["nrl:1000016","nrl:1001234","nrl:1012925","nrl:1018383","nrl:1019587","nrl:995673","nrl:995802","nrl:995972","nrl:997836"],"label":"Dubbo","country":"Australia"},"geometry":{"type":"Polygon","coordinates":[[[150.704674,-32.253721],[150.969593,-30.469788],[149.330579,-29.383365],[147.415568,-30.04599],[147.080812,-31.813113],[148.729494,-32.935272],[150.704674,-32.253721]]]}},{"type":"Feature","properties":{"hex_id":"82bef7fffffffff","population":374361,"population_year":2025,"area_km2":102761.2,"population_density":3.6,"all_players":6,"players_per_million":16.03,"player_ids":["nrl:1014519","nrl:1016995","nrl:1019596","nrl:1022681","nrl:991386","nrl:995839"],"label":"Toowoomba","country":"Australia"},"geometry":{"type":"Polygon","coordinates":[[[152.877292,-29.753699],[153.092109,-27.975349],[151.46847,-26.924893],[149.613583,-27.617724],[149.330579,-29.383365],[150.969593,-30.469788],[152.877292,-29.753699]]]}},{"type":"Feature","properties":{"hex_id":"82da97fffffffff","population":716376,"population_year":2025,"area_km2":93159.0,"population_density":7.7,"all_players":4,"players_per_million":5.58,"player_ids":["nrl:1023280","nrl:1024170","nrl:995889","nrl:996341"],"label":"Christchurch","country":"New Zealand"},"geometry":{"type":"Polygon","coordinates":[[[173.768012,-43.009176],[173.535818,-41.30856],[171.519319,-40.6223],[169.652059,-41.63003],[169.796781,-43.356947],[171.898411,-44.050631],[173.768012,-43.009176]]]}}]}