{"type":"FeatureCollection","metadata":{"population_source":"WorldPop Global 2 R2025A","population_source_url":"https://hub.worldpop.org/project/categories?id=3","population_license":"CC BY 4.0","population_year":2025,"raster_resolution":"1km","h3_resolution":1,"population_method":"official_country_rasters","occupied_cells":19,"mapped_players":284},"features":[{"type":"Feature","properties":{"hex_id":"81197ffffffffff","population":88036357,"population_year":2025,"area_km2":523941.7,"population_density":168.0,"all_players":4,"players_per_million":0.05,"player_ids":["nrl:1018095","nrl:1035295","nrl:1035305","nrl:995664"],"label":"Halifax","country":"United Kingdom"},"geometry":{"type":"Polygon","coordinates":[[[-0.931587,57.689497],[-6.436337,55.37739],[-4.88976,51.223728],[1.18851,49.470279],[3.630009,50.610463],[6.259687,51.96477],[5.523647,55.706768],[-0.931587,57.689497]]]}},{"type":"Feature","properties":{"hex_id":"819a3ffffffffff","population":219827,"population_year":2025,"area_km2":595741.2,"population_density":0.4,"all_players":4,"players_per_million":18.2,"player_ids":["nrl:1018244","nrl:1019591","nrl:1019602","nrl:31860"],"label":"Apia","country":"Samoa"},"geometry":{"type":"Polygon","coordinates":[[[-171.158838,-17.692218],[-169.130218,-13.615008],[-171.62613,-10.215394],[-175.920993,-10.734015],[-178.009462,-14.547283],[-175.765706,-18.098845],[-171.158838,-17.692218]]]}},{"type":"Feature","properties":{"hex_id":"819b3ffffffffff","population":102494,"population_year":2025,"area_km2":647632.6,"population_density":0.2,"all_players":3,"players_per_million":29.27,"player_ids":["nrl:1024255","nrl:991683","nrl:991733"],"label":"Tonga","country":"Tonga"},"geometry":{"type":"Polygon","coordinates":[[[-170.619323,-25.603703],[-168.45625,-21.381247],[-171.158838,-17.692218],[-175.765706,-18.098845],[-178.002424,-22.067176],[-175.586672,-25.8769],[-170.619323,-25.603703]]]}},{"type":"Feature","properties":{"hex_id":"819b7ffffffffff","population":929972,"population_year":2025,"area_km2":565620.1,"population_density":1.6,"all_players":4,"players_per_million":4.3,"player_ids":["nrl:1010562","nrl:1019571","nrl:991512","nrl:995953"],"label":"Fiji","country":"Fiji"},"geometry":{"type":"MultiPolygon","coordinates":[[[[-180.0,-14.700638],[-178.009462,-14.547283],[-175.765706,-18.098845],[-178.002424,-22.067176],[-180.0,-22.125285],[-180.0,-14.700638]]],[[[180.0,-22.125285],[177.516135,-22.197541],[175.52712,-18.297333],[176.707435,-16.71898],[177.806295,-14.869645],[180.0,-14.700638],[180.0,-22.125285]]]]}},{"type":"Feature","properties":{"hex_id":"819c3ffffffffff","population":298853,"population_year":2025,"area_km2":614937.0,"population_density":0.5,"all_players":4,"players_per_million":13.38,"player_ids":["nrl:1008489","nrl:1011014","nrl:1019546","nrl:1024034"],"label":"Cairns","country":"Australia"},"geometry":{"type":"Polygon","coordinates":[[[149.681051,-16.397259],[149.087925,-13.640092],[148.867731,-12.247496],[144.610282,-10.838676],[140.99787,-13.663289],[141.485259,-16.439723],[141.660737,-17.838744],[146.041409,-19.302203],[149.681051,-16.397259]]]}},{"type":"Feature","properties":{"hex_id":"819cbffffffffff","population":5091582,"population_year":2025,"area_km2":647632.6,"population_density":7.9,"all_players":1,"players_per_million":0.2,"player_ids":["nrl:1018053"],"label":"Port Moresby","country":"Papua New Guinea"},"geometry":{"type":"Polygon","coordinates":[[[143.897934,-6.411813],[144.610282,-10.838676],[148.867731,-12.247496],[152.369119,-9.360958],[151.738196,-5.002988],[147.519872,-3.454918],[143.897934,-6.411813]]]}},{"type":"Feature","properties":{"hex_id":"819d3ffffffffff","population":666690,"population_year":2025,"area_km2":666617.1,"population_density":1.0,"all_players":12,"players_per_million":18.0,"player_ids":["nrl:1007454","nrl:1011004","nrl:1014524","nrl:1019536","nrl:1019574","nrl:1035307","nrl:1037475","nrl:31435","nrl:31667","nrl:991347","nrl:995276","nrl:995647"],"label":"Rockhampton","country":"Australia"},"geometry":{"type":"Polygon","coordinates":[[[155.419957,-21.999746],[154.220719,-17.66142],[149.681051,-16.397259],[146.041409,-19.302203],[146.846074,-23.721804],[151.703594,-25.170738],[155.419957,-21.999746]]]}},{"type":"Feature","properties":{"hex_id":"819d7ffffffffff","population":38786,"population_year":2025,"area_km2":647632.6,"population_density":0.1,"all_players":1,"players_per_million":25.78,"player_ids":["nrl:31888"],"label":"Winton","country":"Australia"},"geometry":{"type":"Polygon","coordinates":[[[146.846074,-23.721804],[146.041409,-19.302203],[141.660737,-17.838744],[137.872609,-20.552278],[138.247909,-24.941337],[142.844847,-26.664336],[146.846074,-23.721804]]]}},{"type":"Feature","properties":{"hex_id":"81a7bffffffffff","population":34363,"population_year":2025,"area_km2":447684.2,"population_density":0.1,"all_players":1,"players_per_million":29.1,"player_ids":["nrl:999915"],"label":"Port Hedland","country":"Australia"},"geometry":{"type":"Polygon","coordinates":[[[122.384483,-25.858085],[122.769888,-21.814639],[118.799983,-20.095984],[115.759316,-22.002086],[116.013581,-23.185424],[115.570257,-25.722246],[118.588203,-27.826272],[122.384483,-25.858085]]]}},{"type":"Feature","properties":{"hex_id":"81b87ffffffffff","population":61414,"population_year":2025,"area_km2":510516.1,"population_density":0.1,"all_players":1,"players_per_million":16.28,"player_ids":["nrl:995877"],"label":"Kalgoorlie","country":"Australia"},"geometry":{"type":"Polygon","coordinates":[[[125.724358,-32.241268],[125.979916,-27.923491],[122.384483,-25.858085],[118.588203,-27.826272],[117.977474,-31.877886],[121.490696,-34.22805],[125.724358,-32.241268]]]}},{"type":"Feature","properties":{"hex_id":"81b8bffffffffff","population":44135,"population_year":2025,"area_km2":595741.2,"population_density":0.1,"all_players":1,"players_per_million":22.66,"player_ids":["nrl:1029654"],"label":"Australia","country":"Australia"},"geometry":{"type":"Polygon","coordinates":[[[138.247909,-24.941337],[137.872609,-20.552278],[133.817525,-18.914757],[130.032911,-21.378733],[129.997591,-25.633576],[134.147284,-27.571603],[138.247909,-24.941337]]]}},{"type":"Feature","properties":{"hex_id":"81b93ffffffffff","population":1648815,"population_year":2025,"area_km2":647632.6,"population_density":2.5,"all_players":2,"players_per_million":1.21,"player_ids":["nrl:1019537","nrl:1023715"],"label":"Adelaide","country":"Australia"},"geometry":{"type":"Polygon","coordinates":[[[139.652226,-38.734209],[139.129671,-34.088237],[134.339984,-32.08928],[129.914908,-34.478008],[129.866095,-38.967618],[134.798626,-41.238933],[139.652226,-38.734209]]]}},{"type":"Feature","properties":{"hex_id":"81bb3ffffffffff","population":1275828,"population_year":2025,"area_km2":602082.0,"population_density":2.1,"all_players":12,"players_per_million":9.41,"player_ids":["nrl:1012706","nrl:1014503","nrl:1019553","nrl:1019554","nrl:1021314","nrl:31881","nrl:991256","nrl:991497","nrl:995921","nrl:995944","nrl:995970","nrl:996042"],"label":"Wellington","country":"New Zealand"},"geometry":{"type":"MultiPolygon","coordinates":[[[[-180.0,-37.582832],[-179.761284,-37.588846],[-177.984745,-37.664358],[-175.131668,-41.580315],[-177.973431,-45.184249],[-180.0,-45.219479],[-180.0,-37.582832]]],[[[180.0,-45.219479],[176.129353,-45.286766],[173.535818,-41.30856],[176.688659,-37.499409],[180.0,-37.582832],[180.0,-45.219479]]]]}},{"type":"Feature","properties":{"hex_id":"81bb7ffffffffff","population":2835946,"population_year":2025,"area_km2":666617.1,"population_density":4.3,"all_players":49,"players_per_million":17.28,"player_ids":["nrl:1000006","nrl:1007404","nrl:1007443","nrl:1009175","nrl:1011025","nrl:1011029","nrl:1011034","nrl:1011039","nrl:1014522","nrl:1014527","nrl:1014529","nrl:1014536","nrl:1016793","nrl:1018245","nrl:1018303","nrl:1018534","nrl:1019547","nrl:1019565","nrl:1019576","nrl:1021754","nrl:1022682","nrl:1023577","nrl:1024167","nrl:1024313","nrl:1025408","nrl:31475","nrl:31613","nrl:31635","nrl:31677","nrl:31768","nrl:31804","nrl:31816","nrl:31835","nrl:31874","nrl:31932","nrl:991253","nrl:991290","nrl:991506","nrl:991557","nrl:991680","nrl:995840","nrl:995932","nrl:995959","nrl:996043","nrl:996164","nrl:998432","nrl:998460","nrl:999917","nrl:999956"],"label":"Auckland","country":"New Zealand"},"geometry":{"type":"Polygon","coordinates":[[[176.688659,-37.499409],[174.332728,-33.405709],[169.018604,-32.862675],[165.511402,-36.515279],[167.615873,-40.869133],[173.535818,-41.30856],[176.688659,-37.499409]]]}},{"type":"Feature","properties":{"hex_id":"81be3ffffffffff","population":7422285,"population_year":2025,"area_km2":729486.9,"population_density":10.2,"all_players":121,"players_per_million":16.3,"player_ids":["nrl:1000003","nrl:1000031","nrl:1002028","nrl:1002057","nrl:1002504","nrl:1002528","nrl:1002561","nrl:1002839","nrl:1002866","nrl:1003182","nrl:1003674","nrl:1007456","nrl:1007457","nrl:1007459","nrl:1007531","nrl:1007533","nrl:1010021","nrl:1010603","nrl:1010991","nrl:1010995","nrl:1011009","nrl:1011011","nrl:1011012","nrl:1011017","nrl:1011018","nrl:1011024","nrl:1011032","nrl:1011035","nrl:1013034","nrl:1013613","nrl:1014510","nrl:1014514","nrl:1014532","nrl:1014534","nrl:1015573","nrl:1016084","nrl:1016344","nrl:1017153","nrl:1017275","nrl:1017453","nrl:1018246","nrl:1018247","nrl:1018344","nrl:1018453","nrl:1018494","nrl:1019538","nrl:1019540","nrl:1019545","nrl:1019552","nrl:1019560","nrl:1019564","nrl:1019580","nrl:1019581","nrl:1019584","nrl:1019589","nrl:1019595","nrl:1019597","nrl:1019897","nrl:1020658","nrl:1021284","nrl:1021748","nrl:1023463","nrl:1023552","nrl:1023615","nrl:1023864","nrl:1023975","nrl:1024033","nrl:1024035","nrl:1024143","nrl:1025372","nrl:1032436","nrl:1037941","nrl:1042735","nrl:31756","nrl:31759","nrl:31770","nrl:31793","nrl:31799","nrl:31849","nrl:31867","nrl:31868","nrl:31897","nrl:31912","nrl:31917","nrl:990750","nrl:991267","nrl:991325","nrl:991438","nrl:991459","nrl:991519","nrl:991536","nrl:991587","nrl:991600","nrl:991606","nrl:991722","nrl:991743","nrl:995278","nrl:995281","nrl:995794","nrl:995878","nrl:995886","nrl:995915","nrl:995957","nrl:996003","nrl:996008","nrl:996013","nrl:996016","nrl:996089","nrl:996152","nrl:997794","nrl:997798","nrl:997799","nrl:997956","nrl:998416","nrl:998433","nrl:998593","nrl:999903","nrl:999904","nrl:999942","nrl:999971","nrl:999978"],"label":"Sydney","country":"Australia"},"geometry":{"type":"Polygon","coordinates":[[[159.810679,-35.59178],[158.196039,-31.026208],[152.877292,-29.753699],[148.729494,-32.935272],[149.839959,-37.608844],[155.640338,-39.007712],[159.810679,-35.59178]]]}},{"type":"Feature","properties":{"hex_id":"81be7ffffffffff","population":7973734,"population_year":2025,"area_km2":707475.0,"population_density":11.3,"all_players":13,"players_per_million":1.63,"player_ids":["nrl:1000038","nrl:1002007","nrl:1002837","nrl:1011023","nrl:1012211","nrl:1014508","nrl:1014535","nrl:1018454","nrl:1020463","nrl:1043405","nrl:31676","nrl:31765","nrl:999463"],"label":"Canberra","country":"Australia"},"geometry":{"type":"Polygon","coordinates":[[[149.839959,-37.608844],[148.729494,-32.935272],[143.536871,-31.277795],[139.129671,-34.088237],[139.652226,-38.734209],[145.182884,-40.615783],[149.839959,-37.608844]]]}},{"type":"Feature","properties":{"hex_id":"81bebffffffffff","population":4369258,"population_year":2025,"area_km2":707475.0,"population_density":6.2,"all_players":29,"players_per_million":6.64,"player_ids":["nrl:1007399","nrl:1009576","nrl:1011002","nrl:1011020","nrl:1011041","nrl:1013240","nrl:1013450","nrl:1014509","nrl:1014525","nrl:1014531","nrl:1019578","nrl:1021313","nrl:1021326","nrl:1022684","nrl:1023553","nrl:1023713","nrl:1024393","nrl:1027753","nrl:31555","nrl:991249","nrl:991386","nrl:991595","nrl:995808","nrl:995850","nrl:995895","nrl:995954","nrl:996051","nrl:997958","nrl:999894"],"label":"Brisbane","country":"Australia"},"geometry":{"type":"Polygon","coordinates":[[[161.882144,-27.596488],[160.312535,-23.16469],[155.419957,-21.999746],[151.703594,-25.170738],[152.877292,-29.753699],[158.196039,-31.026208],[161.882144,-27.596488]]]}},{"type":"Feature","properties":{"hex_id":"81befffffffffff","population":652227,"population_year":2025,"area_km2":707475.0,"population_density":0.9,"all_players":18,"players_per_million":27.6,"player_ids":["nrl:1000016","nrl:1001234","nrl:1012925","nrl:1014519","nrl:1016995","nrl:1018383","nrl:1019587","nrl:1019596","nrl:1022681","nrl:1023614","nrl:1023863","nrl:1035338","nrl:991257","nrl:995673","nrl:995802","nrl:995839","nrl:995972","nrl:997836"],"label":"Dubbo","country":"Australia"},"geometry":{"type":"Polygon","coordinates":[[[152.877292,-29.753699],[151.703594,-25.170738],[146.846074,-23.721804],[142.844847,-26.664336],[143.536871,-31.277795],[148.729494,-32.935272],[152.877292,-29.753699]]]}},{"type":"Feature","properties":{"hex_id":"81dabffffffffff","population":1120976,"population_year":2025,"area_km2":647632.6,"population_density":1.7,"all_players":4,"players_per_million":3.57,"player_ids":["nrl:1023280","nrl:1024170","nrl:995889","nrl:996341"],"label":"Christchurch","country":"New Zealand"},"geometry":{"type":"Polygon","coordinates":[[[176.129353,-45.286766],[173.535818,-41.30856],[167.615873,-40.869133],[163.614305,-44.491235],[165.865034,-48.699061],[172.539491,-49.056818],[176.129353,-45.286766]]]}}]}