{"type":"FeatureCollection","metadata":{"population_source":"WorldPop Global 2 R2025A","population_source_url":"https://hub.worldpop.org/project/categories?id=3","population_license":"CC BY 4.0","population_year":2025,"raster_resolution":"1km","h3_resolution":3,"population_method":"official_country_rasters","occupied_cells":61,"mapped_players":284},"features":[{"type":"Feature","properties":{"hex_id":"831942fffffffff","population":7293042,"population_year":2025,"area_km2":10924.8,"population_density":667.6,"all_players":3,"players_per_million":0.41,"player_ids":["nrl:1018095","nrl:1035295","nrl:995664"],"label":"Halifax","country":"United Kingdom"},"geometry":{"type":"Polygon","coordinates":[[[-1.609057,54.177066],[-2.359345,53.842543],[-2.178886,53.251551],[-1.268165,52.996914],[-0.529171,53.3287],[-0.689598,53.917795],[-1.609057,54.177066]]]}},{"type":"Feature","properties":{"hex_id":"83194afffffffff","population":6871941,"population_year":2025,"area_km2":11131.6,"population_density":617.3,"all_players":1,"players_per_million":0.15,"player_ids":["nrl:1035305"],"label":"Bromley","country":"United Kingdom"},"geometry":{"type":"Polygon","coordinates":[[[-0.069294,51.543996],[-0.785076,51.204689],[-0.631095,50.601911],[0.220599,50.340898],[0.925401,50.677831],[0.789471,51.278095],[-0.069294,51.543996]]]}},{"type":"Feature","properties":{"hex_id":"839a15fffffffff","population":180926,"population_year":2025,"area_km2":12458.3,"population_density":14.5,"all_players":3,"players_per_million":16.58,"player_ids":["nrl:1018244","nrl:1019591","nrl:31860"],"label":"Apia","country":"Samoa"},"geometry":{"type":"Polygon","coordinates":[[[-171.367075,-14.421003],[-171.077911,-13.847904],[-171.433752,-13.351745],[-172.074017,-13.425278],[-172.364862,-13.993121],[-172.01383,-14.492671],[-171.367075,-14.421003]]]}},{"type":"Feature","properties":{"hex_id":"839a22fffffffff","population":742,"population_year":2025,"area_km2":12550.3,"population_density":0.1,"all_players":1,"players_per_million":1347.71,"player_ids":["nrl:1019602"],"label":"Hihifo","country":"Tonga"},"geometry":{"type":"Polygon","coordinates":[[[-173.201897,-16.787925],[-172.901361,-16.212831],[-173.251141,-15.703742],[-173.896172,-15.766768],[-174.197983,-16.336455],[-173.853558,-16.848503],[-173.201897,-16.787925]]]}},{"type":"Feature","properties":{"hex_id":"839b0efffffffff","population":5789,"population_year":2025,"area_km2":12915.2,"population_density":0.4,"all_players":3,"players_per_million":518.22,"player_ids":["nrl:1024255","nrl:991683","nrl:991733"],"label":"Tonga","country":"Tonga"},"geometry":{"type":"Polygon","coordinates":[[[-174.034132,-20.729213],[-173.720388,-20.147737],[-174.076367,-19.618798],[-174.740262,-19.668849],[-175.055144,-20.244957],[-174.705068,-20.77636],[-174.034132,-20.729213]]]}},{"type":"Feature","properties":{"hex_id":"839b5dfffffffff","population":59619,"population_year":2025,"area_km2":11273.1,"population_density":5.3,"all_players":1,"players_per_million":16.77,"player_ids":["nrl:1019571"],"label":"Labasa","country":"Fiji"},"geometry":{"type":"MultiPolygon","coordinates":[[[[-180.0,-15.745236],[-179.843964,-15.734285],[-179.547588,-16.235689],[-179.860999,-16.781441],[-180.0,-16.790249],[-180.0,-15.745236]]],[[[180.0,-16.790249],[179.529521,-16.820062],[179.239336,-16.316709],[179.552388,-15.776651],[180.0,-15.745236],[180.0,-16.790249]]]]}},{"type":"Feature","properties":{"hex_id":"839b6afffffffff","population":58504,"population_year":2025,"area_km2":11155.0,"population_density":5.2,"all_players":3,"players_per_million":51.28,"player_ids":["nrl:1010562","nrl:991512","nrl:995953"],"label":"Fiji","country":"Fiji"},"geometry":{"type":"Polygon","coordinates":[[[178.253063,-18.987734],[178.575102,-18.44667],[178.28869,-17.935405],[177.686779,-17.963771],[177.365552,-18.499185],[177.645375,-19.011849],[178.253063,-18.987734]]]}},{"type":"Feature","properties":{"hex_id":"839c23fffffffff","population":231411,"population_year":2025,"area_km2":12607.6,"population_density":18.4,"all_players":4,"players_per_million":17.29,"player_ids":["nrl:1008489","nrl:1011014","nrl:1019546","nrl:1024034"],"label":"Cairns","country":"Australia"},"geometry":{"type":"Polygon","coordinates":[[[146.241656,-17.056865],[146.134272,-16.454725],[145.513074,-16.258876],[144.994471,-16.660534],[145.094061,-17.26319],[145.720074,-17.463721],[146.241656,-17.056865]]]}},{"type":"Feature","properties":{"hex_id":"839caafffffffff","population":486428,"population_year":2025,"area_km2":13235.5,"population_density":36.8,"all_players":1,"players_per_million":2.06,"player_ids":["nrl:1018053"],"label":"Port Moresby","country":"Papua New Guinea"},"geometry":{"type":"Polygon","coordinates":[[[146.053855,-8.975478],[146.153013,-9.601512],[146.764182,-9.810229],[147.275608,-9.395546],[147.178039,-8.770561],[146.567439,-8.559185],[146.053855,-8.975478]]]}},{"type":"Feature","properties":{"hex_id":"839d01fffffffff","population":121643,"population_year":2025,"area_km2":13642.7,"population_density":8.9,"all_players":3,"players_per_million":24.66,"player_ids":["nrl:1014524","nrl:1035307","nrl:31667"],"label":"Mackay","country":"Australia"},"geometry":{"type":"Polygon","coordinates":[[[150.113922,-21.135285],[149.973846,-20.506716],[149.308253,-20.310228],[148.776537,-20.73832],[148.908355,-21.368239],[149.580197,-21.568763],[150.113922,-21.135285]]]}},{"type":"Feature","properties":{"hex_id":"839d0bfffffffff","population":205876,"population_year":2025,"area_km2":13220.0,"population_density":15.6,"all_players":3,"players_per_million":14.57,"player_ids":["nrl:1007454","nrl:991347","nrl:995647"],"label":"Townsville","country":"Australia"},"geometry":{"type":"Polygon","coordinates":[[[147.335389,-19.710104],[147.217062,-19.090051],[146.572745,-18.888357],[146.041409,-19.302203],[146.151528,-19.922933],[146.801225,-20.129189],[147.335389,-19.710104]]]}},{"type":"Feature","properties":{"hex_id":"839d0efffffffff","population":37494,"population_year":2025,"area_km2":13456.5,"population_density":2.8,"all_players":1,"players_per_million":26.67,"player_ids":["nrl:1019574"],"label":"Proserpine","country":"Australia"},"geometry":{"type":"Polygon","coordinates":[[[149.308253,-20.310228],[149.1751,-19.686219],[148.518368,-19.489087],[147.988887,-19.911816],[148.113858,-20.536992],[148.776537,-20.73832],[149.308253,-20.310228]]]}},{"type":"Feature","properties":{"hex_id":"839d21fffffffff","population":171973,"population_year":2025,"area_km2":14123.1,"population_density":12.2,"all_players":4,"players_per_million":23.26,"player_ids":["nrl:1011004","nrl:1037475","nrl:31435","nrl:995276"],"label":"Rockhampton","country":"Australia"},"geometry":{"type":"Polygon","coordinates":[[[151.389767,-23.879678],[151.236198,-23.238057],[150.546153,-23.040467],[150.002792,-23.480798],[150.147735,-24.124022],[150.844726,-24.325357],[151.389767,-23.879678]]]}},{"type":"Feature","properties":{"hex_id":"839d2dfffffffff","population":10379,"population_year":2025,"area_km2":14071.2,"population_density":0.7,"all_players":1,"players_per_million":96.35,"player_ids":["nrl:1019536"],"label":"Emerald","country":"Australia"},"geometry":{"type":"Polygon","coordinates":[[[148.902072,-24.358097],[148.765942,-23.713615],[148.081466,-23.504781],[147.52679,-23.93621],[147.653945,-24.581601],[148.3448,-24.794703],[148.902072,-24.358097]]]}},{"type":"Feature","properties":{"hex_id":"839d46fffffffff","population":969,"population_year":2025,"area_km2":13361.1,"population_density":0.1,"all_players":1,"players_per_million":1031.99,"player_ids":["nrl:31888"],"label":"Winton","country":"Australia"},"geometry":{"type":"Polygon","coordinates":[[[144.073667,-22.208617],[143.976131,-21.576588],[143.330914,-21.356363],[142.778493,-21.763077],[142.867259,-22.394803],[143.517235,-22.620168],[144.073667,-22.208617]]]}},{"type":"Feature","properties":{"hex_id":"83a79afffffffff","population":16857,"population_year":2025,"area_km2":9310.6,"population_density":1.8,"all_players":1,"players_per_million":59.32,"player_ids":["nrl:999915"],"label":"Port Hedland","country":"Australia"},"geometry":{"type":"Polygon","coordinates":[[[118.356685,-20.380256],[118.467529,-20.910866],[119.02216,-21.160162],[119.468882,-20.878838],[119.357565,-20.345278],[118.799983,-20.095984],[118.356685,-20.380256]]]}},{"type":"Feature","properties":{"hex_id":"83b845fffffffff","population":34587,"population_year":2025,"area_km2":10356.9,"population_density":3.3,"all_players":1,"players_per_million":28.91,"player_ids":["nrl:995877"],"label":"Kalgoorlie","country":"Australia"},"geometry":{"type":"Polygon","coordinates":[[[121.830915,-31.210001],[121.895996,-30.609193],[121.388017,-30.290057],[120.816768,-30.565998],[120.744449,-31.161209],[121.250533,-31.486075],[121.830915,-31.210001]]]}},{"type":"Feature","properties":{"hex_id":"83b8aefffffffff","population":182,"population_year":2025,"area_km2":12257.0,"population_density":0.0,"all_players":1,"players_per_million":5494.51,"player_ids":["nrl:1029654"],"label":"Australia","country":"Australia"},"geometry":{"type":"Polygon","coordinates":[[[133.469581,-25.399232],[133.449413,-24.772309],[132.859825,-24.507603],[132.288698,-24.863646],[132.30022,-25.487399],[132.891478,-25.758313],[133.469581,-25.399232]]]}},{"type":"Feature","properties":{"hex_id":"83b916fffffffff","population":1368696,"population_year":2025,"area_km2":13841.6,"population_density":98.9,"all_players":2,"players_per_million":1.46,"player_ids":["nrl:1019537","nrl:1023715"],"label":"Adelaide","country":"Australia"},"geometry":{"type":"Polygon","coordinates":[[[139.200573,-34.751633],[139.129671,-34.088237],[138.420784,-33.809579],[137.778412,-34.188927],[137.837784,-34.850139],[138.551045,-35.134235],[139.200573,-34.751633]]]}},{"type":"Feature","properties":{"hex_id":"83bb08fffffffff","population":166592,"population_year":2025,"area_km2":12679.7,"population_density":13.1,"all_players":2,"players_per_million":12.01,"player_ids":["nrl:1019553","nrl:1019554"],"label":"Hastings","country":"New Zealand"},"geometry":{"type":"Polygon","coordinates":[[[177.75966,-39.210775],[177.398429,-38.643671],[176.616053,-38.618824],[176.182758,-39.164654],[176.541203,-39.737336],[177.335885,-39.758591],[177.75966,-39.210775]]]}},{"type":"Feature","properties":{"hex_id":"83bb09fffffffff","population":148417,"population_year":2025,"area_km2":12892.8,"population_density":11.5,"all_players":1,"players_per_million":6.74,"player_ids":["nrl:996043"],"label":"Tokoroa","country":"New Zealand"},"geometry":{"type":"Polygon","coordinates":[[[176.616053,-38.618824],[176.26258,-38.043849],[175.478897,-38.009138],[175.036544,-38.552712],[175.386773,-39.133271],[176.182758,-39.164654],[176.616053,-38.618824]]]}},{"type":"Feature","properties":{"hex_id":"83bb0afffffffff","population":50405,"population_year":2025,"area_km2":12479.4,"population_density":4.0,"all_players":1,"players_per_million":19.84,"player_ids":["nrl:1012706"],"label":"Gisborne","country":"New Zealand"},"geometry":{"type":"Polygon","coordinates":[[[178.947219,-38.677456],[178.583766,-38.115997],[177.81525,-38.09718],[177.398429,-38.643671],[177.75966,-39.210775],[178.540082,-39.225721],[178.947219,-38.677456]]]}},{"type":"Feature","properties":{"hex_id":"83bb0bfffffffff","population":65758,"population_year":2025,"area_km2":12694.2,"population_density":5.2,"all_players":1,"players_per_million":15.21,"player_ids":["nrl:996042"],"label":"Whakatāne","country":"New Zealand"},"geometry":{"type":"Polygon","coordinates":[[[177.81525,-38.09718],[177.459102,-37.527873],[176.688659,-37.499409],[176.26258,-38.043849],[176.616053,-38.618824],[177.398429,-38.643671],[177.81525,-38.09718]]]}},{"type":"Feature","properties":{"hex_id":"83bb29fffffffff","population":461339,"population_year":2025,"area_km2":13005.4,"population_density":35.5,"all_players":6,"players_per_million":13.01,"player_ids":["nrl:1014503","nrl:31881","nrl:991497","nrl:995921","nrl:995944","nrl:995970"],"label":"Wellington","country":"New Zealand"},"geometry":{"type":"Polygon","coordinates":[[[175.193758,-41.376538],[174.833731,-40.801156],[174.011406,-40.765707],[173.535818,-41.30856],[173.891657,-41.889247],[174.727458,-41.921765],[175.193758,-41.376538]]]}},{"type":"Feature","properties":{"hex_id":"83bb2bfffffffff","population":290967,"population_year":2025,"area_km2":12833.4,"population_density":22.7,"all_players":2,"players_per_million":6.87,"player_ids":["nrl:1021314","nrl:991256"],"label":"Palmerston North","country":"New Zealand"},"geometry":{"type":"Polygon","coordinates":[[[176.464003,-40.85409],[176.100448,-40.284113],[175.291773,-40.256026],[174.833731,-40.801156],[175.193758,-41.376538],[176.01553,-41.40137],[176.464003,-40.85409]]]}},{"type":"Feature","properties":{"hex_id":"83bb50fffffffff","population":1759286,"population_year":2025,"area_km2":13096.6,"population_density":134.3,"all_players":41,"players_per_million":23.3,"player_ids":["nrl:1000006","nrl:1007404","nrl:1007443","nrl:1011025","nrl:1011034","nrl:1011039","nrl:1014522","nrl:1014527","nrl:1014529","nrl:1014536","nrl:1016793","nrl:1018245","nrl:1018303","nrl:1018534","nrl:1019547","nrl:1019565","nrl:1019576","nrl:1021754","nrl:1022682","nrl:1023577","nrl:1024313","nrl:1025408","nrl:31475","nrl:31613","nrl:31635","nrl:31677","nrl:31768","nrl:31804","nrl:31816","nrl:31835","nrl:31874","nrl:31932","nrl:991253","nrl:991680","nrl:995840","nrl:995932","nrl:995959","nrl:996164","nrl:998432","nrl:999917","nrl:999956"],"label":"Auckland","country":"New Zealand"},"geometry":{"type":"Polygon","coordinates":[[[175.568271,-36.884501],[175.227336,-36.30045],[174.454886,-36.252874],[174.011624,-36.792406],[174.349024,-37.382116],[175.133375,-37.426619],[175.568271,-36.884501]]]}},{"type":"Feature","properties":{"hex_id":"83bb54fffffffff","population":279861,"population_year":2025,"area_km2":13096.6,"population_density":21.4,"all_players":2,"players_per_million":7.15,"player_ids":["nrl:1024167","nrl:991557"],"label":"Hamilton","country":"New Zealand"},"geometry":{"type":"Polygon","coordinates":[[[175.478897,-38.009138],[175.133375,-37.426619],[174.349024,-37.382116],[173.898088,-37.923168],[174.239926,-38.51126],[175.036544,-38.552712],[175.478897,-38.009138]]]}},{"type":"Feature","properties":{"hex_id":"83bb56fffffffff","population":348029,"population_year":2025,"area_km2":12900.3,"population_density":27.0,"all_players":1,"players_per_million":2.87,"player_ids":["nrl:1009175"],"label":"Mount Maunganui","country":"New Zealand"},"geometry":{"type":"Polygon","coordinates":[[[176.688659,-37.499409],[176.340024,-36.922562],[175.568271,-36.884501],[175.133375,-37.426619],[175.478897,-38.009138],[176.26258,-38.043849],[176.688659,-37.499409]]]}},{"type":"Feature","properties":{"hex_id":"83bb5efffffffff","population":74810,"population_year":2025,"area_km2":13258.9,"population_density":5.6,"all_players":1,"players_per_million":13.37,"player_ids":["nrl:998460"],"label":"Rawene","country":"New Zealand"},"geometry":{"type":"Polygon","coordinates":[[[174.557652,-35.124424],[174.228804,-34.532789],[173.467756,-34.473018],[173.024206,-35.007663],[173.34927,-35.605007],[174.121814,-35.661983],[174.557652,-35.124424]]]}},{"type":"Feature","properties":{"hex_id":"83bb72fffffffff","population":122612,"population_year":2025,"area_km2":13081.4,"population_density":9.4,"all_players":3,"players_per_million":24.47,"player_ids":["nrl:1011029","nrl:991290","nrl:991506"],"label":"New Plymouth","country":"New Zealand"},"geometry":{"type":"Polygon","coordinates":[[[175.386773,-39.133271],[175.036544,-38.552712],[174.239926,-38.51126],[173.781053,-39.053375],[174.127439,-39.639419],[174.93671,-39.677849],[175.386773,-39.133271]]]}},{"type":"Feature","properties":{"hex_id":"83be08fffffffff","population":3715576,"population_year":2025,"area_km2":14884.3,"population_density":249.6,"all_players":34,"players_per_million":9.15,"player_ids":["nrl:1000031","nrl:1002528","nrl:1002839","nrl:1007456","nrl:1007533","nrl:1010603","nrl:1011017","nrl:1011018","nrl:1017153","nrl:1017275","nrl:1018247","nrl:1018453","nrl:1019552","nrl:1023463","nrl:1023552","nrl:1024033","nrl:1024035","nrl:1032436","nrl:1037941","nrl:1042735","nrl:31756","nrl:31897","nrl:31917","nrl:991519","nrl:991536","nrl:995281","nrl:995794","nrl:995886","nrl:996003","nrl:996013","nrl:996089","nrl:998433","nrl:998593","nrl:999978"],"label":"Wollongong","country":"Australia"},"geometry":{"type":"Polygon","coordinates":[[[151.210157,-34.25249],[151.038963,-33.586023],[150.264159,-33.373537],[149.651925,-33.824078],[149.812161,-34.491757],[150.595673,-34.707733],[151.210157,-34.25249]]]}},{"type":"Feature","properties":{"hex_id":"83be0afffffffff","population":256709,"population_year":2025,"area_km2":14884.3,"population_density":17.2,"all_players":1,"players_per_million":3.9,"player_ids":["nrl:1018494"],"label":"Central Coast","country":"Australia"},"geometry":{"type":"Polygon","coordinates":[[[151.64327,-33.128216],[151.470866,-32.462772],[150.704674,-32.253721],[150.102358,-32.706727],[150.264159,-33.373537],[151.038963,-33.586023],[151.64327,-33.128216]]]}},{"type":"Feature","properties":{"hex_id":"83be0bfffffffff","population":136071,"population_year":2025,"area_km2":14837.1,"population_density":9.2,"all_players":2,"players_per_million":14.7,"player_ids":["nrl:1011011","nrl:31793"],"label":"Orange","country":"Australia"},"geometry":{"type":"Polygon","coordinates":[[[150.264159,-33.373537],[150.102358,-32.706727],[149.339108,-32.489435],[148.729494,-32.935272],[148.880435,-33.603055],[149.651925,-33.824078],[150.264159,-33.373537]]]}},{"type":"Feature","properties":{"hex_id":"83be0cfffffffff","population":120630,"population_year":2025,"area_km2":14912.7,"population_density":8.1,"all_players":1,"players_per_million":8.29,"player_ids":["nrl:1011024"],"label":"Shellharbour","country":"Australia"},"geometry":{"type":"Polygon","coordinates":[[[152.177285,-35.125129],[151.996416,-34.459593],[151.210157,-34.25249],[150.595673,-34.707733],[150.76551,-35.374724],[151.560957,-35.585066],[152.177285,-35.125129]]]}},{"type":"Feature","properties":{"hex_id":"83be0dfffffffff","population":170143,"population_year":2025,"area_km2":14865.3,"population_density":11.4,"all_players":2,"players_per_million":11.75,"player_ids":["nrl:995278","nrl:997798"],"label":"Goulburn","country":"Australia"},"geometry":{"type":"Polygon","coordinates":[[[150.76551,-35.374724],[150.595673,-34.707733],[149.812161,-34.491757],[149.18977,-34.939276],[149.348283,-35.607323],[150.140595,-35.826845],[150.76551,-35.374724]]]}},{"type":"Feature","properties":{"hex_id":"83be0efffffffff","population":2059884,"population_year":2025,"area_km2":14922.2,"population_density":138.0,"all_players":63,"players_per_million":30.58,"player_ids":["nrl:1000003","nrl:1002028","nrl:1002057","nrl:1002504","nrl:1002561","nrl:1002866","nrl:1003674","nrl:1007457","nrl:1007531","nrl:1010021","nrl:1010995","nrl:1011009","nrl:1011012","nrl:1011032","nrl:1011035","nrl:1013034","nrl:1013613","nrl:1014514","nrl:1014532","nrl:1014534","nrl:1015573","nrl:1016084","nrl:1016344","nrl:1017453","nrl:1018246","nrl:1019538","nrl:1019540","nrl:1019545","nrl:1019564","nrl:1019581","nrl:1019595","nrl:1019597","nrl:1019897","nrl:1020658","nrl:1021284","nrl:1021748","nrl:1023864","nrl:1023975","nrl:1024143","nrl:1025372","nrl:31759","nrl:31770","nrl:31799","nrl:31849","nrl:31867","nrl:31868","nrl:31912","nrl:990750","nrl:991438","nrl:991459","nrl:991587","nrl:991600","nrl:991606","nrl:991722","nrl:991743","nrl:995878","nrl:995915","nrl:995957","nrl:996008","nrl:997794","nrl:997956","nrl:999942","nrl:999971"],"label":"Sydney","country":"Australia"},"geometry":{"type":"Polygon","coordinates":[[[152.602318,-33.997],[152.420459,-33.332138],[151.64327,-33.128216],[151.038963,-33.586023],[151.210157,-34.25249],[151.996416,-34.459593],[152.602318,-33.997]]]}},{"type":"Feature","properties":{"hex_id":"83be18fffffffff","population":169860,"population_year":2025,"area_km2":14884.3,"population_density":11.4,"all_players":2,"players_per_million":11.77,"player_ids":["nrl:991325","nrl:998416"],"label":"Taree","country":"Australia"},"geometry":{"type":"Polygon","coordinates":[[[153.419329,-31.737526],[153.235879,-31.075507],[152.476465,-30.877772],[151.891768,-31.339038],[152.065246,-32.002959],[152.833486,-32.203758],[153.419329,-31.737526]]]}},{"type":"Feature","properties":{"hex_id":"83be19fffffffff","population":38261,"population_year":2025,"area_km2":14865.3,"population_density":2.6,"all_players":1,"players_per_million":26.14,"player_ids":["nrl:1019580"],"label":"Muswellbrook","country":"Australia"},"geometry":{"type":"Polygon","coordinates":[[[152.065246,-32.002959],[151.891768,-31.339038],[151.134086,-31.133363],[150.541456,-31.58828],[150.704674,-32.253721],[151.470866,-32.462772],[152.065246,-32.002959]]]}},{"type":"Feature","properties":{"hex_id":"83be1afffffffff","population":133104,"population_year":2025,"area_km2":14837.1,"population_density":9.0,"all_players":1,"players_per_million":7.51,"player_ids":["nrl:1019584"],"label":"Coffs Harbour","country":"Australia"},"geometry":{"type":"Polygon","coordinates":[[[153.812074,-30.608287],[153.628004,-29.948427],[152.877292,-29.753699],[152.30204,-30.215868],[152.476465,-30.877772],[153.235879,-31.075507],[153.812074,-30.608287]]]}},{"type":"Feature","properties":{"hex_id":"83be1dfffffffff","population":537541,"population_year":2025,"area_km2":14912.7,"population_density":36.0,"all_players":10,"players_per_million":18.6,"player_ids":["nrl:1003182","nrl:1007459","nrl:1010991","nrl:1014510","nrl:1018344","nrl:1019560","nrl:1023615","nrl:996152","nrl:999903","nrl:999904"],"label":"Newcastle","country":"Australia"},"geometry":{"type":"Polygon","coordinates":[[[153.016202,-32.867447],[152.833486,-32.203758],[152.065246,-32.002959],[151.470866,-32.462772],[151.64327,-33.128216],[152.420459,-33.332138],[153.016202,-32.867447]]]}},{"type":"Feature","properties":{"hex_id":"83be29fffffffff","population":18541,"population_year":2025,"area_km2":14837.1,"population_density":1.2,"all_players":2,"players_per_million":107.87,"player_ids":["nrl:996016","nrl:997799"],"label":"Pambula","country":"Australia"},"geometry":{"type":"Polygon","coordinates":[[[151.292126,-37.372888],[151.113669,-36.7075],[150.30892,-36.49386],[149.673313,-36.942303],[149.839959,-37.608844],[150.654118,-37.82584],[151.292126,-37.372888]]]}},{"type":"Feature","properties":{"hex_id":"83be52fffffffff","population":2864,"population_year":2025,"area_km2":14696.9,"population_density":0.2,"all_players":2,"players_per_million":698.32,"player_ids":["nrl:1023614","nrl:1035338"],"label":"New South Wales","country":"Australia"},"geometry":{"type":"Polygon","coordinates":[[[147.970079,-32.709788],[147.828128,-32.042478],[147.080812,-31.813113],[146.468127,-32.246879],[146.599143,-32.914528],[147.353835,-33.148124],[147.970079,-32.709788]]]}},{"type":"Feature","properties":{"hex_id":"83be54fffffffff","population":41768,"population_year":2025,"area_km2":14752.7,"population_density":2.8,"all_players":4,"players_per_million":95.77,"player_ids":["nrl:1011023","nrl:1012211","nrl:31765","nrl:999463"],"label":"Temora","country":"Australia"},"geometry":{"type":"Polygon","coordinates":[[[148.409969,-34.714468],[148.260944,-34.045977],[147.493694,-33.816479],[146.86765,-34.251462],[147.005246,-34.920361],[147.780378,-35.153921],[148.409969,-34.714468]]]}},{"type":"Feature","properties":{"hex_id":"83be56fffffffff","population":34038,"population_year":2025,"area_km2":14771.4,"population_density":2.3,"all_players":2,"players_per_million":58.76,"player_ids":["nrl:1018454","nrl:1020463"],"label":"Parkes","country":"Australia"},"geometry":{"type":"Polygon","coordinates":[[[148.880435,-33.603055],[148.729494,-32.935272],[147.970079,-32.709788],[147.353835,-33.148124],[147.493694,-33.816479],[148.260944,-34.045977],[148.880435,-33.603055]]]}},{"type":"Feature","properties":{"hex_id":"83be72fffffffff","population":558761,"population_year":2025,"area_km2":14799.5,"population_density":37.8,"all_players":4,"players_per_million":7.16,"player_ids":["nrl:1002007","nrl:1014508","nrl:1014535","nrl:1043405"],"label":"Canberra","country":"Australia"},"geometry":{"type":"Polygon","coordinates":[[[149.348283,-35.607323],[149.18977,-34.939276],[148.409969,-34.714468],[147.780378,-35.153921],[147.927316,-35.82262],[148.715493,-36.051265],[149.348283,-35.607323]]]}},{"type":"Feature","properties":{"hex_id":"83be73fffffffff","population":174911,"population_year":2025,"area_km2":14715.5,"population_density":11.9,"all_players":3,"players_per_million":17.15,"player_ids":["nrl:1000038","nrl:1002837","nrl:31676"],"label":"Wagga Wagga","country":"Australia"},"geometry":{"type":"Polygon","coordinates":[[[147.927316,-35.82262],[147.780378,-35.153921],[147.005246,-34.920361],[146.369194,-35.351443],[146.504345,-36.020384],[147.287397,-36.258054],[147.927316,-35.82262]]]}},{"type":"Feature","properties":{"hex_id":"83be76fffffffff","population":50628,"population_year":2025,"area_km2":14827.6,"population_density":3.4,"all_players":2,"players_per_million":39.5,"player_ids":["nrl:1019589","nrl:991267"],"label":"Narooma","country":"Australia"},"geometry":{"type":"Polygon","coordinates":[[[150.30892,-36.49386],[150.140595,-35.826845],[149.348283,-35.607323],[148.715493,-36.051265],[148.872114,-36.719179],[149.673313,-36.942303],[150.30892,-36.49386]]]}},{"type":"Feature","properties":{"hex_id":"83be88fffffffff","population":355061,"population_year":2025,"area_km2":14495.3,"population_density":24.5,"all_players":2,"players_per_million":5.63,"player_ids":["nrl:1013240","nrl:1021326"],"label":"Nambour","country":"Australia"},"geometry":{"type":"Polygon","coordinates":[[[154.020867,-26.398343],[153.84377,-25.749272],[153.127039,-25.5596],[152.579515,-26.01596],[152.74788,-26.667264],[153.47258,-26.860017],[154.020867,-26.398343]]]}},{"type":"Feature","properties":{"hex_id":"83be89fffffffff","population":51566,"population_year":2025,"area_km2":14504.4,"population_density":3.6,"all_players":1,"players_per_million":19.39,"player_ids":["nrl:1023863"],"label":"Cherbourg","country":"Australia"},"geometry":{"type":"Polygon","coordinates":[[[152.74788,-26.667264],[152.579515,-26.01596],[151.863944,-25.819849],[151.309092,-26.271707],[151.46847,-26.924893],[152.191761,-27.124384],[152.74788,-26.667264]]]}},{"type":"Feature","properties":{"hex_id":"83be8bfffffffff","population":217020,"population_year":2025,"area_km2":14387.3,"population_density":15.1,"all_players":2,"players_per_million":9.22,"player_ids":["nrl:1022684","nrl:995954"],"label":"Bundaberg","country":"Australia"},"geometry":{"type":"Polygon","coordinates":[[[153.127039,-25.5596],[152.957977,-24.912507],[152.25003,-24.719712],[151.703594,-25.170738],[151.863944,-25.819849],[152.579515,-26.01596],[153.127039,-25.5596]]]}},{"type":"Feature","properties":{"hex_id":"83be8dfffffffff","population":2791925,"population_year":2025,"area_km2":14604.7,"population_density":191.2,"all_players":18,"players_per_million":6.45,"player_ids":["nrl:1009576","nrl:1011002","nrl:1011041","nrl:1013450","nrl:1014509","nrl:1014525","nrl:1014531","nrl:1019578","nrl:1021313","nrl:1023713","nrl:1024393","nrl:1027753","nrl:31555","nrl:991249","nrl:995808","nrl:995850","nrl:996051","nrl:999894"],"label":"Brisbane","country":"Australia"},"geometry":{"type":"Polygon","coordinates":[[[153.649162,-27.512988],[153.47258,-26.860017],[152.74788,-26.667264],[152.191761,-27.124384],[152.359327,-27.779455],[153.092109,-27.975349],[153.649162,-27.512988]]]}},{"type":"Feature","properties":{"hex_id":"83bea9fffffffff","population":165426,"population_year":2025,"area_km2":14771.4,"population_density":11.2,"all_players":2,"players_per_million":12.09,"player_ids":["nrl:1007399","nrl:995895"],"label":"Lismore","country":"Australia"},"geometry":{"type":"Polygon","coordinates":[[[154.194799,-29.480764],[154.010216,-28.823548],[153.268079,-28.631768],[152.702039,-29.094299],[152.877292,-29.753699],[153.628004,-29.948427],[154.194799,-29.480764]]]}},{"type":"Feature","properties":{"hex_id":"83beabfffffffff","population":784032,"population_year":2025,"area_km2":14687.7,"population_density":53.4,"all_players":4,"players_per_million":5.1,"player_ids":["nrl:1011020","nrl:1023553","nrl:991595","nrl:997958"],"label":"Murwillumbah","country":"Australia"},"geometry":{"type":"Polygon","coordinates":[[[154.567848,-28.355976],[154.382852,-27.701877],[153.649162,-27.512988],[153.092109,-27.975349],[153.268079,-28.631768],[154.010216,-28.823548],[154.567848,-28.355976]]]}},{"type":"Feature","properties":{"hex_id":"83beddfffffffff","population":3334,"population_year":2025,"area_km2":14210.2,"population_density":0.2,"all_players":1,"players_per_million":299.94,"player_ids":["nrl:991257"],"label":"Charleville","country":"Australia"},"geometry":{"type":"Polygon","coordinates":[[[146.76937,-26.747807],[146.645934,-26.094176],[145.953071,-25.870678],[145.377588,-26.296218],[145.491407,-26.950067],[146.190365,-27.178209],[146.76937,-26.747807]]]}},{"type":"Feature","properties":{"hex_id":"83bee2fffffffff","population":12860,"population_year":2025,"area_km2":14715.5,"population_density":0.9,"all_players":1,"players_per_million":77.76,"player_ids":["nrl:1019587"],"label":"Wee Waa","country":"Australia"},"geometry":{"type":"Polygon","coordinates":[[[150.222587,-30.259793],[150.066823,-29.59713],[149.330579,-29.383365],[148.742503,-29.82846],[148.888162,-30.492184],[149.632068,-30.709801],[150.222587,-30.259793]]]}},{"type":"Feature","properties":{"hex_id":"83bee5fffffffff","population":69616,"population_year":2025,"area_km2":14771.4,"population_density":4.7,"all_players":8,"players_per_million":114.92,"player_ids":["nrl:1000016","nrl:1001234","nrl:1012925","nrl:1018383","nrl:995673","nrl:995802","nrl:995972","nrl:997836"],"label":"Dubbo","country":"Australia"},"geometry":{"type":"Polygon","coordinates":[[[149.339108,-32.489435],[149.186411,-31.822863],[148.43478,-31.60134],[147.828128,-32.042478],[147.970079,-32.709788],[148.729494,-32.935272],[149.339108,-32.489435]]]}},{"type":"Feature","properties":{"hex_id":"83bef2fffffffff","population":219113,"population_year":2025,"area_km2":14604.7,"population_density":15.0,"all_players":4,"players_per_million":18.26,"player_ids":["nrl:1014519","nrl:1016995","nrl:1019596","nrl:1022681"],"label":"Toowoomba","country":"Australia"},"geometry":{"type":"Polygon","coordinates":[[[152.359327,-27.779455],[152.191761,-27.124384],[151.46847,-26.924893],[150.905007,-27.377078],[151.063301,-28.033891],[151.794405,-28.236823],[152.359327,-27.779455]]]}},{"type":"Feature","properties":{"hex_id":"83bef4fffffffff","population":16967,"population_year":2025,"area_km2":14771.4,"population_density":1.1,"all_players":1,"players_per_million":58.94,"player_ids":["nrl:995839"],"label":"Timbarra River","country":"Australia"},"geometry":{"type":"Polygon","coordinates":[[[152.877292,-29.753699],[152.702039,-29.094299],[151.961065,-28.895203],[151.387127,-29.352293],[151.552765,-30.013512],[152.30204,-30.215868],[152.877292,-29.753699]]]}},{"type":"Feature","properties":{"hex_id":"83bef6fffffffff","population":72808,"population_year":2025,"area_km2":14696.9,"population_density":5.0,"all_players":1,"players_per_million":13.73,"player_ids":["nrl:991386"],"label":"Beaudesert","country":"Australia"},"geometry":{"type":"Polygon","coordinates":[[[153.268079,-28.631768],[153.092109,-27.975349],[152.359327,-27.779455],[151.794405,-28.236823],[151.961065,-28.895203],[152.702039,-29.094299],[153.268079,-28.631768]]]}},{"type":"Feature","properties":{"hex_id":"83da90fffffffff","population":18559,"population_year":2025,"area_km2":13313.8,"population_density":1.4,"all_players":1,"players_per_million":53.88,"player_ids":["nrl:1023280"],"label":"Greymouth","country":"New Zealand"},"geometry":{"type":"Polygon","coordinates":[[[172.557883,-42.391024],[172.206923,-41.805146],[171.358655,-41.753382],[170.847403,-42.289728],[171.192762,-42.880661],[172.055177,-42.930191],[172.557883,-42.391024]]]}},{"type":"Feature","properties":{"hex_id":"83dab3fffffffff","population":279060,"population_year":2025,"area_km2":13012.9,"population_density":21.4,"all_players":3,"players_per_million":10.75,"player_ids":["nrl:1024170","nrl:995889","nrl:996341"],"label":"Christchurch","country":"New Zealand"},"geometry":{"type":"Polygon","coordinates":[[[173.640278,-44.124643],[173.274486,-43.55092],[172.410825,-43.512693],[171.898411,-44.050631],[172.258862,-44.629369],[173.137283,-44.665149],[173.640278,-44.124643]]]}}]}