{"type":"FeatureCollection","metadata":{"population_source":"WorldPop Global 2 R2025A","population_source_url":"https://hub.worldpop.org/project/categories?id=3","population_license":"CC BY 4.0","population_year":2025,"raster_resolution":"1km","h3_resolution":3,"population_method":"official_country_rasters","occupied_cells":175,"mapped_players":345},"features":[{"type":"Feature","properties":{"hex_id":"831126fffffffff","population":1368524,"population_year":2025,"area_km2":9668.2,"population_density":141.5,"all_players":2,"players_per_million":1.46,"player_ids":["badminton:bwf:85563","badminton:bwf:92655"],"label":"Helsinki","country":"Finland"},"geometry":{"type":"Polygon","coordinates":[[[24.856526,60.156524],[25.77412,59.916287],[26.638012,60.257092],[26.587158,60.845587],[25.642328,61.087458],[24.776007,60.739129],[24.856526,60.156524]]]}},{"type":"Feature","properties":{"hex_id":"831196fffffffff","population":2285765,"population_year":2025,"area_km2":11481.1,"population_density":199.1,"all_players":2,"players_per_million":0.87,"player_ids":["badminton:bwf:94032","badminton:bwf:96877"],"label":"Kharkiv","country":"Ukraine"},"geometry":{"type":"Polygon","coordinates":[[[35.368851,50.173554],[36.116724,49.779343],[36.931433,50.025114],[37.034158,50.647341],[36.300322,51.020528],[35.476624,50.766895],[35.435884,50.45735],[35.368851,50.173554]]]}},{"type":"Feature","properties":{"hex_id":"8311aafffffffff","population":17642956,"population_year":2025,"area_km2":11534.2,"population_density":1529.6,"all_players":1,"players_per_million":0.06,"player_ids":["badminton:bwf:52953"],"label":"Moscow","country":"Russia"},"geometry":{"type":"Polygon","coordinates":[[[36.214968,55.732318],[37.032624,55.377596],[37.971643,55.638414],[38.10557,56.261621],[37.271969,56.621119],[36.320428,56.352535],[36.214968,55.732318]]]}},{"type":"Feature","properties":{"hex_id":"83184bfffffffff","population":2215141,"population_year":2025,"area_km2":12395.2,"population_density":178.7,"all_players":1,"players_per_million":0.45,"player_ids":["badminton:bwf:74218"],"label":"San Sebastián","country":"Spain"},"geometry":{"type":"Polygon","coordinates":[[[-2.729364,43.8003],[-3.362059,43.400471],[-3.199092,42.769427],[-2.417796,42.54048],[-1.792726,42.937258],[-1.941313,43.565989],[-2.729364,43.8003]]]}},{"type":"Feature","properties":{"hex_id":"831860fffffffff","population":881207,"population_year":2025,"area_km2":11552.8,"population_density":76.3,"all_players":1,"players_per_million":1.13,"player_ids":["badminton:bwf:94580"],"label":"Caen","country":"France"},"geometry":{"type":"Polygon","coordinates":[[[-1.177569,49.64515],[-1.870585,49.286392],[-1.70924,48.674191],[-0.871944,48.423111],[-0.188757,48.779293],[-0.333038,49.389078],[-1.177569,49.64515]]]}},{"type":"Feature","properties":{"hex_id":"83186cfffffffff","population":913316,"population_year":2025,"area_km2":11454.2,"population_density":79.7,"all_players":1,"players_per_million":1.09,"player_ids":["badminton:bwf:68544"],"label":"Tours","country":"France"},"geometry":{"type":"Polygon","coordinates":[[[0.764026,47.90745],[0.090797,47.553677],[0.226253,46.938132],[1.019027,46.679286],[1.682214,47.030807],[1.562644,47.64338],[0.764026,47.90745]]]}},{"type":"Feature","properties":{"hex_id":"831909fffffffff","population":1893258,"population_year":2025,"area_km2":10857.3,"population_density":174.4,"all_players":2,"players_per_million":1.06,"player_ids":["badminton:bwf:48528","badminton:bwf:67922"],"label":"Bellshill","country":"United Kingdom"},"geometry":{"type":"Polygon","coordinates":[[[-5.121114,56.653173],[-5.903325,56.308916],[-5.669297,55.731906],[-4.675173,55.499857],[-3.903181,55.840606],[-4.115017,56.416836],[-5.121114,56.653173]]]}},{"type":"Feature","properties":{"hex_id":"831928fffffffff","population":48374,"population_year":2025,"area_km2":10113.5,"population_density":4.8,"all_players":1,"players_per_million":20.67,"player_ids":["badminton:bwf:72478"],"label":"Kirkwall","country":"United Kingdom"},"geometry":{"type":"Polygon","coordinates":[[[-3.36265,59.316805],[-4.193092,59.004167],[-3.968639,58.445873],[-2.938461,58.200945],[-2.120726,58.510088],[-2.320414,59.067569],[-3.36265,59.316805]]]}},{"type":"Feature","properties":{"hex_id":"83194afffffffff","population":6871941,"population_year":2025,"area_km2":11131.6,"population_density":617.3,"all_players":1,"players_per_million":0.15,"player_ids":["badminton:bwf:76278"],"label":"Kingston upon Thames","country":"United Kingdom"},"geometry":{"type":"Polygon","coordinates":[[[-0.069294,51.543996],[-0.785076,51.204689],[-0.631095,50.601911],[0.220599,50.340898],[0.925401,50.677831],[0.789471,51.278095],[-0.069294,51.543996]]]}},{"type":"Feature","properties":{"hex_id":"831954fffffffff","population":536321,"population_year":2025,"area_km2":10891.0,"population_density":49.2,"all_players":1,"players_per_million":1.86,"player_ids":["badminton:bwf:92277"],"label":"Prestwick","country":"United Kingdom"},"geometry":{"type":"Polygon","coordinates":[[[-3.903181,55.840606],[-4.675173,55.499857],[-4.460077,54.917652],[-3.494429,54.677292],[-2.733111,55.014799],[-2.926718,55.595835],[-3.903181,55.840606]]]}},{"type":"Feature","properties":{"hex_id":"83195dfffffffff","population":9049238,"population_year":2025,"area_km2":11149.1,"population_density":811.7,"all_players":2,"players_per_million":0.22,"player_ids":["badminton:bwf:63170","badminton:bwf:86756"],"label":"Milton Keynes","country":"United Kingdom"},"geometry":{"type":"Polygon","coordinates":[[[-1.103494,52.402317],[-1.830112,52.060429],[-1.661533,51.460545],[-0.785076,51.204689],[-0.069294,51.543996],[-0.219137,52.141681],[-1.103494,52.402317]]]}},{"type":"Feature","properties":{"hex_id":"831972fffffffff","population":1944595,"population_year":2025,"area_km2":10648.1,"population_density":182.6,"all_players":1,"players_per_million":0.51,"player_ids":["badminton:bwf:91715"],"label":"Edinburgh","country":"United Kingdom"},"geometry":{"type":"Polygon","coordinates":[[[-3.328181,56.747182],[-4.115017,56.416836],[-3.903181,55.840606],[-2.926718,55.595835],[-2.151313,55.922966],[-2.340901,56.498009],[-3.328181,56.747182]]]}},{"type":"Feature","properties":{"hex_id":"831e03fffffffff","population":3409653,"population_year":2025,"area_km2":12423.2,"population_density":274.5,"all_players":1,"players_per_million":0.29,"player_ids":["badminton:bwf:61949"],"label":"Budapest","country":"Hungary"},"geometry":{"type":"Polygon","coordinates":[[[18.304795,48.159109],[18.306518,47.555293],[19.12677,47.262899],[19.952961,47.57214],[19.964297,48.176504],[19.136367,48.471139],[18.304795,48.159109]]]}},{"type":"Feature","properties":{"hex_id":"831e04fffffffff","population":1817549,"population_year":2025,"area_km2":11948.5,"population_density":152.1,"all_players":1,"players_per_million":0.55,"player_ids":["badminton:bwf:60397"],"label":"Klimkovice","country":"Czech Republic"},"geometry":{"type":"Polygon","coordinates":[[[16.606047,49.899182],[16.621447,49.310134],[17.464633,49.038043],[18.301266,49.352938],[18.299459,49.942801],[17.447388,50.217015],[16.606047,49.899182]]]}},{"type":"Feature","properties":{"hex_id":"831ec1fffffffff","population":1152464,"population_year":2025,"area_km2":13642.7,"population_density":84.5,"all_players":3,"players_per_million":2.6,"player_ids":["badminton:bwf:43840","badminton:bwf:46169","badminton:bwf:87112"],"label":"Haskovo","country":"Bulgaria"},"geometry":{"type":"Polygon","coordinates":[[[24.524959,42.4932],[24.480935,41.85197],[25.225319,41.497196],[26.017648,41.780904],[26.072885,42.421413],[25.324619,42.778989],[24.524959,42.4932]]]}},{"type":"Feature","properties":{"hex_id":"831ec4fffffffff","population":1259329,"population_year":2025,"area_km2":13472.5,"population_density":93.5,"all_players":2,"players_per_million":1.59,"player_ids":["badminton:bwf:61628","badminton:bwf:72885"],"label":"Sofia","country":"Bulgaria"},"geometry":{"type":"Polygon","coordinates":[[[22.238177,43.517311],[22.210569,42.881199],[22.973375,42.544131],[23.768882,42.840643],[23.808112,43.476547],[23.040234,43.816203],[22.238177,43.517311]]]}},{"type":"Feature","properties":{"hex_id":"831ec9fffffffff","population":17744064,"population_year":2025,"area_km2":13716.7,"population_density":1293.6,"all_players":1,"players_per_million":0.06,"player_ids":["badminton:bwf:62426"],"label":"Istanbul","country":"Turkey"},"geometry":{"type":"Polygon","coordinates":[[[28.27582,41.315589],[28.205616,40.671538],[28.920766,40.29157],[29.708204,40.552644],[29.788911,41.195121],[29.071743,41.578147],[28.27582,41.315589]]]}},{"type":"Feature","properties":{"hex_id":"831f04fffffffff","population":736355,"population_year":2025,"area_km2":10178.5,"population_density":72.3,"all_players":3,"players_per_million":4.07,"player_ids":["badminton:bwf:25831","badminton:bwf:57731","badminton:bwf:85302"],"label":"Nyborg","country":"Denmark"},"geometry":{"type":"Polygon","coordinates":[[[10.065692,55.394879],[10.138365,54.862761],[11.057592,54.669026],[11.917787,55.005749],[11.860105,55.539449],[10.927107,55.734903],[10.065692,55.394879]]]}},{"type":"Feature","properties":{"hex_id":"831f05fffffffff","population":2284708,"population_year":2025,"area_km2":10249.3,"population_density":222.9,"all_players":5,"players_per_million":2.19,"player_ids":["badminton:bwf:51998","badminton:bwf:58324","badminton:bwf:64729","badminton:bwf:77002","badminton:bwf:91224"],"label":"Copenhagen","country":"Denmark"},"geometry":{"type":"Polygon","coordinates":[[[11.860105,55.539449],[11.917787,55.005749],[12.839846,54.798544],[13.717125,55.123081],[13.674893,55.658102],[12.739823,55.867327],[11.860105,55.539449]]]}},{"type":"Feature","properties":{"hex_id":"831f15fffffffff","population":4282236,"population_year":2025,"area_km2":10530.0,"population_density":406.7,"all_players":2,"players_per_million":0.47,"player_ids":["badminton:bwf:91106","badminton:bwf:97648"],"label":"Hamburg","country":"Germany"},"geometry":{"type":"Polygon","coordinates":[[[8.551833,53.61915],[8.634702,53.073729],[9.526612,52.882702],[10.349128,53.235917],[10.280052,53.783253],[9.374531,53.975514],[8.551833,53.61915]]]}},{"type":"Feature","properties":{"hex_id":"831f22fffffffff","population":1078499,"population_year":2025,"area_km2":9922.7,"population_density":108.7,"all_players":5,"players_per_million":4.64,"player_ids":["badminton:bwf:44414","badminton:bwf:62855","badminton:bwf:63437","badminton:bwf:88779","badminton:bwf:91554"],"label":"Aarhus","country":"Denmark"},"geometry":{"type":"Polygon","coordinates":[[[9.054551,56.10039],[9.136608,55.576825],[10.065692,55.394879],[10.927107,55.734903],[10.860149,56.260141],[9.916531,56.44374],[9.054551,56.10039]]]}},{"type":"Feature","properties":{"hex_id":"831f23fffffffff","population":869269,"population_year":2025,"area_km2":9995.4,"population_density":87.0,"all_players":2,"players_per_million":2.3,"player_ids":["badminton:bwf:68134","badminton:bwf:95643"],"label":"Roskilde","country":"Denmark"},"geometry":{"type":"Polygon","coordinates":[[[10.860149,56.260141],[10.927107,55.734903],[11.860105,55.539449],[12.739823,55.867327],[12.688484,56.393983],[11.741681,56.591404],[10.860149,56.260141]]]}},{"type":"Feature","properties":{"hex_id":"831f24fffffffff","population":372307,"population_year":2025,"area_km2":9491.0,"population_density":39.2,"all_players":2,"players_per_million":5.37,"player_ids":["badminton:bwf:81705","badminton:bwf:97030"],"label":"Dall Villaby","country":"Denmark"},"geometry":{"type":"Polygon","coordinates":[[[8.799628,57.640256],[8.8861,57.132116],[9.839975,56.960452],[10.722652,57.295139],[10.652048,57.804881],[9.682736,57.978393],[8.799628,57.640256]]]}},{"type":"Feature","properties":{"hex_id":"831f26fffffffff","population":490387,"population_year":2025,"area_km2":9668.2,"population_density":50.7,"all_players":1,"players_per_million":2.04,"player_ids":["badminton:bwf:92980"],"label":"Herning","country":"Denmark"},"geometry":{"type":"Polygon","coordinates":[[[8.024252,56.785427],[8.115982,56.270471],[9.054551,56.10039],[9.916531,56.44374],[9.839975,56.960452],[8.8861,57.132116],[8.024252,56.785427]]]}},{"type":"Feature","properties":{"hex_id":"831f80fffffffff","population":1678454,"population_year":2025,"area_km2":11552.8,"population_density":145.3,"all_players":1,"players_per_million":0.6,"player_ids":["badminton:bwf:59543"],"label":"Staffelfelden","country":"France"},"geometry":{"type":"Polygon","coordinates":[[[6.091769,48.180305],[6.186355,47.596926],[7.006321,47.39767],[7.743929,47.781588],[7.660516,48.367674],[6.828196,48.567179],[6.091769,48.180305]]]}},{"type":"Feature","properties":{"hex_id":"831f85fffffffff","population":2967770,"population_year":2025,"area_km2":11417.6,"population_density":259.9,"all_players":2,"players_per_million":0.67,"player_ids":["badminton:bwf:64909","badminton:bwf:73323"],"label":"Dudweiler","country":"Germany"},"geometry":{"type":"Polygon","coordinates":[[[6.737081,49.14516],[6.828196,48.567179],[7.660516,48.367674],[8.414101,48.74575],[8.334632,49.326261],[7.489806,49.526212],[6.737081,49.14516]]]}},{"type":"Feature","properties":{"hex_id":"831f93fffffffff","population":1564726,"population_year":2025,"area_km2":11896.2,"population_density":131.5,"all_players":2,"players_per_million":1.28,"player_ids":["badminton:bwf:98329","badminton:bwf:99891"],"label":"Guilherand-Granges","country":"France"},"geometry":{"type":"Polygon","coordinates":[[[4.268915,45.224369],[4.372371,44.626573],[5.156296,44.426959],[5.848477,44.82547],[5.754884,45.426507],[4.959125,45.625827],[4.268915,45.224369]]]}},{"type":"Feature","properties":{"hex_id":"831fa4fffffffff","population":7133777,"population_year":2025,"area_km2":10626.5,"population_density":671.3,"all_players":1,"players_per_million":0.14,"player_ids":["badminton:bwf:70399"],"label":"Brussels-Capital Region","country":"Belgium"},"geometry":{"type":"Polygon","coordinates":[[[3.881134,51.360376],[3.996418,50.807584],[4.847197,50.641723],[5.5966,51.028589],[5.492877,51.584097],[4.628032,51.750066],[3.881134,51.360376]]]}},{"type":"Feature","properties":{"hex_id":"831fb4fffffffff","population":10916515,"population_year":2025,"area_km2":11061.9,"population_density":986.9,"all_players":1,"players_per_million":0.09,"player_ids":["badminton:bwf:70762"],"label":"Sarcelles","country":"France"},"geometry":{"type":"Polygon","coordinates":[[[1.882244,49.805032],[1.18851,49.470279],[1.315872,48.863254],[2.120222,48.594025],[2.802853,48.926779],[2.692197,49.530714],[1.882244,49.805032]]]}},{"type":"Feature","properties":{"hex_id":"832129fffffffff","population":391349,"population_year":2025,"area_km2":14387.3,"population_density":27.2,"all_players":1,"players_per_million":2.56,"player_ids":["badminton:bwf:82989"],"label":"Kostanay","country":"Kazakhstan"},"geometry":{"type":"Polygon","coordinates":[[[62.506761,53.615112],[63.12424,53.061767],[64.240675,53.101674],[64.766815,53.696884],[64.158618,54.257565],[63.014448,54.215667],[62.506761,53.615112]]]}},{"type":"Feature","properties":{"hex_id":"832834fffffffff","population":3936879,"population_year":2025,"area_km2":13005.4,"population_density":302.7,"all_players":2,"players_per_million":0.51,"player_ids":["badminton:bwf:61882","badminton:bwf:65708"],"label":"Fremont","country":"United States"},"geometry":{"type":"Polygon","coordinates":[[[-121.707157,36.574218],[-121.335882,37.15313],[-121.764466,37.675694],[-122.564417,37.616538],[-122.927704,37.037552],[-122.499133,36.517784],[-121.707157,36.574218]]]}},{"type":"Feature","properties":{"hex_id":"832a30fffffffff","population":4186461,"population_year":2025,"area_km2":12833.4,"population_density":326.2,"all_players":1,"players_per_million":0.24,"player_ids":["badminton:bwf:83074"],"label":"Lowell","country":"United States"},"geometry":{"type":"Polygon","coordinates":[[[-70.772624,43.346551],[-71.550529,43.03556],[-71.558483,42.417927],[-70.809006,42.112129],[-70.042602,42.41534],[-70.014211,43.03201],[-70.772624,43.346551]]]}},{"type":"Feature","properties":{"hex_id":"832b89fffffffff","population":1128028,"population_year":2025,"area_km2":12892.8,"population_density":87.5,"all_players":1,"players_per_million":0.89,"player_ids":["badminton:bwf:63739"],"label":"Albany","country":"United States"},"geometry":{"type":"Polygon","coordinates":[[[-73.870888,43.31283],[-74.628834,42.980804],[-74.595759,42.362982],[-73.82523,42.076868],[-73.076912,42.400493],[-73.089476,43.018511],[-73.870888,43.31283]]]}},{"type":"Feature","properties":{"hex_id":"832b9bfffffffff","population":7907887,"population_year":2025,"area_km2":13050.9,"population_density":605.9,"all_players":3,"players_per_million":0.38,"player_ids":["badminton:bwf:63122","badminton:bwf:78208","badminton:bwf:94151"],"label":"Toronto","country":"Canada"},"geometry":{"type":"Polygon","coordinates":[[[-79.42239,43.984339],[-80.148592,43.614015],[-80.040798,42.99531],[-79.227281,42.744533],[-78.507232,43.105571],[-78.594427,43.726557],[-79.42239,43.984339]]]}},{"type":"Feature","properties":{"hex_id":"832d1bfffffffff","population":285414,"population_year":2025,"area_km2":12945.1,"population_density":22.0,"all_players":1,"players_per_million":3.5,"player_ids":["badminton:bwf:73023"],"label":"Erzincan","country":"Turkey"},"geometry":{"type":"Polygon","coordinates":[[[38.576721,40.087928],[38.4396,39.46141],[39.068691,39.030237],[39.832397,39.222586],[39.97757,39.845483],[39.3511,40.27968],[38.576721,40.087928]]]}},{"type":"Feature","properties":{"hex_id":"832d34fffffffff","population":3182122,"population_year":2025,"area_km2":13841.6,"population_density":229.9,"all_players":2,"players_per_million":0.63,"player_ids":["badminton:bwf:87885","badminton:bwf:94762"],"label":"Osmangazi","country":"Turkey"},"geometry":{"type":"Polygon","coordinates":[[[28.920766,40.29157],[28.846869,39.643311],[29.550166,39.257827],[30.329107,39.517523],[30.413179,40.164034],[29.708204,40.552644],[28.920766,40.29157]]]}},{"type":"Feature","properties":{"hex_id":"832e08fffffffff","population":754442,"population_year":2025,"area_km2":11509.5,"population_density":65.5,"all_players":1,"players_per_million":1.33,"player_ids":["badminton:bwf:68282"],"label":"Hachirōgata-machi","country":"Japan"},"geometry":{"type":"Polygon","coordinates":[[[140.891365,39.591299],[140.692184,40.194269],[139.963191,40.341129],[139.446276,39.887354],[139.652159,39.290395],[140.368409,39.141206],[140.891365,39.591299]]]}},{"type":"Feature","properties":{"hex_id":"832e0afffffffff","population":797435,"population_year":2025,"area_km2":11552.8,"population_density":69.0,"all_players":1,"players_per_million":1.25,"player_ids":["badminton:bwf:62063"],"label":"Aomori Prefecture","country":"Japan"},"geometry":{"type":"Polygon","coordinates":[[[141.227078,40.646412],[141.027024,41.24905],[140.284877,41.393622],[139.756099,40.937847],[139.963191,40.341129],[140.692184,40.194269],[141.227078,40.646412]]]}},{"type":"Feature","properties":{"hex_id":"832e0cfffffffff","population":1170009,"population_year":2025,"area_km2":11703.3,"population_density":100.0,"all_players":1,"players_per_million":0.85,"player_ids":["badminton:bwf:79906"],"label":"Ōsaki-shi","country":"Japan"},"geometry":{"type":"Polygon","coordinates":[[[141.809657,38.825701],[141.618334,39.434592],[140.891365,39.591299],[140.368409,39.141206],[140.566653,38.538289],[141.281081,38.379495],[141.809657,38.825701]]]}},{"type":"Feature","properties":{"hex_id":"832e1afffffffff","population":476498,"population_year":2025,"area_km2":11831.3,"population_density":40.3,"all_players":1,"players_per_million":2.1,"player_ids":["badminton:bwf:81609"],"label":"Hokkaidō","country":"Japan"},"geometry":{"type":"Polygon","coordinates":[[[143.280234,43.060817],[143.087087,43.667188],[142.305844,43.816095],[141.732147,43.360464],[141.93372,42.75965],[142.700744,42.608903],[143.280234,43.060817]]]}},{"type":"Feature","properties":{"hex_id":"832e1bfffffffff","population":2931596,"population_year":2025,"area_km2":11602.6,"population_density":252.7,"all_players":1,"players_per_million":0.34,"player_ids":["badminton:bwf:79558"],"label":"Iwamizawa","country":"Japan"},"geometry":{"type":"Polygon","coordinates":[[[141.93372,42.75965],[141.732147,43.360464],[140.962382,43.500645],[140.4084,43.04217],[140.61775,42.447067],[141.373482,42.304726],[141.93372,42.75965]]]}},{"type":"Feature","properties":{"hex_id":"832e1efffffffff","population":269705,"population_year":2025,"area_km2":12047.7,"population_density":22.4,"all_players":1,"players_per_million":3.71,"player_ids":["badminton:bwf:86479"],"label":"Obihiro","country":"Japan"},"geometry":{"type":"Polygon","coordinates":[[[144.24222,42.28813],[144.05802,42.901226],[143.280234,43.060817],[142.700744,42.608903],[142.893586,42.001313],[143.657451,41.840122],[144.24222,42.28813]]]}},{"type":"Feature","properties":{"hex_id":"832e29fffffffff","population":2455041,"population_year":2025,"area_km2":11565.2,"population_density":212.3,"all_players":1,"players_per_million":0.41,"player_ids":["badminton:bwf:91896"],"label":"Mito","country":"Japan"},"geometry":{"type":"Polygon","coordinates":[[[141.144608,36.719484],[140.954697,37.327278],[140.25243,37.488186],[139.752005,37.04344],[139.948213,36.441778],[140.638685,36.278739],[141.144608,36.719484]]]}},{"type":"Feature","properties":{"hex_id":"832e2bfffffffff","population":2693136,"population_year":2025,"area_km2":11640.2,"population_density":231.4,"all_players":3,"players_per_million":1.11,"player_ids":["badminton:bwf:59014","badminton:bwf:67903","badminton:bwf:78839"],"label":"Miyagi Prefecture","country":"Japan"},"geometry":{"type":"Polygon","coordinates":[[[141.471732,37.770958],[141.281081,38.379495],[140.566653,38.538289],[140.055179,38.090666],[140.25243,37.488186],[140.954697,37.327278],[141.471732,37.770958]]]}},{"type":"Feature","properties":{"hex_id":"832e60fffffffff","population":10118954,"population_year":2025,"area_km2":10697.0,"population_density":946.0,"all_players":2,"players_per_million":0.2,"player_ids":["badminton:bwf:85394","badminton:bwf:86778"],"label":"Ise","country":"Japan"},"geometry":{"type":"Polygon","coordinates":[[[137.382008,34.835332],[137.176248,35.42312],[136.516951,35.566991],[136.074341,35.125905],[136.284758,34.544565],[136.933247,34.397885],[137.382008,34.835332]]]}},{"type":"Feature","properties":{"hex_id":"832e61fffffffff","population":16062419,"population_year":2025,"area_km2":10435.0,"population_density":1539.3,"all_players":3,"players_per_million":0.19,"player_ids":["badminton:bwf:63530","badminton:bwf:68479","badminton:bwf:82070"],"label":"Osaka","country":"Japan"},"geometry":{"type":"Polygon","coordinates":[[[136.284758,34.544565],[136.074341,35.125905],[135.425844,35.264059],[134.998437,34.823901],[135.213088,34.249062],[135.851025,34.107905],[136.284758,34.544565]]]}},{"type":"Feature","properties":{"hex_id":"832e62fffffffff","population":448499,"population_year":2025,"area_km2":10790.5,"population_density":41.6,"all_players":2,"players_per_million":4.46,"player_ids":["badminton:bwf:74076","badminton:bwf:96312"],"label":"Katsuyama","country":"Japan"},"geometry":{"type":"Polygon","coordinates":[[[137.634341,35.864752],[137.426989,36.453843],[136.756542,36.594877],[136.304722,36.149677],[136.516951,35.566991],[137.176248,35.42312],[137.634341,35.864752]]]}},{"type":"Feature","properties":{"hex_id":"832e68fffffffff","population":1686930,"population_year":2025,"area_km2":10010.0,"population_density":168.5,"all_players":1,"players_per_million":0.59,"player_ids":["badminton:bwf:82009"],"label":"Okayama Prefecture","country":"Japan"},"geometry":{"type":"Polygon","coordinates":[[[134.360868,34.956664],[134.140195,35.526385],[133.503297,35.650678],[133.097527,35.208672],[133.321804,34.645482],[133.948357,34.517795],[134.360868,34.956664]]]}},{"type":"Feature","properties":{"hex_id":"832e69fffffffff","population":1965751,"population_year":2025,"area_km2":9751.8,"population_density":201.6,"all_players":1,"players_per_million":0.51,"player_ids":["badminton:bwf:90735"],"label":"Hiroshima","country":"Japan"},"geometry":{"type":"Polygon","coordinates":[[[133.321804,34.645482],[133.097527,35.208672],[132.471986,35.328043],[132.080882,34.887802],[132.308377,34.331159],[132.923863,34.208239],[133.321804,34.645482]]]}},{"type":"Feature","properties":{"hex_id":"832e71fffffffff","population":1224326,"population_year":2025,"area_km2":10874.1,"population_density":112.6,"all_players":1,"players_per_million":0.82,"player_ids":["badminton:bwf:84159"],"label":"Takaoka","country":"Japan"},"geometry":{"type":"Polygon","coordinates":[[[137.894767,36.899328],[137.685835,37.489364],[137.003884,37.627547],[136.5425,37.178563],[136.756542,36.594877],[137.426989,36.453843],[137.894767,36.899328]]]}},{"type":"Feature","properties":{"hex_id":"832e74fffffffff","population":3906773,"population_year":2025,"area_km2":11308.9,"population_density":345.5,"all_players":4,"players_per_million":1.02,"player_ids":["badminton:bwf:92989","badminton:bwf:94712","badminton:bwf:95172","badminton:bwf:96604"],"label":"Gunma Prefecture","country":"Japan"},"geometry":{"type":"Polygon","coordinates":[[[139.948213,36.441778],[139.752005,37.04344],[139.06007,37.197366],[138.576078,36.752025],[138.778095,36.156603],[139.458427,36.000295],[139.948213,36.441778]]]}},{"type":"Feature","properties":{"hex_id":"832e75fffffffff","population":1806286,"population_year":2025,"area_km2":11050.4,"population_density":163.5,"all_players":1,"players_per_million":0.55,"player_ids":["badminton:bwf:96713"],"label":"Ōmachi-shi","country":"Japan"},"geometry":{"type":"Polygon","coordinates":[[[138.778095,36.156603],[138.576078,36.752025],[137.894767,36.899328],[137.426989,36.453843],[137.634341,35.864752],[138.304265,35.714832],[138.778095,36.156603]]]}},{"type":"Feature","properties":{"hex_id":"832f5afffffffff","population":24486504,"population_year":2025,"area_km2":11478.7,"population_density":2133.2,"all_players":10,"players_per_million":0.41,"player_ids":["badminton:bwf:55417","badminton:bwf:64944","badminton:bwf:66794","badminton:bwf:67816","badminton:bwf:68304","badminton:bwf:76295","badminton:bwf:80532","badminton:bwf:85452","badminton:bwf:97174","badminton:bwf:99466"],"label":"Saitama Prefecture","country":"Japan"},"geometry":{"type":"Polygon","coordinates":[[[140.827794,35.672072],[140.638685,36.278739],[139.948213,36.441778],[139.458427,36.000295],[139.653549,35.399825],[140.332575,35.234652],[140.827794,35.672072]]]}},{"type":"Feature","properties":{"hex_id":"832f5bfffffffff","population":13410110,"population_year":2025,"area_km2":11219.7,"population_density":1195.2,"all_players":2,"players_per_million":0.15,"player_ids":["badminton:bwf:76079","badminton:bwf:87428"],"label":"Sagamihara","country":"Japan"},"geometry":{"type":"Polygon","coordinates":[[[139.653549,35.399825],[139.458427,36.000295],[138.778095,36.156603],[138.304265,35.714832],[138.504933,35.120661],[139.174011,34.961977],[139.653549,35.399825]]]}},{"type":"Feature","properties":{"hex_id":"833020fffffffff","population":4649400,"population_year":2025,"area_km2":8112.8,"population_density":573.1,"all_players":1,"players_per_million":0.22,"player_ids":["badminton:bwf:53806"],"label":"Anshan","country":"People's Republic of China"},"geometry":{"type":"Polygon","coordinates":[[[122.031754,41.039588],[122.514289,40.678477],[123.228333,40.73226],[123.474269,41.150556],[122.993578,41.520107],[122.264917,41.462859],[122.031754,41.039588]]]}},{"type":"Feature","properties":{"hex_id":"833025fffffffff","population":9824820,"population_year":2025,"area_km2":8291.7,"population_density":1184.9,"all_players":1,"players_per_million":0.1,"player_ids":["badminton:bwf:81599"],"label":"Liaoning","country":"People's Republic of China"},"geometry":{"type":"Polygon","coordinates":[[[122.993578,41.520107],[123.474269,41.150556],[124.201133,41.199526],[124.462361,41.621256],[123.984121,41.999374],[123.241996,41.947135],[122.993578,41.520107]]]}},{"type":"Feature","properties":{"hex_id":"833026fffffffff","population":2493831,"population_year":2025,"area_km2":8154.3,"population_density":305.8,"all_players":1,"players_per_million":0.4,"player_ids":["badminton:bwf:81844"],"label":"Jinzhou","country":"People's Republic of China"},"geometry":{"type":"Polygon","coordinates":[[[120.820069,41.335404],[121.316498,40.977741],[122.031754,41.039588],[122.264917,41.462859],[121.769677,41.829057],[121.0399,41.76338],[120.820069,41.335404]]]}},{"type":"Feature","properties":{"hex_id":"833083fffffffff","population":4325644,"population_year":2025,"area_km2":9089.8,"population_density":475.9,"all_players":1,"players_per_million":0.23,"player_ids":["badminton:bwf:65491"],"label":"Jiangsu","country":"People's Republic of China"},"geometry":{"type":"Polygon","coordinates":[[[121.006688,32.682213],[120.895239,33.223141],[120.302744,33.486536],[119.820303,33.207588],[119.935904,32.663437],[120.529787,32.40145],[121.006688,32.682213]]]}},{"type":"Feature","properties":{"hex_id":"833091fffffffff","population":11887127,"population_year":2025,"area_km2":9531.4,"population_density":1247.2,"all_players":1,"players_per_million":0.08,"player_ids":["badminton:bwf:78116"],"label":"Nanjing","country":"People's Republic of China"},"geometry":{"type":"Polygon","coordinates":[[[119.56977,31.825439],[119.453159,32.376319],[118.849385,32.63508],[118.361023,32.341458],[118.481793,31.787395],[119.086762,31.53013],[119.56977,31.825439]]]}},{"type":"Feature","properties":{"hex_id":"833096fffffffff","population":8779823,"population_year":2025,"area_km2":9951.6,"population_density":882.2,"all_players":2,"players_per_million":0.23,"player_ids":["badminton:bwf:71223","badminton:bwf:89714"],"label":"Anhui","country":"People's Republic of China"},"geometry":{"type":"Polygon","coordinates":[[[117.378796,31.739342],[117.253854,32.296477],[116.630993,32.548038],[116.132183,32.240997],[116.2613,31.680908],[116.885055,31.430804],[117.378796,31.739342]]]}},{"type":"Feature","properties":{"hex_id":"83309afffffffff","population":17092842,"population_year":2025,"area_km2":9571.3,"population_density":1785.8,"all_players":4,"players_per_million":0.23,"player_ids":["badminton:bwf:73013","badminton:bwf:73591","badminton:bwf:78778","badminton:bwf:91533"],"label":"Hangzhou","country":"People's Republic of China"},"geometry":{"type":"Polygon","coordinates":[[[120.996404,30.296676],[120.875267,30.802368],[120.67028,30.836383],[120.278479,31.010788],[119.800866,30.71374],[119.91536,30.153085],[120.503394,29.892985],[120.996404,30.296676]]]}},{"type":"Feature","properties":{"hex_id":"8330b0fffffffff","population":7756992,"population_year":2025,"area_km2":9424.3,"population_density":823.1,"all_players":1,"players_per_million":0.13,"player_ids":["badminton:bwf:77427"],"label":"Xuzhou","country":"People's Republic of China"},"geometry":{"type":"Polygon","coordinates":[[[117.373368,34.236597],[117.247103,34.775743],[116.617663,35.027132],[116.11358,34.738177],[116.244109,34.196363],[116.874459,33.946159],[117.373368,34.236597]]]}},{"type":"Feature","properties":{"hex_id":"8330c1fffffffff","population":8756452,"population_year":2025,"area_km2":9089.8,"population_density":963.3,"all_players":5,"players_per_million":0.57,"player_ids":["badminton:bwf:65580","badminton:bwf:70930","badminton:bwf:83419","badminton:bwf:91292","badminton:bwf:93074"],"label":"Ulsan","country":"South Korea"},"geometry":{"type":"Polygon","coordinates":[[[128.213849,35.631454],[128.33623,35.151585],[128.993984,35.025737],[129.53177,35.381031],[129.409707,35.861246],[128.749512,35.985844],[128.213849,35.631454]]]}},{"type":"Feature","properties":{"hex_id":"8330c4fffffffff","population":1838902,"population_year":2025,"area_km2":8833.8,"population_density":208.2,"all_players":1,"players_per_million":0.54,"player_ids":["badminton:bwf:66513"],"label":"Jeonju","country":"South Korea"},"geometry":{"type":"Polygon","coordinates":[[[126.253349,35.974736],[126.376194,35.503347],[127.027176,35.390362],[127.558004,35.750168],[127.435291,36.221993],[126.78159,36.333598],[126.253349,35.974736]]]}},{"type":"Feature","properties":{"hex_id":"8330c6fffffffff","population":2266184,"population_year":2025,"area_km2":9031.8,"population_density":250.9,"all_players":1,"players_per_million":0.44,"player_ids":["badminton:bwf:87442"],"label":"Gwangju","country":"South Korea"},"geometry":{"type":"Polygon","coordinates":[[[125.850587,35.138362],[125.973267,34.659415],[126.621486,34.544932],[127.149761,34.910916],[127.027176,35.390362],[126.376194,35.503347],[125.850587,35.138362]]]}},{"type":"Feature","properties":{"hex_id":"8330cbfffffffff","population":594673,"population_year":2025,"area_km2":9571.3,"population_density":62.1,"all_players":2,"players_per_million":3.36,"player_ids":["badminton:bwf:67828","badminton:bwf:81657"],"label":"Yamaguchi Prefecture","country":"Japan"},"geometry":{"type":"Polygon","coordinates":[[[130.978177,34.622109],[131.099289,34.125791],[131.763398,33.979751],[132.308377,34.331159],[132.080882,34.887802],[131.466722,35.002562],[131.340334,34.856241],[130.978177,34.622109]]]}},{"type":"Feature","properties":{"hex_id":"8330d9fffffffff","population":4231402,"population_year":2025,"area_km2":9765.8,"population_density":433.3,"all_players":3,"players_per_million":0.71,"player_ids":["badminton:bwf:65212","badminton:bwf:80062","badminton:bwf:86230"],"label":"Fukuoka Prefecture","country":"Japan"},"geometry":{"type":"Polygon","coordinates":[[[129.359518,33.546094],[129.481047,33.042329],[130.139649,32.900871],[130.678947,33.26453],[130.557843,33.768644],[129.896988,33.908774],[129.359518,33.546094]]]}},{"type":"Feature","properties":{"hex_id":"8330e0fffffffff","population":13687509,"population_year":2025,"area_km2":8441.3,"population_density":1621.5,"all_players":2,"players_per_million":0.15,"player_ids":["badminton:bwf:61444","badminton:bwf:74816"],"label":"Suwon","country":"South Korea"},"geometry":{"type":"Polygon","coordinates":[[[125.884029,37.357823],[126.007266,36.901954],[126.658592,36.797418],[127.012201,37.032929],[127.123933,37.181378],[126.867787,37.702666],[126.277216,37.773186],[126.059782,37.475499],[125.884029,37.357823]]]}},{"type":"Feature","properties":{"hex_id":"8330e1fffffffff","population":11601660,"population_year":2025,"area_km2":8646.7,"population_density":1341.8,"all_players":4,"players_per_million":0.34,"player_ids":["badminton:bwf:67810","badminton:bwf:77262","badminton:bwf:80005","badminton:bwf:99778"],"label":"Seoul","country":"South Korea"},"geometry":{"type":"Polygon","coordinates":[[[128.064451,37.550301],[127.809941,38.077868],[127.206753,38.151759],[126.867787,37.702666],[127.123933,37.181378],[127.717502,37.10294],[128.064451,37.550301]]]}},{"type":"Feature","properties":{"hex_id":"8330e3fffffffff","population":5008630,"population_year":2025,"area_km2":8646.0,"population_density":579.3,"all_players":1,"players_per_million":0.2,"player_ids":["badminton:bwf:71391"],"label":"Daejeon","country":"South Korea"},"geometry":{"type":"Polygon","coordinates":[[[126.658592,36.797418],[126.78159,36.333598],[127.435291,36.221993],[127.968639,36.57549],[127.717502,37.10294],[127.123933,37.181378],[127.012201,37.032929],[126.658592,36.797418]]]}},{"type":"Feature","properties":{"hex_id":"8330eafffffffff","population":872886,"population_year":2025,"area_km2":8996.5,"population_density":97.0,"all_players":1,"players_per_million":1.15,"player_ids":["badminton:bwf:56706"],"label":"Cheongsong County","country":"South Korea"},"geometry":{"type":"Polygon","coordinates":[[[129.772016,36.304462],[129.528111,36.844308],[128.919661,36.934486],[128.564929,36.489084],[128.688296,36.222593],[128.749512,35.985844],[129.409707,35.861246],[129.772016,36.304462]]]}},{"type":"Feature","properties":{"hex_id":"8330eefffffffff","population":1032819,"population_year":2025,"area_km2":8821.9,"population_density":117.1,"all_players":1,"players_per_million":0.97,"player_ids":["badminton:bwf:99069"],"label":"Chungju","country":"South Korea"},"geometry":{"type":"Polygon","coordinates":[[[128.919661,36.934486],[128.670415,37.468288],[128.064451,37.550301],[127.717502,37.10294],[127.968639,36.57549],[128.564929,36.489084],[128.919661,36.934486]]]}},{"type":"Feature","properties":{"hex_id":"83318cfffffffff","population":12576018,"population_year":2025,"area_km2":8604.7,"population_density":1461.5,"all_players":2,"players_per_million":0.16,"player_ids":["badminton:bwf:65144","badminton:bwf:65267"],"label":"Tianjin","country":"People's Republic of China"},"geometry":{"type":"Polygon","coordinates":[[[116.607976,39.554439],[116.511269,39.002085],[117.00539,38.724845],[117.594865,38.992943],[117.701435,39.539475],[117.208793,39.823737],[116.607976,39.554439]]]}},{"type":"Feature","properties":{"hex_id":"833920fffffffff","population":1541450,"population_year":2025,"area_km2":13313.8,"population_density":115.8,"all_players":1,"players_per_million":0.65,"player_ids":["badminton:bwf:92404"],"label":"Salvaterra de Miño","country":"Spain"},"geometry":{"type":"Polygon","coordinates":[[[-8.510499,42.979425],[-9.128239,42.535464],[-8.908305,41.898766],[-8.084602,41.706837],[-7.471834,42.1469],[-7.67772,42.782741],[-8.510499,42.979425]]]}},{"type":"Feature","properties":{"hex_id":"833969fffffffff","population":1583636,"population_year":2025,"area_km2":12395.2,"population_density":127.8,"all_players":1,"players_per_million":0.63,"player_ids":["badminton:bwf:96690"],"label":"Grasse","country":"France"},"geometry":{"type":"Polygon","coordinates":[[[6.03167,43.611509],[6.121326,42.998792],[6.894879,42.778417],[7.589687,43.17079],[7.509948,43.786609],[6.725378,44.00699],[6.03167,43.611509]]]}},{"type":"Feature","properties":{"hex_id":"833cb0fffffffff","population":4859844,"population_year":2025,"area_km2":12781.8,"population_density":380.2,"all_players":1,"players_per_million":0.21,"player_ids":["badminton:bwf:80402"],"label":"Durg","country":"India"},"geometry":{"type":"Polygon","coordinates":[[[81.604697,20.896426],[81.403336,21.494929],[80.747301,21.600827],[80.296442,21.111059],[80.497803,20.514933],[81.150063,20.406187],[81.604697,20.896426]]]}},{"type":"Feature","properties":{"hex_id":"833ce1fffffffff","population":8736960,"population_year":2025,"area_km2":13096.6,"population_density":667.1,"all_players":1,"players_per_million":0.11,"player_ids":["badminton:bwf:75628"],"label":"Guwahati","country":"India"},"geometry":{"type":"Polygon","coordinates":[[[92.710992,26.190468],[92.517389,26.790488],[91.812435,26.933833],[91.304088,26.477975],[91.499473,25.878441],[92.201472,25.734258],[92.710992,26.190468]]]}},{"type":"Feature","properties":{"hex_id":"833ceafffffffff","population":3111629,"population_year":2025,"area_km2":13456.5,"population_density":231.2,"all_players":1,"players_per_million":0.32,"player_ids":["badminton:bwf:50322"],"label":"Manipur","country":"India"},"geometry":{"type":"Polygon","coordinates":[[[94.498275,24.666554],[94.30893,25.279037],[93.606412,25.434516],[93.095979,24.978009],[93.287362,24.365802],[93.987187,24.209804],[94.498275,24.666554]]]}},{"type":"Feature","properties":{"hex_id":"833ceefffffffff","population":2277821,"population_year":2025,"area_km2":13282.4,"population_density":171.5,"all_players":1,"players_per_million":0.44,"player_ids":["badminton:bwf:76851"],"label":"Assam","country":"India"},"geometry":{"type":"Polygon","coordinates":[[[93.606412,25.434516],[93.414899,26.040927],[92.710992,26.190468],[92.201472,25.734258],[92.394898,25.128232],[93.095979,24.978009],[93.606412,25.434516]]]}},{"type":"Feature","properties":{"hex_id":"833d8dfffffffff","population":17383142,"population_year":2025,"area_km2":12270.7,"population_density":1416.6,"all_players":1,"players_per_million":0.06,"player_ids":["badminton:bwf:57265"],"label":"Uttar Pradesh","country":"India"},"geometry":{"type":"Polygon","coordinates":[[[80.609023,27.073634],[80.857496,26.518284],[81.553593,26.44047],[82.011189,26.914593],[81.772082,27.473598],[81.065899,27.554873],[80.609023,27.073634]]]}},{"type":"Feature","properties":{"hex_id":"833d96fffffffff","population":7590832,"population_year":2025,"area_km2":11582.8,"population_density":655.4,"all_players":1,"players_per_million":0.13,"player_ids":["badminton:bwf:69093"],"label":"Dhar","country":"India"},"geometry":{"type":"Polygon","coordinates":[[[74.727853,22.927821],[75.010886,22.410566],[75.631859,22.333005],[76.05508,22.821628],[75.987635,23.010467],[75.803113,23.358964],[75.122518,23.405317],[74.727853,22.927821]]]}},{"type":"Feature","properties":{"hex_id":"833da1fffffffff","population":46376060,"population_year":2025,"area_km2":12833.4,"population_density":3613.7,"all_players":2,"players_per_million":0.04,"player_ids":["badminton:bwf:58664","badminton:bwf:83950"],"label":"Delhi","country":"India"},"geometry":{"type":"Polygon","coordinates":[[[76.4681,28.531645],[76.760165,27.970817],[77.484942,27.910359],[77.928813,28.408353],[77.645527,28.973819],[76.90945,29.036687],[76.4681,28.531645]]]}},{"type":"Feature","properties":{"hex_id":"833da5fffffffff","population":7341786,"population_year":2025,"area_km2":13005.4,"population_density":564.5,"all_players":2,"players_per_million":0.27,"player_ids":["badminton:bwf:59687","badminton:bwf:90287"],"label":"Rohtak","country":"India"},"geometry":{"type":"Polygon","coordinates":[[[75.43007,29.15069],[75.734167,28.587597],[76.4681,28.531645],[76.90945,29.036687],[76.613997,29.604657],[75.868402,29.662739],[75.43007,29.15069]]]}},{"type":"Feature","properties":{"hex_id":"833dadfffffffff","population":5681000,"population_year":2025,"area_km2":12892.8,"population_density":440.6,"all_players":2,"players_per_million":0.35,"player_ids":["badminton:bwf:68870","badminton:bwf:74481"],"label":"Almora","country":"India"},"geometry":{"type":"Polygon","coordinates":[[[78.835242,29.406476],[79.10931,28.836643],[79.836575,28.762464],[80.300822,29.255047],[80.036399,29.828959],[79.297948,29.906253],[78.835242,29.406476]]]}},{"type":"Feature","properties":{"hex_id":"834000fffffffff","population":1584687,"population_year":2025,"area_km2":12188.8,"population_density":130.0,"all_players":1,"players_per_million":0.63,"player_ids":["badminton:bwf:97345"],"label":"Jingzhou Miao and Dong Autonomous County","country":"People's Republic of China"},"geometry":{"type":"Polygon","coordinates":[[[109.829499,26.584002],[109.680221,27.187651],[109.015889,27.410264],[108.501149,27.027681],[108.654218,26.421722],[109.318256,26.20064],[109.829499,26.584002]]]}},{"type":"Feature","properties":{"hex_id":"834002fffffffff","population":3296173,"population_year":2025,"area_km2":11948.5,"population_density":275.9,"all_players":1,"players_per_million":0.3,"player_ids":["badminton:bwf:89163"],"label":"Huaihua","country":"People's Republic of China"},"geometry":{"type":"Polygon","coordinates":[[[110.192341,27.56332],[110.043751,28.160739],[109.379183,28.384824],[108.86346,28.010002],[109.015889,27.410264],[109.680221,27.187651],[110.192341,27.56332]]]}},{"type":"Feature","properties":{"hex_id":"834014fffffffff","population":3748029,"population_year":2025,"area_km2":11552.8,"population_density":324.4,"all_players":1,"players_per_million":0.27,"player_ids":["badminton:bwf:88450"],"label":"Hunan","country":"People's Republic of China"},"geometry":{"type":"Polygon","coordinates":[[[112.515328,27.835285],[112.374603,28.427556],[111.724209,28.66067],[111.214414,28.299862],[111.359099,27.704934],[112.009632,27.473458],[112.515328,27.835285]]]}},{"type":"Feature","properties":{"hex_id":"834022fffffffff","population":3460786,"population_year":2025,"area_km2":12257.0,"population_density":282.4,"all_players":1,"players_per_million":0.29,"player_ids":["badminton:bwf:63029"],"label":"Guilin","country":"People's Republic of China"},"geometry":{"type":"Polygon","coordinates":[[[111.426826,24.913067],[111.283826,25.523345],[110.633188,25.751332],[110.125598,25.367179],[110.272428,24.754255],[110.923033,24.528118],[111.426826,24.913067]]]}},{"type":"Feature","properties":{"hex_id":"834071fffffffff","population":8215724,"population_year":2025,"area_km2":13235.5,"population_density":620.7,"all_players":1,"players_per_million":0.12,"player_ids":["badminton:bwf:91560"],"label":"Kunming","country":"People's Republic of China"},"geometry":{"type":"Polygon","coordinates":[[[103.526201,24.622401],[103.358487,25.241548],[102.669809,25.438624],[102.150202,25.015606],[102.321132,24.395174],[103.008486,24.199026],[103.526201,24.622401]]]}},{"type":"Feature","properties":{"hex_id":"8340a5fffffffff","population":4298474,"population_year":2025,"area_km2":11061.9,"population_density":388.6,"all_players":1,"players_per_million":0.23,"player_ids":["badminton:bwf:61854"],"label":"Shashi District","country":"People's Republic of China"},"geometry":{"type":"Polygon","coordinates":[[[113.247687,29.71295],[113.108568,30.292201],[112.458631,30.528373],[111.947566,30.183787],[112.090727,29.601911],[112.740922,29.367232],[113.247687,29.71295]]]}},{"type":"Feature","properties":{"hex_id":"8340e4fffffffff","population":7487046,"population_year":2025,"area_km2":12148.2,"population_density":616.3,"all_players":1,"players_per_million":0.13,"player_ids":["badminton:bwf:85914"],"label":"Luzhou","country":"People's Republic of China"},"geometry":{"type":"Polygon","coordinates":[[[106.155349,28.869763],[105.992935,29.462352],[105.304073,29.668481],[104.778575,29.281029],[104.944564,28.686815],[105.632505,28.481659],[106.155349,28.869763]]]}},{"type":"Feature","properties":{"hex_id":"834118fffffffff","population":16587626,"population_year":2025,"area_km2":12047.7,"population_density":1376.8,"all_players":4,"players_per_million":0.24,"player_ids":["badminton:bwf:57943","badminton:bwf:65300","badminton:bwf:85540","badminton:bwf:90531"],"label":"Guangdong","country":"People's Republic of China"},"geometry":{"type":"Polygon","coordinates":[[[114.10474,23.370163],[113.971845,23.982285],[113.343031,24.2175],[112.846744,23.838321],[112.983522,23.223058],[113.612713,22.990107],[114.10474,23.370163]]]}},{"type":"Feature","properties":{"hex_id":"83411cfffffffff","population":32618370,"population_year":2025,"area_km2":12027.7,"population_density":2711.9,"all_players":11,"players_per_million":0.34,"player_ids":["badminton:bwf:45171","badminton:bwf:61435","badminton:bwf:65634","badminton:bwf:68015","badminton:bwf:75864","badminton:bwf:77689","badminton:bwf:84523","badminton:bwf:86261","badminton:bwf:91673","badminton:bwf:94780","badminton:bwf:95205"],"label":"Hong Kong","country":"People's Republic of China"},"geometry":{"type":"Polygon","coordinates":[[[114.855932,22.520124],[114.726111,23.133955],[114.10474,23.370163],[113.612713,22.990107],[113.74641,22.372984],[114.368265,22.139203],[114.855932,22.520124]]]}},{"type":"Feature","properties":{"hex_id":"83411dfffffffff","population":25594540,"population_year":2025,"area_km2":12257.0,"population_density":2088.2,"all_players":1,"players_per_million":0.04,"player_ids":["badminton:bwf:58931"],"label":"Jiujiang Town","country":"People's Republic of China"},"geometry":{"type":"Polygon","coordinates":[[[113.74641,22.372984],[113.612713,22.990107],[112.983522,23.223058],[112.487716,22.83653],[112.62526,22.216287],[113.254772,21.985685],[113.74641,22.372984]]]}},{"type":"Feature","properties":{"hex_id":"834143fffffffff","population":13892396,"population_year":2025,"area_km2":13642.7,"population_density":1018.3,"all_players":1,"players_per_million":0.07,"player_ids":["badminton:bwf:85095"],"label":"Hanoi","country":"Vietnam"},"geometry":{"type":"Polygon","coordinates":[[[106.519213,20.223653],[106.36271,20.861049],[105.695921,21.069718],[105.186465,20.639275],[105.346367,20.00003],[106.012352,19.793061],[106.519213,20.223653]]]}},{"type":"Feature","properties":{"hex_id":"83415dfffffffff","population":4952365,"population_year":2025,"area_km2":13618.2,"population_density":363.7,"all_players":1,"players_per_million":0.2,"player_ids":["badminton:bwf:75678"],"label":"Phú Thọ","country":"Vietnam"},"geometry":{"type":"Polygon","coordinates":[[[105.695921,21.069718],[105.536491,21.704607],[104.86423,21.910765],[104.35237,21.480509],[104.515147,20.843926],[105.186465,20.639275],[105.695921,21.069718]]]}},{"type":"Feature","properties":{"hex_id":"83416dfffffffff","population":1389417,"population_year":2025,"area_km2":14254.2,"population_density":97.5,"all_players":1,"players_per_million":0.72,"player_ids":["badminton:bwf:35642"],"label":"Yasothon","country":"Thailand"},"geometry":{"type":"Polygon","coordinates":[[[105.130328,15.882713],[104.971912,16.533858],[104.308637,16.735504],[103.804802,16.284148],[103.966406,15.631515],[104.628684,15.431709],[105.130328,15.882713]]]}},{"type":"Feature","properties":{"hex_id":"834181fffffffff","population":1925279,"population_year":2025,"area_km2":10924.8,"population_density":176.2,"all_players":1,"players_per_million":0.52,"player_ids":["badminton:bwf:93130"],"label":"Jiangxi","country":"People's Republic of China"},"geometry":{"type":"Polygon","coordinates":[[[116.656839,27.327759],[116.531352,27.914038],[115.913237,28.16098],[115.419849,27.819679],[115.54937,27.230124],[116.168248,26.985138],[116.656839,27.327759]]]}},{"type":"Feature","properties":{"hex_id":"834183fffffffff","population":7495673,"population_year":2025,"area_km2":10691.6,"population_density":701.1,"all_players":1,"players_per_million":0.13,"player_ids":["badminton:bwf:95476"],"label":"Nanchang","country":"People's Republic of China"},"geometry":{"type":"Polygon","coordinates":[[[117.020007,28.248622],[116.895433,28.828751],[116.278138,29.077552],[115.7846,28.744357],[115.913237,28.16098],[116.531352,27.914038],[117.020007,28.248622]]]}},{"type":"Feature","properties":{"hex_id":"834189fffffffff","population":13037367,"population_year":2025,"area_km2":11344.9,"population_density":1149.2,"all_players":2,"players_per_million":0.15,"player_ids":["badminton:bwf:50469","badminton:bwf:57246"],"label":"Changsha","country":"People's Republic of China"},"geometry":{"type":"Polygon","coordinates":[[[113.660242,27.954582],[113.523519,28.544038],[112.880853,28.781384],[112.374603,28.427556],[112.515328,27.835285],[113.158313,27.599645],[113.660242,27.954582]]]}},{"type":"Feature","properties":{"hex_id":"834192fffffffff","population":1879464,"population_year":2025,"area_km2":9779.9,"population_density":192.2,"all_players":1,"players_per_million":0.53,"player_ids":["badminton:bwf:92928"],"label":"Lin'an District","country":"People's Republic of China"},"geometry":{"type":"Polygon","coordinates":[[[119.91536,30.153085],[119.800866,30.71374],[119.20437,30.972609],[118.721141,30.669105],[118.839731,30.105046],[119.437451,29.84789],[119.91536,30.153085]]]}},{"type":"Feature","properties":{"hex_id":"8341a0fffffffff","population":10084054,"population_year":2025,"area_km2":10891.0,"population_density":925.9,"all_players":1,"players_per_million":0.1,"player_ids":["badminton:bwf:89426"],"label":"Nan'an","country":"People's Republic of China"},"geometry":{"type":"Polygon","coordinates":[[[118.821001,24.807918],[118.704724,25.400645],[118.110701,25.650457],[117.631914,25.305152],[117.752139,24.708687],[118.347202,24.461264],[118.821001,24.807918]]]}},{"type":"Feature","properties":{"hex_id":"8341a2fffffffff","population":1048574,"population_year":2025,"area_km2":10675.2,"population_density":98.2,"all_players":1,"players_per_million":0.95,"player_ids":["badminton:bwf:59880"],"label":"Fujian","country":"People's Republic of China"},"geometry":{"type":"Polygon","coordinates":[[[119.178352,25.739512],[119.063017,26.326751],[118.470087,26.578843],[117.991396,26.241415],[118.110701,25.650457],[118.704724,25.400645],[119.178352,25.739512]]]}},{"type":"Feature","properties":{"hex_id":"8341a5fffffffff","population":6565862,"population_year":2025,"area_km2":11102.5,"population_density":591.4,"all_players":1,"players_per_million":0.15,"player_ids":["badminton:bwf:92967"],"label":"Zhangzhou","country":"People's Republic of China"},"geometry":{"type":"Polygon","coordinates":[[[118.464408,23.863272],[118.347202,24.461264],[117.752139,24.708687],[117.273296,24.355617],[117.394428,23.753875],[117.990477,23.508952],[118.464408,23.863272]]]}},{"type":"Feature","properties":{"hex_id":"8341b5fffffffff","population":7045510,"population_year":2025,"area_km2":10449.9,"population_density":674.2,"all_players":1,"players_per_million":0.14,"player_ids":["badminton:bwf:77042"],"label":"Fuzhou","country":"People's Republic of China"},"geometry":{"type":"Polygon","coordinates":[[[120.247923,25.90744],[120.127974,26.4481],[119.926138,26.488018],[119.536436,26.657733],[119.063017,26.326751],[119.178352,25.739512],[119.763148,25.487093],[120.247923,25.90744]]]}},{"type":"Feature","properties":{"hex_id":"834249fffffffff","population":9250064,"population_year":2025,"area_km2":13376.9,"population_density":691.5,"all_players":2,"players_per_million":0.22,"player_ids":["badminton:bwf:57372","badminton:bwf:99042"],"label":"Ludhiana","country":"India"},"geometry":{"type":"Polygon","coordinates":[[[74.485135,30.857134],[74.80568,30.285601],[75.560524,30.232739],[76.00706,30.749546],[75.695319,31.326181],[74.928073,31.380935],[74.485135,30.857134]]]}},{"type":"Feature","properties":{"hex_id":"8342ccfffffffff","population":8020234,"population_year":2025,"area_km2":11792.7,"population_density":680.1,"all_players":1,"players_per_million":0.12,"player_ids":["badminton:bwf:86604"],"label":"Mehsana","country":"India"},"geometry":{"type":"Polygon","coordinates":[[[71.699171,23.593305],[72.008973,23.075865],[72.690259,23.043157],[73.071819,23.526978],[72.768296,24.049845],[72.076809,24.083479],[71.699171,23.593305]]]}},{"type":"Feature","properties":{"hex_id":"8343acfffffffff","population":4658901,"population_year":2025,"area_km2":11369.1,"population_density":409.8,"all_players":1,"players_per_million":0.21,"player_ids":["badminton:bwf:94165"],"label":"Dubai","country":"United Arab Emirates"},"geometry":{"type":"Polygon","coordinates":[[[55.109962,25.430799],[55.532661,24.954908],[56.197846,24.996691],[56.449591,25.517876],[56.027427,26.000809],[55.352884,25.955468],[55.109962,25.430799]]]}},{"type":"Feature","properties":{"hex_id":"8344a1fffffffff","population":5763886,"population_year":2025,"area_km2":11010.2,"population_density":523.5,"all_players":1,"players_per_million":0.17,"player_ids":["badminton:bwf:79258"],"label":"Boca Raton","country":"United States"},"geometry":{"type":"Polygon","coordinates":[[[-79.949065,25.306967],[-79.508022,25.739732],[-79.655984,26.333663],[-80.252477,26.497928],[-80.698565,26.062694],[-80.543111,25.465679],[-79.949065,25.306967]]]}},{"type":"Feature","properties":{"hex_id":"834525fffffffff","population":1484778,"population_year":2025,"area_km2":12395.2,"population_density":119.8,"all_players":1,"players_per_million":0.67,"player_ids":["badminton:bwf:54897"],"label":"La Unión Zacapa","country":"Guatemala"},"geometry":{"type":"Polygon","coordinates":[[[-89.244879,14.378272],[-88.827278,14.871974],[-89.027048,15.457211],[-89.650869,15.549053],[-90.071098,15.050969],[-89.864907,14.465456],[-89.244879,14.378272]]]}},{"type":"Feature","properties":{"hex_id":"834b34fffffffff","population":8884076,"population_year":2025,"area_km2":9751.8,"population_density":911.0,"all_players":1,"players_per_million":0.11,"player_ids":["badminton:bwf:55414"],"label":"Ningbo","country":"People's Republic of China"},"geometry":{"type":"Polygon","coordinates":[[[120.503394,29.892985],[120.624212,29.380355],[121.238441,29.270157],[121.735116,29.675158],[121.613919,30.189025],[120.996404,30.296676],[120.503394,29.892985]]]}},{"type":"Feature","properties":{"hex_id":"834b62fffffffff","population":822235,"population_year":2025,"area_km2":10234.0,"population_density":80.3,"all_players":1,"players_per_million":1.22,"player_ids":["badminton:bwf:62395"],"label":"Miyazaki Prefecture","country":"Japan"},"geometry":{"type":"Polygon","coordinates":[[[130.920644,32.240453],[131.041236,31.720504],[131.702216,31.564914],[132.244576,31.930572],[132.124554,32.450789],[131.461574,32.605104],[130.920644,32.240453]]]}},{"type":"Feature","properties":{"hex_id":"834b65fffffffff","population":1368780,"population_year":2025,"area_km2":9786.4,"population_density":139.9,"all_players":1,"players_per_million":0.73,"player_ids":["badminton:bwf:88135"],"label":"Yanai","country":"Japan"},"geometry":{"type":"Polygon","coordinates":[[[131.763398,33.979751],[131.883964,33.475385],[132.548885,33.322249],[133.095088,33.674587],[133.035155,33.927508],[132.923863,34.208239],[132.308377,34.331159],[131.763398,33.979751]]]}},{"type":"Feature","properties":{"hex_id":"834b66fffffffff","population":1830583,"population_year":2025,"area_km2":10000.2,"population_density":183.1,"all_players":3,"players_per_million":1.64,"player_ids":["badminton:bwf:71023","badminton:bwf:79501","badminton:bwf:86672"],"label":"Yatsushiro","country":"Japan"},"geometry":{"type":"Polygon","coordinates":[[[130.139649,32.900871],[130.260732,32.389001],[130.920644,32.240453],[131.461574,32.605104],[131.340987,33.117287],[130.678947,33.26453],[130.139649,32.900871]]]}},{"type":"Feature","properties":{"hex_id":"834ba0fffffffff","population":10190325,"population_year":2025,"area_km2":10891.0,"population_density":935.7,"all_players":11,"players_per_million":1.08,"player_ids":["badminton:bwf:34810","badminton:bwf:59709","badminton:bwf:76717","badminton:bwf:87375","badminton:bwf:88807","badminton:bwf:88829","badminton:bwf:89583","badminton:bwf:92913","badminton:bwf:96514","badminton:bwf:99102","badminton:bwf:99925"],"label":"Taipei","country":"Taiwan"},"geometry":{"type":"Polygon","coordinates":[[[120.48761,24.811824],[120.607345,24.25696],[121.215981,24.121857],[121.708089,24.544589],[121.58798,25.101239],[120.976115,25.233392],[120.48761,24.811824]]]}},{"type":"Feature","properties":{"hex_id":"834ba2fffffffff","population":5198753,"population_year":2025,"area_km2":11027.4,"population_density":471.4,"all_players":3,"players_per_million":0.58,"player_ids":["badminton:bwf:64081","badminton:bwf:71673","badminton:bwf:81108"],"label":"Taichung","country":"Taiwan"},"geometry":{"type":"Polygon","coordinates":[[[120.121795,23.832352],[120.241208,23.271539],[120.846595,23.133384],[121.335796,23.559113],[121.215981,24.121857],[120.607345,24.25696],[120.121795,23.832352]]]}},{"type":"Feature","properties":{"hex_id":"834bb1fffffffff","population":4966552,"population_year":2025,"area_km2":11155.0,"population_density":445.2,"all_players":9,"players_per_million":1.81,"player_ids":["badminton:bwf:55920","badminton:bwf:59077","badminton:bwf:69009","badminton:bwf:74561","badminton:bwf:76275","badminton:bwf:86114","badminton:bwf:87176","badminton:bwf:95062","badminton:bwf:96973"],"label":"Kaohsiung","country":"Taiwan"},"geometry":{"type":"Polygon","coordinates":[[[119.758622,22.844231],[119.877705,22.277718],[120.479824,22.136414],[120.966107,22.56479],[120.846595,23.133384],[120.241208,23.271539],[119.758622,22.844231]]]}},{"type":"Feature","properties":{"hex_id":"834bb5fffffffff","population":161352,"population_year":2025,"area_km2":10906.9,"population_density":14.8,"all_players":1,"players_per_million":6.2,"player_ids":["badminton:bwf:87029"],"label":"Magong City","country":"Taiwan"},"geometry":{"type":"Polygon","coordinates":[[[119.051497,23.615814],[119.165727,23.016685],[119.3594,22.934376],[119.758622,22.844231],[120.241208,23.271539],[120.121795,23.832352],[119.520262,23.963809],[119.051497,23.615814]]]}},{"type":"Feature","properties":{"hex_id":"836002fffffffff","population":3388142,"population_year":2025,"area_km2":12229.6,"population_density":277.0,"all_players":1,"players_per_million":0.3,"player_ids":["badminton:bwf:71612"],"label":"Cherupuzha, Kannur","country":"India"},"geometry":{"type":"Polygon","coordinates":[[[75.722921,11.731546],[75.528069,12.336499],[74.928421,12.455892],[74.52731,11.974023],[74.721398,11.37303],[75.31739,11.249951],[75.722921,11.731546]]]}},{"type":"Feature","properties":{"hex_id":"836004fffffffff","population":1112754,"population_year":2025,"area_km2":12374.3,"population_density":89.9,"all_players":1,"players_per_million":0.9,"player_ids":["badminton:bwf:68317"],"label":"Kochi","country":"India"},"geometry":{"type":"Polygon","coordinates":[[[76.30569,9.906049],[76.111736,10.516171],[75.51145,10.644237],[75.108761,10.165686],[75.302029,9.55963],[75.898702,9.428064],[76.30569,9.906049]]]}},{"type":"Feature","properties":{"hex_id":"836014fffffffff","population":9179346,"population_year":2025,"area_km2":12679.7,"population_density":723.9,"all_players":1,"players_per_million":0.11,"player_ids":["badminton:bwf:77389"],"label":"Bengaluru","country":"India"},"geometry":{"type":"Polygon","coordinates":[[[77.770981,12.450864],[77.57497,13.063332],[76.959659,13.186075],[76.544056,12.699746],[76.739552,12.090965],[77.351197,11.964827],[77.770981,12.450864]]]}},{"type":"Feature","properties":{"hex_id":"836015fffffffff","population":4991620,"population_year":2025,"area_km2":12458.3,"population_density":400.7,"all_players":1,"players_per_million":0.2,"player_ids":["badminton:bwf:66290"],"label":"Mysore","country":"India"},"geometry":{"type":"Polygon","coordinates":[[[76.739552,12.090965],[76.544056,12.699746],[75.936467,12.820739],[75.528069,12.336499],[75.722921,11.731546],[76.326846,11.607008],[76.739552,12.090965]]]}},{"type":"Feature","properties":{"hex_id":"836033fffffffff","population":7824440,"population_year":2025,"area_km2":12650.8,"population_density":618.5,"all_players":1,"players_per_million":0.13,"player_ids":["badminton:bwf:91807"],"label":"Coimbatore","country":"India"},"geometry":{"type":"Polygon","coordinates":[[[77.546462,11.351349],[77.351197,11.964827],[76.739552,12.090965],[76.326846,11.607008],[76.521571,10.997343],[77.129573,10.867824],[77.546462,11.351349]]]}},{"type":"Feature","properties":{"hex_id":"836036fffffffff","population":6796014,"population_year":2025,"area_km2":13050.9,"population_density":520.7,"all_players":1,"players_per_million":0.15,"player_ids":["badminton:bwf:86975"],"label":"Tamil Nadu","country":"India"},"geometry":{"type":"Polygon","coordinates":[[[79.403742,10.951533],[79.208494,11.573007],[78.585778,11.705839],[78.161949,11.220243],[78.3569,10.602402],[78.976011,10.466524],[79.403742,10.951533]]]}},{"type":"Feature","properties":{"hex_id":"83608bfffffffff","population":11284694,"population_year":2025,"area_km2":11308.9,"population_density":997.9,"all_players":1,"players_per_million":0.09,"player_ids":["badminton:bwf:70500"],"label":"Mumbai","country":"India"},"geometry":{"type":"Polygon","coordinates":[[[73.366312,18.827693],[73.168224,19.399666],[72.57251,19.480498],[72.178712,18.993494],[72.375716,18.424848],[72.967629,18.339877],[73.366312,18.827693]]]}},{"type":"Feature","properties":{"hex_id":"836096fffffffff","population":6275076,"population_year":2025,"area_km2":12395.2,"population_density":506.2,"all_players":1,"players_per_million":0.16,"player_ids":["badminton:bwf:88471"],"label":"Nagpur","country":"India"},"geometry":{"type":"Polygon","coordinates":[[[79.647437,21.213593],[79.445503,21.802903],[78.80002,21.899118],[78.360358,21.409186],[78.562006,20.82242],[79.203639,20.723033],[79.647437,21.213593]]]}},{"type":"Feature","properties":{"hex_id":"8360a2fffffffff","population":8385942,"population_year":2025,"area_km2":12650.8,"population_density":662.9,"all_players":3,"players_per_million":0.36,"player_ids":["badminton:bwf:59966","badminton:bwf:70595","badminton:bwf:73173"],"label":"Hyderabad","country":"India"},"geometry":{"type":"Polygon","coordinates":[[[78.691032,16.851081],[78.492046,17.455223],[77.861832,17.564441],[77.434399,17.072867],[77.632977,16.47186],[78.25943,16.359287],[78.691032,16.851081]]]}},{"type":"Feature","properties":{"hex_id":"8360acfffffffff","population":2819412,"population_year":2025,"area_km2":12270.7,"population_density":229.8,"all_players":3,"players_per_million":1.06,"player_ids":["badminton:bwf:62720","badminton:bwf:68322","badminton:bwf:69313"],"label":"Karnataka","country":"India"},"geometry":{"type":"Polygon","coordinates":[[[76.369883,15.001448],[76.172648,15.601599],[75.561875,15.709889],[75.152103,15.221727],[75.348635,14.625141],[75.955673,14.513152],[76.369883,15.001448]]]}},{"type":"Feature","properties":{"hex_id":"83611cfffffffff","population":8088999,"population_year":2025,"area_km2":13235.5,"population_density":611.2,"all_players":1,"players_per_million":0.12,"player_ids":["badminton:bwf:64666"],"label":"Colombo","country":"Sri Lanka"},"geometry":{"type":"Polygon","coordinates":[[[80.566973,7.196939],[80.3741,7.824931],[79.751941,7.972321],[79.32618,7.494321],[79.518918,6.870084],[80.137586,6.720092],[80.566973,7.196939]]]}},{"type":"Feature","properties":{"hex_id":"83618cfffffffff","population":8799252,"population_year":2025,"area_km2":13282.4,"population_density":662.5,"all_players":2,"players_per_million":0.23,"player_ids":["badminton:bwf:79164","badminton:bwf:91814"],"label":"Chennai","country":"India"},"geometry":{"type":"Polygon","coordinates":[[[80.706075,12.414518],[80.510014,13.038512],[79.876752,13.170329],[79.443191,12.681031],[79.639129,12.060379],[80.268788,11.92568],[80.706075,12.414518]]]}},{"type":"Feature","properties":{"hex_id":"836198fffffffff","population":4453829,"population_year":2025,"area_km2":13258.9,"population_density":335.9,"all_players":1,"players_per_million":0.22,"player_ids":["badminton:bwf:93627"],"label":"Guntur","country":"India"},"geometry":{"type":"Polygon","coordinates":[[[81.445462,15.75624],[81.247445,16.374693],[80.603268,16.4979],[80.160801,16.005502],[80.358797,15.38998],[80.999319,15.263918],[81.445462,15.75624]]]}},{"type":"Feature","properties":{"hex_id":"83619afffffffff","population":5769019,"population_year":2025,"area_km2":13220.0,"population_density":436.4,"all_players":1,"players_per_million":0.17,"player_ids":["badminton:bwf:69619"],"label":"Vijayawada","country":"India"},"geometry":{"type":"Polygon","coordinates":[[[81.696579,16.867264],[81.497918,17.482993],[80.850069,17.60337],[80.404591,17.11084],[80.603268,16.4979],[81.247445,16.374693],[81.696579,16.867264]]]}},{"type":"Feature","properties":{"hex_id":"83619efffffffff","population":2986058,"population_year":2025,"area_km2":13424.6,"population_density":222.4,"all_players":1,"players_per_million":0.33,"player_ids":["badminton:bwf:72435"],"label":"Amalapuram","country":"India"},"geometry":{"type":"Polygon","coordinates":[[[82.545124,16.120077],[82.347246,16.741282],[81.696579,16.867264],[81.247445,16.374693],[81.445462,15.75624],[82.092513,15.627598],[82.545124,16.120077]]]}},{"type":"Feature","properties":{"hex_id":"836430fffffffff","population":676792,"population_year":2025,"area_km2":14884.3,"population_density":45.5,"all_players":1,"players_per_million":1.48,"player_ids":["badminton:bwf:56460"],"label":"Surat Thani","country":"Thailand"},"geometry":{"type":"Polygon","coordinates":[[[99.973391,9.464272],[99.804577,10.12435],[99.139576,10.309489],[98.645138,9.833226],[98.8165,9.173078],[99.479787,8.989243],[99.973391,9.464272]]]}},{"type":"Feature","properties":{"hex_id":"836482fffffffff","population":1723866,"population_year":2025,"area_km2":14360.5,"population_density":120.0,"all_players":2,"players_per_million":1.16,"player_ids":["badminton:bwf:69463","badminton:bwf:74803"],"label":"Chiang Mai","country":"Thailand"},"geometry":{"type":"Polygon","coordinates":[[[99.418101,18.742312],[99.242976,19.38725],[98.557403,19.571163],[98.048896,19.109509],[98.226649,18.464169],[98.91032,18.280864],[99.418101,18.742312]]]}},{"type":"Feature","properties":{"hex_id":"836495fffffffff","population":807100,"population_year":2025,"area_km2":14280.6,"population_density":56.5,"all_players":2,"players_per_million":2.48,"player_ids":["badminton:bwf:62301","badminton:bwf:84102"],"label":"Lampang","country":"Thailand"},"geometry":{"type":"Polygon","coordinates":[[[100.608979,19.0119],[100.436632,19.656188],[99.752749,19.844278],[99.242976,19.38725],[99.418101,18.742312],[100.100258,18.555033],[100.608979,19.0119]]]}},{"type":"Feature","properties":{"hex_id":"8364a4fffffffff","population":21602692,"population_year":2025,"area_km2":14696.9,"population_density":1469.9,"all_players":7,"players_per_million":0.32,"player_ids":["badminton:bwf:58271","badminton:bwf:64032","badminton:bwf:65674","badminton:bwf:72504","badminton:bwf:74980","badminton:bwf:91422","badminton:bwf:92508"],"label":"Bangkok","country":"Thailand"},"geometry":{"type":"Polygon","coordinates":[[[101.291897,13.985209],[101.123991,14.642076],[100.45249,14.832364],[99.950498,14.364493],[100.121173,13.70703],[100.791105,13.518015],[101.291897,13.985209]]]}},{"type":"Feature","properties":{"hex_id":"8364b6fffffffff","population":2289932,"population_year":2025,"area_km2":14254.2,"population_density":160.7,"all_players":1,"players_per_million":0.44,"player_ids":["badminton:bwf:67158"],"label":"Udon Thani","country":"Thailand"},"geometry":{"type":"Polygon","coordinates":[[[103.47923,17.585365],[103.315255,18.233591],[102.642349,18.431388],[102.134718,17.979518],[102.301759,17.330096],[102.973397,17.133721],[103.47923,17.585365]]]}},{"type":"Feature","properties":{"hex_id":"836502fffffffff","population":398819,"population_year":2025,"area_km2":14549.9,"population_density":27.4,"all_players":2,"players_per_million":5.01,"player_ids":["badminton:bwf:74331","badminton:bwf:88642"],"label":"Kelantan","country":"Malaysia"},"geometry":{"type":"Polygon","coordinates":[[[102.918356,4.968796],[102.759191,5.621499],[102.110437,5.805283],[101.622127,5.334178],[101.784078,4.681029],[102.431582,4.499409],[102.918356,4.968796]]]}},{"type":"Feature","properties":{"hex_id":"836503fffffffff","population":1916700,"population_year":2025,"area_km2":14613.9,"population_density":131.2,"all_players":2,"players_per_million":1.04,"player_ids":["badminton:bwf:75014","badminton:bwf:91090"],"label":"Ipoh","country":"Malaysia"},"geometry":{"type":"Polygon","coordinates":[[[101.784078,4.681029],[101.622127,5.334178],[100.970767,5.51661],[100.482799,5.043918],[100.647418,4.390587],[101.297368,4.210108],[101.784078,4.681029]]]}},{"type":"Feature","properties":{"hex_id":"836504fffffffff","population":695083,"population_year":2025,"area_km2":14360.5,"population_density":48.4,"all_players":1,"players_per_million":1.44,"player_ids":["badminton:bwf:47007"],"label":"Pahang","country":"Malaysia"},"geometry":{"type":"Polygon","coordinates":[[[103.391464,3.021473],[103.23449,3.668608],[102.591058,3.849044],[102.105795,3.379974],[102.265566,2.732418],[102.90783,2.554331],[103.391464,3.021473]]]}},{"type":"Feature","properties":{"hex_id":"836505fffffffff","population":10740103,"population_year":2025,"area_km2":14423.2,"population_density":744.6,"all_players":11,"players_per_million":1.02,"player_ids":["badminton:bwf:54805","badminton:bwf:56352","badminton:bwf:59367","badminton:bwf:63539","badminton:bwf:68392","badminton:bwf:68628","badminton:bwf:72675","badminton:bwf:79110","badminton:bwf:84838","badminton:bwf:92014","badminton:bwf:99389"],"label":"Kuala Lumpur","country":"Malaysia"},"geometry":{"type":"Polygon","coordinates":[[[102.265566,2.732418],[102.105795,3.379974],[101.459579,3.559439],[100.974489,3.089186],[101.136946,2.441467],[101.781836,2.264143],[102.265566,2.732418]]]}},{"type":"Feature","properties":{"hex_id":"836506fffffffff","population":985173,"population_year":2025,"area_km2":14423.2,"population_density":68.3,"all_players":1,"players_per_million":1.02,"player_ids":["badminton:bwf:67949"],"label":"Kemaman","country":"Malaysia"},"geometry":{"type":"Polygon","coordinates":[[[103.719547,4.136198],[103.562917,4.785999],[102.918356,4.968796],[102.431582,4.499409],[102.591058,3.849044],[103.23449,3.668608],[103.719547,4.136198]]]}},{"type":"Feature","properties":{"hex_id":"836518fffffffff","population":2299282,"population_year":2025,"area_km2":14752.7,"population_density":155.9,"all_players":1,"players_per_million":0.43,"player_ids":["badminton:bwf:73633"],"label":"Songkhla","country":"Thailand"},"geometry":{"type":"Polygon","coordinates":[[[101.296031,6.644823],[101.131879,7.301952],[100.475391,7.486558],[99.984582,7.012267],[100.151383,6.354942],[100.806374,6.172083],[101.296031,6.644823]]]}},{"type":"Feature","properties":{"hex_id":"83651dfffffffff","population":4025098,"population_year":2025,"area_km2":14715.5,"population_density":273.5,"all_players":6,"players_per_million":1.49,"player_ids":["badminton:bwf:56350","badminton:bwf:69012","badminton:bwf:82372","badminton:bwf:82606","badminton:bwf:85551","badminton:bwf:99181"],"label":"Kedah","country":"Malaysia"},"geometry":{"type":"Polygon","coordinates":[[[100.970767,5.51661],[100.806374,6.172083],[100.151383,6.354942],[99.66235,5.880564],[99.82934,5.225034],[100.482799,5.043918],[100.970767,5.51661]]]}},{"type":"Feature","properties":{"hex_id":"836520fffffffff","population":2095333,"population_year":2025,"area_km2":14123.1,"population_density":148.4,"all_players":2,"players_per_million":0.95,"player_ids":["badminton:bwf:76115","badminton:bwf:83822"],"label":"Singapore","country":"Singapore"},"geometry":{"type":"Polygon","coordinates":[[[103.858047,1.093918],[103.70324,1.733964],[103.065132,1.910322],[102.582945,1.4441],[102.740558,0.803667],[103.377579,0.62982],[103.858047,1.093918]]]}},{"type":"Feature","properties":{"hex_id":"836522fffffffff","population":636257,"population_year":2025,"area_km2":14210.2,"population_density":44.8,"all_players":1,"players_per_million":1.57,"player_ids":["badminton:bwf:94814"],"label":"Kluang","country":"Malaysia"},"geometry":{"type":"Polygon","coordinates":[[[104.185068,2.199103],[104.03062,2.842581],[103.391464,3.021473],[102.90783,2.554331],[103.065132,1.910322],[103.70324,1.733964],[104.185068,2.199103]]]}},{"type":"Feature","properties":{"hex_id":"836523fffffffff","population":2197025,"population_year":2025,"area_km2":14280.6,"population_density":153.8,"all_players":9,"players_per_million":4.1,"player_ids":["badminton:bwf:52071","badminton:bwf:56203","badminton:bwf:59621","badminton:bwf:78409","badminton:bwf:84064","badminton:bwf:85129","badminton:bwf:90768","badminton:bwf:92593","badminton:bwf:99066"],"label":"Malacca","country":"Malaysia"},"geometry":{"type":"Polygon","coordinates":[[[103.065132,1.910322],[102.90783,2.554331],[102.265566,2.732418],[101.781836,2.264143],[101.941886,1.619857],[102.582945,1.4441],[103.065132,1.910322]]]}},{"type":"Feature","properties":{"hex_id":"836526fffffffff","population":1113202,"population_year":2025,"area_km2":14045.3,"population_density":79.3,"all_players":3,"players_per_million":2.69,"player_ids":["badminton:bwf:70093","badminton:bwf:71294","badminton:bwf:88322"],"label":"Johor","country":"Malaysia"},"geometry":{"type":"Polygon","coordinates":[[[104.971657,1.382691],[104.819754,2.022102],[104.185068,2.199103],[103.70324,1.733964],[103.858047,1.093918],[104.491802,0.919624],[104.971657,1.382691]]]}},{"type":"Feature","properties":{"hex_id":"83652cfffffffff","population":2285465,"population_year":2025,"area_km2":14227.8,"population_density":160.6,"all_players":1,"players_per_million":0.44,"player_ids":["badminton:bwf:79078"],"label":"Pekanbaru","country":"Indonesia"},"geometry":{"type":"Polygon","coordinates":[[[101.620024,0.512277],[101.459711,1.152848],[100.816182,1.328048],[100.334392,0.860552],[100.497291,0.220093],[101.139424,0.046996],[101.620024,0.512277]]]}},{"type":"Feature","properties":{"hex_id":"836588fffffffff","population":917865,"population_year":2025,"area_km2":14752.7,"population_density":62.2,"all_players":1,"players_per_million":1.09,"player_ids":["badminton:bwf:84062"],"label":"Rayong","country":"Thailand"},"geometry":{"type":"Polygon","coordinates":[[[101.791007,12.01026],[101.625402,12.669112],[100.959264,12.859608],[100.460239,12.389725],[100.628633,11.730265],[101.293296,11.541276],[101.791007,12.01026]]]}},{"type":"Feature","properties":{"hex_id":"83658afffffffff","population":3024890,"population_year":2025,"area_km2":14687.7,"population_density":205.9,"all_players":1,"players_per_million":0.33,"player_ids":["badminton:bwf:61731"],"label":"Chonburi","country":"Thailand"},"geometry":{"type":"Polygon","coordinates":[[[102.124786,13.135549],[101.959472,13.79322],[101.291897,13.985209],[100.791105,13.518015],[100.959264,12.859608],[101.625402,12.669112],[102.124786,13.135549]]]}},{"type":"Feature","properties":{"hex_id":"83694efffffffff","population":27756486,"population_year":2025,"area_km2":12607.6,"population_density":2201.6,"all_players":1,"players_per_million":0.04,"player_ids":["badminton:bwf:62713"],"label":"Manila","country":"Philippines"},"geometry":{"type":"Polygon","coordinates":[[[120.818686,14.722923],[120.936616,14.106],[121.537485,13.923581],[122.023502,14.361208],[121.905235,14.980976],[121.301266,15.160283],[120.818686,14.722923]]]}},{"type":"Feature","properties":{"hex_id":"8372f3fffffffff","population":546242,"population_year":2025,"area_km2":14586.4,"population_density":37.4,"all_players":1,"players_per_million":1.83,"player_ids":["badminton:bwf:71408"],"label":"Jayapura","country":"Indonesia"},"geometry":{"type":"Polygon","coordinates":[[[140.233571,-1.981295],[140.341003,-2.644258],[140.972566,-2.879671],[141.497031,-2.453503],[141.390855,-1.79076],[140.758938,-1.553941],[140.233571,-1.981295]]]}},{"type":"Feature","properties":{"hex_id":"838005fffffffff","population":1465325,"population_year":2025,"area_km2":14941.2,"population_density":98.1,"all_players":1,"players_per_million":0.68,"player_ids":["badminton:bwf:84897"],"label":"Teresina","country":"Brazil"},"geometry":{"type":"Polygon","coordinates":[[[-42.730584,-5.697898],[-42.376227,-5.114206],[-42.706626,-4.516709],[-43.390617,-4.502626],[-43.745266,-5.085768],[-43.415682,-5.683541],[-42.730584,-5.697898]]]}},{"type":"Feature","properties":{"hex_id":"838c10fffffffff","population":36914560,"population_year":2025,"area_km2":12479.4,"population_density":2958.0,"all_players":13,"players_per_million":0.35,"player_ids":["badminton:bwf:55669","badminton:bwf:65854","badminton:bwf:69193","badminton:bwf:73442","badminton:bwf:76281","badminton:bwf:76890","badminton:bwf:81702","badminton:bwf:84786","badminton:bwf:87045","badminton:bwf:87259","badminton:bwf:88097","badminton:bwf:91894","badminton:bwf:94567"],"label":"Jakarta","country":"Indonesia"},"geometry":{"type":"Polygon","coordinates":[[[107.488396,-6.782995],[107.347404,-6.191252],[106.739363,-6.041646],[106.272874,-6.486988],[106.4168,-7.079205],[107.0243,-7.225632],[107.488396,-6.782995]]]}},{"type":"Feature","properties":{"hex_id":"838c13fffffffff","population":6809721,"population_year":2025,"area_km2":12716.0,"population_density":535.5,"all_players":1,"players_per_million":0.15,"player_ids":["badminton:bwf:82061"],"label":"Serang","country":"Indonesia"},"geometry":{"type":"Polygon","coordinates":[[[106.739363,-6.041646],[106.595874,-5.443324],[105.982975,-5.289909],[105.514229,-5.737922],[105.66062,-6.336653],[106.272874,-6.486988],[106.739363,-6.041646]]]}},{"type":"Feature","properties":{"hex_id":"838c14fffffffff","population":13221700,"population_year":2025,"area_km2":12236.4,"population_density":1080.5,"all_players":6,"players_per_million":0.45,"player_ids":["badminton:bwf:62542","badminton:bwf:81458","badminton:bwf:88876","badminton:bwf:91440","badminton:bwf:95661","badminton:bwf:99781"],"label":"Bandung","country":"Indonesia"},"geometry":{"type":"Polygon","coordinates":[[[108.229928,-7.513552],[108.091438,-6.928602],[107.488396,-6.782995],[107.0243,-7.225632],[107.165755,-7.811115],[107.768357,-7.953455],[108.229928,-7.513552]]]}},{"type":"Feature","properties":{"hex_id":"838c16fffffffff","population":6818452,"population_year":2025,"area_km2":12395.2,"population_density":550.1,"all_players":1,"players_per_million":0.15,"player_ids":["badminton:bwf:87432"],"label":"Sumedang","country":"Indonesia"},"geometry":{"type":"Polygon","coordinates":[[[108.553869,-6.485782],[108.415879,-5.894708],[107.812439,-5.745758],[107.347404,-6.191252],[107.488396,-6.782995],[108.091438,-6.928602],[108.553869,-6.485782]]]}},{"type":"Feature","properties":{"hex_id":"838c89fffffffff","population":1520920,"population_year":2025,"area_km2":13716.7,"population_density":110.9,"all_players":1,"players_per_million":0.66,"player_ids":["badminton:bwf:63571"],"label":"Jambi","country":"Indonesia"},"geometry":{"type":"Polygon","coordinates":[[[103.993921,-1.896781],[103.840898,-1.269802],[103.209123,-1.10084],[102.731444,-1.561495],[102.887234,-2.188684],[103.517961,-2.355032],[103.993921,-1.896781]]]}},{"type":"Feature","properties":{"hex_id":"838d80fffffffff","population":8501831,"population_year":2025,"area_km2":11552.8,"population_density":735.9,"all_players":2,"players_per_million":0.24,"player_ids":["badminton:bwf:64600","badminton:bwf:80653"],"label":"Gresik","country":"Indonesia"},"geometry":{"type":"Polygon","coordinates":[[[113.113958,-7.028111],[112.990409,-6.454265],[112.414664,-6.315627],[111.962282,-6.754792],[112.088998,-7.329933],[112.664937,-7.46464],[113.113958,-7.028111]]]}},{"type":"Feature","properties":{"hex_id":"838d81fffffffff","population":7224133,"population_year":2025,"area_km2":11678.0,"population_density":618.6,"all_players":1,"players_per_million":0.14,"player_ids":["badminton:bwf:64956"],"label":"Ngawi","country":"Indonesia"},"geometry":{"type":"Polygon","coordinates":[[[112.088998,-7.329933],[111.962282,-6.754792],[111.380522,-6.615573],[110.925422,-7.055314],[111.055271,-7.631575],[111.637097,-7.767001],[112.088998,-7.329933]]]}},{"type":"Feature","properties":{"hex_id":"838d85fffffffff","population":12418969,"population_year":2025,"area_km2":11417.6,"population_density":1087.7,"all_players":1,"players_per_million":0.08,"player_ids":["badminton:bwf:86136"],"label":"Blitar","country":"Indonesia"},"geometry":{"type":"Polygon","coordinates":[[[112.789121,-8.032544],[112.664937,-7.46464],[112.088998,-7.329933],[111.637097,-7.767001],[111.764418,-8.336048],[112.340512,-8.46691],[112.789121,-8.032544]]]}},{"type":"Feature","properties":{"hex_id":"838d86fffffffff","population":1601712,"population_year":2025,"area_km2":11417.6,"population_density":140.3,"all_players":1,"players_per_million":0.62,"player_ids":["badminton:bwf:60321"],"label":"Sampang","country":"Indonesia"},"geometry":{"type":"Polygon","coordinates":[[[114.129617,-6.726442],[114.009259,-6.154062],[113.439812,-6.01593],[112.990409,-6.454265],[113.113958,-7.028111],[113.683726,-7.16218],[114.129617,-6.726442]]]}},{"type":"Feature","properties":{"hex_id":"838d89fffffffff","population":12552763,"population_year":2025,"area_km2":12148.2,"population_density":1033.3,"all_players":2,"players_per_million":0.16,"player_ids":["badminton:bwf:60838","badminton:bwf:72782"],"label":"Majalengka","country":"Indonesia"},"geometry":{"type":"Polygon","coordinates":[[[109.287544,-7.214877],[109.152079,-6.630646],[108.553869,-6.485782],[108.091438,-6.928602],[108.229928,-7.513552],[108.827839,-7.65499],[109.287544,-7.214877]]]}},{"type":"Feature","properties":{"hex_id":"838d8cfffffffff","population":16552198,"population_year":2025,"area_km2":11792.7,"population_density":1403.6,"all_players":8,"players_per_million":0.48,"player_ids":["badminton:bwf:57560","badminton:bwf:58089","badminton:bwf:64055","badminton:bwf:67761","badminton:bwf:68633","badminton:bwf:72213","badminton:bwf:79077","badminton:bwf:91130"],"label":"Klaten","country":"Indonesia"},"geometry":{"type":"Polygon","coordinates":[[[111.055271,-7.631575],[110.925422,-7.055314],[110.33795,-6.915435],[109.880406,-7.355494],[110.013347,-7.932699],[110.600753,-8.068928],[111.055271,-7.631575]]]}},{"type":"Feature","properties":{"hex_id":"838d8dfffffffff","population":6898718,"population_year":2025,"area_km2":11896.2,"population_density":579.9,"all_players":2,"players_per_million":0.29,"player_ids":["badminton:bwf:79658","badminton:bwf:82364"],"label":"Cilacap","country":"Indonesia"},"geometry":{"type":"Polygon","coordinates":[[[110.013347,-7.932699],[109.880406,-7.355494],[109.287544,-7.214877],[108.827839,-7.65499],[108.963825,-8.232958],[109.556486,-8.370077],[110.013347,-7.932699]]]}},{"type":"Feature","properties":{"hex_id":"838d8efffffffff","population":4368112,"population_year":2025,"area_km2":11935.4,"population_density":366.0,"all_players":1,"players_per_million":0.23,"player_ids":["badminton:bwf:69006"],"label":"Pati","country":"Indonesia"},"geometry":{"type":"Polygon","coordinates":[[[111.380522,-6.615573],[111.251261,-6.03334],[110.663764,-5.889732],[110.205565,-6.332112],[110.33795,-6.915435],[110.925422,-7.055314],[111.380522,-6.615573]]]}},{"type":"Feature","properties":{"hex_id":"838da2fffffffff","population":5054081,"population_year":2025,"area_km2":11027.4,"population_density":458.3,"all_players":1,"players_per_million":0.2,"player_ids":["badminton:bwf:79664"],"label":"Jember","country":"Indonesia"},"geometry":{"type":"Polygon","coordinates":[[[114.486978,-8.417404],[114.368472,-7.85818],[113.804744,-7.728775],[113.359167,-8.162634],[113.480834,-8.723177],[114.044922,-8.848566],[114.486978,-8.417404]]]}},{"type":"Feature","properties":{"hex_id":"838daafffffffff","population":3848568,"population_year":2025,"area_km2":11534.2,"population_density":333.7,"all_players":1,"players_per_million":0.26,"player_ids":["badminton:bwf:83802"],"label":"Wonogiri","country":"Indonesia"},"geometry":{"type":"Polygon","coordinates":[[[111.764418,-8.336048],[111.637097,-7.767001],[111.055271,-7.631575],[110.600753,-8.068928],[110.731177,-8.638947],[111.313027,-8.770667],[111.764418,-8.336048]]]}},{"type":"Feature","properties":{"hex_id":"838db1fffffffff","population":1076276,"population_year":2025,"area_km2":11155.0,"population_density":96.5,"all_players":1,"players_per_million":0.93,"player_ids":["badminton:bwf:80886"],"label":"Situbondo","country":"Indonesia"},"geometry":{"type":"Polygon","coordinates":[[[114.810777,-7.425073],[114.692945,-6.859953],[114.129617,-6.726442],[113.683726,-7.16218],[113.804744,-7.728775],[114.368472,-7.85818],[114.810777,-7.425073]]]}},{"type":"Feature","properties":{"hex_id":"838db5fffffffff","population":1578752,"population_year":2025,"area_km2":10906.9,"population_density":144.7,"all_players":1,"players_per_million":0.63,"player_ids":["badminton:bwf:64349"],"label":"Buleleng","country":"Indonesia"},"geometry":{"type":"Polygon","coordinates":[[[115.474688,-8.189879],[115.363359,-7.591717],[115.182694,-7.511139],[114.810777,-7.425073],[114.368472,-7.85818],[114.486978,-8.417404],[115.044614,-8.542069],[115.474688,-8.189879]]]}},{"type":"Feature","properties":{"hex_id":"839500fffffffff","population":3759730,"population_year":2025,"area_km2":12188.8,"population_density":308.5,"all_players":1,"players_per_million":0.27,"player_ids":["badminton:bwf:83699"],"label":"Gowa","country":"Indonesia"},"geometry":{"type":"Polygon","coordinates":[[[119.0291,-5.241848],[119.142954,-5.862507],[119.715499,-6.103075],[120.177226,-5.721289],[120.062923,-5.096595],[119.487325,-4.857724],[119.0291,-5.241848]]]}},{"type":"Feature","properties":{"hex_id":"83952bfffffffff","population":1207460,"population_year":2025,"area_km2":12833.4,"population_density":94.1,"all_players":1,"players_per_million":0.83,"player_ids":["badminton:bwf:81462"],"label":"Lawulo","country":"Indonesia"},"geometry":{"type":"Polygon","coordinates":[[[121.465023,-3.923403],[121.579973,-4.556243],[122.168348,-4.795522],[122.644638,-4.400413],[122.529418,-3.763889],[121.938158,-3.526155],[121.465023,-3.923403]]]}},{"type":"Feature","properties":{"hex_id":"83be63fffffffff","population":5389912,"population_year":2025,"area_km2":14468.2,"population_density":372.5,"all_players":2,"players_per_million":0.37,"player_ids":["badminton:bwf:58488","badminton:bwf:71065"],"label":"Box Hill","country":"Australia"},"geometry":{"type":"Polygon","coordinates":[[[145.46356,-38.204698],[145.333886,-37.53716],[144.549504,-37.286204],[143.887418,-37.698406],[144.004411,-38.36545],[144.796215,-38.620841],[145.46356,-38.204698]]]}}]}