{"type":"FeatureCollection","metadata":{"population_source":"WorldPop Global 2 R2025A","population_source_url":"https://hub.worldpop.org/project/categories?id=3","population_license":"CC BY 4.0","population_year":2025,"raster_resolution":"1km","h3_resolution":2,"population_method":"official_country_rasters","occupied_cells":112,"mapped_players":345},"features":[{"type":"Feature","properties":{"hex_id":"82089ffffffffff","population":2635076,"population_year":2025,"area_km2":65980.3,"population_density":39.9,"all_players":2,"players_per_million":0.76,"player_ids":["badminton:bwf:85563","badminton:bwf:92655"],"label":"Helsinki","country":"Finland"},"geometry":{"type":"Polygon","coordinates":[[[20.235913,59.22587],[22.144282,58.209221],[25.082722,58.401545],[25.77412,59.916287],[23.838471,60.96689],[21.289182,60.46251],[20.235913,59.22587]]]}},{"type":"Feature","properties":{"hex_id":"821197fffffffff","population":5411512,"population_year":2025,"area_km2":81458.9,"population_density":66.4,"all_players":2,"players_per_million":0.37,"player_ids":["badminton:bwf:94032","badminton:bwf:96877"],"label":"Kharkiv","country":"Ukraine"},"geometry":{"type":"Polygon","coordinates":[[[34.739692,51.127123],[36.116724,49.779343],[38.481259,49.879789],[39.607695,51.365697],[38.242666,52.766684],[35.733455,52.627433],[34.739692,51.127123]]]}},{"type":"Feature","properties":{"hex_id":"8211affffffffff","population":18096890,"population_year":2025,"area_km2":79647.5,"population_density":227.2,"all_players":1,"players_per_million":0.06,"player_ids":["badminton:bwf:52953"],"label":"Moscow","country":"Russia"},"geometry":{"type":"Polygon","coordinates":[[[33.713464,56.746598],[35.299111,55.46002],[37.971643,55.638414],[39.236041,57.141268],[37.661108,58.480663],[34.802815,58.263078],[33.713464,56.746598]]]}},{"type":"Feature","properties":{"hex_id":"82184ffffffffff","population":5386228,"population_year":2025,"area_km2":85627.7,"population_density":62.9,"all_players":1,"players_per_million":0.19,"player_ids":["badminton:bwf:74218"],"label":"San Sebastián","country":"Spain"},"geometry":{"type":"Polygon","coordinates":[[[-1.752798,45.828917],[-3.870647,45.286766],[-4.162635,43.625899],[-2.417796,42.54048],[-0.397973,43.08589],[-0.028005,44.712978],[-1.752798,45.828917]]]}},{"type":"Feature","properties":{"hex_id":"821867fffffffff","population":5245763,"population_year":2025,"area_km2":80847.5,"population_density":64.9,"all_players":1,"players_per_million":0.19,"player_ids":["badminton:bwf:94580"],"label":"Caen","country":"France"},"geometry":{"type":"Polygon","coordinates":[[[-0.631095,50.601911],[-2.906528,50.142292],[-3.243656,48.547301],[-1.396608,47.443512],[0.764026,47.90745],[1.18851,49.470279],[-0.631095,50.601911]]]}},{"type":"Feature","properties":{"hex_id":"82186ffffffffff","population":5547991,"population_year":2025,"area_km2":81458.9,"population_density":68.1,"all_players":1,"players_per_million":0.18,"player_ids":["badminton:bwf:68544"],"label":"Tours","country":"France"},"geometry":{"type":"Polygon","coordinates":[[[0.764026,47.90745],[-1.396608,47.443512],[-1.752798,45.828917],[-0.028005,44.712978],[2.026569,45.184249],[2.458902,46.763731],[0.764026,47.90745]]]}},{"type":"Feature","properties":{"hex_id":"82190ffffffffff","population":1891088,"population_year":2025,"area_km2":75672.4,"population_density":25.0,"all_players":2,"players_per_million":1.06,"player_ids":["badminton:bwf:48528","badminton:bwf:67922"],"label":"Bellshill","country":"United Kingdom"},"geometry":{"type":"Polygon","coordinates":[[[-5.83227,58.353838],[-8.508655,57.881131],[-8.7409,56.382588],[-6.436337,55.37739],[-3.903181,55.840606],[-3.536381,57.317288],[-5.83227,58.353838]]]}},{"type":"Feature","properties":{"hex_id":"82192ffffffffff","population":281544,"population_year":2025,"area_km2":70782.3,"population_density":4.0,"all_players":1,"players_per_million":3.55,"player_ids":["badminton:bwf:72478"],"label":"Kirkwall","country":"United Kingdom"},"geometry":{"type":"Polygon","coordinates":[[[-2.735623,60.170509],[-5.502335,59.791855],[-5.83227,58.353838],[-3.536381,57.317288],[-0.931587,57.689497],[-0.467132,59.103594],[-2.735623,60.170509]]]}},{"type":"Feature","properties":{"hex_id":"82194ffffffffff","population":23325550,"population_year":2025,"area_km2":76219.8,"population_density":306.0,"all_players":1,"players_per_million":0.04,"player_ids":["badminton:bwf:76278"],"label":"Kingston upon Thames","country":"United Kingdom"},"geometry":{"type":"Polygon","coordinates":[[[2.101314,52.517134],[-0.219137,52.141681],[-0.631095,50.601911],[1.18851,49.470279],[3.384772,49.85377],[3.881134,51.360376],[2.101314,52.517134]]]}},{"type":"Feature","properties":{"hex_id":"821957fffffffff","population":9970811,"population_year":2025,"area_km2":77902.3,"population_density":128.0,"all_players":1,"players_per_million":0.1,"player_ids":["badminton:bwf:92277"],"label":"Prestwick","country":"United Kingdom"},"geometry":{"type":"Polygon","coordinates":[[[-3.903181,55.840606],[-6.436337,55.37739],[-6.713499,53.841054],[-4.578382,52.792439],[-2.178886,53.251551],[-1.785543,54.762388],[-3.903181,55.840606]]]}},{"type":"Feature","properties":{"hex_id":"82195ffffffffff","population":22721748,"population_year":2025,"area_km2":79647.5,"population_density":285.3,"all_players":2,"players_per_million":0.09,"player_ids":["badminton:bwf:63170","badminton:bwf:86756"],"label":"Milton Keynes","country":"United Kingdom"},"geometry":{"type":"Polygon","coordinates":[[[-2.178886,53.251551],[-4.578382,52.792439],[-4.88976,51.223728],[-2.906528,50.142292],[-0.631095,50.601911],[-0.219137,52.141681],[-2.178886,53.251551]]]}},{"type":"Feature","properties":{"hex_id":"821977fffffffff","population":4073107,"population_year":2025,"area_km2":73030.9,"population_density":55.8,"all_players":1,"players_per_million":0.25,"player_ids":["badminton:bwf:91715"],"label":"Edinburgh","country":"United Kingdom"},"geometry":{"type":"Polygon","coordinates":[[[-0.931587,57.689497],[-3.536381,57.317288],[-3.903181,55.840606],[-1.785543,54.762388],[0.670759,55.133806],[1.152198,56.583354],[-0.931587,57.689497]]]}},{"type":"Feature","properties":{"hex_id":"821e07fffffffff","population":15880792,"population_year":2025,"area_km2":85294.5,"population_density":186.2,"all_players":2,"players_per_million":0.13,"player_ids":["badminton:bwf:60397","badminton:bwf:61949"],"label":"Klimkovice","country":"Czech Republic"},"geometry":{"type":"Polygon","coordinates":[[[16.606047,49.899182],[15.817384,48.388123],[17.489488,47.234679],[19.952961,47.57214],[20.822886,49.074367],[19.15135,50.248654],[16.606047,49.899182]]]}},{"type":"Feature","properties":{"hex_id":"821ec7fffffffff","population":6669519,"population_year":2025,"area_km2":95515.4,"population_density":69.8,"all_players":5,"players_per_million":0.75,"player_ids":["badminton:bwf:43840","badminton:bwf:46169","badminton:bwf:61628","badminton:bwf:72885","badminton:bwf:87112"],"label":"Sofia","country":"Bulgaria"},"geometry":{"type":"Polygon","coordinates":[[[22.238177,43.517311],[21.399102,41.932468],[22.87671,40.608844],[25.176743,40.851016],[26.072885,42.421413],[24.614981,43.76451],[22.238177,43.517311]]]}},{"type":"Feature","properties":{"hex_id":"821ecffffffffff","population":24160946,"population_year":2025,"area_km2":96323.1,"population_density":250.8,"all_players":3,"players_per_million":0.12,"player_ids":["badminton:bwf:62426","badminton:bwf:87885","badminton:bwf:94762"],"label":"Osmangazi","country":"Turkey"},"geometry":{"type":"Polygon","coordinates":[[[26.072885,42.421413],[25.176743,40.851016],[26.578016,39.470649],[28.846869,39.643311],[29.788911,41.195121],[28.419296,42.593125],[26.072885,42.421413]]]}},{"type":"Feature","properties":{"hex_id":"821f07fffffffff","population":6981829,"population_year":2025,"area_km2":73030.9,"population_density":95.6,"all_players":9,"players_per_million":1.29,"player_ids":["badminton:bwf:25831","badminton:bwf:51998","badminton:bwf:57731","badminton:bwf:58324","badminton:bwf:64729","badminton:bwf:77002","badminton:bwf:85302","badminton:bwf:91224","badminton:bwf:95643"],"label":"Copenhagen","country":"Denmark"},"geometry":{"type":"Polygon","coordinates":[[[10.065692,55.394879],[9.374531,53.975514],[11.24517,53.03204],[13.839529,53.487245],[14.640207,54.902182],[12.739823,55.867327],[10.065692,55.394879]]]}},{"type":"Feature","properties":{"hex_id":"821f17fffffffff","population":19193666,"population_year":2025,"area_km2":74863.4,"population_density":256.4,"all_players":2,"players_per_million":0.1,"player_ids":["badminton:bwf:91106","badminton:bwf:97648"],"label":"Hamburg","country":"Germany"},"geometry":{"type":"Polygon","coordinates":[[[6.848229,53.43156],[6.259687,51.96477],[8.088631,51.039696],[10.549623,51.56399],[11.24517,53.03204],[9.374531,53.975514],[6.848229,53.43156]]]}},{"type":"Feature","properties":{"hex_id":"821f27fffffffff","population":4146711,"population_year":2025,"area_km2":68186.6,"population_density":60.8,"all_players":9,"players_per_million":2.17,"player_ids":["badminton:bwf:44414","badminton:bwf:62855","badminton:bwf:63437","badminton:bwf:68134","badminton:bwf:81705","badminton:bwf:88779","badminton:bwf:91554","badminton:bwf:92980","badminton:bwf:97030"],"label":"Aarhus","country":"Denmark"},"geometry":{"type":"Polygon","coordinates":[[[8.799628,57.640256],[8.115982,56.270471],[10.065692,55.394879],[12.739823,55.867327],[13.543636,57.232114],[11.555978,58.130531],[8.799628,57.640256]]]}},{"type":"Feature","properties":{"hex_id":"821f87fffffffff","population":16111686,"population_year":2025,"area_km2":80847.5,"population_density":199.3,"all_players":3,"players_per_million":0.19,"player_ids":["badminton:bwf:59543","badminton:bwf:64909","badminton:bwf:73323"],"label":"Staffelfelden","country":"France"},"geometry":{"type":"Polygon","coordinates":[[[5.163511,48.943764],[4.652435,47.393027],[6.371339,46.417017],[8.645314,46.977068],[9.251571,48.534678],[7.489806,49.526212],[5.163511,48.943764]]]}},{"type":"Feature","properties":{"hex_id":"821f97fffffffff","population":9069390,"population_year":2025,"area_km2":81458.9,"population_density":111.3,"all_players":2,"players_per_million":0.22,"player_ids":["badminton:bwf:98329","badminton:bwf:99891"],"label":"Guilherand-Granges","country":"France"},"geometry":{"type":"Polygon","coordinates":[[[2.458902,46.763731],[2.026569,45.184249],[3.696702,44.221235],[5.848477,44.82547],[6.371339,46.417017],[4.652435,47.393027],[2.458902,46.763731]]]}},{"type":"Feature","properties":{"hex_id":"821fa7fffffffff","population":28149582,"population_year":2025,"area_km2":76219.8,"population_density":369.3,"all_players":1,"players_per_million":0.04,"player_ids":["badminton:bwf:70399"],"label":"Brussels-Capital Region","country":"Belgium"},"geometry":{"type":"Polygon","coordinates":[[[3.881134,51.360376],[3.384772,49.85377],[5.163511,48.943764],[7.489806,49.526212],[8.088631,51.039696],[6.259687,51.96477],[3.881134,51.360376]]]}},{"type":"Feature","properties":{"hex_id":"821fb7fffffffff","population":17326098,"population_year":2025,"area_km2":77926.1,"population_density":222.3,"all_players":1,"players_per_million":0.06,"player_ids":["badminton:bwf:70762"],"label":"Sarcelles","country":"France"},"geometry":{"type":"Polygon","coordinates":[[[1.18851,49.470279],[0.764026,47.90745],[2.458902,46.763731],[4.652435,47.393027],[5.163511,48.943764],[3.384772,49.85377],[1.18851,49.470279]]]}},{"type":"Feature","properties":{"hex_id":"82212ffffffffff","population":1082723,"population_year":2025,"area_km2":100537.4,"population_density":10.8,"all_players":1,"players_per_million":0.92,"player_ids":["badminton:bwf:82989"],"label":"Kostanay","country":"Kazakhstan"},"geometry":{"type":"Polygon","coordinates":[[[59.158974,53.414627],[59.988729,51.7291],[62.742208,51.298074],[64.833245,52.537114],[64.158618,54.257565],[61.229857,54.705431],[59.158974,53.414627]]]}},{"type":"Feature","properties":{"hex_id":"822837fffffffff","population":14366819,"population_year":2025,"area_km2":89801.2,"population_density":160.0,"all_players":2,"players_per_million":0.14,"player_ids":["badminton:bwf:61882","badminton:bwf:65708"],"label":"Fremont","country":"United States"},"geometry":{"type":"Polygon","coordinates":[[[-121.707157,36.574218],[-120.150308,37.778361],[-120.625018,39.393868],[-122.699099,39.784231],[-124.231246,38.566387],[-123.715986,36.972296],[-121.707157,36.574218]]]}},{"type":"Feature","properties":{"hex_id":"822a37fffffffff","population":10409321,"population_year":2025,"area_km2":89801.2,"population_density":115.9,"all_players":1,"players_per_million":0.1,"player_ids":["badminton:bwf:83074"],"label":"Lowell","country":"United States"},"geometry":{"type":"Polygon","coordinates":[[[-69.955068,44.277849],[-72.323382,43.964363],[-73.076912,42.400493],[-71.573772,41.195725],[-69.342223,41.490681],[-68.482715,43.008011],[-69.955068,44.277849]]]}},{"type":"Feature","properties":{"hex_id":"822b8ffffffffff","population":3267276,"population_year":2025,"area_km2":91641.3,"population_density":35.7,"all_players":1,"players_per_million":0.31,"player_ids":["badminton:bwf:63739"],"label":"Albany","country":"United States"},"geometry":{"type":"Polygon","coordinates":[[[-73.944231,45.197835],[-76.33587,44.798413],[-76.966258,43.195408],[-75.333452,42.029564],[-73.076912,42.400493],[-72.323382,43.964363],[-73.944231,45.197835]]]}},{"type":"Feature","properties":{"hex_id":"822b9ffffffffff","population":11744141,"population_year":2025,"area_km2":92775.6,"population_density":126.6,"all_players":3,"players_per_million":0.26,"player_ids":["badminton:bwf:63122","badminton:bwf:78208","badminton:bwf:94151"],"label":"Toronto","country":"Canada"},"geometry":{"type":"Polygon","coordinates":[[[-78.100366,45.982432],[-80.490261,45.49319],[-80.982253,43.86012],[-79.227281,42.744533],[-76.966258,43.195408],[-76.33587,44.798413],[-78.100366,45.982432]]]}},{"type":"Feature","properties":{"hex_id":"822d1ffffffffff","population":3342785,"population_year":2025,"area_km2":91641.3,"population_density":36.5,"all_players":1,"players_per_million":0.3,"player_ids":["badminton:bwf:73023"],"label":"Erzincan","country":"Turkey"},"geometry":{"type":"Polygon","coordinates":[[[36.6267,41.363407],[35.594615,39.893109],[36.77435,38.415715],[38.930218,38.400687],[39.97757,39.845483],[38.856463,41.330674],[36.6267,41.363407]]]}},{"type":"Feature","properties":{"hex_id":"822e0ffffffffff","population":4443662,"population_year":2025,"area_km2":80544.7,"population_density":55.2,"all_players":3,"players_per_million":0.68,"player_ids":["badminton:bwf:62063","badminton:bwf:68282","badminton:bwf:79906"],"label":"Aomori Prefecture","country":"Japan"},"geometry":{"type":"Polygon","coordinates":[[[141.809657,38.825701],[141.966983,40.491751],[140.284877,41.393622],[138.515018,40.617501],[138.441462,38.9811],[140.055179,38.090666],[141.809657,38.825701]]]}},{"type":"Feature","properties":{"hex_id":"822e1ffffffffff","population":4250082,"population_year":2025,"area_km2":82705.0,"population_density":51.4,"all_players":3,"players_per_million":0.71,"player_ids":["badminton:bwf:79558","badminton:bwf:81609","badminton:bwf:86479"],"label":"Hokkaidō","country":"Japan"},"geometry":{"type":"Polygon","coordinates":[[[143.841653,41.226082],[144.05802,42.901226],[142.305844,43.816095],[140.4084,43.04217],[140.284877,41.393622],[141.966983,40.491751],[143.841653,41.226082]]]}},{"type":"Feature","properties":{"hex_id":"822e2ffffffffff","population":5113664,"population_year":2025,"area_km2":82705.0,"population_density":61.8,"all_players":4,"players_per_million":0.78,"player_ids":["badminton:bwf:59014","badminton:bwf:67903","badminton:bwf:78839","badminton:bwf:91896"],"label":"Miyagi Prefecture","country":"Japan"},"geometry":{"type":"Polygon","coordinates":[[[143.252469,36.192692],[143.43958,37.868877],[141.809657,38.825701],[140.055179,38.090666],[139.948213,36.441778],[141.516472,35.500079],[143.252469,36.192692]]]}},{"type":"Feature","properties":{"hex_id":"822e67fffffffff","population":29949728,"population_year":2025,"area_km2":74863.4,"population_density":400.1,"all_players":7,"players_per_million":0.23,"player_ids":["badminton:bwf:63530","badminton:bwf:68479","badminton:bwf:74076","badminton:bwf:82070","badminton:bwf:85394","badminton:bwf:86778","badminton:bwf:96312"],"label":"Katsuyama","country":"Japan"},"geometry":{"type":"Polygon","coordinates":[[[138.240188,34.090249],[138.304265,35.714832],[136.756542,36.594877],[135.209181,35.840284],[135.213088,34.249062],[136.697641,33.378798],[138.240188,34.090249]]]}},{"type":"Feature","properties":{"hex_id":"822e6ffffffffff","population":11126476,"population_year":2025,"area_km2":70058.2,"population_density":158.8,"all_players":2,"players_per_million":0.18,"player_ids":["badminton:bwf:82009","badminton:bwf:90735"],"label":"Okayama Prefecture","country":"Japan"},"geometry":{"type":"Polygon","coordinates":[[[135.213088,34.249062],[135.209181,35.840284],[133.690522,36.661487],[132.241949,35.885847],[132.308377,34.331159],[133.762313,33.515468],[135.213088,34.249062]]]}},{"type":"Feature","properties":{"hex_id":"822e77fffffffff","population":8733312,"population_year":2025,"area_km2":77902.3,"population_density":112.1,"all_players":6,"players_per_million":0.69,"player_ids":["badminton:bwf:84159","badminton:bwf:92989","badminton:bwf:94712","badminton:bwf:95172","badminton:bwf:96604","badminton:bwf:96713"],"label":"Gunma Prefecture","country":"Japan"},"geometry":{"type":"Polygon","coordinates":[[[139.948213,36.441778],[140.055179,38.090666],[138.441462,38.9811],[136.788028,38.211878],[136.756542,36.594877],[138.304265,35.714832],[139.948213,36.441778]]]}},{"type":"Feature","properties":{"hex_id":"822f5ffffffffff","population":40494200,"population_year":2025,"area_km2":79647.5,"population_density":508.4,"all_players":12,"players_per_million":0.3,"player_ids":["badminton:bwf:55417","badminton:bwf:64944","badminton:bwf:66794","badminton:bwf:67816","badminton:bwf:68304","badminton:bwf:76079","badminton:bwf:76295","badminton:bwf:80532","badminton:bwf:85452","badminton:bwf:87428","badminton:bwf:97174","badminton:bwf:99466"],"label":"Saitama Prefecture","country":"Japan"},"geometry":{"type":"Polygon","coordinates":[[[141.379662,33.846135],[141.516472,35.500079],[139.948213,36.441778],[138.304265,35.714832],[138.240188,34.090249],[139.748325,33.162808],[141.379662,33.846135]]]}},{"type":"Feature","properties":{"hex_id":"823027fffffffff","population":22630146,"population_year":2025,"area_km2":56786.6,"population_density":398.5,"all_players":3,"players_per_million":0.13,"player_ids":["badminton:bwf:53806","badminton:bwf:81599","badminton:bwf:81844"],"label":"Liaoning","country":"People's Republic of China"},"geometry":{"type":"Polygon","coordinates":[[[120.820069,41.335404],[121.581754,40.205681],[123.45343,39.958429],[124.667198,40.827039],[123.984121,41.999374],[122.004678,42.261113],[120.820069,41.335404]]]}},{"type":"Feature","properties":{"hex_id":"823087fffffffff","population":25771056,"population_year":2025,"area_km2":63447.1,"population_density":406.2,"all_players":1,"players_per_million":0.04,"player_ids":["badminton:bwf:65491"],"label":"Jiangsu","country":"People's Republic of China"},"geometry":{"type":"Polygon","coordinates":[[[121.006688,32.682213],[121.261315,34.029993],[119.95687,35.087873],[118.365822,34.802491],[118.117265,33.439024],[119.453159,32.376319],[121.006688,32.682213]]]}},{"type":"Feature","properties":{"hex_id":"823097fffffffff","population":42240352,"population_year":2025,"area_km2":68186.6,"population_density":619.5,"all_players":3,"players_per_million":0.07,"player_ids":["badminton:bwf:71223","badminton:bwf:78116","badminton:bwf:89714"],"label":"Anhui","country":"People's Republic of China"},"geometry":{"type":"Polygon","coordinates":[[[119.20437,30.972609],[119.453159,32.376319],[118.117265,33.439024],[116.50281,33.101224],[116.2613,31.680908],[117.626428,30.614686],[119.20437,30.972609]]]}},{"type":"Feature","properties":{"hex_id":"82309ffffffffff","population":83609784,"population_year":2025,"area_km2":65980.3,"population_density":1267.2,"all_players":4,"players_per_million":0.05,"player_ids":["badminton:bwf:73013","badminton:bwf:73591","badminton:bwf:78778","badminton:bwf:91533"],"label":"Hangzhou","country":"People's Republic of China"},"geometry":{"type":"Polygon","coordinates":[[[119.453159,32.376319],[119.20437,30.972609],[120.503394,29.892985],[122.113538,30.589507],[122.372835,31.991695],[121.006688,32.682213],[119.453159,32.376319]]]}},{"type":"Feature","properties":{"hex_id":"8230b7fffffffff","population":46935528,"population_year":2025,"area_km2":65961.6,"population_density":711.6,"all_players":1,"players_per_million":0.02,"player_ids":["badminton:bwf:77427"],"label":"Xuzhou","country":"People's Republic of China"},"geometry":{"type":"Polygon","coordinates":[[[118.117265,33.439024],[118.365822,34.802491],[116.992244,35.842443],[115.340961,35.522424],[115.100649,34.14503],[116.50281,33.101224],[118.117265,33.439024]]]}},{"type":"Feature","properties":{"hex_id":"8230c7fffffffff","population":17897330,"population_year":2025,"area_km2":63447.1,"population_density":282.1,"all_players":8,"players_per_million":0.45,"player_ids":["badminton:bwf:65580","badminton:bwf:66513","badminton:bwf:70930","badminton:bwf:71391","badminton:bwf:83419","badminton:bwf:87442","badminton:bwf:91292","badminton:bwf:93074"],"label":"Ulsan","country":"South Korea"},"geometry":{"type":"Polygon","coordinates":[[[126.253349,35.974736],[125.973267,34.659415],[127.394514,33.936306],[129.115986,34.537795],[129.409707,35.861246],[127.968639,36.57549],[126.253349,35.974736]]]}},{"type":"Feature","properties":{"hex_id":"8230cffffffffff","population":1974565,"population_year":2025,"area_km2":65980.3,"population_density":29.9,"all_players":2,"players_per_million":1.01,"player_ids":["badminton:bwf:67828","badminton:bwf:81657"],"label":"Yamaguchi Prefecture","country":"Japan"},"geometry":{"type":"Polygon","coordinates":[[[129.409707,35.861246],[129.115986,34.537795],[130.557843,33.768644],[132.308377,34.331159],[132.241949,35.885847],[130.759352,36.651654],[129.409707,35.861246]]]}},{"type":"Feature","properties":{"hex_id":"8230dffffffffff","population":4363794,"population_year":2025,"area_km2":68186.6,"population_density":64.0,"all_players":3,"players_per_million":0.69,"player_ids":["badminton:bwf:65212","badminton:bwf:80062","badminton:bwf:86230"],"label":"Fukuoka Prefecture","country":"Japan"},"geometry":{"type":"Polygon","coordinates":[[[127.394514,33.936306],[127.110454,32.565288],[128.534469,31.786712],[130.260732,32.389001],[130.557843,33.768644],[129.115986,34.537795],[127.394514,33.936306]]]}},{"type":"Feature","properties":{"hex_id":"8230e7fffffffff","population":32628938,"population_year":2025,"area_km2":59429.4,"population_density":549.0,"all_players":6,"players_per_million":0.18,"player_ids":["badminton:bwf:61444","badminton:bwf:67810","badminton:bwf:74816","badminton:bwf:77262","badminton:bwf:80005","badminton:bwf:99778"],"label":"Seoul","country":"South Korea"},"geometry":{"type":"Polygon","coordinates":[[[125.111877,37.903324],[124.835996,36.642936],[126.253349,35.974736],[127.968639,36.57549],[127.809941,38.077868],[126.346943,38.738746],[125.111877,37.903324]]]}},{"type":"Feature","properties":{"hex_id":"8230effffffffff","population":2546796,"population_year":2025,"area_km2":63447.1,"population_density":40.1,"all_players":2,"players_per_million":0.79,"player_ids":["badminton:bwf:56706","badminton:bwf:99069"],"label":"Cheongsong County","country":"South Korea"},"geometry":{"type":"Polygon","coordinates":[[[130.759352,36.651654],[130.657533,38.194564],[129.147431,38.906411],[127.809941,38.077868],[127.968639,36.57549],[129.409707,35.861246],[130.759352,36.651654]]]}},{"type":"Feature","properties":{"hex_id":"82318ffffffffff","population":31134942,"population_year":2025,"area_km2":59429.4,"population_density":523.9,"all_players":2,"players_per_million":0.06,"player_ids":["badminton:bwf:65144","badminton:bwf:65267"],"label":"Tianjin","country":"People's Republic of China"},"geometry":{"type":"Polygon","coordinates":[[[118.869299,37.429854],[119.124254,38.693373],[118.297194,39.800882],[116.607976,39.554439],[115.828203,38.174411],[117.240208,37.162506],[118.869299,37.429854]]]}},{"type":"Feature","properties":{"hex_id":"823927fffffffff","population":6536997,"population_year":2025,"area_km2":93159.0,"population_density":70.2,"all_players":1,"players_per_million":0.15,"player_ids":["badminton:bwf:92404"],"label":"Salvaterra de Miño","country":"Spain"},"geometry":{"type":"Polygon","coordinates":[[[-8.101589,44.050631],[-10.203219,43.356947],[-10.347941,41.63003],[-8.480681,40.6223],[-6.464182,41.30856],[-6.231988,43.009176],[-8.101589,44.050631]]]}},{"type":"Feature","properties":{"hex_id":"82396ffffffffff","population":6845595,"population_year":2025,"area_km2":85627.7,"population_density":79.9,"all_players":1,"players_per_million":0.15,"player_ids":["badminton:bwf:96690"],"label":"Grasse","country":"France"},"geometry":{"type":"Polygon","coordinates":[[[3.696702,44.221235],[3.24935,42.604792],[4.868332,41.580315],[6.97784,42.158616],[7.509948,43.786609],[5.848477,44.82547],[3.696702,44.221235]]]}},{"type":"Feature","properties":{"hex_id":"823cb7fffffffff","population":24159700,"population_year":2025,"area_km2":89440.6,"population_density":270.1,"all_players":1,"players_per_million":0.04,"player_ids":["badminton:bwf:80402"],"label":"Durg","country":"India"},"geometry":{"type":"Polygon","coordinates":[[[82.464222,20.179245],[82.523755,21.87405],[80.999214,22.680573],[79.445503,21.802903],[79.404839,20.129444],[80.899198,19.312037],[82.464222,20.179245]]]}},{"type":"Feature","properties":{"hex_id":"823ce7fffffffff","population":50833902,"population_year":2025,"area_km2":91641.3,"population_density":554.7,"all_players":1,"players_per_million":0.02,"player_ids":["badminton:bwf:75628"],"label":"Guwahati","country":"India"},"geometry":{"type":"Polygon","coordinates":[[[92.394898,25.128232],[92.517389,26.790488],[90.911168,27.664083],[89.199167,26.879845],[89.096899,25.224827],[90.686309,24.346284],[92.394898,25.128232]]]}},{"type":"Feature","properties":{"hex_id":"823ceffffffffff","population":19851994,"population_year":2025,"area_km2":92775.6,"population_density":214.0,"all_players":2,"players_per_million":0.1,"player_ids":["badminton:bwf:50322","badminton:bwf:76851"],"label":"Manipur","country":"India"},"geometry":{"type":"Polygon","coordinates":[[[95.713008,24.957101],[95.855137,26.622305],[94.252012,27.537812],[92.517389,26.790488],[92.394898,25.128232],[93.987187,24.209804],[95.713008,24.957101]]]}},{"type":"Feature","properties":{"hex_id":"823d17fffffffff","population":44536689,"population_year":2025,"area_km2":92775.6,"population_density":480.0,"all_players":1,"players_per_million":0.02,"player_ids":["badminton:bwf:57372"],"label":"Ludhiana","country":"India"},"geometry":{"type":"Polygon","coordinates":[[[75.695319,31.326181],[75.868402,29.662739],[77.645527,28.973819],[79.297948,29.906253],[79.213236,31.570562],[77.387389,32.302945],[75.695319,31.326181]]]}},{"type":"Feature","properties":{"hex_id":"823d8ffffffffff","population":82104400,"population_year":2025,"area_km2":85321.7,"population_density":962.3,"all_players":1,"players_per_million":0.01,"player_ids":["badminton:bwf:57265"],"label":"Uttar Pradesh","country":"India"},"geometry":{"type":"Polygon","coordinates":[[[79.455192,26.66448],[79.528294,25.090534],[81.050122,24.335201],[82.644974,25.201987],[82.706686,26.830387],[81.065899,27.554873],[79.455192,26.66448]]]}},{"type":"Feature","properties":{"hex_id":"823d97fffffffff","population":29885210,"population_year":2025,"area_km2":82416.4,"population_density":362.6,"all_players":1,"players_per_million":0.03,"player_ids":["badminton:bwf:69093"],"label":"Dhar","country":"India"},"geometry":{"type":"Polygon","coordinates":[[[74.836158,23.930618],[75.010886,22.410566],[76.458981,21.679237],[77.955905,22.571208],[77.988009,24.20395],[76.33926,24.849585],[74.836158,23.930618]]]}},{"type":"Feature","properties":{"hex_id":"823da7fffffffff","population":87251784,"population_year":2025,"area_km2":89440.6,"population_density":975.5,"all_players":4,"players_per_million":0.05,"player_ids":["badminton:bwf:58664","badminton:bwf:59687","badminton:bwf:83950","badminton:bwf:90287"],"label":"Rohtak","country":"India"},"geometry":{"type":"Polygon","coordinates":[[[74.260301,28.687863],[74.461483,27.070669],[76.189798,26.422657],[77.765218,27.352248],[77.645527,28.973819],[75.868402,29.662739],[74.260301,28.687863]]]}},{"type":"Feature","properties":{"hex_id":"823daffffffffff","population":61932635,"population_year":2025,"area_km2":88726.5,"population_density":698.0,"all_players":2,"players_per_million":0.03,"player_ids":["badminton:bwf:68870","badminton:bwf:74481"],"label":"Almora","country":"India"},"geometry":{"type":"Polygon","coordinates":[[[77.645527,28.973819],[77.765218,27.352248],[79.455192,26.66448],[81.065899,27.554873],[81.028378,29.173754],[79.297948,29.906253],[77.645527,28.973819]]]}},{"type":"Feature","properties":{"hex_id":"824007fffffffff","population":12705941,"population_year":2025,"area_km2":85294.5,"population_density":149.0,"all_players":2,"players_per_million":0.16,"player_ids":["badminton:bwf:89163","badminton:bwf:97345"],"label":"Huaihua","country":"People's Republic of China"},"geometry":{"type":"Polygon","coordinates":[[[110.633188,25.751332],[110.85,27.33619],[109.379183,28.384824],[107.674436,27.8475],[107.470462,26.248068],[108.957875,25.200123],[110.633188,25.751332]]]}},{"type":"Feature","properties":{"hex_id":"824027fffffffff","population":22650408,"population_year":2025,"area_km2":87326.6,"population_density":259.4,"all_players":1,"players_per_million":0.04,"player_ids":["badminton:bwf:63029"],"label":"Guilin","country":"People's Republic of China"},"geometry":{"type":"Polygon","coordinates":[[[111.851065,23.06606],[112.070422,24.683011],[110.633188,25.751332],[108.957875,25.200123],[108.750325,23.565724],[110.205767,22.499632],[111.851065,23.06606]]]}},{"type":"Feature","properties":{"hex_id":"824037fffffffff","population":24740242,"population_year":2025,"area_km2":82705.0,"population_density":299.1,"all_players":1,"players_per_million":0.04,"player_ids":["badminton:bwf:88450"],"label":"Hunan","country":"People's Republic of China"},"geometry":{"type":"Polygon","coordinates":[[[113.703767,25.199133],[113.931331,26.766212],[112.515328,27.835285],[110.85,27.33619],[110.633188,25.751332],[112.070422,24.683011],[113.703767,25.199133]]]}},{"type":"Feature","properties":{"hex_id":"824077fffffffff","population":21927824,"population_year":2025,"area_km2":91641.3,"population_density":239.3,"all_players":1,"players_per_million":0.05,"player_ids":["badminton:bwf:91560"],"label":"Kunming","country":"People's Republic of China"},"geometry":{"type":"Polygon","coordinates":[[[105.568,24.011141],[105.76175,25.659356],[104.231425,26.681239],[102.49922,26.053266],[102.321132,24.395174],[103.859139,23.374448],[105.568,24.011141]]]}},{"type":"Feature","properties":{"hex_id":"8240a7fffffffff","population":34966044,"population_year":2025,"area_km2":75672.4,"population_density":462.1,"all_players":1,"players_per_million":0.03,"player_ids":["badminton:bwf:61854"],"label":"Shashi District","country":"People's Republic of China"},"geometry":{"type":"Polygon","coordinates":[[[114.392695,29.81272],[114.626538,31.289486],[113.198506,32.33604],[111.513128,31.907057],[111.289946,30.4154],[112.740922,29.367232],[114.392695,29.81272]]]}},{"type":"Feature","properties":{"hex_id":"8240e7fffffffff","population":55349040,"population_year":2025,"area_km2":84307.8,"population_density":656.5,"all_players":1,"players_per_million":0.02,"player_ids":["badminton:bwf:85914"],"label":"Luzhou","country":"People's Republic of China"},"geometry":{"type":"Polygon","coordinates":[[[106.155349,28.869763],[106.355253,30.428475],[104.804952,31.418214],[103.045262,30.849371],[102.861256,29.282121],[104.42056,28.291742],[106.155349,28.869763]]]}},{"type":"Feature","properties":{"hex_id":"824107fffffffff","population":18413,"population_year":2025,"area_km2":85294.5,"population_density":0.2,"all_players":10,"players_per_million":543.09,"player_ids":["badminton:bwf:45171","badminton:bwf:61435","badminton:bwf:65634","badminton:bwf:68015","badminton:bwf:75864","badminton:bwf:77689","badminton:bwf:84523","badminton:bwf:86261","badminton:bwf:94780","badminton:bwf:95205"],"label":"Hong Kong","country":"People's Republic of China"},"geometry":{"type":"Polygon","coordinates":[[[115.972568,19.8125],[116.202872,21.431221],[114.855932,22.520124],[113.254772,21.985685],[113.0333,20.343332],[114.403659,19.258865],[115.972568,19.8125]]]}},{"type":"Feature","properties":{"hex_id":"82411ffffffffff","population":84435088,"population_year":2025,"area_km2":84307.8,"population_density":1001.5,"all_players":6,"players_per_million":0.07,"player_ids":["badminton:bwf:57943","badminton:bwf:58931","badminton:bwf:65300","badminton:bwf:85540","badminton:bwf:90531","badminton:bwf:91673"],"label":"Guangdong","country":"People's Republic of China"},"geometry":{"type":"Polygon","coordinates":[[[114.855932,22.520124],[115.085055,24.116355],[113.703767,25.199133],[112.070422,24.683011],[111.851065,23.06606],[113.254772,21.985685],[114.855932,22.520124]]]}},{"type":"Feature","properties":{"hex_id":"82415ffffffffff","population":23840291,"population_year":2025,"area_km2":93933.6,"population_density":253.8,"all_players":2,"players_per_million":0.08,"player_ids":["badminton:bwf:75678","badminton:bwf:85095"],"label":"Phú Thọ","country":"Vietnam"},"geometry":{"type":"Polygon","coordinates":[[[106.870799,21.285627],[107.068669,22.965031],[105.568,24.011141],[103.859139,23.374448],[103.675931,21.682422],[105.186465,20.639275],[106.870799,21.285627]]]}},{"type":"Feature","properties":{"hex_id":"82416ffffffffff","population":6472282,"population_year":2025,"area_km2":98815.5,"population_density":65.5,"all_players":1,"players_per_million":0.15,"player_ids":["badminton:bwf:35642"],"label":"Yasothon","country":"Thailand"},"geometry":{"type":"Polygon","coordinates":[[[106.288989,16.125989],[106.480984,17.863327],[104.998628,18.920583],[103.315255,18.233591],[103.137733,16.48245],[104.628684,15.431709],[106.288989,16.125989]]]}},{"type":"Feature","properties":{"hex_id":"824187fffffffff","population":19272388,"population_year":2025,"area_km2":74863.4,"population_density":257.4,"all_players":2,"players_per_million":0.1,"player_ids":["badminton:bwf:93130","badminton:bwf:95476"],"label":"Nanchang","country":"People's Republic of China"},"geometry":{"type":"Polygon","coordinates":[[[118.470087,26.578843],[118.71285,28.072875],[117.384113,29.155222],[115.7846,28.744357],[115.54937,27.230124],[116.905602,26.146703],[118.470087,26.578843]]]}},{"type":"Feature","properties":{"hex_id":"82418ffffffffff","population":30594730,"population_year":2025,"area_km2":77902.3,"population_density":392.7,"all_players":2,"players_per_million":0.07,"player_ids":["badminton:bwf:50469","badminton:bwf:57246"],"label":"Changsha","country":"People's Republic of China"},"geometry":{"type":"Polygon","coordinates":[[[115.54937,27.230124],[115.7846,28.744357],[114.392695,29.81272],[112.740922,29.367232],[112.515328,27.835285],[113.931331,26.766212],[115.54937,27.230124]]]}},{"type":"Feature","properties":{"hex_id":"824197fffffffff","population":19919976,"population_year":2025,"area_km2":70058.2,"population_density":284.3,"all_players":1,"players_per_million":0.05,"player_ids":["badminton:bwf:92928"],"label":"Lin'an District","country":"People's Republic of China"},"geometry":{"type":"Polygon","coordinates":[[[120.2547,28.452967],[120.503394,29.892985],[119.20437,30.972609],[117.626428,30.614686],[117.384113,29.155222],[118.71285,28.072875],[120.2547,28.452967]]]}},{"type":"Feature","properties":{"hex_id":"8241a7fffffffff","population":26115654,"population_year":2025,"area_km2":76219.8,"population_density":342.6,"all_players":3,"players_per_million":0.11,"player_ids":["badminton:bwf:59880","badminton:bwf:89426","badminton:bwf:92967"],"label":"Nan'an","country":"People's Republic of China"},"geometry":{"type":"Polygon","coordinates":[[[119.520262,23.963809],[119.763148,25.487093],[118.470087,26.578843],[116.905602,26.146703],[116.669371,24.600271],[117.990477,23.508952],[119.520262,23.963809]]]}},{"type":"Feature","properties":{"hex_id":"8241b7fffffffff","population":19703036,"population_year":2025,"area_km2":72289.7,"population_density":272.6,"all_players":1,"players_per_million":0.05,"player_ids":["badminton:bwf:77042"],"label":"Fuzhou","country":"People's Republic of China"},"geometry":{"type":"Polygon","coordinates":[[[121.347514,26.200276],[121.60089,27.6928],[120.2547,28.452967],[118.71285,28.072875],[118.470087,26.578843],[119.763148,25.487093],[121.347514,26.200276]]]}},{"type":"Feature","properties":{"hex_id":"82424ffffffffff","population":72883696,"population_year":2025,"area_km2":93159.0,"population_density":782.4,"all_players":1,"players_per_million":0.01,"player_ids":["badminton:bwf:99042"],"label":"Punjab","country":"India"},"geometry":{"type":"Polygon","coordinates":[[[72.189483,30.985372],[72.449108,29.330412],[74.260301,28.687863],[75.868402,29.662739],[75.695319,31.326181],[73.826692,32.007599],[72.189483,30.985372]]]}},{"type":"Feature","properties":{"hex_id":"8242cffffffffff","population":38744212,"population_year":2025,"area_km2":81458.9,"population_density":475.6,"all_players":1,"players_per_million":0.03,"player_ids":["badminton:bwf:86604"],"label":"Mehsana","country":"India"},"geometry":{"type":"Polygon","coordinates":[[[71.699171,23.593305],[71.94312,22.083007],[73.575594,21.508843],[75.010886,22.410566],[74.836158,23.930618],[73.156192,24.54037],[71.699171,23.593305]]]}},{"type":"Feature","properties":{"hex_id":"8243affffffffff","population":8249503,"population_year":2025,"area_km2":79647.5,"population_density":103.6,"all_players":1,"players_per_million":0.12,"player_ids":["badminton:bwf:94165"],"label":"Dubai","country":"United Arab Emirates"},"geometry":{"type":"Polygon","coordinates":[[[55.109962,25.430799],[55.707273,23.967056],[57.428119,23.56492],[58.620493,24.617956],[58.073275,26.118996],[56.281432,26.530018],[55.109962,25.430799]]]}},{"type":"Feature","properties":{"hex_id":"8244affffffffff","population":7848067,"population_year":2025,"area_km2":77902.3,"population_density":100.7,"all_players":1,"players_per_million":0.13,"player_ids":["badminton:bwf:79258"],"label":"Boca Raton","country":"United States"},"geometry":{"type":"Polygon","coordinates":[[[-80.698565,26.062694],[-79.211732,26.761492],[-79.057436,28.372892],[-80.425375,29.321821],[-81.966494,28.631807],[-82.084301,26.984013],[-80.698565,26.062694]]]}},{"type":"Feature","properties":{"hex_id":"824527fffffffff","population":8088946,"population_year":2025,"area_km2":85627.7,"population_density":94.5,"all_players":1,"players_per_million":0.12,"player_ids":["badminton:bwf:54897"],"label":"La Unión Zacapa","country":"Guatemala"},"geometry":{"type":"Polygon","coordinates":[[[-88.434553,13.711756],[-86.999519,14.59625],[-86.954405,16.244453],[-88.381314,17.034156],[-89.857391,16.13933],[-89.864907,14.465456],[-88.434553,13.711756]]]}},{"type":"Feature","properties":{"hex_id":"824b37fffffffff","population":19172462,"population_year":2025,"area_km2":70058.2,"population_density":273.7,"all_players":1,"players_per_million":0.05,"player_ids":["badminton:bwf:55414"],"label":"Ningbo","country":"People's Republic of China"},"geometry":{"type":"Polygon","coordinates":[[[120.503394,29.892985],[120.2547,28.452967],[121.60089,27.6928],[123.223201,28.386902],[123.486995,29.843289],[122.113538,30.589507],[120.503394,29.892985]]]}},{"type":"Feature","properties":{"hex_id":"824b67fffffffff","population":7712336,"population_year":2025,"area_km2":70058.2,"population_density":110.1,"all_players":5,"players_per_million":0.65,"player_ids":["badminton:bwf:62395","badminton:bwf:71023","badminton:bwf:79501","badminton:bwf:86672","badminton:bwf:88135"],"label":"Yatsushiro","country":"Japan"},"geometry":{"type":"Polygon","coordinates":[[[130.557843,33.768644],[130.260732,32.389001],[131.702216,31.564914],[133.45368,32.12931],[133.762313,33.515468],[132.308377,34.331159],[130.557843,33.768644]]]}},{"type":"Feature","properties":{"hex_id":"824ba7fffffffff","population":17459604,"population_year":2025,"area_km2":76219.8,"population_density":229.1,"all_players":14,"players_per_million":0.8,"player_ids":["badminton:bwf:34810","badminton:bwf:59709","badminton:bwf:64081","badminton:bwf:71673","badminton:bwf:76717","badminton:bwf:81108","badminton:bwf:87375","badminton:bwf:88807","badminton:bwf:88829","badminton:bwf:89583","badminton:bwf:92913","badminton:bwf:96514","badminton:bwf:99102","badminton:bwf:99925"],"label":"Taipei","country":"Taiwan"},"geometry":{"type":"Polygon","coordinates":[[[119.763148,25.487093],[119.520262,23.963809],[120.846595,23.133384],[122.443634,23.841124],[122.701532,25.384508],[121.347514,26.200276],[119.763148,25.487093]]]}},{"type":"Feature","properties":{"hex_id":"824bb7fffffffff","population":5377682,"population_year":2025,"area_km2":77926.1,"population_density":69.0,"all_players":10,"players_per_million":1.86,"player_ids":["badminton:bwf:55920","badminton:bwf:59077","badminton:bwf:69009","badminton:bwf:74561","badminton:bwf:76275","badminton:bwf:86114","badminton:bwf:87029","badminton:bwf:87176","badminton:bwf:95062","badminton:bwf:96973"],"label":"Kaohsiung","country":"Taiwan"},"geometry":{"type":"Polygon","coordinates":[[[117.990477,23.508952],[117.753599,21.936311],[119.040203,20.844479],[120.599025,21.562235],[120.846595,23.133384],[119.520262,23.963809],[117.990477,23.508952]]]}},{"type":"Feature","properties":{"hex_id":"826007fffffffff","population":14080274,"population_year":2025,"area_km2":85294.5,"population_density":165.1,"all_players":1,"players_per_million":0.07,"player_ids":["badminton:bwf:68317"],"label":"Kochi","country":"India"},"geometry":{"type":"Polygon","coordinates":[[[76.30569,9.906049],[76.326846,11.607008],[74.928421,12.455892],[73.542037,11.612728],[73.536661,9.942291],[74.902157,9.084513],[76.30569,9.906049]]]}},{"type":"Feature","properties":{"hex_id":"826017fffffffff","population":39917928,"population_year":2025,"area_km2":87326.6,"population_density":457.1,"all_players":3,"players_per_million":0.08,"player_ids":["badminton:bwf:66290","badminton:bwf:71612","badminton:bwf:77389"],"label":"Cherupuzha, Kannur","country":"India"},"geometry":{"type":"Polygon","coordinates":[[[77.770981,12.450864],[77.800917,14.162484],[76.369883,15.001448],[74.941776,14.138667],[74.928421,12.455892],[76.326846,11.607008],[77.770981,12.450864]]]}},{"type":"Feature","properties":{"hex_id":"826037fffffffff","population":51759312,"population_year":2025,"area_km2":89801.2,"population_density":576.4,"all_players":2,"players_per_million":0.04,"player_ids":["badminton:bwf:86975","badminton:bwf:91807"],"label":"Coimbatore","country":"India"},"geometry":{"type":"Polygon","coordinates":[[[79.170565,9.844673],[79.208494,11.573007],[77.770981,12.450864],[76.326846,11.607008],[76.30569,9.906049],[77.712122,9.02148],[79.170565,9.844673]]]}},{"type":"Feature","properties":{"hex_id":"82608ffffffffff","population":42291232,"population_year":2025,"area_km2":80847.5,"population_density":523.1,"all_players":1,"players_per_million":0.02,"player_ids":["badminton:bwf:70500"],"label":"Mumbai","country":"India"},"geometry":{"type":"Polygon","coordinates":[[[74.968945,17.484003],[74.982764,19.141001],[73.569841,19.887995],[72.178712,18.993494],[72.180916,17.366767],[73.55853,16.604282],[74.968945,17.484003]]]}},{"type":"Feature","properties":{"hex_id":"826097fffffffff","population":21922680,"population_year":2025,"area_km2":85627.7,"population_density":256.0,"all_players":1,"players_per_million":0.05,"player_ids":["badminton:bwf:88471"],"label":"Nagpur","country":"India"},"geometry":{"type":"Polygon","coordinates":[[[79.404839,20.129444],[79.445503,21.802903],[77.955905,22.571208],[76.458981,21.679237],[76.436317,20.030597],[77.892824,19.248933],[79.404839,20.129444]]]}},{"type":"Feature","properties":{"hex_id":"8260affffffffff","population":26554754,"population_year":2025,"area_km2":84307.8,"population_density":315.0,"all_players":3,"players_per_million":0.11,"player_ids":["badminton:bwf:62720","badminton:bwf:68322","badminton:bwf:69313"],"label":"Karnataka","country":"India"},"geometry":{"type":"Polygon","coordinates":[[[76.369883,15.001448],[76.391773,16.689016],[74.968945,17.484003],[73.55853,16.604282],[73.552971,14.946524],[74.941776,14.138667],[76.369883,15.001448]]]}},{"type":"Feature","properties":{"hex_id":"8260b7fffffffff","population":35390576,"population_year":2025,"area_km2":89440.6,"population_density":395.7,"all_players":3,"players_per_million":0.08,"player_ids":["badminton:bwf:59966","badminton:bwf:70595","badminton:bwf:73173"],"label":"Hyderabad","country":"India"},"geometry":{"type":"Polygon","coordinates":[[[80.850069,17.60337],[80.899198,19.312037],[79.404839,20.129444],[77.892824,19.248933],[77.861832,17.564441],[79.32493,16.736093],[80.850069,17.60337]]]}},{"type":"Feature","properties":{"hex_id":"82611ffffffffff","population":12396637,"population_year":2025,"area_km2":91641.3,"population_density":135.3,"all_players":1,"players_per_million":0.08,"player_ids":["badminton:bwf:64666"],"label":"Colombo","country":"Sri Lanka"},"geometry":{"type":"Polygon","coordinates":[[[80.566973,7.196939],[80.612812,8.934],[79.170565,9.844673],[77.712122,9.02148],[77.683188,7.309851],[79.095988,6.395835],[80.566973,7.196939]]]}},{"type":"Feature","properties":{"hex_id":"82618ffffffffff","population":37950208,"population_year":2025,"area_km2":91641.3,"population_density":414.1,"all_players":2,"players_per_million":0.05,"player_ids":["badminton:bwf:79164","badminton:bwf:91814"],"label":"Chennai","country":"India"},"geometry":{"type":"Polygon","coordinates":[[[80.706075,12.414518],[80.753517,14.151558],[79.285668,15.021819],[77.800917,14.162484],[77.770981,12.450864],[79.208494,11.573007],[80.706075,12.414518]]]}},{"type":"Feature","properties":{"hex_id":"82619ffffffffff","population":22667790,"population_year":2025,"area_km2":92775.6,"population_density":244.3,"all_players":3,"players_per_million":0.13,"player_ids":["badminton:bwf:69619","badminton:bwf:72435","badminton:bwf:93627"],"label":"Amalapuram","country":"India"},"geometry":{"type":"Polygon","coordinates":[[[82.28978,15.003962],[82.347246,16.741282],[80.850069,17.60337],[79.32493,16.736093],[79.285668,15.021819],[80.753517,14.151558],[82.28978,15.003962]]]}},{"type":"Feature","properties":{"hex_id":"826437fffffffff","population":3638031,"population_year":2025,"area_km2":104135.0,"population_density":34.9,"all_players":1,"players_per_million":0.27,"player_ids":["badminton:bwf:56460"],"label":"Surat Thani","country":"Thailand"},"geometry":{"type":"Polygon","coordinates":[[[100.801361,8.618891],[100.963156,10.410684],[99.464714,11.444613],[97.805149,10.676224],[97.659557,8.87771],[99.157027,7.853854],[100.801361,8.618891]]]}},{"type":"Feature","properties":{"hex_id":"826487fffffffff","population":6498934,"population_year":2025,"area_km2":101417.2,"population_density":64.1,"all_players":4,"players_per_million":0.62,"player_ids":["badminton:bwf:62301","badminton:bwf:69463","badminton:bwf:74803","badminton:bwf:84102"],"label":"Chiang Mai","country":"Thailand"},"geometry":{"type":"Polygon","coordinates":[[[99.938788,16.794916],[100.100258,18.555033],[98.557403,19.571163],[96.855428,18.823256],[96.71134,17.059222],[98.251544,16.046518],[99.938788,16.794916]]]}},{"type":"Feature","properties":{"hex_id":"8264a7fffffffff","population":26373493,"population_year":2025,"area_km2":102761.2,"population_density":256.6,"all_players":7,"players_per_million":0.27,"player_ids":["badminton:bwf:58271","badminton:bwf:64032","badminton:bwf:65674","badminton:bwf:72504","badminton:bwf:74980","badminton:bwf:91422","badminton:bwf:92508"],"label":"Bangkok","country":"Thailand"},"geometry":{"type":"Polygon","coordinates":[[[101.291897,13.985209],[101.458892,15.760959],[99.938788,16.794916],[98.251544,16.046518],[98.101118,14.26415],[99.621042,13.236333],[101.291897,13.985209]]]}},{"type":"Feature","properties":{"hex_id":"8264b7fffffffff","population":7935178,"population_year":2025,"area_km2":100537.4,"population_density":78.9,"all_players":1,"players_per_million":0.13,"player_ids":["badminton:bwf:67158"],"label":"Udon Thani","country":"Thailand"},"geometry":{"type":"Polygon","coordinates":[[[103.137733,16.48245],[103.315255,18.233591],[101.798256,19.272673],[100.100258,18.555033],[99.938788,16.794916],[101.458892,15.760959],[103.137733,16.48245]]]}},{"type":"Feature","properties":{"hex_id":"826507fffffffff","population":16316980,"population_year":2025,"area_km2":101417.2,"population_density":160.9,"all_players":17,"players_per_million":1.04,"player_ids":["badminton:bwf:47007","badminton:bwf:54805","badminton:bwf:56352","badminton:bwf:59367","badminton:bwf:63539","badminton:bwf:67949","badminton:bwf:68392","badminton:bwf:68628","badminton:bwf:72675","badminton:bwf:74331","badminton:bwf:75014","badminton:bwf:79110","badminton:bwf:84838","badminton:bwf:88642","badminton:bwf:91090","badminton:bwf:92014","badminton:bwf:99389"],"label":"Kuala Lumpur","country":"Malaysia"},"geometry":{"type":"Polygon","coordinates":[[[103.391464,3.021473],[103.562917,4.785999],[102.110437,5.805283],[100.482799,5.043918],[100.325985,3.267721],[101.781836,2.264143],[103.391464,3.021473]]]}},{"type":"Feature","properties":{"hex_id":"82651ffffffffff","population":9863843,"population_year":2025,"area_km2":103215.8,"population_density":95.6,"all_players":7,"players_per_million":0.71,"player_ids":["badminton:bwf:56350","badminton:bwf:69012","badminton:bwf:73633","badminton:bwf:82372","badminton:bwf:82606","badminton:bwf:85551","badminton:bwf:99181"],"label":"Kedah","country":"Malaysia"},"geometry":{"type":"Polygon","coordinates":[[[102.110437,5.805283],[102.277272,7.587897],[100.801361,8.618891],[99.157027,7.853854],[99.005619,6.061929],[100.482799,5.043918],[102.110437,5.805283]]]}},{"type":"Feature","properties":{"hex_id":"826527fffffffff","population":8679760,"population_year":2025,"area_km2":98815.5,"population_density":87.8,"all_players":15,"players_per_million":1.73,"player_ids":["badminton:bwf:52071","badminton:bwf:56203","badminton:bwf:59621","badminton:bwf:70093","badminton:bwf:71294","badminton:bwf:76115","badminton:bwf:78409","badminton:bwf:83822","badminton:bwf:84064","badminton:bwf:85129","badminton:bwf:88322","badminton:bwf:90768","badminton:bwf:92593","badminton:bwf:94814","badminton:bwf:99066"],"label":"Malacca","country":"Malaysia"},"geometry":{"type":"Polygon","coordinates":[[[104.644094,0.283939],[104.819754,2.022102],[103.391464,3.021473],[101.781836,2.264143],[101.620024,0.512277],[103.053645,-0.468955],[104.644094,0.283939]]]}},{"type":"Feature","properties":{"hex_id":"82652ffffffffff","population":9311693,"population_year":2025,"area_km2":100537.4,"population_density":92.6,"all_players":1,"players_per_million":0.11,"player_ids":["badminton:bwf:79078"],"label":"Pekanbaru","country":"Indonesia"},"geometry":{"type":"Polygon","coordinates":[[[101.620024,0.512277],[101.781836,2.264143],[100.325985,3.267721],[98.707558,2.502528],[98.560859,0.741795],[100.017179,-0.245335],[101.620024,0.512277]]]}},{"type":"Feature","properties":{"hex_id":"82658ffffffffff","population":9895315,"population_year":2025,"area_km2":103215.8,"population_density":95.9,"all_players":2,"players_per_million":0.2,"player_ids":["badminton:bwf:61731","badminton:bwf:84062"],"label":"Chonburi","country":"Thailand"},"geometry":{"type":"Polygon","coordinates":[[[102.616126,11.159905],[102.788194,12.942278],[101.291897,13.985209],[99.621042,13.236333],[99.464714,11.444613],[100.963156,10.410684],[102.616126,11.159905]]]}},{"type":"Feature","properties":{"hex_id":"826947fffffffff","population":24404068,"population_year":2025,"area_km2":85294.5,"population_density":286.1,"all_players":1,"players_per_million":0.04,"player_ids":["badminton:bwf:62713"],"label":"Manila","country":"Philippines"},"geometry":{"type":"Polygon","coordinates":[[[118.334184,16.013184],[118.102539,14.37128],[119.389559,13.411731],[120.936616,14.106],[121.18304,15.773842],[119.867722,16.72154],[118.334184,16.013184]]]}},{"type":"Feature","properties":{"hex_id":"8272f7fffffffff","population":637197,"population_year":2025,"area_km2":102761.2,"population_density":6.2,"all_players":1,"players_per_million":1.57,"player_ids":["badminton:bwf:71408"],"label":"Jayapura","country":"Indonesia"},"geometry":{"type":"Polygon","coordinates":[[[138.74799,-0.171969],[138.440966,-1.933699],[139.816369,-3.070039],[141.497031,-2.453503],[141.810047,-0.698101],[140.436867,0.447483],[138.74799,-0.171969]]]}},{"type":"Feature","properties":{"hex_id":"828007fffffffff","population":3482760,"population_year":2025,"area_km2":104599.8,"population_density":33.3,"all_players":1,"players_per_million":0.29,"player_ids":["badminton:bwf:84897"],"label":"Teresina","country":"Brazil"},"geometry":{"type":"Polygon","coordinates":[[[-41.713738,-6.308249],[-40.322212,-5.151417],[-40.633592,-3.37411],[-42.329578,-2.75193],[-43.719691,-3.904927],[-43.415682,-5.683541],[-41.713738,-6.308249]]]}},{"type":"Feature","properties":{"hex_id":"828c17fffffffff","population":67248248,"population_year":2025,"area_km2":87326.6,"population_density":770.1,"all_players":22,"players_per_million":0.33,"player_ids":["badminton:bwf:55669","badminton:bwf:60838","badminton:bwf:62542","badminton:bwf:65854","badminton:bwf:69193","badminton:bwf:73442","badminton:bwf:76281","badminton:bwf:76890","badminton:bwf:81458","badminton:bwf:81702","badminton:bwf:82061","badminton:bwf:84786","badminton:bwf:87045","badminton:bwf:87259","badminton:bwf:87432","badminton:bwf:88097","badminton:bwf:88876","badminton:bwf:91440","badminton:bwf:91894","badminton:bwf:94567","badminton:bwf:95661","badminton:bwf:99781"],"label":"Jakarta","country":"Indonesia"},"geometry":{"type":"Polygon","coordinates":[[[108.229928,-7.513552],[108.415879,-5.894708],[107.063382,-4.995193],[105.514229,-5.737922],[105.339785,-7.374064],[106.702624,-8.250538],[108.229928,-7.513552]]]}},{"type":"Feature","properties":{"hex_id":"828c8ffffffffff","population":3984706,"population_year":2025,"area_km2":95515.4,"population_density":41.7,"all_players":1,"players_per_million":0.25,"player_ids":["badminton:bwf:63571"],"label":"Jambi","country":"Indonesia"},"geometry":{"type":"Polygon","coordinates":[[[105.868103,-2.392531],[106.047573,-0.688142],[104.644094,0.283939],[103.053645,-0.468955],[102.887234,-2.188684],[104.297858,-3.140563],[105.868103,-2.392531]]]}},{"type":"Feature","properties":{"hex_id":"828d87fffffffff","population":35575676,"population_year":2025,"area_km2":80847.5,"population_density":440.0,"all_players":5,"players_per_million":0.14,"player_ids":["badminton:bwf:60321","badminton:bwf:64600","badminton:bwf:64956","badminton:bwf:80653","badminton:bwf:86136"],"label":"Blitar","country":"Indonesia"},"geometry":{"type":"Polygon","coordinates":[[[113.804744,-7.728775],[114.009259,-6.154062],[112.7414,-5.293772],[111.251261,-6.03334],[111.055271,-7.631575],[112.340512,-8.46691],[113.804744,-7.728775]]]}},{"type":"Feature","properties":{"hex_id":"828d8ffffffffff","population":44702480,"population_year":2025,"area_km2":84307.8,"population_density":530.2,"all_players":12,"players_per_million":0.27,"player_ids":["badminton:bwf:57560","badminton:bwf:58089","badminton:bwf:64055","badminton:bwf:67761","badminton:bwf:68633","badminton:bwf:69006","badminton:bwf:72213","badminton:bwf:72782","badminton:bwf:79077","badminton:bwf:79658","badminton:bwf:82364","badminton:bwf:91130"],"label":"Klaten","country":"Indonesia"},"geometry":{"type":"Polygon","coordinates":[[[111.055271,-7.631575],[111.251261,-6.03334],[109.938807,-5.15272],[108.415879,-5.894708],[108.229928,-7.513552],[109.556486,-8.370077],[111.055271,-7.631575]]]}},{"type":"Feature","properties":{"hex_id":"828da7fffffffff","population":6782700,"population_year":2025,"area_km2":76219.8,"population_density":89.0,"all_players":1,"players_per_million":0.15,"player_ids":["badminton:bwf:79664"],"label":"Jember","country":"Indonesia"},"geometry":{"type":"Polygon","coordinates":[[[114.838849,-10.067792],[115.044614,-8.542069],[113.804744,-7.728775],[112.340512,-8.46691],[112.142561,-10.015726],[113.400655,-10.803502],[114.838849,-10.067792]]]}},{"type":"Feature","properties":{"hex_id":"828daffffffffff","population":4114707,"population_year":2025,"area_km2":79647.5,"population_density":51.7,"all_players":1,"players_per_million":0.24,"player_ids":["badminton:bwf:83802"],"label":"Wonogiri","country":"Indonesia"},"geometry":{"type":"Polygon","coordinates":[[[112.142561,-10.015726],[112.340512,-8.46691],[111.055271,-7.631575],[109.556486,-8.370077],[109.36783,-9.939436],[110.668291,-10.750023],[112.142561,-10.015726]]]}},{"type":"Feature","properties":{"hex_id":"828db7fffffffff","population":2829950,"population_year":2025,"area_km2":77926.1,"population_density":36.3,"all_players":2,"players_per_million":0.71,"player_ids":["badminton:bwf:64349","badminton:bwf:80886"],"label":"Situbondo","country":"Indonesia"},"geometry":{"type":"Polygon","coordinates":[[[116.456435,-8.076966],[116.671672,-6.503639],[115.46104,-5.418558],[114.009259,-6.154062],[113.804744,-7.728775],[115.044614,-8.542069],[116.456435,-8.076966]]]}},{"type":"Feature","properties":{"hex_id":"829507fffffffff","population":6730516,"population_year":2025,"area_km2":85294.5,"population_density":78.9,"all_players":1,"players_per_million":0.15,"player_ids":["badminton:bwf:83699"],"label":"Gowa","country":"Indonesia"},"geometry":{"type":"Polygon","coordinates":[[[118.346609,-4.382419],[118.121792,-6.000006],[119.370498,-7.09859],[120.870766,-6.585959],[121.109497,-4.947801],[119.834132,-3.84262],[118.346609,-4.382419]]]}},{"type":"Feature","properties":{"hex_id":"82952ffffffffff","population":3508200,"population_year":2025,"area_km2":89440.6,"population_density":39.2,"all_players":1,"players_per_million":0.29,"player_ids":["badminton:bwf:81462"],"label":"Lawulo","country":"Indonesia"},"geometry":{"type":"Polygon","coordinates":[[[120.068582,-2.185184],[119.834132,-3.84262],[121.109497,-4.947801],[122.644638,-4.400413],[122.892848,-2.722889],[121.592283,-1.612611],[120.068582,-2.185184]]]}},{"type":"Feature","properties":{"hex_id":"82be67fffffffff","population":5799918,"population_year":2025,"area_km2":101417.2,"population_density":57.2,"all_players":2,"players_per_million":0.34,"player_ids":["badminton:bwf:58488","badminton:bwf:71065"],"label":"Box Hill","country":"Australia"},"geometry":{"type":"Polygon","coordinates":[[[147.365513,-40.022078],[147.728894,-38.261419],[145.990588,-37.115507],[143.887418,-37.698406],[143.445429,-39.437203],[145.182884,-40.615783],[147.365513,-40.022078]]]}}]}