{"type":"FeatureCollection","metadata":{"population_source":"WorldPop Global 2 R2025A","population_source_url":"https://hub.worldpop.org/project/categories?id=3","population_license":"CC BY 4.0","population_year":2025,"raster_resolution":"1km","h3_resolution":1,"population_method":"official_country_rasters","occupied_cells":57,"mapped_players":345},"features":[{"type":"Feature","properties":{"hex_id":"81113ffffffffff","population":12600486,"population_year":2025,"area_km2":510516.1,"population_density":24.7,"all_players":2,"players_per_million":0.16,"player_ids":["badminton:bwf:85563","badminton:bwf:92655"],"label":"Helsinki","country":"Finland"},"geometry":{"type":"Polygon","coordinates":[[[25.082722,58.401545],[31.095814,56.470005],[37.661108,58.480663],[38.741468,62.771655],[31.517537,64.873037],[24.517172,62.478113],[25.082722,58.401545]]]}},{"type":"Feature","properties":{"hex_id":"8111bffffffffff","population":41364282,"population_year":2025,"area_km2":565620.1,"population_density":73.1,"all_players":3,"players_per_million":0.07,"player_ids":["badminton:bwf:52953","badminton:bwf:94032","badminton:bwf:96877"],"label":"Kharkiv","country":"Ukraine"},"geometry":{"type":"Polygon","coordinates":[[[30.654128,52.413789],[36.116724,49.779343],[42.136829,51.409437],[43.547482,55.820804],[37.661108,58.480663],[31.095814,56.470005],[31.017704,54.340219],[30.654128,52.413789]]]}},{"type":"Feature","properties":{"hex_id":"81187ffffffffff","population":21776966,"population_year":2025,"area_km2":595741.2,"population_density":36.6,"all_players":3,"players_per_million":0.14,"player_ids":["badminton:bwf:68544","badminton:bwf:74218","badminton:bwf:94580"],"label":"Tours","country":"France"},"geometry":{"type":"Polygon","coordinates":[[[-4.88976,51.223728],[-9.724736,48.430094],[-8.101589,44.050631],[-2.417796,42.54048],[2.026569,45.184249],[1.18851,49.470279],[-4.88976,51.223728]]]}},{"type":"Feature","properties":{"hex_id":"81193ffffffffff","population":771399,"population_year":2025,"area_km2":510516.1,"population_density":1.5,"all_players":1,"players_per_million":1.3,"player_ids":["badminton:bwf:72478"],"label":"Kirkwall","country":"United Kingdom"},"geometry":{"type":"Polygon","coordinates":[[[-10.444978,63.095054],[-16.371962,60.568694],[-13.791647,56.736324],[-6.436337,55.37739],[-0.931587,57.689497],[-2.297526,61.54551],[-10.444978,63.095054]]]}},{"type":"Feature","properties":{"hex_id":"81197ffffffffff","population":88036357,"population_year":2025,"area_km2":523941.7,"population_density":168.0,"all_players":7,"players_per_million":0.08,"player_ids":["badminton:bwf:48528","badminton:bwf:63170","badminton:bwf:67922","badminton:bwf:76278","badminton:bwf:86756","badminton:bwf:91715","badminton:bwf:92277"],"label":"Bellshill","country":"United Kingdom"},"geometry":{"type":"Polygon","coordinates":[[[-0.931587,57.689497],[-6.436337,55.37739],[-4.88976,51.223728],[1.18851,49.470279],[3.630009,50.610463],[6.259687,51.96477],[5.523647,55.706768],[-0.931587,57.689497]]]}},{"type":"Feature","properties":{"hex_id":"811e3ffffffffff","population":71057199,"population_year":2025,"area_km2":595741.2,"population_density":119.3,"all_players":2,"players_per_million":0.03,"player_ids":["badminton:bwf:60397","badminton:bwf:61949"],"label":"Klimkovice","country":"Czech Republic"},"geometry":{"type":"Polygon","coordinates":[[[12.345747,50.554275],[12.677318,46.406957],[18.31474,44.47068],[24.013384,46.595885],[24.329,50.776322],[18.289963,52.819052],[12.345747,50.554275]]]}},{"type":"Feature","properties":{"hex_id":"811efffffffffff","population":50991723,"population_year":2025,"area_km2":666617.1,"population_density":76.5,"all_players":6,"players_per_million":0.12,"player_ids":["badminton:bwf:43840","badminton:bwf:46169","badminton:bwf:61628","badminton:bwf:62426","badminton:bwf:72885","badminton:bwf:87112"],"label":"Sofia","country":"Bulgaria"},"geometry":{"type":"Polygon","coordinates":[[[18.31474,44.47068],[18.32526,39.988178],[23.474781,37.630343],[28.846869,39.643311],[29.387082,44.107766],[24.013384,46.595885],[18.31474,44.47068]]]}},{"type":"Feature","properties":{"hex_id":"811f3ffffffffff","population":49754999,"population_year":2025,"area_km2":510516.1,"population_density":97.5,"all_players":20,"players_per_million":0.4,"player_ids":["badminton:bwf:25831","badminton:bwf:44414","badminton:bwf:51998","badminton:bwf:57731","badminton:bwf:58324","badminton:bwf:62855","badminton:bwf:63437","badminton:bwf:64729","badminton:bwf:68134","badminton:bwf:77002","badminton:bwf:81705","badminton:bwf:85302","badminton:bwf:88779","badminton:bwf:91106","badminton:bwf:91224","badminton:bwf:91554","badminton:bwf:92980","badminton:bwf:95643","badminton:bwf:97030","badminton:bwf:97648"],"label":"Aarhus","country":"Denmark"},"geometry":{"type":"Polygon","coordinates":[[[5.523647,55.706768],[6.259687,51.96477],[12.345747,50.554275],[18.289963,52.819052],[18.275236,56.632953],[11.555978,58.130531],[5.523647,55.706768]]]}},{"type":"Feature","properties":{"hex_id":"811fbffffffffff","population":119418410,"population_year":2025,"area_km2":565620.1,"population_density":211.1,"all_players":7,"players_per_million":0.06,"player_ids":["badminton:bwf:59543","badminton:bwf:64909","badminton:bwf:70399","badminton:bwf:70762","badminton:bwf:73323","badminton:bwf:98329","badminton:bwf:99891"],"label":"Sarcelles","country":"France"},"geometry":{"type":"Polygon","coordinates":[[[1.18851,49.470279],[2.026569,45.184249],[7.509948,43.786609],[12.677318,46.406957],[12.345747,50.554275],[6.259687,51.96477],[3.630009,50.610463],[1.18851,49.470279]]]}},{"type":"Feature","properties":{"hex_id":"81213ffffffffff","population":3926618,"population_year":2025,"area_km2":707475.0,"population_density":5.6,"all_players":1,"players_per_million":0.25,"player_ids":["badminton:bwf:82989"],"label":"Kostanay","country":"Kazakhstan"},"geometry":{"type":"Polygon","coordinates":[[[53.670494,49.372118],[57.92568,45.709642],[64.65954,46.076794],[68.13563,50.235864],[64.158618,54.257565],[56.286118,53.745323],[53.670494,49.372118]]]}},{"type":"Feature","properties":{"hex_id":"81283ffffffffff","population":15759816,"population_year":2025,"area_km2":595741.2,"population_density":26.5,"all_players":2,"players_per_million":0.13,"player_ids":["badminton:bwf:61882","badminton:bwf:65708"],"label":"Fremont","country":"United States"},"geometry":{"type":"Polygon","coordinates":[[[-121.707157,36.574218],[-119.002282,40.570572],[-122.134831,44.057691],[-127.958662,43.419208],[-130.222638,39.442424],[-127.138101,36.079796],[-121.707157,36.574218]]]}},{"type":"Feature","properties":{"hex_id":"812a3ffffffffff","population":39671228,"population_year":2025,"area_km2":595741.2,"population_density":66.6,"all_players":2,"players_per_million":0.05,"player_ids":["badminton:bwf:63739","badminton:bwf:83074"],"label":"Lowell","country":"United States"},"geometry":{"type":"Polygon","coordinates":[[[-69.955068,44.277849],[-75.333452,42.029564],[-75.063317,37.849069],[-70.311412,35.933887],[-65.448142,37.822091],[-64.835193,41.948534],[-69.955068,44.277849]]]}},{"type":"Feature","properties":{"hex_id":"812bbffffffffff","population":23927662,"population_year":2025,"area_km2":666617.1,"population_density":35.9,"all_players":3,"players_per_million":0.13,"player_ids":["badminton:bwf:63122","badminton:bwf:78208","badminton:bwf:94151"],"label":"Toronto","country":"Canada"},"geometry":{"type":"Polygon","coordinates":[[[-76.057729,50.990211],[-81.919627,48.295316],[-80.982253,43.86012],[-75.333452,42.029564],[-69.955068,44.277849],[-69.719479,48.757432],[-76.057729,50.990211]]]}},{"type":"Feature","properties":{"hex_id":"812c3ffffffffff","population":48394646,"population_year":2025,"area_km2":614937.0,"population_density":78.7,"all_players":1,"players_per_million":0.02,"player_ids":["badminton:bwf:73023"],"label":"Erzincan","country":"Turkey"},"geometry":{"type":"Polygon","coordinates":[[[38.930218,38.400687],[43.074401,35.326156],[46.40451,36.114445],[48.114436,36.404919],[49.670644,40.636123],[45.504839,43.945519],[41.788831,43.124283],[39.938746,42.736298],[38.930218,38.400687]]]}},{"type":"Feature","properties":{"hex_id":"812d3ffffffffff","population":35376976,"population_year":2025,"area_km2":647632.6,"population_density":54.6,"all_players":2,"players_per_million":0.06,"player_ids":["badminton:bwf:87885","badminton:bwf:94762"],"label":"Osmangazi","country":"Turkey"},"geometry":{"type":"Polygon","coordinates":[[[29.387082,44.107766],[28.846869,39.643311],[33.614584,36.858664],[38.930218,38.400687],[39.938746,42.736298],[35.197789,45.672385],[29.387082,44.107766]]]}},{"type":"Feature","properties":{"hex_id":"812e3ffffffffff","population":12920451,"population_year":2025,"area_km2":595741.2,"population_density":21.7,"all_players":10,"players_per_million":0.77,"player_ids":["badminton:bwf:59014","badminton:bwf:62063","badminton:bwf:67903","badminton:bwf:68282","badminton:bwf:78839","badminton:bwf:79558","badminton:bwf:79906","badminton:bwf:81609","badminton:bwf:86479","badminton:bwf:91896"],"label":"Miyagi Prefecture","country":"Japan"},"geometry":{"type":"Polygon","coordinates":[[[148.856926,38.18238],[147.817284,42.633407],[142.305844,43.816095],[138.515018,40.617501],[139.948213,36.441778],[144.831325,35.18743],[148.856926,38.18238]]]}},{"type":"Feature","properties":{"hex_id":"812e7ffffffffff","population":52072688,"population_year":2025,"area_km2":510516.1,"population_density":102.0,"all_players":15,"players_per_million":0.29,"player_ids":["badminton:bwf:63530","badminton:bwf:68479","badminton:bwf:74076","badminton:bwf:82009","badminton:bwf:82070","badminton:bwf:84159","badminton:bwf:85394","badminton:bwf:86778","badminton:bwf:90735","badminton:bwf:92989","badminton:bwf:94712","badminton:bwf:95172","badminton:bwf:96312","badminton:bwf:96604","badminton:bwf:96713"],"label":"Katsuyama","country":"Japan"},"geometry":{"type":"Polygon","coordinates":[[[139.948213,36.441778],[138.515018,40.617501],[133.570126,41.410447],[130.657533,38.194564],[132.308377,34.331159],[136.697641,33.378798],[139.948213,36.441778]]]}},{"type":"Feature","properties":{"hex_id":"812f7ffffffffff","population":38419612,"population_year":2025,"area_km2":565620.1,"population_density":67.9,"all_players":12,"players_per_million":0.31,"player_ids":["badminton:bwf:55417","badminton:bwf:64944","badminton:bwf:66794","badminton:bwf:67816","badminton:bwf:68304","badminton:bwf:76079","badminton:bwf:76295","badminton:bwf:80532","badminton:bwf:85452","badminton:bwf:87428","badminton:bwf:97174","badminton:bwf:99466"],"label":"Saitama Prefecture","country":"Japan"},"geometry":{"type":"Polygon","coordinates":[[[145.91104,30.789834],[144.831325,35.18743],[139.948213,36.441778],[136.697641,33.378798],[137.3956,31.331749],[137.800087,29.424814],[142.433222,27.949606],[145.91104,30.789834]]]}},{"type":"Feature","properties":{"hex_id":"81303ffffffffff","population":61755412,"population_year":2025,"area_km2":328434.6,"population_density":188.0,"all_players":3,"players_per_million":0.05,"player_ids":["badminton:bwf:53806","badminton:bwf:81599","badminton:bwf:81844"],"label":"Liaoning","country":"People's Republic of China"},"geometry":{"type":"Polygon","coordinates":[[[119.13691,41.148271],[118.582885,38.614967],[118.869299,37.429854],[121.690154,36.205283],[123.162765,36.005614],[125.585234,37.691245],[126.346943,38.738746],[125.085829,41.118552],[123.984121,41.999374],[120.555881,41.717194],[119.13691,41.148271]]]}},{"type":"Feature","properties":{"hex_id":"8130bffffffffff","population":241379936,"population_year":2025,"area_km2":447684.2,"population_density":539.2,"all_players":9,"players_per_million":0.04,"player_ids":["badminton:bwf:65491","badminton:bwf:71223","badminton:bwf:73013","badminton:bwf:73591","badminton:bwf:77427","badminton:bwf:78116","badminton:bwf:78778","badminton:bwf:89714","badminton:bwf:91533"],"label":"Hangzhou","country":"People's Republic of China"},"geometry":{"type":"Polygon","coordinates":[[[124.020556,32.661445],[123.162765,36.005614],[121.690154,36.205283],[118.869299,37.429854],[115.340961,35.522424],[116.2613,31.680908],[120.503394,29.892985],[124.020556,32.661445]]]}},{"type":"Feature","properties":{"hex_id":"8130fffffffffff","population":61653931,"population_year":2025,"area_km2":447684.2,"population_density":137.7,"all_players":21,"players_per_million":0.34,"player_ids":["badminton:bwf:56706","badminton:bwf:61444","badminton:bwf:65212","badminton:bwf:65580","badminton:bwf:66513","badminton:bwf:67810","badminton:bwf:67828","badminton:bwf:70930","badminton:bwf:71391","badminton:bwf:74816","badminton:bwf:77262","badminton:bwf:80005","badminton:bwf:80062","badminton:bwf:81657","badminton:bwf:83419","badminton:bwf:86230","badminton:bwf:87442","badminton:bwf:91292","badminton:bwf:93074","badminton:bwf:99069","badminton:bwf:99778"],"label":"Ulsan","country":"South Korea"},"geometry":{"type":"Polygon","coordinates":[[[123.162765,36.005614],[124.020556,32.661445],[128.534469,31.786712],[132.308377,34.331159],[130.657533,38.194564],[126.346943,38.738746],[125.585234,37.691245],[123.162765,36.005614]]]}},{"type":"Feature","properties":{"hex_id":"8131bffffffffff","population":167852256,"population_year":2025,"area_km2":447684.2,"population_density":374.9,"all_players":2,"players_per_million":0.01,"player_ids":["badminton:bwf:65144","badminton:bwf:65267"],"label":"Tianjin","country":"People's Republic of China"},"geometry":{"type":"Polygon","coordinates":[[[110.981139,41.216599],[110.694611,37.163896],[115.340961,35.522424],[118.869299,37.429854],[118.582885,38.614967],[119.13691,41.148271],[115.501139,43.254142],[110.981139,41.216599]]]}},{"type":"Feature","properties":{"hex_id":"81393ffffffffff","population":34532782,"population_year":2025,"area_km2":647632.6,"population_density":53.3,"all_players":1,"players_per_million":0.03,"player_ids":["badminton:bwf:92404"],"label":"Salvaterra de Miño","country":"Spain"},"geometry":{"type":"Polygon","coordinates":[[[-8.101589,44.050631],[-12.384127,40.869133],[-10.744488,36.38323],[-5.442348,35.124424],[-1.416234,38.115997],[-2.417796,42.54048],[-8.101589,44.050631]]]}},{"type":"Feature","properties":{"hex_id":"81397ffffffffff","population":31465600,"population_year":2025,"area_km2":602082.0,"population_density":52.3,"all_players":1,"players_per_million":0.03,"player_ids":["badminton:bwf:96690"],"label":"Grasse","country":"France"},"geometry":{"type":"Polygon","coordinates":[[[-2.417796,42.54048],[-1.416234,38.115997],[0.238716,37.588846],[3.543589,36.597898],[8.045142,39.402136],[7.509948,43.786609],[2.026569,45.184249],[-2.417796,42.54048]]]}},{"type":"Feature","properties":{"hex_id":"813cbffffffffff","population":190047760,"population_year":2025,"area_km2":647632.6,"population_density":293.4,"all_players":1,"players_per_million":0.01,"player_ids":["badminton:bwf:80402"],"label":"Durg","country":"India"},"geometry":{"type":"Polygon","coordinates":[[[88.797306,20.114256],[87.416541,24.410902],[82.644974,25.201987],[79.445503,21.802903],[80.850069,17.60337],[85.445337,16.70096],[88.797306,20.114256]]]}},{"type":"Feature","properties":{"hex_id":"813cfffffffffff","population":285984465,"population_year":2025,"area_km2":666617.1,"population_density":429.0,"all_players":3,"players_per_million":0.01,"player_ids":["badminton:bwf:50322","badminton:bwf:75628","badminton:bwf:76851"],"label":"Manipur","country":"India"},"geometry":{"type":"Polygon","coordinates":[[[97.148502,22.297036],[95.855137,26.622305],[90.911168,27.664083],[87.416541,24.410902],[88.797306,20.114256],[93.60132,19.035204],[97.148502,22.297036]]]}},{"type":"Feature","properties":{"hex_id":"813d3ffffffffff","population":80376689,"population_year":2025,"area_km2":666617.1,"population_density":120.6,"all_players":4,"players_per_million":0.05,"player_ids":["badminton:bwf:57372","badminton:bwf:68870","badminton:bwf:74481","badminton:bwf:99042"],"label":"Almora","country":"India"},"geometry":{"type":"Polygon","coordinates":[[[73.592618,33.705753],[75.868402,29.662739],[81.028378,29.173754],[84.479601,32.589943],[82.728687,36.835377],[76.945351,37.477284],[73.592618,33.705753]]]}},{"type":"Feature","properties":{"hex_id":"813dbffffffffff","population":338594846,"population_year":2025,"area_km2":602082.0,"population_density":562.4,"all_players":6,"players_per_million":0.02,"player_ids":["badminton:bwf:57265","badminton:bwf:58664","badminton:bwf:59687","badminton:bwf:69093","badminton:bwf:83950","badminton:bwf:90287"],"label":"Rohtak","country":"India"},"geometry":{"type":"Polygon","coordinates":[[[72.931624,26.106099],[75.010886,22.410566],[79.445503,21.802903],[82.644974,25.201987],[82.168245,26.544149],[81.028378,29.173754],[75.868402,29.662739],[72.931624,26.106099]]]}},{"type":"Feature","properties":{"hex_id":"81403ffffffffff","population":152073664,"population_year":2025,"area_km2":595741.2,"population_density":255.3,"all_players":6,"players_per_million":0.04,"player_ids":["badminton:bwf:57246","badminton:bwf:63029","badminton:bwf:85914","badminton:bwf:88450","badminton:bwf:89163","badminton:bwf:97345"],"label":"Guilin","country":"People's Republic of China"},"geometry":{"type":"Polygon","coordinates":[[[113.703767,25.199133],[112.740922,29.367232],[108.088674,30.953537],[104.42056,28.291742],[105.568,24.011141],[110.205767,22.499632],[113.703767,25.199133]]]}},{"type":"Feature","properties":{"hex_id":"81407ffffffffff","population":61337955,"population_year":2025,"area_km2":647632.6,"population_density":94.7,"all_players":1,"players_per_million":0.02,"player_ids":["badminton:bwf:91560"],"label":"Kunming","country":"People's Republic of China"},"geometry":{"type":"Polygon","coordinates":[[[105.568,24.011141],[104.42056,28.291742],[99.516939,29.61536],[95.855137,26.622305],[97.148502,22.297036],[101.970677,21.002365],[105.568,24.011141]]]}},{"type":"Feature","properties":{"hex_id":"8140bffffffffff","population":191913808,"population_year":2025,"area_km2":510516.1,"population_density":375.9,"all_players":1,"players_per_million":0.01,"player_ids":["badminton:bwf:61854"],"label":"Shashi District","country":"People's Republic of China"},"geometry":{"type":"Polygon","coordinates":[[[116.2613,31.680908],[115.340961,35.522424],[110.694611,37.163896],[106.967721,34.902991],[108.088674,30.953537],[112.740922,29.367232],[116.2613,31.680908]]]}},{"type":"Feature","properties":{"hex_id":"81413ffffffffff","population":120800976,"population_year":2025,"area_km2":595741.2,"population_density":202.8,"all_players":16,"players_per_million":0.13,"player_ids":["badminton:bwf:45171","badminton:bwf:57943","badminton:bwf:58931","badminton:bwf:61435","badminton:bwf:65300","badminton:bwf:65634","badminton:bwf:68015","badminton:bwf:75864","badminton:bwf:77689","badminton:bwf:84523","badminton:bwf:85540","badminton:bwf:86261","badminton:bwf:90531","badminton:bwf:91673","badminton:bwf:94780","badminton:bwf:95205"],"label":"Hong Kong","country":"People's Republic of China"},"geometry":{"type":"Polygon","coordinates":[[[118.803002,19.252195],[117.990477,23.508952],[113.703767,25.199133],[110.205767,22.499632],[111.205113,18.077041],[115.517768,16.517912],[118.803002,19.252195]]]}},{"type":"Feature","properties":{"hex_id":"81417ffffffffff","population":92690818,"population_year":2025,"area_km2":666617.1,"population_density":139.0,"all_players":2,"players_per_million":0.02,"player_ids":["badminton:bwf:75678","badminton:bwf:85095"],"label":"Phú Thọ","country":"Vietnam"},"geometry":{"type":"Polygon","coordinates":[[[111.205113,18.077041],[110.205767,22.499632],[105.568,24.011141],[101.970677,21.002365],[103.137733,16.48245],[107.742624,15.063301],[111.205113,18.077041]]]}},{"type":"Feature","properties":{"hex_id":"8141bffffffffff","population":147726784,"population_year":2025,"area_km2":523941.7,"population_density":282.0,"all_players":8,"players_per_million":0.05,"player_ids":["badminton:bwf:50469","badminton:bwf:59880","badminton:bwf:77042","badminton:bwf:89426","badminton:bwf:92928","badminton:bwf:92967","badminton:bwf:93130","badminton:bwf:95476"],"label":"Nan'an","country":"People's Republic of China"},"geometry":{"type":"Polygon","coordinates":[[[121.347514,26.200276],[120.503394,29.892985],[116.2613,31.680908],[112.740922,29.367232],[113.703767,25.199133],[117.990477,23.508952],[119.641465,24.728661],[121.347514,26.200276]]]}},{"type":"Feature","properties":{"hex_id":"8142fffffffffff","population":127932236,"population_year":2025,"area_km2":565620.1,"population_density":226.2,"all_players":1,"players_per_million":0.01,"player_ids":["badminton:bwf:86604"],"label":"Mehsana","country":"India"},"geometry":{"type":"Polygon","coordinates":[[[65.542467,22.742171],[67.89023,19.324159],[70.146166,19.258937],[72.178712,18.993494],[75.010886,22.410566],[72.931624,26.106099],[67.931507,26.281366],[65.542467,22.742171]]]}},{"type":"Feature","properties":{"hex_id":"8143bffffffffff","population":15997723,"population_year":2025,"area_km2":523941.7,"population_density":30.5,"all_players":1,"players_per_million":0.06,"player_ids":["badminton:bwf:94165"],"label":"Dubai","country":"United Arab Emirates"},"geometry":{"type":"Polygon","coordinates":[[[51.981036,21.936732],[54.686969,19.148859],[58.982288,19.310274],[60.855323,22.699925],[58.073275,26.118996],[53.353616,25.802498],[52.589722,23.991946],[51.981036,21.936732]]]}},{"type":"Feature","properties":{"hex_id":"8144bffffffffff","population":13618822,"population_year":2025,"area_km2":510516.1,"population_density":26.7,"all_players":1,"players_per_million":0.07,"player_ids":["badminton:bwf:79258"],"label":"Boca Raton","country":"United States"},"geometry":{"type":"Polygon","coordinates":[[[-76.831217,23.342863],[-73.868279,26.190449],[-74.640468,30.219492],[-78.735928,31.57726],[-81.966494,28.631807],[-80.82969,24.429618],[-76.831217,23.342863]]]}},{"type":"Feature","properties":{"hex_id":"81453ffffffffff","population":15454662,"population_year":2025,"area_km2":595741.2,"population_density":25.9,"all_players":1,"players_per_million":0.06,"player_ids":["badminton:bwf:54897"],"label":"La Unión Zacapa","country":"Guatemala"},"geometry":{"type":"Polygon","coordinates":[[[-85.631069,13.836854],[-82.727942,17.133437],[-83.891248,21.244199],[-88.2959,22.120731],[-91.359302,18.628702],[-89.864907,14.465456],[-85.631069,13.836854]]]}},{"type":"Feature","properties":{"hex_id":"814b3ffffffffff","population":20288404,"population_year":2025,"area_km2":510516.1,"population_density":39.7,"all_players":1,"players_per_million":0.05,"player_ids":["badminton:bwf:55414"],"label":"Ningbo","country":"People's Republic of China"},"geometry":{"type":"Polygon","coordinates":[[[120.503394,29.892985],[121.347514,26.200276],[125.719882,25.218062],[129.381002,28.043997],[128.534469,31.786712],[124.020556,32.661445],[120.503394,29.892985]]]}},{"type":"Feature","properties":{"hex_id":"814b7ffffffffff","population":8198106,"population_year":2025,"area_km2":523941.7,"population_density":15.6,"all_players":5,"players_per_million":0.61,"player_ids":["badminton:bwf:62395","badminton:bwf:71023","badminton:bwf:79501","badminton:bwf:86672","badminton:bwf:88135"],"label":"Yatsushiro","country":"Japan"},"geometry":{"type":"Polygon","coordinates":[[[128.534469,31.786712],[129.381002,28.043997],[133.976139,26.829336],[137.800087,29.424814],[137.3956,31.331749],[136.697641,33.378798],[132.308377,34.331159],[128.534469,31.786712]]]}},{"type":"Feature","properties":{"hex_id":"814bbffffffffff","population":23165697,"population_year":2025,"area_km2":565620.1,"population_density":41.0,"all_players":24,"players_per_million":1.04,"player_ids":["badminton:bwf:34810","badminton:bwf:55920","badminton:bwf:59077","badminton:bwf:59709","badminton:bwf:64081","badminton:bwf:69009","badminton:bwf:71673","badminton:bwf:74561","badminton:bwf:76275","badminton:bwf:76717","badminton:bwf:81108","badminton:bwf:86114","badminton:bwf:87029","badminton:bwf:87176","badminton:bwf:87375","badminton:bwf:88807","badminton:bwf:88829","badminton:bwf:89583","badminton:bwf:92913","badminton:bwf:95062","badminton:bwf:96514","badminton:bwf:96973","badminton:bwf:99102","badminton:bwf:99925"],"label":"Taipei","country":"Taiwan"},"geometry":{"type":"Polygon","coordinates":[[[117.990477,23.508952],[118.803002,19.252195],[123.023555,18.12707],[126.560782,21.137466],[125.719882,25.218062],[121.347514,26.200276],[119.641465,24.728661],[117.990477,23.508952]]]}},{"type":"Feature","properties":{"hex_id":"81603ffffffffff","population":130572120,"population_year":2025,"area_km2":595741.2,"population_density":219.2,"all_players":5,"players_per_million":0.04,"player_ids":["badminton:bwf:66290","badminton:bwf:68317","badminton:bwf:71612","badminton:bwf:77389","badminton:bwf:91807"],"label":"Cherupuzha, Kannur","country":"India"},"geometry":{"type":"Polygon","coordinates":[[[79.170565,9.844673],[77.800917,14.162484],[73.552971,14.946524],[70.86173,11.593032],[72.193634,7.473864],[76.264085,6.511601],[79.170565,9.844673]]]}},{"type":"Feature","properties":{"hex_id":"8160bffffffffff","population":212304176,"population_year":2025,"area_km2":595741.2,"population_density":356.4,"all_players":8,"players_per_million":0.04,"player_ids":["badminton:bwf:59966","badminton:bwf:62720","badminton:bwf:68322","badminton:bwf:69313","badminton:bwf:70500","badminton:bwf:70595","badminton:bwf:73173","badminton:bwf:88471"],"label":"Hyderabad","country":"India"},"geometry":{"type":"Polygon","coordinates":[[[80.850069,17.60337],[79.445503,21.802903],[75.010886,22.410566],[72.178712,18.993494],[73.552971,14.946524],[77.800917,14.162484],[80.850069,17.60337]]]}},{"type":"Feature","properties":{"hex_id":"81613ffffffffff","population":23505288,"population_year":2025,"area_km2":647632.6,"population_density":36.3,"all_players":1,"players_per_million":0.04,"player_ids":["badminton:bwf:64666"],"label":"Colombo","country":"Sri Lanka"},"geometry":{"type":"Polygon","coordinates":[[[84.929667,4.348487],[83.593158,8.820602],[79.170565,9.844673],[76.264085,6.511601],[77.598304,2.223344],[81.853074,1.084854],[84.929667,4.348487]]]}},{"type":"Feature","properties":{"hex_id":"8161bffffffffff","population":70051421,"population_year":2025,"area_km2":666617.1,"population_density":105.1,"all_players":6,"players_per_million":0.09,"player_ids":["badminton:bwf:69619","badminton:bwf:72435","badminton:bwf:79164","badminton:bwf:86975","badminton:bwf:91814","badminton:bwf:93627"],"label":"Chennai","country":"India"},"geometry":{"type":"Polygon","coordinates":[[[86.805421,12.238125],[85.445337,16.70096],[80.850069,17.60337],[77.800917,14.162484],[79.170565,9.844673],[83.593158,8.820602],[86.805421,12.238125]]]}},{"type":"Feature","properties":{"hex_id":"81643ffffffffff","population":6509931,"population_year":2025,"area_km2":729486.9,"population_density":8.9,"all_players":1,"players_per_million":0.15,"player_ids":["badminton:bwf:56460"],"label":"Surat Thani","country":"Thailand"},"geometry":{"type":"Polygon","coordinates":[[[100.801361,8.618891],[99.621042,13.236333],[94.893577,14.501203],[91.464699,11.111889],[92.750684,6.523961],[97.373041,5.289412],[100.801361,8.618891]]]}},{"type":"Feature","properties":{"hex_id":"8164bffffffffff","population":56913507,"population_year":2025,"area_km2":707475.0,"population_density":80.4,"all_players":7,"players_per_million":0.12,"player_ids":["badminton:bwf:62301","badminton:bwf:67158","badminton:bwf:69463","badminton:bwf:72504","badminton:bwf:74803","badminton:bwf:74980","badminton:bwf:84102"],"label":"Chiang Mai","country":"Thailand"},"geometry":{"type":"Polygon","coordinates":[[[103.137733,16.48245],[101.970677,21.002365],[97.148502,22.297036],[93.60132,19.035204],[94.893577,14.501203],[99.621042,13.236333],[103.137733,16.48245]]]}},{"type":"Feature","properties":{"hex_id":"81653ffffffffff","population":56430944,"population_year":2025,"area_km2":707475.0,"population_density":79.8,"all_players":40,"players_per_million":0.71,"player_ids":["badminton:bwf:47007","badminton:bwf:52071","badminton:bwf:54805","badminton:bwf:56203","badminton:bwf:56350","badminton:bwf:56352","badminton:bwf:59367","badminton:bwf:59621","badminton:bwf:63539","badminton:bwf:67949","badminton:bwf:68392","badminton:bwf:68628","badminton:bwf:69012","badminton:bwf:70093","badminton:bwf:71294","badminton:bwf:72675","badminton:bwf:73633","badminton:bwf:74331","badminton:bwf:75014","badminton:bwf:76115","badminton:bwf:78409","badminton:bwf:79078","badminton:bwf:79110","badminton:bwf:82372","badminton:bwf:82606","badminton:bwf:83822","badminton:bwf:84064","badminton:bwf:84838","badminton:bwf:85129","badminton:bwf:85551","badminton:bwf:88322","badminton:bwf:88642","badminton:bwf:90768","badminton:bwf:91090","badminton:bwf:92014","badminton:bwf:92593","badminton:bwf:94814","badminton:bwf:99066","badminton:bwf:99181","badminton:bwf:99389"],"label":"Malacca","country":"Malaysia"},"geometry":{"type":"Polygon","coordinates":[[[106.411683,2.770303],[105.357168,7.303219],[100.801361,8.618891],[97.373041,5.289412],[98.560859,0.741795],[103.053645,-0.468955],[106.411683,2.770303]]]}},{"type":"Feature","properties":{"hex_id":"8165bffffffffff","population":97524895,"population_year":2025,"area_km2":707475.0,"population_density":137.8,"all_players":8,"players_per_million":0.08,"player_ids":["badminton:bwf:35642","badminton:bwf:58271","badminton:bwf:61731","badminton:bwf:64032","badminton:bwf:65674","badminton:bwf:84062","badminton:bwf:91422","badminton:bwf:92508"],"label":"Bangkok","country":"Thailand"},"geometry":{"type":"Polygon","coordinates":[[[108.772478,10.507688],[107.742624,15.063301],[103.137733,16.48245],[99.621042,13.236333],[100.801361,8.618891],[105.357168,7.303219],[108.772478,10.507688]]]}},{"type":"Feature","properties":{"hex_id":"81697ffffffffff","population":61355356,"population_year":2025,"area_km2":602082.0,"population_density":101.9,"all_players":1,"players_per_million":0.02,"player_ids":["badminton:bwf:62713"],"label":"Manila","country":"Philippines"},"geometry":{"type":"Polygon","coordinates":[[[115.517768,16.517912],[116.372319,12.105102],[117.720512,11.610617],[120.449366,10.736966],[123.854824,13.797501],[123.023555,18.12707],[118.803002,19.252195],[115.517768,16.517912]]]}},{"type":"Feature","properties":{"hex_id":"8172fffffffffff","population":4876529,"population_year":2025,"area_km2":707475.0,"population_density":6.9,"all_players":1,"players_per_million":0.21,"player_ids":["badminton:bwf:71408"],"label":"Jayapura","country":"Indonesia"},"geometry":{"type":"Polygon","coordinates":[[[138.74799,-0.171969],[139.508211,-4.809916],[143.897934,-6.411813],[147.519872,-3.454918],[146.828606,1.146471],[142.439975,2.835155],[138.74799,-0.171969]]]}},{"type":"Feature","properties":{"hex_id":"81803ffffffffff","population":18450764,"population_year":2025,"area_km2":729486.9,"population_density":25.3,"all_players":1,"players_per_million":0.05,"player_ids":["badminton:bwf:84897"],"label":"Teresina","country":"Brazil"},"geometry":{"type":"Polygon","coordinates":[[[-39.695155,-8.696744],[-37.243135,-4.606029],[-39.563133,-0.447483],[-44.322949,-0.356209],[-46.800487,-4.422917],[-44.509635,-8.604422],[-39.695155,-8.696744]]]}},{"type":"Feature","properties":{"hex_id":"818c3ffffffffff","population":79592304,"population_year":2025,"area_km2":595741.2,"population_density":133.6,"all_players":23,"players_per_million":0.29,"player_ids":["badminton:bwf:55669","badminton:bwf:60838","badminton:bwf:62542","badminton:bwf:65854","badminton:bwf:69193","badminton:bwf:72782","badminton:bwf:73442","badminton:bwf:76281","badminton:bwf:76890","badminton:bwf:81458","badminton:bwf:81702","badminton:bwf:82061","badminton:bwf:84786","badminton:bwf:87045","badminton:bwf:87259","badminton:bwf:87432","badminton:bwf:88097","badminton:bwf:88876","badminton:bwf:91440","badminton:bwf:91894","badminton:bwf:94567","badminton:bwf:95661","badminton:bwf:99781"],"label":"Jakarta","country":"Indonesia"},"geometry":{"type":"Polygon","coordinates":[[[109.36783,-9.939436],[108.415879,-5.894708],[104.12724,-4.821344],[100.834961,-7.941424],[101.922406,-11.987752],[106.173775,-12.921604],[109.36783,-9.939436]]]}},{"type":"Feature","properties":{"hex_id":"818cbffffffffff","population":19742294,"population_year":2025,"area_km2":647632.6,"population_density":30.5,"all_players":1,"players_per_million":0.05,"player_ids":["badminton:bwf:63571"],"label":"Jambi","country":"Indonesia"},"geometry":{"type":"Polygon","coordinates":[[[111.648325,-2.768743],[110.723994,1.535866],[106.411683,2.770303],[103.053645,-0.468955],[104.12724,-4.821344],[108.415879,-5.894708],[111.648325,-2.768743]]]}},{"type":"Feature","properties":{"hex_id":"818dbffffffffff","population":90532320,"population_year":2025,"area_km2":565620.1,"population_density":160.1,"all_players":20,"players_per_million":0.22,"player_ids":["badminton:bwf:57560","badminton:bwf:58089","badminton:bwf:60321","badminton:bwf:64055","badminton:bwf:64349","badminton:bwf:64600","badminton:bwf:64956","badminton:bwf:67761","badminton:bwf:68633","badminton:bwf:69006","badminton:bwf:72213","badminton:bwf:79077","badminton:bwf:79658","badminton:bwf:79664","badminton:bwf:80653","badminton:bwf:80886","badminton:bwf:82364","badminton:bwf:83802","badminton:bwf:86136","badminton:bwf:91130"],"label":"Klaten","country":"Indonesia"},"geometry":{"type":"Polygon","coordinates":[[[116.456435,-8.076966],[115.671728,-3.824532],[111.648325,-2.768743],[108.415879,-5.894708],[109.36783,-9.939436],[113.400655,-10.803502],[114.941529,-9.308112],[116.456435,-8.076966]]]}},{"type":"Feature","properties":{"hex_id":"81953ffffffffff","population":16534048,"population_year":2025,"area_km2":595741.2,"population_density":27.8,"all_players":2,"players_per_million":0.12,"player_ids":["badminton:bwf:81462","badminton:bwf:83699"],"label":"Gowa","country":"Indonesia"},"geometry":{"type":"Polygon","coordinates":[[[115.671728,-3.824532],[116.456435,-8.076966],[120.39857,-9.791751],[123.699174,-7.171745],[122.892848,-2.722889],[118.801447,-1.090818],[115.671728,-3.824532]]]}},{"type":"Feature","properties":{"hex_id":"81be7ffffffffff","population":7973734,"population_year":2025,"area_km2":707475.0,"population_density":11.3,"all_players":2,"players_per_million":0.25,"player_ids":["badminton:bwf:58488","badminton:bwf:71065"],"label":"Box Hill","country":"Australia"},"geometry":{"type":"Polygon","coordinates":[[[149.839959,-37.608844],[148.729494,-32.935272],[143.536871,-31.277795],[139.129671,-34.088237],[139.652226,-38.734209],[145.182884,-40.615783],[149.839959,-37.608844]]]}}]}