{"type":"FeatureCollection","metadata":{"population_source":"WorldPop Global 2 R2025A","population_source_url":"https://hub.worldpop.org/project/categories?id=3","population_license":"CC BY 4.0","population_year":2025,"raster_resolution":"1km","h3_resolution":1,"population_method":"official_country_rasters","occupied_cells":57,"mapped_players":349},"features":[{"type":"Feature","properties":{"hex_id":"81077ffffffffff","population":396051,"population_year":2025,"area_km2":523941.7,"population_density":0.8,"all_players":1,"players_per_million":2.52,"player_ids":["volleyball:women-184664"],"label":"Akureyri","country":"Iceland"},"geometry":{"type":"Polygon","coordinates":[[[-10.558792,67.153548],[-19.871381,68.67811],[-27.216822,65.518953],[-24.570766,61.430405],[-20.650926,60.988277],[-16.371962,60.568694],[-10.444978,63.095054],[-10.558792,67.153548]]]}},{"type":"Feature","properties":{"hex_id":"8111bffffffffff","population":41364282,"population_year":2025,"area_km2":565620.1,"population_density":73.1,"all_players":2,"players_per_million":0.05,"player_ids":["volleyball:men-148447","volleyball:men-158933"],"label":"Kharkiv","country":"Ukraine"},"geometry":{"type":"Polygon","coordinates":[[[30.654128,52.413789],[36.116724,49.779343],[42.136829,51.409437],[43.547482,55.820804],[37.661108,58.480663],[31.095814,56.470005],[31.017704,54.340219],[30.654128,52.413789]]]}},{"type":"Feature","properties":{"hex_id":"81127ffffffffff","population":908704,"population_year":2025,"area_km2":647632.6,"population_density":1.4,"all_players":1,"players_per_million":1.1,"player_ids":["volleyball:men-157588"],"label":"Athabasca","country":"Canada"},"geometry":{"type":"Polygon","coordinates":[[[-110.956309,59.515942],[-114.22928,55.478388],[-109.994611,51.754866],[-102.902298,51.556776],[-98.561848,55.218551],[-102.119965,59.471859],[-110.956309,59.515942]]]}},{"type":"Feature","properties":{"hex_id":"8112fffffffffff","population":5303773,"population_year":2025,"area_km2":565620.1,"population_density":9.4,"all_players":9,"players_per_million":1.7,"player_ids":["volleyball:men-162249","volleyball:men-162251","volleyball:men-168914","volleyball:men-168941","volleyball:men-169578","volleyball:women-168354","volleyball:women-174676","volleyball:women-174682","volleyball:women-191827"],"label":"Calgary","country":"Canada"},"geometry":{"type":"Polygon","coordinates":[[[-121.442455,54.91665],[-123.122866,50.984711],[-120.907545,49.395034],[-119.232215,47.804097],[-112.788004,48.011188],[-109.994611,51.754866],[-114.22928,55.478388],[-121.442455,54.91665]]]}},{"type":"Feature","properties":{"hex_id":"81187ffffffffff","population":21776966,"population_year":2025,"area_km2":595741.2,"population_density":36.6,"all_players":6,"players_per_million":0.28,"player_ids":["volleyball:men-132948","volleyball:men-136851","volleyball:men-180586","volleyball:men-186253","volleyball:women-162900","volleyball:women-189359"],"label":"Tours","country":"France"},"geometry":{"type":"Polygon","coordinates":[[[-4.88976,51.223728],[-9.724736,48.430094],[-8.101589,44.050631],[-2.417796,42.54048],[2.026569,45.184249],[1.18851,49.470279],[-4.88976,51.223728]]]}},{"type":"Feature","properties":{"hex_id":"81197ffffffffff","population":88036357,"population_year":2025,"area_km2":523941.7,"population_density":168.0,"all_players":23,"players_per_million":0.26,"player_ids":["volleyball:men-120735","volleyball:men-137337","volleyball:men-141546","volleyball:men-147956","volleyball:men-150703","volleyball:men-152494","volleyball:men-153711","volleyball:men-156678","volleyball:men-162829","volleyball:men-188782","volleyball:men-188784","volleyball:women-150809","volleyball:women-160209","volleyball:women-162356","volleyball:women-167778","volleyball:women-168148","volleyball:women-168161","volleyball:women-181248","volleyball:women-181275","volleyball:women-181636","volleyball:women-181644","volleyball:women-181650","volleyball:women-201620"],"label":"Apeldoorn","country":"Netherlands"},"geometry":{"type":"Polygon","coordinates":[[[-0.931587,57.689497],[-6.436337,55.37739],[-4.88976,51.223728],[1.18851,49.470279],[3.630009,50.610463],[6.259687,51.96477],[5.523647,55.706768],[-0.931587,57.689497]]]}},{"type":"Feature","properties":{"hex_id":"811e3ffffffffff","population":71057199,"population_year":2025,"area_km2":595741.2,"population_density":119.3,"all_players":45,"players_per_million":0.63,"player_ids":["volleyball:men-114956","volleyball:men-114957","volleyball:men-114962","volleyball:men-120324","volleyball:men-124911","volleyball:men-142678","volleyball:men-142679","volleyball:men-143794","volleyball:men-150742","volleyball:men-151390","volleyball:men-151391","volleyball:men-151404","volleyball:men-152352","volleyball:men-152866","volleyball:men-152872","volleyball:men-153387","volleyball:men-153389","volleyball:men-153395","volleyball:men-155920","volleyball:men-163563","volleyball:men-164124","volleyball:men-168715","volleyball:men-168747","volleyball:men-174256","volleyball:men-182325","volleyball:men-193299","volleyball:women-122391","volleyball:women-142297","volleyball:women-142304","volleyball:women-143463","volleyball:women-148070","volleyball:women-152217","volleyball:women-152232","volleyball:women-156480","volleyball:women-164099","volleyball:women-168823","volleyball:women-181204","volleyball:women-181268","volleyball:women-181277","volleyball:women-181963","volleyball:women-184022","volleyball:women-184298","volleyball:women-185457","volleyball:women-185611","volleyball:women-219224"],"label":"Maribor","country":"Poland"},"geometry":{"type":"Polygon","coordinates":[[[12.345747,50.554275],[12.677318,46.406957],[18.31474,44.47068],[24.013384,46.595885],[24.329,50.776322],[18.289963,52.819052],[12.345747,50.554275]]]}},{"type":"Feature","properties":{"hex_id":"811e7ffffffffff","population":33092235,"population_year":2025,"area_km2":595741.2,"population_density":55.5,"all_players":6,"players_per_million":0.18,"player_ids":["volleyball:men-148636","volleyball:men-157065","volleyball:men-170133","volleyball:men-176222","volleyball:men-176897","volleyball:men-196687"],"label":"Ozertsi","country":"Ukraine"},"geometry":{"type":"Polygon","coordinates":[[[24.329,50.776322],[24.013384,46.595885],[29.387082,44.107766],[35.197789,45.672385],[36.116724,49.779343],[30.654128,52.413789],[24.329,50.776322]]]}},{"type":"Feature","properties":{"hex_id":"811ebffffffffff","population":42059136,"population_year":2025,"area_km2":647632.6,"population_density":64.9,"all_players":14,"players_per_million":0.33,"player_ids":["volleyball:men-152388","volleyball:men-153200","volleyball:men-163028","volleyball:men-163033","volleyball:men-174076","volleyball:men-182292","volleyball:men-182436","volleyball:women-136701","volleyball:women-143372","volleyball:women-150441","volleyball:women-150840","volleyball:women-173402","volleyball:women-173731","volleyball:women-180467"],"label":"Cariati","country":"Italy"},"geometry":{"type":"Polygon","coordinates":[[[7.509948,43.786609],[8.045142,39.402136],[13.244313,37.523712],[18.32526,39.988178],[18.31474,44.47068],[12.677318,46.406957],[7.509948,43.786609]]]}},{"type":"Feature","properties":{"hex_id":"811efffffffffff","population":50991723,"population_year":2025,"area_km2":666617.1,"population_density":76.5,"all_players":37,"players_per_million":0.73,"player_ids":["volleyball:men-132022","volleyball:men-136515","volleyball:men-150382","volleyball:men-152537","volleyball:men-152619","volleyball:men-156676","volleyball:men-164160","volleyball:men-164163","volleyball:men-164985","volleyball:men-168268","volleyball:men-168269","volleyball:men-173250","volleyball:men-173251","volleyball:men-174445","volleyball:men-177006","volleyball:men-181605","volleyball:men-181806","volleyball:men-181809","volleyball:men-182150","volleyball:men-191376","volleyball:men-192041","volleyball:women-122541","volleyball:women-124202","volleyball:women-136812","volleyball:women-137087","volleyball:women-137941","volleyball:women-138283","volleyball:women-142478","volleyball:women-143548","volleyball:women-152168","volleyball:women-152176","volleyball:women-163141","volleyball:women-163982","volleyball:women-170613","volleyball:women-173179","volleyball:women-181205","volleyball:women-183499"],"label":"Sofia","country":"Bulgaria"},"geometry":{"type":"Polygon","coordinates":[[[18.31474,44.47068],[18.32526,39.988178],[23.474781,37.630343],[28.846869,39.643311],[29.387082,44.107766],[24.013384,46.595885],[18.31474,44.47068]]]}},{"type":"Feature","properties":{"hex_id":"811f3ffffffffff","population":49754999,"population_year":2025,"area_km2":510516.1,"population_density":97.5,"all_players":17,"players_per_million":0.34,"player_ids":["volleyball:men-150741","volleyball:men-152713","volleyball:men-174660","volleyball:women-136317","volleyball:women-150812","volleyball:women-150973","volleyball:women-151016","volleyball:women-153929","volleyball:women-157403","volleyball:women-163658","volleyball:women-163939","volleyball:women-181646","volleyball:women-181647","volleyball:women-182628","volleyball:women-183505","volleyball:women-204638","volleyball:women-209880"],"label":"Gorzów Wielkopolski","country":"Germany"},"geometry":{"type":"Polygon","coordinates":[[[5.523647,55.706768],[6.259687,51.96477],[12.345747,50.554275],[18.289963,52.819052],[18.275236,56.632953],[11.555978,58.130531],[5.523647,55.706768]]]}},{"type":"Feature","properties":{"hex_id":"811f7ffffffffff","population":25290714,"population_year":2025,"area_km2":523941.7,"population_density":48.3,"all_players":7,"players_per_million":0.28,"player_ids":["volleyball:men-142676","volleyball:men-152870","volleyball:men-163087","volleyball:women-163097","volleyball:women-163098","volleyball:women-164104","volleyball:women-181263"],"label":"Gdańsk","country":"Poland"},"geometry":{"type":"Polygon","coordinates":[[[18.275236,56.632953],[18.289963,52.819052],[24.329,50.776322],[30.654128,52.413789],[31.017704,54.340219],[31.095814,56.470005],[25.082722,58.401545],[18.275236,56.632953]]]}},{"type":"Feature","properties":{"hex_id":"811fbffffffffff","population":119418410,"population_year":2025,"area_km2":565620.1,"population_density":211.1,"all_players":34,"players_per_million":0.28,"player_ids":["volleyball:men-119804","volleyball:men-124865","volleyball:men-125073","volleyball:men-136442","volleyball:men-144005","volleyball:men-152349","volleyball:men-152370","volleyball:men-152408","volleyball:men-152469","volleyball:men-158881","volleyball:men-162520","volleyball:men-163592","volleyball:men-169039","volleyball:men-171191","volleyball:men-182299","volleyball:men-188030","volleyball:women-135880","volleyball:women-136694","volleyball:women-143370","volleyball:women-144980","volleyball:women-152042","volleyball:women-158238","volleyball:women-162903","volleyball:women-162999","volleyball:women-163616","volleyball:women-163661","volleyball:women-163664","volleyball:women-170698","volleyball:women-174577","volleyball:women-177765","volleyball:women-177914","volleyball:women-179014","volleyball:women-181272","volleyball:women-186339"],"label":"Paris","country":"Germany"},"geometry":{"type":"Polygon","coordinates":[[[1.18851,49.470279],[2.026569,45.184249],[7.509948,43.786609],[12.677318,46.406957],[12.345747,50.554275],[6.259687,51.96477],[3.630009,50.610463],[1.18851,49.470279]]]}},{"type":"Feature","properties":{"hex_id":"81267ffffffffff","population":25791718,"population_year":2025,"area_km2":602082.0,"population_density":42.8,"all_players":3,"players_per_million":0.12,"player_ids":["volleyball:women-143517","volleyball:women-143524","volleyball:women-200701"],"label":"Indianapolis","country":"United States"},"geometry":{"type":"Polygon","coordinates":[[[-88.065886,34.059836],[-84.585167,37.099589],[-85.703199,41.161269],[-91.476262,42.44496],[-92.81941,41.451207],[-95.246862,39.326803],[-93.265212,35.090108],[-88.065886,34.059836]]]}},{"type":"Feature","properties":{"hex_id":"81273ffffffffff","population":1973811,"population_year":2025,"area_km2":666617.1,"population_density":3.0,"all_players":1,"players_per_million":0.51,"player_ids":["volleyball:men-165212"],"label":"Winnipeg","country":"Canada"},"geometry":{"type":"Polygon","coordinates":[[[-98.561848,55.218551],[-102.902298,51.556776],[-99.917049,47.471519],[-93.395849,46.63002],[-88.654124,49.812423],[-90.651446,54.300916],[-98.561848,55.218551]]]}},{"type":"Feature","properties":{"hex_id":"81277ffffffffff","population":23070026,"population_year":2025,"area_km2":647632.6,"population_density":35.6,"all_players":2,"players_per_million":0.09,"player_ids":["volleyball:men-147721","volleyball:men-189158"],"label":"Wheaton","country":"United States"},"geometry":{"type":"Polygon","coordinates":[[[-88.654124,49.812423],[-93.395849,46.63002],[-91.476262,42.44496],[-85.703199,41.161269],[-80.982253,43.86012],[-81.919627,48.295316],[-88.654124,49.812423]]]}},{"type":"Feature","properties":{"hex_id":"8127bffffffffff","population":1471275,"population_year":2025,"area_km2":602082.0,"population_density":2.4,"all_players":1,"players_per_million":0.68,"player_ids":["volleyball:women-171920"],"label":"Billings","country":"United States"},"geometry":{"type":"Polygon","coordinates":[[[-109.994611,51.754866],[-112.788004,48.011188],[-109.788387,44.413071],[-103.535954,44.08338],[-102.323756,45.197628],[-99.917049,47.471519],[-102.902298,51.556776],[-109.994611,51.754866]]]}},{"type":"Feature","properties":{"hex_id":"81283ffffffffff","population":15759816,"population_year":2025,"area_km2":595741.2,"population_density":26.5,"all_players":3,"players_per_million":0.19,"player_ids":["volleyball:men-147473","volleyball:men-147542","volleyball:men-174807"],"label":"Greenbrae","country":"United States"},"geometry":{"type":"Polygon","coordinates":[[[-121.707157,36.574218],[-119.002282,40.570572],[-122.134831,44.057691],[-127.958662,43.419208],[-130.222638,39.442424],[-127.138101,36.079796],[-121.707157,36.574218]]]}},{"type":"Feature","properties":{"hex_id":"8128fffffffffff","population":14259378,"population_year":2025,"area_km2":523941.7,"population_density":27.2,"all_players":4,"players_per_million":0.28,"player_ids":["volleyball:men-140428","volleyball:men-183276","volleyball:women-168355","volleyball:women-173585"],"label":"Surrey","country":"Canada"},"geometry":{"type":"Polygon","coordinates":[[[-122.134831,44.057691],[-119.232215,47.804097],[-120.907545,49.395034],[-123.122866,50.984711],[-128.909854,50.154512],[-131.290159,46.416948],[-127.958662,43.419208],[-122.134831,44.057691]]]}},{"type":"Feature","properties":{"hex_id":"8129bffffffffff","population":31485482,"population_year":2025,"area_km2":666617.1,"population_density":47.2,"all_players":7,"players_per_million":0.22,"player_ids":["volleyball:men-147417","volleyball:men-182755","volleyball:men-183138","volleyball:men-213134","volleyball:men-213199","volleyball:women-157937","volleyball:women-184074"],"label":"Pacific Palisades","country":"United States"},"geometry":{"type":"Polygon","coordinates":[[[-113.268008,32.856905],[-110.257485,36.800197],[-113.046271,40.72062],[-119.002282,40.570572],[-121.707157,36.574218],[-118.804528,32.779438],[-113.268008,32.856905]]]}},{"type":"Feature","properties":{"hex_id":"812a3ffffffffff","population":39671228,"population_year":2025,"area_km2":595741.2,"population_density":66.6,"all_players":2,"players_per_million":0.05,"player_ids":["volleyball:men-169859","volleyball:women-181899"],"label":"New Egypt","country":"United States"},"geometry":{"type":"Polygon","coordinates":[[[-69.955068,44.277849],[-75.333452,42.029564],[-75.063317,37.849069],[-70.311412,35.933887],[-65.448142,37.822091],[-64.835193,41.948534],[-69.955068,44.277849]]]}},{"type":"Feature","properties":{"hex_id":"812bbffffffffff","population":23927662,"population_year":2025,"area_km2":666617.1,"population_density":35.9,"all_players":4,"players_per_million":0.17,"player_ids":["volleyball:men-168918","volleyball:men-183453","volleyball:women-153629","volleyball:women-175158"],"label":"Toronto","country":"Canada"},"geometry":{"type":"Polygon","coordinates":[[[-76.057729,50.990211],[-81.919627,48.295316],[-80.982253,43.86012],[-75.333452,42.029564],[-69.955068,44.277849],[-69.719479,48.757432],[-76.057729,50.990211]]]}},{"type":"Feature","properties":{"hex_id":"812c3ffffffffff","population":48394646,"population_year":2025,"area_km2":614937.0,"population_density":78.7,"all_players":3,"players_per_million":0.06,"player_ids":["volleyball:men-152742","volleyball:men-168551","volleyball:men-174373"],"label":"Urmia","country":"Iran"},"geometry":{"type":"Polygon","coordinates":[[[38.930218,38.400687],[43.074401,35.326156],[46.40451,36.114445],[48.114436,36.404919],[49.670644,40.636123],[45.504839,43.945519],[41.788831,43.124283],[39.938746,42.736298],[38.930218,38.400687]]]}},{"type":"Feature","properties":{"hex_id":"812cfffffffffff","population":40779359,"population_year":2025,"area_km2":647632.6,"population_density":63.0,"all_players":3,"players_per_million":0.07,"player_ids":["volleyball:men-152752","volleyball:men-152755","volleyball:men-182475"],"label":"Amol","country":"Iran"},"geometry":{"type":"Polygon","coordinates":[[[48.114436,36.404919],[51.71868,33.03025],[56.949853,33.546049],[59.150327,37.656443],[55.527294,41.39291],[49.670644,40.636123],[48.114436,36.404919]]]}},{"type":"Feature","properties":{"hex_id":"812d3ffffffffff","population":35376976,"population_year":2025,"area_km2":647632.6,"population_density":54.6,"all_players":8,"players_per_million":0.23,"player_ids":["volleyball:men-143816","volleyball:men-174213","volleyball:women-143585","volleyball:women-152263","volleyball:women-152312","volleyball:women-163091","volleyball:women-163116","volleyball:women-163975"],"label":"Ankara","country":"Turkey"},"geometry":{"type":"Polygon","coordinates":[[[29.387082,44.107766],[28.846869,39.643311],[33.614584,36.858664],[38.930218,38.400687],[39.938746,42.736298],[35.197789,45.672385],[29.387082,44.107766]]]}},{"type":"Feature","properties":{"hex_id":"812dbffffffffff","population":70393013,"population_year":2025,"area_km2":666617.1,"population_density":105.6,"all_players":2,"players_per_million":0.03,"player_ids":["volleyball:men-164158","volleyball:women-163094"],"label":"Reyhanlı","country":"Turkey"},"geometry":{"type":"Polygon","coordinates":[[[33.614584,36.858664],[32.928331,32.240102],[37.164282,29.339076],[42.026294,30.891357],[43.074401,35.326156],[38.930218,38.400687],[33.614584,36.858664]]]}},{"type":"Feature","properties":{"hex_id":"812e3ffffffffff","population":12920451,"population_year":2025,"area_km2":595741.2,"population_density":21.7,"all_players":5,"players_per_million":0.39,"player_ids":["volleyball:men-142565","volleyball:men-163042","volleyball:men-189192","volleyball:women-162224","volleyball:women-187809"],"label":"Zaō-machi","country":"Japan"},"geometry":{"type":"Polygon","coordinates":[[[148.856926,38.18238],[147.817284,42.633407],[142.305844,43.816095],[138.515018,40.617501],[139.948213,36.441778],[144.831325,35.18743],[148.856926,38.18238]]]}},{"type":"Feature","properties":{"hex_id":"812e7ffffffffff","population":52072688,"population_year":2025,"area_km2":510516.1,"population_density":102.0,"all_players":11,"players_per_million":0.21,"player_ids":["volleyball:men-142568","volleyball:men-146409","volleyball:men-163516","volleyball:men-178762","volleyball:men-209863","volleyball:women-146519","volleyball:women-162206","volleyball:women-162218","volleyball:women-162227","volleyball:women-174243","volleyball:women-190513"],"label":"Okazaki","country":"Japan"},"geometry":{"type":"Polygon","coordinates":[[[139.948213,36.441778],[138.515018,40.617501],[133.570126,41.410447],[130.657533,38.194564],[132.308377,34.331159],[136.697641,33.378798],[139.948213,36.441778]]]}},{"type":"Feature","properties":{"hex_id":"812f7ffffffffff","population":38419612,"population_year":2025,"area_km2":565620.1,"population_density":67.9,"all_players":7,"players_per_million":0.18,"player_ids":["volleyball:men-192353","volleyball:men-192453","volleyball:women-141953","volleyball:women-151944","volleyball:women-163040","volleyball:women-189525","volleyball:women-190503"],"label":"Kanagawa Prefecture","country":"Japan"},"geometry":{"type":"Polygon","coordinates":[[[145.91104,30.789834],[144.831325,35.18743],[139.948213,36.441778],[136.697641,33.378798],[137.3956,31.331749],[137.800087,29.424814],[142.433222,27.949606],[145.91104,30.789834]]]}},{"type":"Feature","properties":{"hex_id":"8130bffffffffff","population":241379936,"population_year":2025,"area_km2":447684.2,"population_density":539.2,"all_players":1,"players_per_million":0.0,"player_ids":["volleyball:women-143206"],"label":"Lianyungang","country":"People's Republic of China"},"geometry":{"type":"Polygon","coordinates":[[[124.020556,32.661445],[123.162765,36.005614],[121.690154,36.205283],[118.869299,37.429854],[115.340961,35.522424],[116.2613,31.680908],[120.503394,29.892985],[124.020556,32.661445]]]}},{"type":"Feature","properties":{"hex_id":"8130fffffffffff","population":61653931,"population_year":2025,"area_km2":447684.2,"population_density":137.7,"all_players":5,"players_per_million":0.08,"player_ids":["volleyball:men-142562","volleyball:men-142570","volleyball:men-200705","volleyball:women-162223","volleyball:women-163760"],"label":"Hagi","country":"Japan"},"geometry":{"type":"Polygon","coordinates":[[[123.162765,36.005614],[124.020556,32.661445],[128.534469,31.786712],[132.308377,34.331159],[130.657533,38.194564],[126.346943,38.738746],[125.585234,37.691245],[123.162765,36.005614]]]}},{"type":"Feature","properties":{"hex_id":"81397ffffffffff","population":31465600,"population_year":2025,"area_km2":602082.0,"population_density":52.3,"all_players":10,"players_per_million":0.32,"player_ids":["volleyball:men-142686","volleyball:men-164897","volleyball:men-186251","volleyball:men-203390","volleyball:women-151231","volleyball:women-162899","volleyball:women-168983","volleyball:women-182123","volleyball:women-182124","volleyball:women-188044"],"label":"Nice","country":"France"},"geometry":{"type":"Polygon","coordinates":[[[-2.417796,42.54048],[-1.416234,38.115997],[0.238716,37.588846],[3.543589,36.597898],[8.045142,39.402136],[7.509948,43.786609],[2.026569,45.184249],[-2.417796,42.54048]]]}},{"type":"Feature","properties":{"hex_id":"813f7ffffffffff","population":23244108,"population_year":2025,"area_km2":707475.0,"population_density":32.9,"all_players":2,"players_per_million":0.09,"player_ids":["volleyball:men-143804","volleyball:women-143590"],"label":"İzmir","country":"Turkey"},"geometry":{"type":"Polygon","coordinates":[[[23.474781,37.630343],[23.243175,32.934452],[27.91173,30.313709],[32.928331,32.240102],[33.614584,36.858664],[28.846869,39.643311],[23.474781,37.630343]]]}},{"type":"Feature","properties":{"hex_id":"81417ffffffffff","population":92690818,"population_year":2025,"area_km2":666617.1,"population_density":139.0,"all_players":1,"players_per_million":0.01,"player_ids":["volleyball:women-123019"],"label":"Nakhon Phanom","country":"Thailand"},"geometry":{"type":"Polygon","coordinates":[[[111.205113,18.077041],[110.205767,22.499632],[105.568,24.011141],[101.970677,21.002365],[103.137733,16.48245],[107.742624,15.063301],[111.205113,18.077041]]]}},{"type":"Feature","properties":{"hex_id":"81443ffffffffff","population":10265740,"population_year":2025,"area_km2":595741.2,"population_density":17.2,"all_players":3,"players_per_million":0.29,"player_ids":["volleyball:men-114422","volleyball:men-137102","volleyball:men-147263"],"label":"Havana","country":"Cuba"},"geometry":{"type":"Polygon","coordinates":[[[-83.891248,21.244199],[-80.82969,24.429618],[-81.966494,28.631807],[-86.545778,29.759287],[-89.807712,26.426478],[-88.2959,22.120731],[-83.891248,21.244199]]]}},{"type":"Feature","properties":{"hex_id":"81447ffffffffff","population":18780862,"population_year":2025,"area_km2":647632.6,"population_density":29.0,"all_players":4,"players_per_million":0.21,"player_ids":["volleyball:women-132247","volleyball:women-189583","volleyball:women-192906","volleyball:women-210045"],"label":"Baton Rouge","country":"United States"},"geometry":{"type":"Polygon","coordinates":[[[-89.807712,26.426478],[-86.545778,29.759287],[-88.065886,34.059836],[-93.265212,35.090108],[-96.66289,31.619531],[-94.743568,27.264006],[-89.807712,26.426478]]]}},{"type":"Feature","properties":{"hex_id":"8144bffffffffff","population":13618822,"population_year":2025,"area_km2":510516.1,"population_density":26.7,"all_players":2,"players_per_million":0.15,"player_ids":["volleyball:women-152195","volleyball:women-205186"],"label":"Lake Worth Beach","country":"United States"},"geometry":{"type":"Polygon","coordinates":[[[-76.831217,23.342863],[-73.868279,26.190449],[-74.640468,30.219492],[-78.735928,31.57726],[-81.966494,28.631807],[-80.82969,24.429618],[-76.831217,23.342863]]]}},{"type":"Feature","properties":{"hex_id":"8145bffffffffff","population":6770206,"population_year":2025,"area_km2":523941.7,"population_density":12.9,"all_players":4,"players_per_million":0.59,"player_ids":["volleyball:men-151817","volleyball:men-151821","volleyball:men-157318","volleyball:women-143339"],"label":"Cienfuegos","country":"Cuba"},"geometry":{"type":"Polygon","coordinates":[[[-78.539302,16.469566],[-75.998548,19.358823],[-76.831217,23.342863],[-80.82969,24.429618],[-83.891248,21.244199],[-82.727942,17.133437],[-80.745134,16.733205],[-78.539302,16.469566]]]}},{"type":"Feature","properties":{"hex_id":"8148fffffffffff","population":14949273,"population_year":2025,"area_km2":707475.0,"population_density":21.1,"all_players":2,"players_per_million":0.13,"player_ids":["volleyball:men-213198","volleyball:women-147590"],"label":"Rio Rancho","country":"United States"},"geometry":{"type":"Polygon","coordinates":[[[-105.250678,28.43866],[-102.093235,32.268747],[-104.454816,36.494369],[-110.257485,36.800197],[-113.268008,32.856905],[-110.662618,28.72381],[-105.250678,28.43866]]]}},{"type":"Feature","properties":{"hex_id":"814b3ffffffffff","population":20288404,"population_year":2025,"area_km2":510516.1,"population_density":39.7,"all_players":1,"players_per_million":0.05,"player_ids":["volleyball:men-142581"],"label":"Ningbo","country":"People's Republic of China"},"geometry":{"type":"Polygon","coordinates":[[[120.503394,29.892985],[121.347514,26.200276],[125.719882,25.218062],[129.381002,28.043997],[128.534469,31.786712],[124.020556,32.661445],[120.503394,29.892985]]]}},{"type":"Feature","properties":{"hex_id":"814b7ffffffffff","population":8198106,"population_year":2025,"area_km2":523941.7,"population_density":15.6,"all_players":4,"players_per_million":0.49,"player_ids":["volleyball:men-163038","volleyball:men-172192","volleyball:men-189064","volleyball:men-205047"],"label":"Kumamoto","country":"Japan"},"geometry":{"type":"Polygon","coordinates":[[[128.534469,31.786712],[129.381002,28.043997],[133.976139,26.829336],[137.800087,29.424814],[137.3956,31.331749],[136.697641,33.378798],[132.308377,34.331159],[128.534469,31.786712]]]}},{"type":"Feature","properties":{"hex_id":"814cbffffffffff","population":7978932,"population_year":2025,"area_km2":447684.2,"population_density":17.8,"all_players":2,"players_per_million":0.25,"player_ids":["volleyball:men-119646","volleyball:men-147273"],"label":"Holguin","country":"Cuba"},"geometry":{"type":"Polygon","coordinates":[[[-71.730136,18.713931],[-69.383269,21.326184],[-69.980891,22.397527],[-70.339044,24.945216],[-73.868279,26.190449],[-76.831217,23.342863],[-75.998548,19.358823],[-71.730136,18.713931]]]}},{"type":"Feature","properties":{"hex_id":"814cfffffffffff","population":13993933,"population_year":2025,"area_km2":447684.2,"population_density":31.3,"all_players":8,"players_per_million":0.57,"player_ids":["volleyball:women-119224","volleyball:women-119585","volleyball:women-123978","volleyball:women-123982","volleyball:women-139910","volleyball:women-139927","volleyball:women-149530","volleyball:women-183317"],"label":"Santo Domingo","country":"Dominican Republic"},"geometry":{"type":"Polygon","coordinates":[[[-69.383269,21.326184],[-71.730136,18.713931],[-69.89993,15.209504],[-65.768822,14.482401],[-63.616,18.007411],[-65.407239,20.979704],[-66.686099,20.812431],[-69.383269,21.326184]]]}},{"type":"Feature","properties":{"hex_id":"8154bffffffffff","population":6936761,"population_year":2025,"area_km2":595741.2,"population_density":11.6,"all_players":1,"players_per_million":0.14,"player_ids":["volleyball:men-181197"],"label":"Dakar","country":"Senegal"},"geometry":{"type":"Polygon","coordinates":[[[-22.644744,17.902725],[-25.454791,14.423931],[-23.629131,10.672391],[-19.256081,10.227431],[-16.398619,13.434493],[-17.936911,17.348672],[-22.644744,17.902725]]]}},{"type":"Feature","properties":{"hex_id":"815e7ffffffffff","population":716269,"population_year":2025,"area_km2":510516.1,"population_density":1.4,"all_players":1,"players_per_million":1.4,"player_ids":["volleyball:women-168986"],"label":"Baie-Mahault","country":"France"},"geometry":{"type":"Polygon","coordinates":[[[-59.834917,11.355368],[-57.535307,15.054266],[-59.510088,18.366344],[-63.616,18.007411],[-65.768822,14.482401],[-63.969049,11.14894],[-59.834917,11.355368]]]}},{"type":"Feature","properties":{"hex_id":"815f7ffffffffff","population":6903837,"population_year":2025,"area_km2":565620.1,"population_density":12.2,"all_players":1,"players_per_million":0.14,"player_ids":["volleyball:women-122646"],"label":"Mount Hope","country":"Trinidad and Tobago"},"geometry":{"type":"Polygon","coordinates":[[[-60.165868,3.84262],[-57.846431,7.694211],[-59.834917,11.355368],[-63.969049,11.14894],[-65.058471,9.308112],[-66.195256,7.728775],[-64.328272,3.824532],[-60.165868,3.84262]]]}},{"type":"Feature","properties":{"hex_id":"8164bffffffffff","population":56913507,"population_year":2025,"area_km2":707475.0,"population_density":80.4,"all_players":4,"players_per_million":0.07,"player_ids":["volleyball:women-142174","volleyball:women-152179","volleyball:women-152205","volleyball:women-183330"],"label":"Khon Kaen","country":"Thailand"},"geometry":{"type":"Polygon","coordinates":[[[103.137733,16.48245],[101.970677,21.002365],[97.148502,22.297036],[93.60132,19.035204],[94.893577,14.501203],[99.621042,13.236333],[103.137733,16.48245]]]}},{"type":"Feature","properties":{"hex_id":"8165bffffffffff","population":97524895,"population_year":2025,"area_km2":707475.0,"population_density":137.8,"all_players":4,"players_per_million":0.04,"player_ids":["volleyball:women-142172","volleyball:women-145244","volleyball:women-147213","volleyball:women-174980"],"label":"Buri Ram","country":"Thailand"},"geometry":{"type":"Polygon","coordinates":[[[108.772478,10.507688],[107.742624,15.063301],[103.137733,16.48245],[99.621042,13.236333],[100.801361,8.618891],[105.357168,7.303219],[108.772478,10.507688]]]}},{"type":"Feature","properties":{"hex_id":"8181bffffffffff","population":21939270,"population_year":2025,"area_km2":707475.0,"population_density":31.0,"all_players":1,"players_per_million":0.05,"player_ids":["volleyball:men-161930"],"label":"Campina Grande","country":"Brazil"},"geometry":{"type":"Polygon","coordinates":[[[-32.577536,-12.754155],[-30.225126,-8.70174],[-32.528268,-4.64962],[-37.243135,-4.606029],[-39.695155,-8.696744],[-37.348487,-12.792371],[-32.577536,-12.754155]]]}},{"type":"Feature","properties":{"hex_id":"81a83ffffffffff","population":63293155,"population_year":2025,"area_km2":595741.2,"population_density":106.2,"all_players":6,"players_per_million":0.09,"player_ids":["volleyball:men-178341","volleyball:women-119575","volleyball:women-136897","volleyball:women-151187","volleyball:women-152119","volleyball:women-163000"],"label":"São Paulo","country":"Brazil"},"geometry":{"type":"Polygon","coordinates":[[[-47.461171,-27.760044],[-44.896021,-24.304788],[-47.235943,-20.470042],[-52.046783,-20.176039],[-54.552341,-23.657242],[-52.323074,-27.407025],[-47.461171,-27.760044]]]}},{"type":"Feature","properties":{"hex_id":"81a8bffffffffff","population":38630964,"population_year":2025,"area_km2":647632.6,"population_density":59.6,"all_players":4,"players_per_million":0.1,"player_ids":["volleyball:men-136468","volleyball:men-136947","volleyball:women-136896","volleyball:women-173849"],"label":"Contagem","country":"Brazil"},"geometry":{"type":"Polygon","coordinates":[[[-39.968603,-24.399277],[-37.456339,-20.657406],[-39.830275,-16.779215],[-44.70061,-16.685821],[-47.235943,-20.470042],[-44.896021,-24.304788],[-39.968603,-24.399277]]]}},{"type":"Feature","properties":{"hex_id":"81a8fffffffffff","population":14363422,"population_year":2025,"area_km2":666617.1,"population_density":21.5,"all_players":2,"players_per_million":0.14,"player_ids":["volleyball:men-164313","volleyball:women-173848"],"label":"Brasília","country":"Brazil"},"geometry":{"type":"Polygon","coordinates":[[[-47.235943,-20.470042],[-44.70061,-16.685821],[-47.015769,-12.607157],[-51.776426,-12.387612],[-54.256132,-16.171868],[-52.046783,-20.176039],[-47.235943,-20.470042]]]}},{"type":"Feature","properties":{"hex_id":"81a93ffffffffff","population":11046986,"population_year":2025,"area_km2":510516.1,"population_density":21.6,"all_players":1,"players_per_million":0.09,"player_ids":["volleyball:men-142744"],"label":"Caxias do Sul","country":"Brazil"},"geometry":{"type":"Polygon","coordinates":[[[-47.691623,-34.331159],[-45.096018,-31.259854],[-47.461171,-27.760044],[-52.323074,-27.407025],[-54.854902,-30.51203],[-52.605486,-33.936306],[-47.691623,-34.331159]]]}},{"type":"Feature","properties":{"hex_id":"81b27ffffffffff","population":8941500,"population_year":2025,"area_km2":510516.1,"population_density":17.5,"all_players":2,"players_per_million":0.22,"player_ids":["volleyball:men-142420","volleyball:men-182708"],"label":"Córdoba","country":"Argentina"},"geometry":{"type":"Polygon","coordinates":[[[-66.068669,-26.766212],[-68.710054,-30.4154],[-66.569458,-33.770896],[-61.882735,-33.439024],[-59.496606,-29.892985],[-61.529913,-26.578843],[-66.068669,-26.766212]]]}},{"type":"Feature","properties":{"hex_id":"81b2fffffffffff","population":17138003,"population_year":2025,"area_km2":523941.7,"population_density":32.7,"all_players":2,"players_per_million":0.12,"player_ids":["volleyball:men-142415","volleyball:men-152692"],"label":"General Alvear","country":"Argentina"},"geometry":{"type":"Polygon","coordinates":[[[-73.644747,-30.428475],[-76.580606,-33.882664],[-75.495684,-35.604157],[-74.031951,-37.379975],[-69.305389,-37.163896],[-66.569458,-33.770896],[-68.710054,-30.4154],[-73.644747,-30.428475]]]}},{"type":"Feature","properties":{"hex_id":"81c2fffffffffff","population":24752838,"population_year":2025,"area_km2":447684.2,"population_density":55.3,"all_players":2,"players_per_million":0.08,"player_ids":["volleyball:men-162546","volleyball:men-163555"],"label":"Buenos Aires","country":"Argentina"},"geometry":{"type":"Polygon","coordinates":[[[-55.164004,-36.642936],[-52.605486,-33.936306],[-54.854902,-30.51203],[-59.496606,-29.892985],[-61.882735,-33.439024],[-59.788176,-36.394827],[-58.309846,-36.205283],[-55.164004,-36.642936]]]}},{"type":"Feature","properties":{"hex_id":"81c37ffffffffff","population":2105932,"population_year":2025,"area_km2":447684.2,"population_density":4.7,"all_players":1,"players_per_million":0.47,"player_ids":["volleyball:men-142411"],"label":"General Villegas Partido","country":"Argentina"},"geometry":{"type":"Polygon","coordinates":[[[-66.569458,-33.770896],[-69.305389,-37.163896],[-66.103092,-40.399611],[-61.702806,-39.800882],[-61.417115,-38.614967],[-59.788176,-36.394827],[-61.882735,-33.439024],[-66.569458,-33.770896]]]}}]}