{"type":"FeatureCollection","metadata":{"population_source":"WorldPop Global 2 R2025A","population_source_url":"https://hub.worldpop.org/project/categories?id=3","population_license":"CC BY 4.0","population_year":2025,"raster_resolution":"1km","h3_resolution":3,"population_method":"official_country_rasters","occupied_cells":197,"mapped_players":349},"features":[{"type":"Feature","properties":{"hex_id":"830746fffffffff","population":25587,"population_year":2025,"area_km2":10691.6,"population_density":2.4,"all_players":1,"players_per_million":39.08,"player_ids":["volleyball:women-184664"],"label":"Akureyri","country":"Iceland"},"geometry":{"type":"Polygon","coordinates":[[[-16.292832,65.901152],[-17.546112,66.095565],[-18.602733,65.687078],[-18.386232,65.095046],[-17.1693,64.912286],[-16.132896,65.310142],[-16.292832,65.901152]]]}},{"type":"Feature","properties":{"hex_id":"831196fffffffff","population":2285765,"population_year":2025,"area_km2":11481.1,"population_density":199.1,"all_players":2,"players_per_million":0.87,"player_ids":["volleyball:men-148447","volleyball:men-158933"],"label":"Kharkiv","country":"Ukraine"},"geometry":{"type":"Polygon","coordinates":[[[35.368851,50.173554],[36.116724,49.779343],[36.931433,50.025114],[37.034158,50.647341],[36.300322,51.020528],[35.476624,50.766895],[35.435884,50.45735],[35.368851,50.173554]]]}},{"type":"Feature","properties":{"hex_id":"831252fffffffff","population":26867,"population_year":2025,"area_km2":12437.2,"population_density":2.2,"all_players":1,"players_per_million":37.22,"player_ids":["volleyball:men-157588"],"label":"Athabasca","country":"Canada"},"geometry":{"type":"Polygon","coordinates":[[[-113.577436,54.956271],[-113.98698,54.389897],[-113.357086,53.867769],[-112.322435,53.901131],[-111.88801,54.462103],[-112.512541,54.995215],[-113.577436,54.956271]]]}},{"type":"Feature","properties":{"hex_id":"8312ccfffffffff","population":1434940,"population_year":2025,"area_km2":11792.7,"population_density":121.7,"all_players":4,"players_per_million":2.79,"player_ids":["volleyball:men-162249","volleyball:men-169578","volleyball:women-174676","volleyball:women-174682"],"label":"Calgary","country":"Canada"},"geometry":{"type":"Polygon","coordinates":[[[-114.293343,51.131925],[-114.651332,50.586397],[-114.07578,50.077443],[-113.145489,50.103732],[-112.766876,50.644307],[-113.338768,51.163639],[-114.293343,51.131925]]]}},{"type":"Feature","properties":{"hex_id":"8312d1fffffffff","population":331137,"population_year":2025,"area_km2":11027.4,"population_density":30.0,"all_players":2,"players_per_million":6.04,"player_ids":["volleyball:men-162251","volleyball:men-168914"],"label":"Kelowna","country":"Canada"},"geometry":{"type":"Polygon","coordinates":[[[-119.836639,50.791992],[-120.099892,50.24566],[-119.485269,49.775657],[-118.605861,49.842162],[-118.32059,50.385511],[-118.936452,50.86545],[-119.836639,50.791992]]]}},{"type":"Feature","properties":{"hex_id":"8312ddfffffffff","population":55805,"population_year":2025,"area_km2":11273.1,"population_density":5.0,"all_players":1,"players_per_million":17.92,"player_ids":["volleyball:women-168354"],"label":"Cranbrook","country":"Canada"},"geometry":{"type":"Polygon","coordinates":[[[-116.819507,49.956301],[-117.125974,49.416475],[-116.546731,48.927839],[-115.661973,48.969051],[-115.335197,49.504832],[-115.913157,50.003546],[-116.819507,49.956301]]]}},{"type":"Feature","properties":{"hex_id":"8312ecfffffffff","population":1213661,"population_year":2025,"area_km2":12318.9,"population_density":98.5,"all_players":2,"players_per_million":1.65,"player_ids":["volleyball:men-168941","volleyball:women-191827"],"label":"Avonmore","country":"Canada"},"geometry":{"type":"Polygon","coordinates":[[[-113.357086,53.867769],[-113.75854,53.307435],[-113.149207,52.785782],[-112.143154,52.813741],[-111.718367,53.368661],[-112.322435,53.901131],[-113.357086,53.867769]]]}},{"type":"Feature","properties":{"hex_id":"831863fffffffff","population":1308894,"population_year":2025,"area_km2":11754.3,"population_density":111.4,"all_players":2,"players_per_million":1.53,"player_ids":["volleyball:women-162900","volleyball:women-189359"],"label":"Rennes","country":"France"},"geometry":{"type":"Polygon","coordinates":[[[-1.70924,48.674191],[-2.39122,48.306043],[-2.226613,47.68955],[-1.396608,47.443512],[-0.723924,47.808976],[-0.871944,48.423111],[-1.70924,48.674191]]]}},{"type":"Feature","properties":{"hex_id":"831868fffffffff","population":630951,"population_year":2025,"area_km2":11640.2,"population_density":54.2,"all_players":1,"players_per_million":1.58,"player_ids":["volleyball:men-136851"],"label":"Poitiers","country":"France"},"geometry":{"type":"Polygon","coordinates":[[[0.226253,46.938132],[-0.436987,46.575197],[-0.297888,45.955847],[0.488948,45.702291],[1.142642,46.06284],[1.019027,46.679286],[0.226253,46.938132]]]}},{"type":"Feature","properties":{"hex_id":"83186afffffffff","population":958526,"population_year":2025,"area_km2":11889.7,"population_density":80.6,"all_players":1,"players_per_million":1.04,"player_ids":["volleyball:men-132948"],"label":"Royan","country":"France"},"geometry":{"type":"Polygon","coordinates":[[[-1.245119,46.825327],[-1.907502,46.450836],[-1.752798,45.828917],[-0.951317,45.584011],[-0.297888,45.955847],[-0.436987,46.575197],[-1.245119,46.825327]]]}},{"type":"Feature","properties":{"hex_id":"83186cfffffffff","population":913316,"population_year":2025,"area_km2":11454.2,"population_density":79.7,"all_players":2,"players_per_million":2.19,"player_ids":["volleyball:men-180586","volleyball:men-186253"],"label":"Tours","country":"France"},"geometry":{"type":"Polygon","coordinates":[[[0.764026,47.90745],[0.090797,47.553677],[0.226253,46.938132],[1.019027,46.679286],[1.682214,47.030807],[1.562644,47.64338],[0.764026,47.90745]]]}},{"type":"Feature","properties":{"hex_id":"831948fffffffff","population":1353290,"population_year":2025,"area_km2":10891.0,"population_density":124.3,"all_players":1,"players_per_million":0.74,"player_ids":["volleyball:men-152494"],"label":"Coudekerque-Branche","country":"France"},"geometry":{"type":"Polygon","coordinates":[[[1.505381,51.605101],[0.789471,51.278095],[0.925401,50.677831],[1.759362,50.407376],[2.463609,50.732311],[2.345517,51.329719],[1.505381,51.605101]]]}},{"type":"Feature","properties":{"hex_id":"83194dfffffffff","population":3875640,"population_year":2025,"area_km2":10650.2,"population_density":363.9,"all_players":3,"players_per_million":0.77,"player_ids":["volleyball:men-120735","volleyball:women-168161","volleyball:women-181275"],"label":"Tourcoing","country":"Belgium"},"geometry":{"type":"Polygon","coordinates":[[[3.060444,51.644656],[2.345517,51.329719],[2.463609,50.732311],[3.279015,50.452975],[3.630009,50.610463],[3.996418,50.807584],[3.881134,51.360376],[3.060444,51.644656]]]}},{"type":"Feature","properties":{"hex_id":"83195bfffffffff","population":1404618,"population_year":2025,"area_km2":11602.6,"population_density":121.1,"all_players":1,"players_per_million":0.71,"player_ids":["volleyball:women-162356"],"label":"Stogumber","country":"United Kingdom"},"geometry":{"type":"Polygon","coordinates":[[[-3.269136,51.354012],[-3.981187,50.989554],[-3.790778,50.382829],[-2.906528,50.142292],[-2.20387,50.503806],[-2.376039,51.108741],[-3.269136,51.354012]]]}},{"type":"Feature","properties":{"hex_id":"83195dfffffffff","population":9049238,"population_year":2025,"area_km2":11149.1,"population_density":811.7,"all_players":1,"players_per_million":0.11,"player_ids":["volleyball:men-137337"],"label":"Reading","country":"United Kingdom"},"geometry":{"type":"Polygon","coordinates":[[[-1.103494,52.402317],[-1.830112,52.060429],[-1.661533,51.460545],[-0.785076,51.204689],[-0.069294,51.543996],[-0.219137,52.141681],[-1.103494,52.402317]]]}},{"type":"Feature","properties":{"hex_id":"831968fffffffff","population":1217337,"population_year":2025,"area_km2":10260.8,"population_density":118.6,"all_players":3,"players_per_million":2.46,"player_ids":["volleyball:men-153711","volleyball:men-156678","volleyball:women-168148"],"label":"Schagen","country":"Netherlands"},"geometry":{"type":"Polygon","coordinates":[[[4.302502,53.422988],[3.565733,53.128505],[3.67324,52.541669],[4.225481,52.349359],[4.515848,52.296999],[5.280448,52.68056],[5.171662,53.221433],[4.58117,53.325469],[4.302502,53.422988]]]}},{"type":"Feature","properties":{"hex_id":"831969fffffffff","population":7268023,"population_year":2025,"area_km2":10482.3,"population_density":693.4,"all_players":9,"players_per_million":1.24,"player_ids":["volleyball:men-147956","volleyball:men-150703","volleyball:men-162829","volleyball:men-188784","volleyball:women-150809","volleyball:women-181248","volleyball:women-181636","volleyball:women-181650","volleyball:women-201620"],"label":"Apeldoorn","country":"Netherlands"},"geometry":{"type":"Polygon","coordinates":[[[4.515848,52.296999],[4.628032,51.750066],[5.492877,51.584097],[6.259687,51.96477],[6.159603,52.514255],[5.280448,52.68056],[4.515848,52.296999]]]}},{"type":"Feature","properties":{"hex_id":"83196bfffffffff","population":3269727,"population_year":2025,"area_km2":10449.9,"population_density":312.9,"all_players":1,"players_per_million":0.31,"player_ids":["volleyball:men-141546"],"label":"Schiedam","country":"Netherlands"},"geometry":{"type":"Polygon","coordinates":[[[3.67324,52.541669],[2.947471,52.236888],[3.060444,51.644656],[3.881134,51.360376],[4.628032,51.750066],[4.515848,52.296999],[4.225481,52.349359],[3.67324,52.541669]]]}},{"type":"Feature","properties":{"hex_id":"83196dfffffffff","population":1707984,"population_year":2025,"area_km2":10331.1,"population_density":165.3,"all_players":3,"players_per_million":1.76,"player_ids":["volleyball:men-188782","volleyball:women-167778","volleyball:women-181644"],"label":"Enkhuizen","country":"Netherlands"},"geometry":{"type":"Polygon","coordinates":[[[5.171662,53.221433],[5.280448,52.68056],[6.159603,52.514255],[6.944351,52.888298],[6.848229,53.43156],[5.954532,53.598437],[5.171662,53.221433]]]}},{"type":"Feature","properties":{"hex_id":"831e03fffffffff","population":3409653,"population_year":2025,"area_km2":12423.2,"population_density":274.5,"all_players":1,"players_per_million":0.29,"player_ids":["volleyball:men-120324"],"label":"Budapest","country":"Hungary"},"geometry":{"type":"Polygon","coordinates":[[[18.304795,48.159109],[18.306518,47.555293],[19.12677,47.262899],[19.952961,47.57214],[19.964297,48.176504],[19.136367,48.471139],[18.304795,48.159109]]]}},{"type":"Feature","properties":{"hex_id":"831e04fffffffff","population":1817549,"population_year":2025,"area_km2":11948.5,"population_density":152.1,"all_players":1,"players_per_million":0.55,"player_ids":["volleyball:women-168823"],"label":"Přerov","country":"Czech Republic"},"geometry":{"type":"Polygon","coordinates":[[[16.606047,49.899182],[16.621447,49.310134],[17.464633,49.038043],[18.301266,49.352938],[18.299459,49.942801],[17.447388,50.217015],[16.606047,49.899182]]]}},{"type":"Feature","properties":{"hex_id":"831e06fffffffff","population":2442016,"population_year":2025,"area_km2":12134.7,"population_density":201.2,"all_players":1,"players_per_million":0.41,"player_ids":["volleyball:women-184022"],"label":"Brno","country":"Czech Republic"},"geometry":{"type":"Polygon","coordinates":[[[15.795773,48.983666],[15.817384,48.388123],[16.651518,48.117989],[17.473049,48.4415],[17.464633,49.038043],[16.621447,49.310134],[15.795773,48.983666]]]}},{"type":"Feature","properties":{"hex_id":"831e10fffffffff","population":1516552,"population_year":2025,"area_km2":12479.4,"population_density":121.5,"all_players":8,"players_per_million":5.28,"player_ids":["volleyball:men-114956","volleyball:men-114957","volleyball:men-114962","volleyball:men-151390","volleyball:men-151404","volleyball:men-155920","volleyball:men-168715","volleyball:men-168747"],"label":"Maribor","country":"Slovenia"},"geometry":{"type":"Polygon","coordinates":[[[14.239654,47.109297],[14.272671,46.501617],[15.088333,46.234909],[15.880209,46.574304],[15.859594,47.183359],[15.034644,47.451699],[14.239654,47.109297]]]}},{"type":"Feature","properties":{"hex_id":"831e12fffffffff","population":1600283,"population_year":2025,"area_km2":12636.3,"population_density":126.6,"all_players":2,"players_per_million":1.25,"player_ids":["volleyball:men-151391","volleyball:men-182325"],"label":"Ljubljana","country":"Slovenia"},"geometry":{"type":"Polygon","coordinates":[[[13.492667,46.151948],[13.53091,45.538666],[14.337206,45.273432],[15.114564,45.62006],[15.088333,46.234909],[14.272671,46.501617],[13.492667,46.151948]]]}},{"type":"Feature","properties":{"hex_id":"831e18fffffffff","population":736616,"population_year":2025,"area_km2":12833.4,"population_density":57.4,"all_players":1,"players_per_million":1.36,"player_ids":["volleyball:women-219224"],"label":"Subotica","country":"Serbia"},"geometry":{"type":"Polygon","coordinates":[[[18.309883,46.334273],[18.311527,45.717251],[19.112925,45.417356],[19.919997,45.732363],[19.930814,46.349978],[19.122083,46.652051],[18.309883,46.334273]]]}},{"type":"Feature","properties":{"hex_id":"831e1afffffffff","population":1014076,"population_year":2025,"area_km2":13005.4,"population_density":78.0,"all_players":1,"players_per_million":0.99,"player_ids":["volleyball:women-148070"],"label":"Donja Međiđa","country":"Bosnia and Herzegovina"},"geometry":{"type":"Polygon","coordinates":[[[17.513204,45.391389],[17.520869,44.768523],[18.31474,44.47068],[19.10845,44.793707],[19.112925,45.417356],[18.311527,45.717251],[17.513204,45.391389]]]}},{"type":"Feature","properties":{"hex_id":"831e1bfffffffff","population":2841412,"population_year":2025,"area_km2":13050.9,"population_density":217.7,"all_players":8,"players_per_million":2.82,"player_ids":["volleyball:men-124911","volleyball:men-143794","volleyball:men-173250","volleyball:women-142478","volleyball:women-152168","volleyball:women-152176","volleyball:women-181204","volleyball:women-181277"],"label":"Belgrade","country":"Serbia"},"geometry":{"type":"Polygon","coordinates":[[[19.112925,45.417356],[19.10845,44.793707],[19.898853,44.48456],[20.700526,44.796864],[20.717203,45.42096],[19.919997,45.732363],[19.112925,45.417356]]]}},{"type":"Feature","properties":{"hex_id":"831e21fffffffff","population":1933723,"population_year":2025,"area_km2":11552.8,"population_density":167.4,"all_players":3,"players_per_million":1.55,"player_ids":["volleyball:women-143463","volleyball:women-152217","volleyball:women-164099"],"label":"Turów, Łódź Voivodeship","country":"Poland"},"geometry":{"type":"Polygon","coordinates":[[[18.293856,51.683389],[18.295755,51.108086],[19.156508,50.831582],[20.023789,51.127987],[20.036282,51.703743],[19.167084,51.982705],[18.293856,51.683389]]]}},{"type":"Feature","properties":{"hex_id":"831e22fffffffff","population":1379775,"population_year":2025,"area_km2":11703.3,"population_density":117.9,"all_players":1,"players_per_million":0.72,"player_ids":["volleyball:men-163563"],"label":"Trutnov","country":"Czech Republic"},"geometry":{"type":"Polygon","coordinates":[[[15.728823,50.742054],[15.751501,50.160699],[16.606047,49.899182],[17.447388,50.217015],[17.438554,50.79931],[16.574486,51.062894],[15.728823,50.742054]]]}},{"type":"Feature","properties":{"hex_id":"831e23fffffffff","population":3151478,"population_year":2025,"area_km2":11754.3,"population_density":268.1,"all_players":5,"players_per_million":1.59,"player_ids":["volleyball:men-142678","volleyball:men-150742","volleyball:men-153395","volleyball:women-152232","volleyball:women-181963"],"label":"Rybnik","country":"Poland"},"geometry":{"type":"Polygon","coordinates":[[[17.438554,50.79931],[17.447388,50.217015],[18.299459,49.942801],[19.15135,50.248654],[19.156508,50.831582],[18.295755,51.108086],[17.438554,50.79931]]]}},{"type":"Feature","properties":{"hex_id":"831e24fffffffff","population":1792401,"population_year":2025,"area_km2":11261.2,"population_density":159.2,"all_players":1,"players_per_million":0.56,"player_ids":["volleyball:women-136317"],"label":"Poznań","country":"Poland"},"geometry":{"type":"Polygon","coordinates":[[[15.658506,52.45677],[15.682335,51.890142],[16.558313,51.637437],[17.420443,51.949219],[17.411159,52.516728],[16.525149,52.771637],[15.658506,52.45677]]]}},{"type":"Feature","properties":{"hex_id":"831e26fffffffff","population":1220355,"population_year":2025,"area_km2":11454.2,"population_density":106.5,"all_players":1,"players_per_million":0.82,"player_ids":["volleyball:men-142679"],"label":"Jawor","country":"Poland"},"geometry":{"type":"Polygon","coordinates":[[[14.832771,51.566231],[14.863027,50.992748],[15.728823,50.742054],[16.574486,51.062894],[16.558313,51.637437],[15.682335,51.890142],[14.832771,51.566231]]]}},{"type":"Feature","properties":{"hex_id":"831e2afffffffff","population":1742339,"population_year":2025,"area_km2":12027.7,"population_density":144.9,"all_players":3,"players_per_million":1.72,"player_ids":["volleyball:men-164124","volleyball:men-193299","volleyball:women-181268"],"label":"Dębica","country":"Poland"},"geometry":{"type":"Polygon","coordinates":[[[19.999412,49.961747],[19.987519,49.371383],[20.822886,49.074367],[21.677309,49.365257],[21.702941,49.955806],[20.860413,50.255342],[19.999412,49.961747]]]}},{"type":"Feature","properties":{"hex_id":"831e2bfffffffff","population":1229552,"population_year":2025,"area_km2":12047.7,"population_density":102.1,"all_players":2,"players_per_million":1.63,"player_ids":["volleyball:men-152872","volleyball:women-185611"],"label":"Rzeszów","country":"Poland"},"geometry":{"type":"Polygon","coordinates":[[[21.702941,49.955806],[21.677309,49.365257],[22.506565,49.055897],[23.367705,49.334469],[23.407039,49.924886],[22.571551,50.236925],[21.702941,49.955806]]]}},{"type":"Feature","properties":{"hex_id":"831e2cfffffffff","population":1131772,"population_year":2025,"area_km2":11583.9,"population_density":97.7,"all_players":1,"players_per_million":0.88,"player_ids":["volleyball:men-153387"],"label":"Radom","country":"Poland"},"geometry":{"type":"Polygon","coordinates":[[[20.036282,51.703743],[20.023789,51.127987],[20.879639,50.838592],[21.755473,51.122377],[21.782395,51.698278],[20.919057,51.990314],[20.036282,51.703743]]]}},{"type":"Feature","properties":{"hex_id":"831e2efffffffff","population":2409979,"population_year":2025,"area_km2":11792.7,"population_density":204.4,"all_players":3,"players_per_million":1.24,"player_ids":["volleyball:men-152866","volleyball:men-153389","volleyball:women-156480"],"label":"Kraków","country":"Poland"},"geometry":{"type":"Polygon","coordinates":[[[19.156508,50.831582],[19.15135,50.248654],[19.999412,49.961747],[20.860413,50.255342],[20.879639,50.838592],[20.023789,51.127987],[19.156508,50.831582]]]}},{"type":"Feature","properties":{"hex_id":"831e30fffffffff","population":1145888,"population_year":2025,"area_km2":11818.4,"population_density":97.0,"all_players":1,"players_per_million":0.87,"player_ids":["volleyball:women-142304"],"label":"Plzeň","country":"Czech Republic"},"geometry":{"type":"Polygon","coordinates":[[[13.250346,49.739353],[13.292336,49.152852],[14.137456,48.90561],[14.950892,49.243294],[14.922075,49.831219],[14.066577,50.080093],[13.250346,49.739353]]]}},{"type":"Feature","properties":{"hex_id":"831e33fffffffff","population":1014912,"population_year":2025,"area_km2":12067.7,"population_density":84.1,"all_players":1,"players_per_million":0.99,"player_ids":["volleyball:women-184298"],"label":"Český Krumlov","country":"Czech Republic"},"geometry":{"type":"Polygon","coordinates":[[[14.137456,48.90561],[14.172058,48.311376],[15.007166,48.053459],[15.817384,48.388123],[15.795773,48.983666],[14.950892,49.243294],[14.137456,48.90561]]]}},{"type":"Feature","properties":{"hex_id":"831e35fffffffff","population":2996250,"population_year":2025,"area_km2":11640.2,"population_density":257.4,"all_players":3,"players_per_million":1.0,"player_ids":["volleyball:women-122391","volleyball:women-142297","volleyball:women-185457"],"label":"Frýdlant","country":"Czech Republic"},"geometry":{"type":"Polygon","coordinates":[[[14.030273,50.660207],[14.066577,50.080093],[14.922075,49.831219],[15.751501,50.160699],[15.728823,50.742054],[14.863027,50.992748],[14.030273,50.660207]]]}},{"type":"Feature","properties":{"hex_id":"831e46fffffffff","population":492507,"population_year":2025,"area_km2":12229.6,"population_density":40.3,"all_players":1,"players_per_million":2.03,"player_ids":["volleyball:men-148636"],"label":"Kopaihorod","country":"Ukraine"},"geometry":{"type":"Polygon","coordinates":[[[27.541073,48.853906],[27.469819,48.258057],[28.257962,47.904438],[29.120247,48.143752],[29.204237,48.738382],[28.413288,49.094974],[27.541073,48.853906]]]}},{"type":"Feature","properties":{"hex_id":"831e5dfffffffff","population":1087315,"population_year":2025,"area_km2":12550.3,"population_density":86.6,"all_players":1,"players_per_million":0.92,"player_ids":["volleyball:men-157065"],"label":"Odesa","country":"Ukraine"},"geometry":{"type":"Polygon","coordinates":[[[30.570508,46.806148],[30.478426,46.199311],[31.22646,45.820028],[32.067709,46.044636],[32.17134,46.64964],[31.422272,47.03192],[30.570508,46.806148]]]}},{"type":"Feature","properties":{"hex_id":"831e65fffffffff","population":344610,"population_year":2025,"area_km2":11308.9,"population_density":30.5,"all_players":1,"players_per_million":2.9,"player_ids":["volleyball:men-170133"],"label":"Chernihiv","country":"Ukraine"},"geometry":{"type":"Polygon","coordinates":[[[29.737162,52.204337],[29.644725,51.639105],[30.45558,51.284765],[31.360673,51.492566],[31.466667,52.056301],[30.654128,52.413789],[29.737162,52.204337]]]}},{"type":"Feature","properties":{"hex_id":"831e71fffffffff","population":734385,"population_year":2025,"area_km2":12027.7,"population_density":61.1,"all_players":1,"players_per_million":1.36,"player_ids":["volleyball:men-176897"],"label":"Zhmerynka","country":"Ukraine"},"geometry":{"type":"Polygon","coordinates":[[[26.804928,49.788333],[26.738582,49.199125],[27.541073,48.853906],[28.413288,49.094974],[28.492806,49.683116],[27.687013,50.031314],[26.804928,49.788333]]]}},{"type":"Feature","properties":{"hex_id":"831e74fffffffff","population":742908,"population_year":2025,"area_km2":11831.3,"population_density":62.8,"all_players":1,"players_per_million":1.35,"player_ids":["volleyball:men-196687"],"label":"Ozertsi","country":"Ukraine"},"geometry":{"type":"Polygon","coordinates":[[[24.329,50.776322],[24.281716,50.193368],[25.108696,49.869012],[25.987868,50.124761],[26.048993,50.707102],[25.217158,51.034369],[24.329,50.776322]]]}},{"type":"Feature","properties":{"hex_id":"831e76fffffffff","population":1612634,"population_year":2025,"area_km2":12054.3,"population_density":133.8,"all_players":1,"players_per_million":0.62,"player_ids":["volleyball:men-174256"],"label":"Solonka","country":"Ukraine"},"geometry":{"type":"Polygon","coordinates":[[[23.407039,49.924886],[23.367705,49.334469],[24.189413,49.012922],[25.055768,49.279044],[25.108696,49.869012],[24.281716,50.193368],[23.407039,49.924886]]]}},{"type":"Feature","properties":{"hex_id":"831e80fffffffff","population":4856406,"population_year":2025,"area_km2":13258.9,"population_density":366.3,"all_players":1,"players_per_million":0.21,"player_ids":["volleyball:women-173731"],"label":"Rome","country":"Italy"},"geometry":{"type":"Polygon","coordinates":[[[12.199341,42.319259],[12.245097,41.684753],[13.015322,41.413495],[13.748722,41.775618],[13.713746,42.412148],[12.934527,42.684579],[12.199341,42.319259]]]}},{"type":"Feature","properties":{"hex_id":"831e84fffffffff","population":1240283,"population_year":2025,"area_km2":13035.7,"population_density":95.1,"all_players":1,"players_per_million":0.81,"player_ids":["volleyball:men-152388"],"label":"Arezzo","country":"Italy"},"geometry":{"type":"Polygon","coordinates":[[[11.369193,43.208977],[11.421367,42.580966],[12.199341,42.319259],[12.934527,42.684579],[12.893237,43.314735],[12.105806,43.577473],[11.369193,43.208977]]]}},{"type":"Feature","properties":{"hex_id":"831e96fffffffff","population":473582,"population_year":2025,"area_km2":13165.8,"population_density":36.0,"all_players":1,"players_per_million":2.11,"player_ids":["volleyball:women-150441"],"label":"Narbolia","country":"Italy"},"geometry":{"type":"Polygon","coordinates":[[[7.971856,40.038397],[8.045142,39.402136],[8.791439,39.152477],[9.474082,39.538754],[9.410321,40.178027],[8.654309,40.428048],[7.971856,40.038397]]]}},{"type":"Feature","properties":{"hex_id":"831e9afffffffff","population":1406199,"population_year":2025,"area_km2":13841.6,"population_density":101.6,"all_players":1,"players_per_million":0.71,"player_ids":["volleyball:women-136701"],"label":"Palermo","country":"Italy"},"geometry":{"type":"Polygon","coordinates":[[[12.464332,38.463476],[12.506362,37.810465],[13.244313,37.523712],[13.948364,37.888752],[13.916255,38.543908],[13.170122,38.831924],[12.464332,38.463476]]]}},{"type":"Feature","properties":{"hex_id":"831ea0fffffffff","population":2317839,"population_year":2025,"area_km2":12679.7,"population_density":182.8,"all_players":3,"players_per_million":1.29,"player_ids":["volleyball:men-163033","volleyball:men-174076","volleyball:women-173402"],"label":"Ravenna","country":"Italy"},"geometry":{"type":"Polygon","coordinates":[[[11.207993,45.07018],[11.262523,44.453696],[12.057997,44.200939],[12.808805,44.563667],[12.765636,45.182217],[11.960221,45.436022],[11.207993,45.07018]]]}},{"type":"Feature","properties":{"hex_id":"831ea2fffffffff","population":2390766,"population_year":2025,"area_km2":12803.9,"population_density":186.7,"all_players":1,"players_per_million":0.42,"player_ids":["volleyball:women-143372"],"label":"San Miniato","country":"Italy"},"geometry":{"type":"Polygon","coordinates":[[[10.524864,44.082048],[10.583646,43.46084],[11.369193,43.208977],[12.105806,43.577473],[12.057997,44.200939],[11.262523,44.453696],[10.524864,44.082048]]]}},{"type":"Feature","properties":{"hex_id":"831ea4fffffffff","population":3171424,"population_year":2025,"area_km2":12437.2,"population_density":255.0,"all_players":3,"players_per_million":0.95,"player_ids":["volleyball:men-152408","volleyball:men-171191","volleyball:women-150840"],"label":"Desenzano del Garda","country":"Italy"},"geometry":{"type":"Polygon","coordinates":[[[10.343213,45.921928],[10.404667,45.312696],[11.207993,45.07018],[11.960221,45.436022],[11.910221,46.047428],[11.096453,46.290866],[10.343213,45.921928]]]}},{"type":"Feature","properties":{"hex_id":"831ea5fffffffff","population":2508313,"population_year":2025,"area_km2":12543.2,"population_density":200.0,"all_players":2,"players_per_million":0.8,"player_ids":["volleyball:men-163028","volleyball:men-182436"],"label":"Treviso","country":"Italy"},"geometry":{"type":"Polygon","coordinates":[[[11.910221,46.047428],[11.960221,45.436022],[12.765636,45.182217],[13.53091,45.538666],[13.492667,46.151948],[12.677318,46.406957],[11.910221,46.047428]]]}},{"type":"Feature","properties":{"hex_id":"831ea6fffffffff","population":2293027,"population_year":2025,"area_km2":12564.6,"population_density":182.5,"all_players":1,"players_per_million":0.44,"player_ids":["volleyball:women-180467"],"label":"San Giovanni in Persiceto","country":"Italy"},"geometry":{"type":"Polygon","coordinates":[[[9.666362,44.937924],[9.731941,44.323805],[10.524864,44.082048],[11.262523,44.453696],[11.207993,45.07018],[10.404667,45.312696],[9.666362,44.937924]]]}},{"type":"Feature","properties":{"hex_id":"831ec0fffffffff","population":1107165,"population_year":2025,"area_km2":13650.9,"population_density":81.1,"all_players":1,"players_per_million":0.9,"player_ids":["volleyball:women-122541"],"label":"Dupnitsa","country":"Bulgaria"},"geometry":{"type":"Polygon","coordinates":[[[22.973375,42.544131],[22.940681,41.902528],[23.692137,41.557755],[24.480935,41.85197],[24.524959,42.4932],[23.768882,42.840643],[22.973375,42.544131]]]}},{"type":"Feature","properties":{"hex_id":"831ec4fffffffff","population":1259329,"population_year":2025,"area_km2":13472.5,"population_density":93.5,"all_players":7,"players_per_million":5.56,"player_ids":["volleyball:men-152619","volleyball:men-156676","volleyball:men-181605","volleyball:men-181806","volleyball:men-181809","volleyball:women-138283","volleyball:women-163141"],"label":"Sofia","country":"Bulgaria"},"geometry":{"type":"Polygon","coordinates":[[[22.238177,43.517311],[22.210569,42.881199],[22.973375,42.544131],[23.768882,42.840643],[23.808112,43.476547],[23.040234,43.816203],[22.238177,43.517311]]]}},{"type":"Feature","properties":{"hex_id":"831ec5fffffffff","population":561909,"population_year":2025,"area_km2":13472.5,"population_density":41.7,"all_players":1,"players_per_million":1.78,"player_ids":["volleyball:men-182150"],"label":"Pravets","country":"Bulgaria"},"geometry":{"type":"Polygon","coordinates":[[[23.808112,43.476547],[23.768882,42.840643],[24.524959,42.4932],[25.324619,42.778989],[25.375376,43.414339],[24.614981,43.76451],[23.808112,43.476547]]]}},{"type":"Feature","properties":{"hex_id":"831ec6fffffffff","population":1055383,"population_year":2025,"area_km2":13642.7,"population_density":77.4,"all_players":1,"players_per_million":0.95,"player_ids":["volleyball:men-164985"],"label":"Vranje","country":"Serbia"},"geometry":{"type":"Polygon","coordinates":[[[21.420399,42.574093],[21.399102,41.932468],[22.156565,41.597915],[22.940681,41.902528],[22.973375,42.544131],[22.210569,42.881199],[21.420399,42.574093]]]}},{"type":"Feature","properties":{"hex_id":"831ec9fffffffff","population":17744064,"population_year":2025,"area_km2":13716.7,"population_density":1293.6,"all_players":5,"players_per_million":0.28,"player_ids":["volleyball:men-164160","volleyball:men-164163","volleyball:women-137087","volleyball:women-152263","volleyball:women-183499"],"label":"Istanbul","country":"Turkey"},"geometry":{"type":"Polygon","coordinates":[[[28.27582,41.315589],[28.205616,40.671538],[28.920766,40.29157],[29.708204,40.552644],[29.788911,41.195121],[29.071743,41.578147],[28.27582,41.315589]]]}},{"type":"Feature","properties":{"hex_id":"831ecbfffffffff","population":1194676,"population_year":2025,"area_km2":13900.5,"population_density":85.9,"all_players":1,"players_per_million":0.84,"player_ids":["volleyball:women-163982"],"label":"Balıkesir","country":"Turkey"},"geometry":{"type":"Polygon","coordinates":[[[27.418892,40.400141],[27.355402,39.750472],[28.068171,39.37356],[28.846869,39.643311],[28.920766,40.29157],[28.205616,40.671538],[27.418892,40.400141]]]}},{"type":"Feature","properties":{"hex_id":"831eccfffffffff","population":542082,"population_year":2025,"area_km2":13618.2,"population_density":39.8,"all_players":1,"players_per_million":1.84,"player_ids":["volleyball:women-124202"],"label":"Yambol","country":"Bulgaria"},"geometry":{"type":"Polygon","coordinates":[[[26.072885,42.421413],[26.017648,41.780904],[26.753927,41.416392],[27.54863,41.689532],[27.614916,42.328976],[26.875502,42.696397],[26.072885,42.421413]]]}},{"type":"Feature","properties":{"hex_id":"831ecefffffffff","population":431157,"population_year":2025,"area_km2":13799.7,"population_density":31.2,"all_players":1,"players_per_million":2.32,"player_ids":["volleyball:men-136515"],"label":"Krumovgrad","country":"Bulgaria"},"geometry":{"type":"Polygon","coordinates":[[[25.225319,41.497196],[25.176743,40.851016],[25.90955,40.489383],[26.694448,40.771104],[26.753927,41.416392],[26.017648,41.780904],[25.225319,41.497196]]]}},{"type":"Feature","properties":{"hex_id":"831ee9fffffffff","population":682549,"population_year":2025,"area_km2":13220.0,"population_density":51.6,"all_players":1,"players_per_million":1.47,"player_ids":["volleyball:men-168268"],"label":"Dobrich","country":"Bulgaria"},"geometry":{"type":"Polygon","coordinates":[[[27.819697,44.224743],[27.750428,43.596705],[28.492612,43.226347],[29.306514,43.481122],[29.387082,44.107766],[28.64252,44.481082],[27.819697,44.224743]]]}},{"type":"Feature","properties":{"hex_id":"831eeafffffffff","population":586189,"population_year":2025,"area_km2":13456.5,"population_density":43.6,"all_players":1,"players_per_million":1.71,"player_ids":["volleyball:men-168269"],"label":"Bulgaria","country":"Bulgaria"},"geometry":{"type":"Polygon","coordinates":[[[25.375376,43.414339],[25.324619,42.778989],[26.072885,42.421413],[26.875502,42.696397],[26.937637,43.330852],[26.185824,43.691272],[25.375376,43.414339]]]}},{"type":"Feature","properties":{"hex_id":"831eebfffffffff","population":880487,"population_year":2025,"area_km2":13424.6,"population_density":65.6,"all_players":1,"players_per_million":1.14,"player_ids":["volleyball:men-174445"],"label":"Burgas","country":"Bulgaria"},"geometry":{"type":"Polygon","coordinates":[[[26.937637,43.330852],[26.875502,42.696397],[27.614916,42.328976],[28.419296,42.593125],[28.492612,43.226347],[27.750428,43.596705],[26.937637,43.330852]]]}},{"type":"Feature","properties":{"hex_id":"831eecfffffffff","population":3103366,"population_year":2025,"area_km2":13081.4,"population_density":237.2,"all_players":1,"players_per_million":0.32,"player_ids":["volleyball:women-170613"],"label":"Bucharest","country":"Romania"},"geometry":{"type":"Polygon","coordinates":[[[25.532273,45.296738],[25.479185,44.673329],[26.243563,44.320374],[27.064702,44.588046],[27.129673,45.210555],[26.361675,45.566347],[25.532273,45.296738]]]}},{"type":"Feature","properties":{"hex_id":"831ef0fffffffff","population":477585,"population_year":2025,"area_km2":13424.6,"population_density":35.6,"all_players":1,"players_per_million":2.09,"player_ids":["volleyball:women-181205"],"label":"Novi Pazar","country":"Serbia"},"geometry":{"type":"Polygon","coordinates":[[[19.099702,43.53434],[19.095425,42.898853],[19.86831,42.58307],[20.651982,42.900591],[20.667921,43.536564],[19.888519,43.854586],[19.099702,43.53434]]]}},{"type":"Feature","properties":{"hex_id":"831ef1fffffffff","population":831141,"population_year":2025,"area_km2":13456.5,"population_density":61.8,"all_players":3,"players_per_million":3.61,"player_ids":["volleyball:men-150382","volleyball:men-173251","volleyball:men-192041"],"label":"Niš","country":"Serbia"},"geometry":{"type":"Polygon","coordinates":[[[20.667921,43.536564],[20.651982,42.900591],[21.420399,42.574093],[22.210569,42.881199],[22.238177,43.517311],[21.463952,43.846234],[20.667921,43.536564]]]}},{"type":"Feature","properties":{"hex_id":"831ef4fffffffff","population":1035172,"population_year":2025,"area_km2":13220.0,"population_density":78.3,"all_players":4,"players_per_million":3.86,"player_ids":["volleyball:men-152537","volleyball:men-177006","volleyball:women-136812","volleyball:women-143548"],"label":"Sarajevo","country":"Bosnia and Herzegovina"},"geometry":{"type":"Polygon","coordinates":[[[18.31474,44.47068],[18.316311,43.841343],[19.099702,43.53434],[19.888519,43.854586],[19.898853,44.48456],[19.10845,44.793707],[18.31474,44.47068]]]}},{"type":"Feature","properties":{"hex_id":"831ef5fffffffff","population":1319316,"population_year":2025,"area_km2":13258.9,"population_density":99.5,"all_players":3,"players_per_million":2.27,"player_ids":["volleyball:men-132022","volleyball:men-191376","volleyball:women-173179"],"label":"Kraljevo","country":"Serbia"},"geometry":{"type":"Polygon","coordinates":[[[19.898853,44.48456],[19.888519,43.854586],[20.667921,43.536564],[21.463952,43.846234],[21.486223,44.476503],[20.700526,44.796864],[19.898853,44.48456]]]}},{"type":"Feature","properties":{"hex_id":"831ef6fffffffff","population":403736,"population_year":2025,"area_km2":13376.9,"population_density":30.2,"all_players":1,"players_per_million":2.48,"player_ids":["volleyball:women-137941"],"label":"Trebinje","country":"Bosnia and Herzegovina"},"geometry":{"type":"Polygon","coordinates":[[[17.535856,43.510771],[17.543183,42.876114],[18.319382,42.571144],[19.095425,42.898853],[19.099702,43.53434],[18.316311,43.841343],[17.535856,43.510771]]]}},{"type":"Feature","properties":{"hex_id":"831f03fffffffff","population":510725,"population_year":2025,"area_km2":10691.6,"population_density":47.8,"all_players":1,"players_per_million":1.96,"player_ids":["volleyball:women-209880"],"label":"Greifswald","country":"Germany"},"geometry":{"type":"Polygon","coordinates":[[[12.030217,53.923003],[12.085015,53.37401],[12.983579,53.157021],[13.839529,53.487245],[13.799424,54.037627],[12.888576,54.256457],[12.030217,53.923003]]]}},{"type":"Feature","properties":{"hex_id":"831f09fffffffff","population":1353146,"population_year":2025,"area_km2":10857.3,"population_density":124.6,"all_players":3,"players_per_million":2.22,"player_ids":["volleyball:men-163087","volleyball:women-163098","volleyball:women-164104"],"label":"Gdańsk","country":"Poland"},"geometry":{"type":"Polygon","coordinates":[[[17.382346,54.188943],[17.392114,53.636628],[18.287967,53.379322],[19.183628,53.671807],[19.189333,54.224652],[18.283871,54.484548],[17.382346,54.188943]]]}},{"type":"Feature","properties":{"hex_id":"831f0afffffffff","population":615713,"population_year":2025,"area_km2":11010.2,"population_density":55.9,"all_players":1,"players_per_million":1.62,"player_ids":["volleyball:men-150741"],"label":"Gorzów Wielkopolski","country":"Poland"},"geometry":{"type":"Polygon","coordinates":[[[14.738933,53.256941],[14.770737,52.698373],[15.658506,52.45677],[16.525149,52.771637],[16.508143,53.331202],[15.609631,53.574966],[14.738933,53.256941]]]}},{"type":"Feature","properties":{"hex_id":"831f11fffffffff","population":2278320,"population_year":2025,"area_km2":10790.5,"population_density":211.1,"all_players":1,"players_per_million":0.44,"player_ids":["volleyball:women-157403"],"label":"Gifhorn","country":"Germany"},"geometry":{"type":"Polygon","coordinates":[[[9.526612,52.882702],[9.600787,52.328809],[10.483886,52.126246],[11.305631,52.476318],[11.24517,53.03204],[10.349128,53.235917],[9.526612,52.882702]]]}},{"type":"Feature","properties":{"hex_id":"831f12fffffffff","population":4974727,"population_year":2025,"area_km2":10857.3,"population_density":458.2,"all_players":2,"players_per_million":0.4,"player_ids":["volleyball:women-151016","volleyball:women-163939"],"label":"Münster","country":"Germany"},"geometry":{"type":"Polygon","coordinates":[[[7.131986,51.786954],[7.223571,51.228954],[8.088631,51.039696],[8.875324,51.407718],[8.796415,51.967973],[7.918,52.158001],[7.131986,51.786954]]]}},{"type":"Feature","properties":{"hex_id":"831f15fffffffff","population":4282236,"population_year":2025,"area_km2":10530.0,"population_density":406.7,"all_players":2,"players_per_million":0.47,"player_ids":["volleyball:women-153929","volleyball:women-181647"],"label":"Bremen","country":"Germany"},"geometry":{"type":"Polygon","coordinates":[[[8.551833,53.61915],[8.634702,53.073729],[9.526612,52.882702],[10.349128,53.235917],[10.280052,53.783253],[9.374531,53.975514],[8.551833,53.61915]]]}},{"type":"Feature","properties":{"hex_id":"831f16fffffffff","population":2404526,"population_year":2025,"area_km2":10594.2,"population_density":227.0,"all_players":3,"players_per_million":1.25,"player_ids":["volleyball:women-163658","volleyball:women-181646","volleyball:women-204638"],"label":"Tubbergen","country":"Netherlands"},"geometry":{"type":"Polygon","coordinates":[[[6.159603,52.514255],[6.259687,51.96477],[7.131986,51.786954],[7.918,52.158001],[7.8306,52.709811],[6.944351,52.888298],[6.159603,52.514255]]]}},{"type":"Feature","properties":{"hex_id":"831f19fffffffff","population":846047,"population_year":2025,"area_km2":11202.0,"population_density":75.5,"all_players":1,"players_per_million":1.18,"player_ids":["volleyball:women-150973"],"label":"Eisenhüttenstadt","country":"Germany"},"geometry":{"type":"Polygon","coordinates":[[[13.917733,52.371333],[13.955866,51.805879],[14.832771,51.566231],[15.682335,51.890142],[15.658506,52.45677],[14.770737,52.698373],[13.917733,52.371333]]]}},{"type":"Feature","properties":{"hex_id":"831f1afffffffff","population":2852514,"population_year":2025,"area_km2":11308.9,"population_density":252.2,"all_players":1,"players_per_million":0.35,"player_ids":["volleyball:women-182628"],"label":"Chemnitz","country":"Germany"},"geometry":{"type":"Polygon","coordinates":[[[11.423602,51.350013],[11.48116,50.779522],[12.345747,50.554275],[13.164316,50.898103],[13.120243,51.470233],[12.24402,51.696953],[11.423602,51.350013]]]}},{"type":"Feature","properties":{"hex_id":"831f1bfffffffff","population":1866083,"population_year":2025,"area_km2":11387.2,"population_density":163.9,"all_players":1,"players_per_million":0.54,"player_ids":["volleyball:men-152352"],"label":"Dresden","country":"Germany"},"geometry":{"type":"Polygon","coordinates":[[[13.120243,51.470233],[13.164316,50.898103],[14.030273,50.660207],[14.863027,50.992748],[14.832771,51.566231],[13.955866,51.805879],[13.120243,51.470233]]]}},{"type":"Feature","properties":{"hex_id":"831f1cfffffffff","population":479882,"population_year":2025,"area_km2":10874.1,"population_density":44.1,"all_players":1,"players_per_million":2.08,"player_ids":["volleyball:men-174660"],"label":"Kyritz","country":"Germany"},"geometry":{"type":"Polygon","coordinates":[[[11.24517,53.03204],[11.305631,52.476318],[12.191895,52.260945],[13.029893,52.599737],[12.983579,53.157021],[12.085015,53.37401],[11.24517,53.03204]]]}},{"type":"Feature","properties":{"hex_id":"831f1dfffffffff","population":2731825,"population_year":2025,"area_km2":10947.5,"population_density":249.5,"all_players":2,"players_per_million":0.73,"player_ids":["volleyball:women-150812","volleyball:women-183505"],"label":"Reinickendorf","country":"Germany"},"geometry":{"type":"Polygon","coordinates":[[[12.983579,53.157021],[13.029893,52.599737],[13.917733,52.371333],[14.770737,52.698373],[14.738933,53.256941],[13.839529,53.487245],[12.983579,53.157021]]]}},{"type":"Feature","properties":{"hex_id":"831f53fffffffff","population":3001674,"population_year":2025,"area_km2":11369.1,"population_density":264.0,"all_players":1,"players_per_million":0.33,"player_ids":["volleyball:women-163097"],"label":"Warsaw","country":"Poland"},"geometry":{"type":"Polygon","coordinates":[[[20.939264,52.558682],[20.919057,51.990314],[21.782395,51.698278],[22.6731,51.971887],[22.708089,52.540228],[21.837606,52.835053],[20.939264,52.558682]]]}},{"type":"Feature","properties":{"hex_id":"831f54fffffffff","population":817246,"population_year":2025,"area_km2":10891.0,"population_density":75.0,"all_players":1,"players_per_million":1.22,"player_ids":["volleyball:men-142676"],"label":"Olsztyn","country":"Poland"},"geometry":{"type":"Polygon","coordinates":[[[19.189333,54.224652],[19.183628,53.671807],[20.075041,53.400943],[20.980718,53.680206],[21.001983,54.233286],[20.102003,54.506935],[19.189333,54.224652]]]}},{"type":"Feature","properties":{"hex_id":"831f55fffffffff","population":466625,"population_year":2025,"area_km2":10913.5,"population_density":42.8,"all_players":1,"players_per_million":2.14,"player_ids":["volleyball:men-152870"],"label":"Giżycko","country":"Poland"},"geometry":{"type":"Polygon","coordinates":[[[21.001983,54.233286],[20.980718,53.680206],[21.865918,53.395835],[22.779866,53.661662],[22.816683,54.214679],[21.924017,54.501998],[21.001983,54.233286]]]}},{"type":"Feature","properties":{"hex_id":"831f56fffffffff","population":1167426,"population_year":2025,"area_km2":11102.5,"population_density":105.2,"all_players":1,"players_per_million":0.86,"player_ids":["volleyball:women-181263"],"label":"Świecie","country":"Poland"},"geometry":{"type":"Polygon","coordinates":[[[18.287967,53.379322],[18.289963,52.819052],[19.172506,52.550795],[20.061903,52.840266],[20.075041,53.400943],[19.183628,53.671807],[18.287967,53.379322]]]}},{"type":"Feature","properties":{"hex_id":"831f80fffffffff","population":1678454,"population_year":2025,"area_km2":11552.8,"population_density":145.3,"all_players":2,"players_per_million":1.19,"player_ids":["volleyball:men-119804","volleyball:women-158238"],"label":"Mulhouse","country":"France"},"geometry":{"type":"Polygon","coordinates":[[[6.091769,48.180305],[6.186355,47.596926],[7.006321,47.39767],[7.743929,47.781588],[7.660516,48.367674],[6.828196,48.567179],[6.091769,48.180305]]]}},{"type":"Feature","properties":{"hex_id":"831f81fffffffff","population":2649958,"population_year":2025,"area_km2":11678.0,"population_density":226.9,"all_players":2,"players_per_million":0.75,"player_ids":["volleyball:men-136442","volleyball:men-169039"],"label":"Tübingen","country":"Germany"},"geometry":{"type":"Polygon","coordinates":[[[7.660516,48.367674],[7.743929,47.781588],[8.569415,47.571079],[9.323357,47.94614],[9.251571,48.534678],[8.414101,48.74575],[7.660516,48.367674]]]}},{"type":"Feature","properties":{"hex_id":"831f82fffffffff","population":1207399,"population_year":2025,"area_km2":11678.0,"population_density":103.4,"all_players":1,"players_per_million":0.83,"player_ids":["volleyball:men-188030"],"label":"Besançon","country":"France"},"geometry":{"type":"Polygon","coordinates":[[[5.465773,47.204706],[5.563563,46.616214],[6.371339,46.417017],[7.093391,46.806293],[7.006321,47.39767],[6.186355,47.596926],[5.465773,47.204706]]]}},{"type":"Feature","properties":{"hex_id":"831f84fffffffff","population":1230363,"population_year":2025,"area_km2":11291.0,"population_density":109.0,"all_players":1,"players_per_million":0.81,"player_ids":["volleyball:women-177914"],"label":"Nancy","country":"France"},"geometry":{"type":"Polygon","coordinates":[[[5.163511,48.943764],[5.26578,48.368556],[6.091769,48.180305],[6.828196,48.567179],[6.737081,49.14516],[5.898249,49.333537],[5.163511,48.943764]]]}},{"type":"Feature","properties":{"hex_id":"831f88fffffffff","population":1355168,"population_year":2025,"area_km2":12047.7,"population_density":112.5,"all_players":1,"players_per_million":0.74,"player_ids":["volleyball:women-144980"],"label":"Bad Tölz","country":"Germany"},"geometry":{"type":"Polygon","coordinates":[[[10.15318,47.724095],[10.217491,47.127717],[11.039404,46.894874],[11.80791,47.257481],[11.755564,47.855947],[10.922654,48.089769],[10.15318,47.724095]]]}},{"type":"Feature","properties":{"hex_id":"831f8bfffffffff","population":651537,"population_year":2025,"area_km2":12298.2,"population_density":53.0,"all_players":1,"players_per_million":1.53,"player_ids":["volleyball:men-144005"],"label":"Bolzano","country":"Italy"},"geometry":{"type":"Polygon","coordinates":[[[11.039404,46.894874],[11.096453,46.290866],[11.910221,46.047428],[12.677318,46.406957],[12.632139,47.012951],[11.80791,47.257481],[11.039404,46.894874]]]}},{"type":"Feature","properties":{"hex_id":"831f8dfffffffff","population":4306262,"population_year":2025,"area_km2":11896.2,"population_density":362.0,"all_players":2,"players_per_million":0.46,"player_ids":["volleyball:men-152469","volleyball:women-162999"],"label":"Mühldorf am Inn","country":"Germany"},"geometry":{"type":"Polygon","coordinates":[[[10.86291,48.68049],[10.922654,48.089769],[11.755564,47.855947],[12.53966,48.211734],[12.492328,48.804358],[11.648396,49.039345],[10.86291,48.68049]]]}},{"type":"Feature","properties":{"hex_id":"831f99fffffffff","population":8499702,"population_year":2025,"area_km2":12318.9,"population_density":690.0,"all_players":6,"players_per_million":0.71,"player_ids":["volleyball:men-124865","volleyball:men-152370","volleyball:men-162520","volleyball:women-136694","volleyball:women-143370","volleyball:women-174577"],"label":"Milan","country":"Italy"},"geometry":{"type":"Polygon","coordinates":[[[8.793725,45.776109],[8.866286,45.169339],[9.666362,44.937924],[10.404667,45.312696],[10.343213,45.921928],[9.53225,46.153971],[8.793725,45.776109]]]}},{"type":"Feature","properties":{"hex_id":"831f9bfffffffff","population":1573619,"population_year":2025,"area_km2":12437.2,"population_density":126.5,"all_players":1,"players_per_million":0.64,"player_ids":["volleyball:men-182292"],"label":"Genoa","country":"Italy"},"geometry":{"type":"Polygon","coordinates":[[[8.142693,44.786129],[8.21897,44.174659],[9.008239,43.943707],[9.731941,44.323805],[9.666362,44.937924],[8.866286,45.169339],[8.142693,44.786129]]]}},{"type":"Feature","properties":{"hex_id":"831fa3fffffffff","population":2213474,"population_year":2025,"area_km2":11155.0,"population_density":198.4,"all_players":1,"players_per_million":0.45,"player_ids":["volleyball:men-158881"],"label":"Ettelbruck","country":"Luxembourg"},"geometry":{"type":"Polygon","coordinates":[[[5.79925,49.903255],[5.898249,49.333537],[6.737081,49.14516],[7.489806,49.526212],[7.402448,50.098529],[6.550588,50.287239],[5.79925,49.903255]]]}},{"type":"Feature","properties":{"hex_id":"831fa4fffffffff","population":7133777,"population_year":2025,"area_km2":10626.5,"population_density":671.3,"all_players":4,"players_per_million":0.56,"player_ids":["volleyball:women-135880","volleyball:women-152042","volleyball:women-160209","volleyball:women-170698"],"label":"Jette","country":"Belgium"},"geometry":{"type":"Polygon","coordinates":[[[3.881134,51.360376],[3.996418,50.807584],[4.847197,50.641723],[5.5966,51.028589],[5.492877,51.584097],[4.628032,51.750066],[3.881134,51.360376]]]}},{"type":"Feature","properties":{"hex_id":"831fa5fffffffff","population":7783236,"population_year":2025,"area_km2":10746.4,"population_density":724.3,"all_players":1,"players_per_million":0.13,"player_ids":["volleyball:women-186339"],"label":"Moers","country":"Germany"},"geometry":{"type":"Polygon","coordinates":[[[5.492877,51.584097],[5.5966,51.028589],[6.455143,50.851215],[7.223571,51.228954],[7.131986,51.786954],[6.259687,51.96477],[5.492877,51.584097]]]}},{"type":"Feature","properties":{"hex_id":"831fa9fffffffff","population":1406142,"population_year":2025,"area_km2":11478.7,"population_density":122.5,"all_players":1,"players_per_million":0.71,"player_ids":["volleyball:women-163616"],"label":"Kulmbach","country":"Germany"},"geometry":{"type":"Polygon","coordinates":[[[10.677944,50.424867],[10.740578,49.848107],[11.593536,49.624128],[12.39539,49.975696],[12.345747,50.554275],[11.48116,50.779522],[10.677944,50.424867]]]}},{"type":"Feature","properties":{"hex_id":"831fadfffffffff","population":1370400,"population_year":2025,"area_km2":11219.7,"population_density":122.1,"all_players":3,"players_per_million":2.19,"player_ids":["volleyball:men-152713","volleyball:women-163664","volleyball:women-181272"],"label":"Nordhausen","country":"Germany"},"geometry":{"type":"Polygon","coordinates":[[[9.745557,51.206245],[9.816208,50.637667],[10.677944,50.424867],[11.48116,50.779522],[11.423602,51.350013],[10.549623,51.56399],[9.745557,51.206245]]]}},{"type":"Feature","properties":{"hex_id":"831faefffffffff","population":5917556,"population_year":2025,"area_km2":11273.1,"population_density":524.9,"all_players":5,"players_per_million":0.84,"player_ids":["volleyball:men-152349","volleyball:men-163592","volleyball:men-182299","volleyball:women-163661","volleyball:women-177765"],"label":"Bad Soden am Taunus","country":"Germany"},"geometry":{"type":"Polygon","coordinates":[[[7.402448,50.098529],[7.489806,49.526212],[8.334632,49.326261],[9.104617,49.69802],[9.029395,50.272688],[8.171926,50.473294],[7.402448,50.098529]]]}},{"type":"Feature","properties":{"hex_id":"831fb4fffffffff","population":10916515,"population_year":2025,"area_km2":11061.9,"population_density":986.9,"all_players":3,"players_per_million":0.27,"player_ids":["volleyball:men-125073","volleyball:women-162903","volleyball:women-179014"],"label":"Paris","country":"France"},"geometry":{"type":"Polygon","coordinates":[[[1.882244,49.805032],[1.18851,49.470279],[1.315872,48.863254],[2.120222,48.594025],[2.802853,48.926779],[2.692197,49.530714],[1.882244,49.805032]]]}},{"type":"Feature","properties":{"hex_id":"832661fffffffff","population":1613533,"population_year":2025,"area_km2":12047.7,"population_density":133.9,"all_players":2,"players_per_million":1.24,"player_ids":["volleyball:women-143524","volleyball:women-200701"],"label":"Indianapolis","country":"United States"},"geometry":{"type":"Polygon","coordinates":[[[-86.946899,40.37707],[-87.551983,39.983909],[-87.362609,39.403972],[-86.583815,39.212519],[-85.979328,39.596509],[-86.152851,40.181046],[-86.946899,40.37707]]]}},{"type":"Feature","properties":{"hex_id":"832664fffffffff","population":5785032,"population_year":2025,"area_km2":12437.2,"population_density":465.1,"all_players":1,"players_per_million":0.17,"player_ids":["volleyball:men-189158"],"label":"Downers Grove","country":"United States"},"geometry":{"type":"Polygon","coordinates":[[[-87.526255,42.152917],[-88.148719,41.746709],[-87.944865,41.155384],[-87.135218,40.965255],[-86.513012,41.36205],[-86.699978,41.958309],[-87.526255,42.152917]]]}},{"type":"Feature","properties":{"hex_id":"832666fffffffff","population":962293,"population_year":2025,"area_km2":12318.9,"population_density":78.1,"all_players":1,"players_per_million":1.04,"player_ids":["volleyball:women-143517"],"label":"Naperville","country":"United States"},"geometry":{"type":"Polygon","coordinates":[[[-88.974045,41.930329],[-89.578398,41.518555],[-89.358359,40.932577],[-88.549924,40.752956],[-87.944865,41.155384],[-88.148719,41.746709],[-88.974045,41.930329]]]}},{"type":"Feature","properties":{"hex_id":"83271cfffffffff","population":851693,"population_year":2025,"area_km2":13290.2,"population_density":64.1,"all_players":1,"players_per_million":1.17,"player_ids":["volleyball:men-165212"],"label":"Winnipeg","country":"Canada"},"geometry":{"type":"Polygon","coordinates":[[[-97.993762,50.038615],[-98.596277,49.542142],[-98.210218,48.944917],[-97.238462,48.83552],[-96.626804,49.322624],[-96.995553,49.92847],[-97.993762,50.038615]]]}},{"type":"Feature","properties":{"hex_id":"832759fffffffff","population":4266588,"population_year":2025,"area_km2":12564.6,"population_density":339.6,"all_players":1,"players_per_million":0.23,"player_ids":["volleyball:men-147721"],"label":"Wheaton","country":"United States"},"geometry":{"type":"Polygon","coordinates":[[[-88.572184,42.939958],[-89.194191,42.524254],[-88.974045,41.930329],[-88.148719,41.746709],[-87.526255,42.152917],[-87.729334,42.752167],[-88.572184,42.939958]]]}},{"type":"Feature","properties":{"hex_id":"83279efffffffff","population":159437,"population_year":2025,"area_km2":12047.7,"population_density":13.2,"all_players":1,"players_per_million":6.27,"player_ids":["volleyball:women-171920"],"label":"Billings","country":"United States"},"geometry":{"type":"Polygon","coordinates":[[[-108.808647,45.42344],[-108.3105,45.920558],[-108.723407,46.445758],[-109.640451,46.472025],[-110.133985,45.973009],[-109.715262,45.449631],[-108.808647,45.42344]]]}},{"type":"Feature","properties":{"hex_id":"832830fffffffff","population":5390523,"population_year":2025,"area_km2":12833.4,"population_density":420.0,"all_players":2,"players_per_million":0.37,"player_ids":["volleyball:men-147473","volleyball:men-174807"],"label":"Greenbrae","country":"United States"},"geometry":{"type":"Polygon","coordinates":[[[-121.764466,37.675694],[-121.389711,38.251087],[-121.822972,38.767388],[-122.631058,38.705571],[-122.997641,38.130127],[-122.564417,37.616538],[-121.764466,37.675694]]]}},{"type":"Feature","properties":{"hex_id":"832834fffffffff","population":3936879,"population_year":2025,"area_km2":13005.4,"population_density":302.7,"all_players":1,"players_per_million":0.25,"player_ids":["volleyball:men-147542"],"label":"Stanford","country":"United States"},"geometry":{"type":"Polygon","coordinates":[[[-121.707157,36.574218],[-121.335882,37.15313],[-121.764466,37.675694],[-122.564417,37.616538],[-122.927704,37.037552],[-122.499133,36.517784],[-121.707157,36.574218]]]}},{"type":"Feature","properties":{"hex_id":"8328defffffffff","population":2910777,"population_year":2025,"area_km2":10449.9,"population_density":278.5,"all_players":4,"players_per_million":1.37,"player_ids":["volleyball:men-140428","volleyball:men-183276","volleyball:women-168355","volleyball:women-173585"],"label":"Surrey","country":"Canada"},"geometry":{"type":"Polygon","coordinates":[[[-122.483019,49.023551],[-122.065326,49.540804],[-122.693479,49.991247],[-123.537049,49.895381],[-123.603627,49.715402],[-123.874258,49.369796],[-123.38243,48.938973],[-122.483019,49.023551]]]}},{"type":"Feature","properties":{"hex_id":"8329a0fffffffff","population":7767902,"population_year":2025,"area_km2":13942.8,"population_density":557.1,"all_players":1,"players_per_million":0.13,"player_ids":["volleyball:men-182755"],"label":"Anaheim","country":"United States"},"geometry":{"type":"Polygon","coordinates":[[[-116.844972,33.407616],[-116.449556,33.986961],[-116.851778,34.547853],[-117.651276,34.526528],[-118.040386,33.946172],[-117.636417,33.388145],[-116.844972,33.407616]]]}},{"type":"Feature","properties":{"hex_id":"8329a1fffffffff","population":7894449,"population_year":2025,"area_km2":13766.4,"population_density":573.5,"all_players":3,"players_per_million":0.38,"player_ids":["volleyball:men-147417","volleyball:men-213199","volleyball:women-157937"],"label":"Pacific Palisades","country":"United States"},"geometry":{"type":"Polygon","coordinates":[[[-118.040386,33.946172],[-117.651276,34.526528],[-118.059439,35.079776],[-118.858147,35.049768],[-119.240554,34.468622],[-118.831067,33.918266],[-118.040386,33.946172]]]}},{"type":"Feature","properties":{"hex_id":"8329a4fffffffff","population":5801541,"population_year":2025,"area_km2":14071.2,"population_density":412.3,"all_players":1,"players_per_million":0.17,"player_ids":["volleyball:men-183138"],"label":"Oceanside","country":"United States"},"geometry":{"type":"Polygon","coordinates":[[[-116.838302,32.260383],[-116.446827,32.842254],[-116.844972,33.407616],[-117.636417,33.388145],[-118.021715,32.805205],[-117.621854,32.242798],[-116.838302,32.260383]]]}},{"type":"Feature","properties":{"hex_id":"8329a5fffffffff","population":3788026,"population_year":2025,"area_km2":13900.5,"population_density":272.5,"all_players":1,"players_per_million":0.26,"player_ids":["volleyball:men-213134"],"label":"San Pedro","country":"United States"},"geometry":{"type":"Polygon","coordinates":[[[-118.021715,32.805205],[-117.636417,33.388145],[-118.040386,33.946172],[-118.831067,33.918266],[-119.209803,33.334481],[-118.804528,32.779438],[-118.021715,32.805205]]]}},{"type":"Feature","properties":{"hex_id":"8329abfffffffff","population":1134352,"population_year":2025,"area_km2":13258.9,"population_density":85.6,"all_players":1,"players_per_million":0.88,"player_ids":["volleyball:women-184074"],"label":"California","country":"United States"},"geometry":{"type":"Polygon","coordinates":[[[-119.303964,36.712984],[-118.914,37.287613],[-119.336664,37.821673],[-120.150308,37.778361],[-120.532864,37.20324],[-120.109299,36.671914],[-119.303964,36.712984]]]}},{"type":"Feature","properties":{"hex_id":"832a10fffffffff","population":17834994,"population_year":2025,"area_km2":12479.4,"population_density":1429.2,"all_players":1,"players_per_million":0.06,"player_ids":["volleyball:women-181899"],"label":"New York City","country":"United States"},"geometry":{"type":"Polygon","coordinates":[[[-73.803296,41.465407],[-74.532183,41.140409],[-74.501617,40.535843],[-73.761104,40.255982],[-73.041153,40.572801],[-73.052763,41.177546],[-73.803296,41.465407]]]}},{"type":"Feature","properties":{"hex_id":"832a13fffffffff","population":5451326,"population_year":2025,"area_km2":12270.7,"population_density":444.3,"all_players":1,"players_per_million":0.18,"player_ids":["volleyball:men-169859"],"label":"New Egypt","country":"United States"},"geometry":{"type":"Polygon","coordinates":[[[-74.501617,40.535843],[-75.211791,40.210041],[-75.173274,39.612676],[-74.442775,39.340569],[-73.740804,39.658184],[-73.761104,40.255982],[-74.501617,40.535843]]]}},{"type":"Feature","properties":{"hex_id":"832b98fffffffff","population":1058880,"population_year":2025,"area_km2":13258.9,"population_density":79.9,"all_players":1,"players_per_million":0.94,"player_ids":["volleyball:women-153629"],"label":"Oshawa","country":"Canada"},"geometry":{"type":"Polygon","coordinates":[[[-78.776161,44.980359],[-79.524011,44.610144],[-79.42239,43.984339],[-78.594427,43.726557],[-77.853479,44.087435],[-77.933476,44.715311],[-78.776161,44.980359]]]}},{"type":"Feature","properties":{"hex_id":"832b9bfffffffff","population":7907887,"population_year":2025,"area_km2":13050.9,"population_density":605.9,"all_players":3,"players_per_million":0.38,"player_ids":["volleyball:men-168918","volleyball:men-183453","volleyball:women-175158"],"label":"Toronto","country":"Canada"},"geometry":{"type":"Polygon","coordinates":[[[-79.42239,43.984339],[-80.148592,43.614015],[-80.040798,42.99531],[-79.227281,42.744533],[-78.507232,43.105571],[-78.594427,43.726557],[-79.42239,43.984339]]]}},{"type":"Feature","properties":{"hex_id":"832c11fffffffff","population":1340956,"population_year":2025,"area_km2":12259.6,"population_density":109.4,"all_players":3,"players_per_million":2.24,"player_ids":["volleyball:men-152742","volleyball:men-168551","volleyball:men-174373"],"label":"Urmia","country":"Iran"},"geometry":{"type":"Polygon","coordinates":[[[44.44786,37.974658],[44.280999,37.361534],[44.839833,36.911675],[45.561045,37.072224],[45.647233,37.376856],[45.737774,37.675626],[45.179694,38.133333],[44.44786,37.974658]]]}},{"type":"Feature","properties":{"hex_id":"832cc2fffffffff","population":441263,"population_year":2025,"area_km2":13142.7,"population_density":33.6,"all_players":1,"players_per_million":2.27,"player_ids":["volleyball:men-152755"],"label":"Suchelma","country":"Iran"},"geometry":{"type":"Polygon","coordinates":[[[52.95101,35.955004],[53.459783,35.451164],[54.231192,35.534359],[54.506061,36.12616],[53.996968,36.637425],[53.213179,36.549403],[52.95101,35.955004]]]}},{"type":"Feature","properties":{"hex_id":"832cc6fffffffff","population":2645008,"population_year":2025,"area_km2":13035.7,"population_density":202.9,"all_players":1,"players_per_million":0.38,"player_ids":["volleyball:men-152752"],"label":"Amol","country":"Iran"},"geometry":{"type":"Polygon","coordinates":[[[51.664391,36.359742],[52.182604,35.862725],[52.95101,35.955004],[53.213179,36.549403],[52.693979,37.053793],[51.913459,36.956347],[51.664391,36.359742]]]}},{"type":"Feature","properties":{"hex_id":"832cf3fffffffff","population":17967524,"population_year":2025,"area_km2":12803.9,"population_density":1403.3,"all_players":1,"players_per_million":0.06,"player_ids":["volleyball:men-182475"],"label":"Tehran","country":"Iran"},"geometry":{"type":"Polygon","coordinates":[[[50.665034,35.66542],[51.181781,35.175714],[51.934881,35.271715],[52.182604,35.862725],[51.664391,36.359742],[50.899798,36.258373],[50.665034,35.66542]]]}},{"type":"Feature","properties":{"hex_id":"832d12fffffffff","population":2545614,"population_year":2025,"area_km2":13716.7,"population_density":185.6,"all_players":1,"players_per_million":0.39,"player_ids":["volleyball:women-163094"],"label":"Tarsus","country":"Turkey"},"geometry":{"type":"Polygon","coordinates":[[[34.48089,37.745305],[34.372474,37.097152],[35.019269,36.681632],[35.773758,36.910957],[35.890805,37.556076],[35.244825,37.97494],[34.48089,37.745305]]]}},{"type":"Feature","properties":{"hex_id":"832d33fffffffff","population":5604873,"population_year":2025,"area_km2":13675.5,"population_density":409.8,"all_players":6,"players_per_million":1.07,"player_ids":["volleyball:men-143816","volleyball:men-174213","volleyball:women-152312","volleyball:women-163091","volleyball:women-163116","volleyball:women-163975"],"label":"Ankara","country":"Turkey"},"geometry":{"type":"Polygon","coordinates":[[[31.894219,40.017977],[31.800238,39.373543],[32.482171,38.972075],[33.258471,39.211877],[33.362059,39.853917],[32.679825,40.25859],[31.894219,40.017977]]]}},{"type":"Feature","properties":{"hex_id":"832d34fffffffff","population":3182122,"population_year":2025,"area_km2":13841.6,"population_density":229.9,"all_players":1,"players_per_million":0.31,"player_ids":["volleyball:women-143585"],"label":"Kütahya","country":"Turkey"},"geometry":{"type":"Polygon","coordinates":[[[28.920766,40.29157],[28.846869,39.643311],[29.550166,39.257827],[30.329107,39.517523],[30.413179,40.164034],[29.708204,40.552644],[28.920766,40.29157]]]}},{"type":"Feature","properties":{"hex_id":"832d64fffffffff","population":993442,"population_year":2025,"area_km2":11735.1,"population_density":84.7,"all_players":1,"players_per_million":1.01,"player_ids":["volleyball:men-176222"],"label":"Dnipro","country":"Ukraine"},"geometry":{"type":"Polygon","coordinates":[[[35.105802,49.026097],[34.97725,48.445115],[35.711144,48.04724],[36.572269,48.227474],[36.711917,48.806],[35.979486,49.206792],[35.105802,49.026097]]]}},{"type":"Feature","properties":{"hex_id":"832daefffffffff","population":4828866,"population_year":2025,"area_km2":13618.2,"population_density":354.6,"all_players":1,"players_per_million":0.21,"player_ids":["volleyball:men-164158"],"label":"Reyhanlı","country":"Turkey"},"geometry":{"type":"Polygon","coordinates":[[[36.408242,36.489477],[36.289344,35.842123],[36.912602,35.41856],[37.653284,35.638981],[37.780161,36.282856],[37.158473,36.709818],[36.408242,36.489477]]]}},{"type":"Feature","properties":{"hex_id":"832e08fffffffff","population":754442,"population_year":2025,"area_km2":11509.5,"population_density":65.5,"all_players":1,"players_per_million":1.33,"player_ids":["volleyball:women-162224"],"label":"Akita","country":"Japan"},"geometry":{"type":"Polygon","coordinates":[[[140.891365,39.591299],[140.692184,40.194269],[139.963191,40.341129],[139.446276,39.887354],[139.652159,39.290395],[140.368409,39.141206],[140.891365,39.591299]]]}},{"type":"Feature","properties":{"hex_id":"832e1bfffffffff","population":2931596,"population_year":2025,"area_km2":11602.6,"population_density":252.7,"all_players":1,"players_per_million":0.34,"player_ids":["volleyball:women-187809"],"label":"Ebetsu","country":"Japan"},"geometry":{"type":"Polygon","coordinates":[[[141.93372,42.75965],[141.732147,43.360464],[140.962382,43.500645],[140.4084,43.04217],[140.61775,42.447067],[141.373482,42.304726],[141.93372,42.75965]]]}},{"type":"Feature","properties":{"hex_id":"832e2bfffffffff","population":2693136,"population_year":2025,"area_km2":11640.2,"population_density":231.4,"all_players":3,"players_per_million":1.11,"player_ids":["volleyball:men-142565","volleyball:men-163042","volleyball:men-189192"],"label":"Zaō-machi","country":"Japan"},"geometry":{"type":"Polygon","coordinates":[[[141.471732,37.770958],[141.281081,38.379495],[140.566653,38.538289],[140.055179,38.090666],[140.25243,37.488186],[140.954697,37.327278],[141.471732,37.770958]]]}},{"type":"Feature","properties":{"hex_id":"832e60fffffffff","population":10118954,"population_year":2025,"area_km2":10697.0,"population_density":946.0,"all_players":4,"players_per_million":0.4,"player_ids":["volleyball:men-142568","volleyball:men-146409","volleyball:women-162218","volleyball:women-162227"],"label":"Okazaki","country":"Japan"},"geometry":{"type":"Polygon","coordinates":[[[137.382008,34.835332],[137.176248,35.42312],[136.516951,35.566991],[136.074341,35.125905],[136.284758,34.544565],[136.933247,34.397885],[137.382008,34.835332]]]}},{"type":"Feature","properties":{"hex_id":"832e61fffffffff","population":16062419,"population_year":2025,"area_km2":10435.0,"population_density":1539.3,"all_players":5,"players_per_million":0.31,"player_ids":["volleyball:men-163516","volleyball:men-178762","volleyball:women-146519","volleyball:women-162206","volleyball:women-174243"],"label":"Kyoto Prefecture","country":"Japan"},"geometry":{"type":"Polygon","coordinates":[[[136.284758,34.544565],[136.074341,35.125905],[135.425844,35.264059],[134.998437,34.823901],[135.213088,34.249062],[135.851025,34.107905],[136.284758,34.544565]]]}},{"type":"Feature","properties":{"hex_id":"832e6bfffffffff","population":499810,"population_year":2025,"area_km2":9841.4,"population_density":50.8,"all_players":1,"players_per_million":2.0,"player_ids":["volleyball:women-190513"],"label":"Matsue","country":"Japan"},"geometry":{"type":"Polygon","coordinates":[[[133.503297,35.650678],[133.27663,36.214995],[132.640713,36.330765],[132.241949,35.885847],[132.471986,35.328043],[133.097527,35.208672],[133.503297,35.650678]]]}},{"type":"Feature","properties":{"hex_id":"832e6dfffffffff","population":2167585,"population_year":2025,"area_km2":9914.9,"population_density":218.6,"all_players":1,"players_per_million":0.46,"player_ids":["volleyball:men-209863"],"label":"Onomichi","country":"Japan"},"geometry":{"type":"Polygon","coordinates":[[[134.166838,33.949493],[133.948357,34.517795],[133.321804,34.645482],[132.923863,34.208239],[133.035155,33.927508],[133.095088,33.674587],[133.762313,33.515468],[134.166838,33.949493]]]}},{"type":"Feature","properties":{"hex_id":"832f5afffffffff","population":24486504,"population_year":2025,"area_km2":11478.7,"population_density":2133.2,"all_players":4,"players_per_million":0.16,"player_ids":["volleyball:men-192353","volleyball:women-151944","volleyball:women-189525","volleyball:women-190503"],"label":"Kanagawa Prefecture","country":"Japan"},"geometry":{"type":"Polygon","coordinates":[[[140.827794,35.672072],[140.638685,36.278739],[139.948213,36.441778],[139.458427,36.000295],[139.653549,35.399825],[140.332575,35.234652],[140.827794,35.672072]]]}},{"type":"Feature","properties":{"hex_id":"832f5bfffffffff","population":13410110,"population_year":2025,"area_km2":11219.7,"population_density":1195.2,"all_players":3,"players_per_million":0.22,"player_ids":["volleyball:men-192453","volleyball:women-141953","volleyball:women-163040"],"label":"Minamiashigara","country":"Japan"},"geometry":{"type":"Polygon","coordinates":[[[139.653549,35.399825],[139.458427,36.000295],[138.778095,36.156603],[138.304265,35.714832],[138.504933,35.120661],[139.174011,34.961977],[139.653549,35.399825]]]}},{"type":"Feature","properties":{"hex_id":"833084fffffffff","population":5183952,"population_year":2025,"area_km2":9031.8,"population_density":574.0,"all_players":1,"players_per_million":0.19,"player_ids":["volleyball:women-143206"],"label":"Lianyungang","country":"People's Republic of China"},"geometry":{"type":"Polygon","coordinates":[[[119.586952,34.285353],[119.469191,34.818835],[118.859239,35.078013],[118.365822,34.802491],[118.487828,34.266125],[119.099002,34.008155],[119.586952,34.285353]]]}},{"type":"Feature","properties":{"hex_id":"8330cbfffffffff","population":594673,"population_year":2025,"area_km2":9571.3,"population_density":62.1,"all_players":1,"players_per_million":1.68,"player_ids":["volleyball:men-200705"],"label":"Hagi","country":"Japan"},"geometry":{"type":"Polygon","coordinates":[[[130.978177,34.622109],[131.099289,34.125791],[131.763398,33.979751],[132.308377,34.331159],[132.080882,34.887802],[131.466722,35.002562],[131.340334,34.856241],[130.978177,34.622109]]]}},{"type":"Feature","properties":{"hex_id":"8330d9fffffffff","population":4231402,"population_year":2025,"area_km2":9765.8,"population_density":433.3,"all_players":3,"players_per_million":0.71,"player_ids":["volleyball:men-142562","volleyball:men-142570","volleyball:women-162223"],"label":"Sasebo","country":"Japan"},"geometry":{"type":"Polygon","coordinates":[[[129.359518,33.546094],[129.481047,33.042329],[130.139649,32.900871],[130.678947,33.26453],[130.557843,33.768644],[129.896988,33.908774],[129.359518,33.546094]]]}},{"type":"Feature","properties":{"hex_id":"8330e5fffffffff","population":1897576,"population_year":2025,"area_km2":8469.8,"population_density":224.0,"all_players":1,"players_per_million":0.53,"player_ids":["volleyball:women-163760"],"label":"Paju","country":"South Korea"},"geometry":{"type":"Polygon","coordinates":[[[127.206753,38.151759],[126.947066,38.672915],[126.346943,38.738746],[126.016149,38.288146],[126.277216,37.773186],[126.867787,37.702666],[127.206753,38.151759]]]}},{"type":"Feature","properties":{"hex_id":"833943fffffffff","population":178309,"population_year":2025,"area_km2":12423.2,"population_density":14.4,"all_players":1,"players_per_million":5.61,"player_ids":["volleyball:men-164897"],"label":"Artà","country":"Spain"},"geometry":{"type":"Polygon","coordinates":[[[2.928119,40.355416],[3.0341,39.73632],[3.768973,39.524231],[4.408495,39.931959],[4.310937,40.554931],[3.565326,40.766324],[2.928119,40.355416]]]}},{"type":"Feature","properties":{"hex_id":"833960fffffffff","population":1981057,"population_year":2025,"area_km2":11692.4,"population_density":169.4,"all_players":1,"players_per_million":0.5,"player_ids":["volleyball:women-151231"],"label":"Albi","country":"France"},"geometry":{"type":"Polygon","coordinates":[[[0.863645,43.838891],[0.983681,43.215794],[1.479021,43.047512],[1.731415,42.986442],[2.376288,43.400946],[2.261329,43.999258],[1.748812,44.119982],[1.498849,44.205806],[0.863645,43.838891]]]}},{"type":"Feature","properties":{"hex_id":"833963fffffffff","population":852421,"population_year":2025,"area_km2":11889.7,"population_density":71.7,"all_players":1,"players_per_million":1.17,"player_ids":["volleyball:women-168983"],"label":"Narbonne","country":"France"},"geometry":{"type":"Polygon","coordinates":[[[1.731415,42.986442],[1.848287,42.384487],[2.601521,42.193196],[3.24935,42.604792],[3.141109,43.210561],[2.376288,43.400946],[1.731415,42.986442]]]}},{"type":"Feature","properties":{"hex_id":"833968fffffffff","population":2544994,"population_year":2025,"area_km2":12236.4,"population_density":208.0,"all_players":3,"players_per_million":1.18,"player_ids":["volleyball:men-142686","volleyball:women-162899","volleyball:women-182124"],"label":"Toulon","country":"France"},"geometry":{"type":"Polygon","coordinates":[[[4.574932,43.41921],[4.674096,42.809849],[5.441717,42.599473],[6.121326,42.998792],[6.03167,43.611509],[5.252785,43.821585],[4.574932,43.41921]]]}},{"type":"Feature","properties":{"hex_id":"833969fffffffff","population":1583636,"population_year":2025,"area_km2":12395.2,"population_density":127.8,"all_players":3,"players_per_million":1.89,"player_ids":["volleyball:men-203390","volleyball:women-182123","volleyball:women-188044"],"label":"Nice","country":"France"},"geometry":{"type":"Polygon","coordinates":[[[6.03167,43.611509],[6.121326,42.998792],[6.894879,42.778417],[7.589687,43.17079],[7.509948,43.786609],[6.725378,44.00699],[6.03167,43.611509]]]}},{"type":"Feature","properties":{"hex_id":"83396cfffffffff","population":2034996,"population_year":2025,"area_km2":11988.0,"population_density":169.8,"all_players":1,"players_per_million":0.49,"player_ids":["volleyball:men-186251"],"label":"Avignon","country":"France"},"geometry":{"type":"Polygon","coordinates":[[[3.696702,44.221235],[3.802654,43.619279],[4.574932,43.41921],[5.252785,43.821585],[5.156296,44.426959],[4.372371,44.626573],[3.696702,44.221235]]]}},{"type":"Feature","properties":{"hex_id":"833f24fffffffff","population":883214,"population_year":2025,"area_km2":13951.3,"population_density":63.3,"all_players":1,"players_per_million":1.13,"player_ids":["volleyball:men-153200"],"label":"Cariati","country":"Italy"},"geometry":{"type":"Polygon","coordinates":[[[16.087589,39.612646],[16.10484,38.959111],[16.849969,38.651325],[17.584961,38.995264],[17.578247,39.650065],[16.825973,39.959711],[16.087589,39.612646]]]}},{"type":"Feature","properties":{"hex_id":"833f66fffffffff","population":2932775,"population_year":2025,"area_km2":14227.8,"population_density":206.1,"all_players":2,"players_per_million":0.68,"player_ids":["volleyball:men-143804","volleyball:women-143590"],"label":"İzmir","country":"Turkey"},"geometry":{"type":"Polygon","coordinates":[[[25.753097,38.527963],[25.702401,37.868316],[26.409422,37.497495],[27.170213,37.78333],[27.23108,38.441913],[26.521028,38.815775],[25.753097,38.527963]]]}},{"type":"Feature","properties":{"hex_id":"834168fffffffff","population":1064956,"population_year":2025,"area_km2":14123.1,"population_density":75.4,"all_players":1,"players_per_million":0.94,"player_ids":["volleyball:women-123019"],"label":"Nakhon Phanom","country":"Thailand"},"geometry":{"type":"Polygon","coordinates":[[[105.474906,16.980348],[105.316941,17.628685],[104.652714,17.83214],[104.147431,17.385432],[104.308637,16.735504],[104.971912,16.533858],[105.474906,16.980348]]]}},{"type":"Feature","properties":{"hex_id":"834432fffffffff","population":2539158,"population_year":2025,"area_km2":11583.9,"population_density":219.2,"all_players":3,"players_per_million":1.18,"player_ids":["volleyball:men-114422","volleyball:men-137102","volleyball:men-147263"],"label":"Havana","country":"Cuba"},"geometry":{"type":"Polygon","coordinates":[[[-82.583678,22.630062],[-82.146214,23.085326],[-82.310403,23.682659],[-82.919384,23.827151],[-83.361261,23.368803],[-83.189751,22.769068],[-82.583678,22.630062]]]}},{"type":"Feature","properties":{"hex_id":"834440fffffffff","population":700278,"population_year":2025,"area_km2":13258.9,"population_density":52.8,"all_players":1,"players_per_million":1.43,"player_ids":["volleyball:women-210045"],"label":"Baton Rouge","country":"United States"},"geometry":{"type":"Polygon","coordinates":[[[-91.213549,30.149237],[-90.737597,30.634218],[-90.980019,31.253903],[-91.70664,31.389766],[-92.185406,30.901967],[-91.934789,30.281145],[-91.213549,30.149237]]]}},{"type":"Feature","properties":{"hex_id":"83446cfffffffff","population":6104544,"population_year":2025,"area_km2":13866.8,"population_density":440.2,"all_players":2,"players_per_million":0.33,"player_ids":["volleyball:women-132247","volleyball:women-189583"],"label":"Sugar Land","country":"United States"},"geometry":{"type":"Polygon","coordinates":[[[-94.808948,29.022702],[-94.340041,29.530809],[-94.606515,30.15309],[-95.34958,30.267602],[-95.820095,29.756435],[-95.546005,29.133838],[-94.808948,29.022702]]]}},{"type":"Feature","properties":{"hex_id":"83446dfffffffff","population":1444582,"population_year":2025,"area_km2":13951.3,"population_density":103.5,"all_players":1,"players_per_million":0.69,"player_ids":["volleyball:women-192906"],"label":"Katy","country":"United States"},"geometry":{"type":"Polygon","coordinates":[[[-95.820095,29.756435],[-95.34958,30.267602],[-95.624961,30.889041],[-96.378487,30.999471],[-96.850284,30.485306],[-96.567347,29.863731],[-95.820095,29.756435]]]}},{"type":"Feature","properties":{"hex_id":"8344a9fffffffff","population":3916404,"population_year":2025,"area_km2":11308.9,"population_density":346.3,"all_players":1,"players_per_million":0.26,"player_ids":["volleyball:women-152195"],"label":"Clermont","country":"United States"},"geometry":{"type":"Polygon","coordinates":[[[-81.177173,27.861791],[-80.722601,28.294198],[-80.88346,28.895015],[-81.506834,29.066476],[-81.966494,28.631807],[-81.797694,28.027952],[-81.177173,27.861791]]]}},{"type":"Feature","properties":{"hex_id":"8344aefffffffff","population":1495063,"population_year":2025,"area_km2":10947.5,"population_density":136.6,"all_players":1,"players_per_million":0.67,"player_ids":["volleyball:women-205186"],"label":"Lake Worth Beach","country":"United States"},"geometry":{"type":"Polygon","coordinates":[[[-79.655984,26.333663],[-79.211732,26.761492],[-79.358798,27.355871],[-79.957715,27.52564],[-80.407147,27.095513],[-80.252477,26.497928],[-79.655984,26.333663]]]}},{"type":"Feature","properties":{"hex_id":"834589fffffffff","population":243642,"population_year":2025,"area_km2":11344.9,"population_density":21.5,"all_players":1,"players_per_million":4.1,"player_ids":["volleyball:men-151821"],"label":"Matanzas","country":"Cuba"},"geometry":{"type":"Polygon","coordinates":[[[-81.548501,22.94201],[-81.112284,23.390484],[-81.269171,23.9852],[-81.869579,24.134078],[-82.310403,23.682659],[-82.146214,23.085326],[-81.548501,22.94201]]]}},{"type":"Feature","properties":{"hex_id":"83458efffffffff","population":872486,"population_year":2025,"area_km2":10913.5,"population_density":79.9,"all_players":3,"players_per_million":3.44,"player_ids":["volleyball:men-151817","volleyball:men-157318","volleyball:women-143339"],"label":"Cienfuegos","country":"Cuba"},"geometry":{"type":"Polygon","coordinates":[[[-80.077621,21.478702],[-79.650763,21.921223],[-79.794851,22.506839],[-80.372807,22.652678],[-80.804364,22.207171],[-80.653263,21.618829],[-80.077621,21.478702]]]}},{"type":"Feature","properties":{"hex_id":"834592fffffffff","population":1181524,"population_year":2025,"area_km2":9779.9,"population_density":120.8,"all_players":1,"players_per_million":0.85,"player_ids":["volleyball:men-147273"],"label":"Holguin","country":"Cuba"},"geometry":{"type":"Polygon","coordinates":[[[-76.113182,19.92026],[-75.705163,20.341354],[-75.818705,20.905271],[-76.346667,21.05125],[-76.759654,20.627392],[-76.639697,20.060333],[-76.113182,19.92026]]]}},{"type":"Feature","properties":{"hex_id":"8348d8fffffffff","population":986719,"population_year":2025,"area_km2":14123.1,"population_density":69.9,"all_players":1,"players_per_million":1.01,"player_ids":["volleyball:men-213198"],"label":"Rio Rancho","country":"United States"},"geometry":{"type":"Polygon","coordinates":[[[-105.854904,34.885496],[-105.392452,35.425897],[-105.747797,36.019809],[-106.57143,36.071785],[-107.031302,35.529111],[-106.670244,34.936744],[-105.854904,34.885496]]]}},{"type":"Feature","properties":{"hex_id":"8348ebfffffffff","population":2689536,"population_year":2025,"area_km2":14369.4,"population_density":187.2,"all_players":1,"players_per_million":0.37,"player_ids":["volleyball:women-147590"],"label":"Scottsdale","country":"United States"},"geometry":{"type":"Polygon","coordinates":[[[-110.867885,32.814698],[-110.438155,33.380106],[-110.813583,33.966592],[-111.622726,33.985325],[-112.048129,33.41802],[-111.668838,32.833881],[-110.867885,32.814698]]]}},{"type":"Feature","properties":{"hex_id":"834b34fffffffff","population":8884076,"population_year":2025,"area_km2":9751.8,"population_density":911.0,"all_players":1,"players_per_million":0.11,"player_ids":["volleyball:men-142581"],"label":"Ningbo","country":"People's Republic of China"},"geometry":{"type":"Polygon","coordinates":[[[120.503394,29.892985],[120.624212,29.380355],[121.238441,29.270157],[121.735116,29.675158],[121.613919,30.189025],[120.996404,30.296676],[120.503394,29.892985]]]}},{"type":"Feature","properties":{"hex_id":"834b62fffffffff","population":822235,"population_year":2025,"area_km2":10234.0,"population_density":80.3,"all_players":1,"players_per_million":1.22,"player_ids":["volleyball:men-189064"],"label":"Miyazaki Prefecture","country":"Japan"},"geometry":{"type":"Polygon","coordinates":[[[130.920644,32.240453],[131.041236,31.720504],[131.702216,31.564914],[132.244576,31.930572],[132.124554,32.450789],[131.461574,32.605104],[130.920644,32.240453]]]}},{"type":"Feature","properties":{"hex_id":"834b65fffffffff","population":1368780,"population_year":2025,"area_km2":9786.4,"population_density":139.9,"all_players":1,"players_per_million":0.73,"player_ids":["volleyball:men-172192"],"label":"Matsuyama","country":"Japan"},"geometry":{"type":"Polygon","coordinates":[[[131.763398,33.979751],[131.883964,33.475385],[132.548885,33.322249],[133.095088,33.674587],[133.035155,33.927508],[132.923863,34.208239],[132.308377,34.331159],[131.763398,33.979751]]]}},{"type":"Feature","properties":{"hex_id":"834b66fffffffff","population":1830583,"population_year":2025,"area_km2":10000.2,"population_density":183.1,"all_players":1,"players_per_million":0.55,"player_ids":["volleyball:men-163038"],"label":"Kumamoto","country":"Japan"},"geometry":{"type":"Polygon","coordinates":[[[130.139649,32.900871],[130.260732,32.389001],[130.920644,32.240453],[131.461574,32.605104],[131.340987,33.117287],[130.678947,33.26453],[130.139649,32.900871]]]}},{"type":"Feature","properties":{"hex_id":"834b71fffffffff","population":333995,"population_year":2025,"area_km2":10456.0,"population_density":31.9,"all_players":1,"players_per_million":2.99,"player_ids":["volleyball:men-205047"],"label":"Ibusuki","country":"Japan"},"geometry":{"type":"Polygon","coordinates":[[[130.502399,31.349458],[130.622982,30.821811],[131.281902,30.664849],[131.82227,31.036932],[131.702216,31.564914],[131.041236,31.720504],[130.502399,31.349458]]]}},{"type":"Feature","properties":{"hex_id":"834c9afffffffff","population":883694,"population_year":2025,"area_km2":9571.3,"population_density":92.3,"all_players":1,"players_per_million":1.13,"player_ids":["volleyball:men-119646"],"label":"Santiago de Cuba","country":"Cuba"},"geometry":{"type":"Polygon","coordinates":[[[-75.383035,19.272201],[-75.028702,19.665906],[-75.115078,19.825711],[-75.187475,20.198213],[-75.705163,20.341354],[-76.113182,19.92026],[-75.998548,19.358823],[-75.383035,19.272201]]]}},{"type":"Feature","properties":{"hex_id":"834cd0fffffffff","population":743369,"population_year":2025,"area_km2":9424.3,"population_density":78.9,"all_players":2,"players_per_million":2.69,"player_ids":["volleyball:women-119224","volleyball:women-149530"],"label":"Yaguate","country":"Dominican Republic"},"geometry":{"type":"Polygon","coordinates":[[[-70.530834,18.514249],[-70.868966,18.125085],[-70.608371,17.631491],[-70.010374,17.530196],[-69.67532,17.921613],[-69.935154,18.412077],[-70.530834,18.514249]]]}},{"type":"Feature","properties":{"hex_id":"834cd4fffffffff","population":4361222,"population_year":2025,"area_km2":9182.1,"population_density":475.0,"all_players":6,"players_per_million":1.38,"player_ids":["volleyball:women-119585","volleyball:women-123978","volleyball:women-123982","volleyball:women-139910","volleyball:women-139927","volleyball:women-183317"],"label":"Santo Domingo","country":"Dominican Republic"},"geometry":{"type":"Polygon","coordinates":[[[-70.45385,19.381759],[-70.79055,19.000618],[-70.530834,18.514249],[-69.935154,18.412077],[-69.601523,18.795461],[-69.860471,19.278779],[-70.45385,19.381759]]]}},{"type":"Feature","properties":{"hex_id":"8354acfffffffff","population":2715397,"population_year":2025,"area_km2":12270.7,"population_density":221.3,"all_players":1,"players_per_million":0.37,"player_ids":["volleyball:men-181197"],"label":"Dakar","country":"Senegal"},"geometry":{"type":"Polygon","coordinates":[[[-17.910453,15.729652],[-18.33442,15.250645],[-18.108203,14.694007],[-17.464517,14.61364],[-17.04054,15.086958],[-17.260194,15.646296],[-17.910453,15.729652]]]}},{"type":"Feature","properties":{"hex_id":"835e43fffffffff","population":276243,"population_year":2025,"area_km2":10249.3,"population_density":27.0,"all_players":1,"players_per_million":3.62,"player_ids":["volleyball:women-168986"],"label":"Baie-Mahault","country":"France"},"geometry":{"type":"Polygon","coordinates":[[[-61.439419,15.31352],[-61.119647,15.827447],[-61.391292,16.29508],[-61.979153,16.249349],[-62.295927,15.738968],[-62.027856,15.270791],[-61.439419,15.31352]]]}},{"type":"Feature","properties":{"hex_id":"835f59fffffffff","population":355302,"population_year":2025,"area_km2":11119.9,"population_density":32.0,"all_players":1,"players_per_million":2.81,"player_ids":["volleyball:women-122646"],"label":"Mount Hope","country":"Trinidad and Tobago"},"geometry":{"type":"Polygon","coordinates":[[[-61.681928,10.235997],[-61.360364,10.769087],[-61.633175,11.272633],[-62.223917,11.243079],[-62.542405,10.713529],[-62.273246,10.210012],[-61.681928,10.235997]]]}},{"type":"Feature","properties":{"hex_id":"8364a0fffffffff","population":1260424,"population_year":2025,"area_km2":14687.7,"population_density":85.8,"all_players":1,"players_per_million":0.79,"player_ids":["volleyball:women-152179"],"label":"Chai Nat","country":"Thailand"},"geometry":{"type":"Polygon","coordinates":[[[100.45249,14.832364],[100.282029,15.48793],[99.606852,15.676099],[99.103875,15.20763],[99.277024,14.551609],[99.950498,14.364493],[100.45249,14.832364]]]}},{"type":"Feature","properties":{"hex_id":"8364a4fffffffff","population":21602692,"population_year":2025,"area_km2":14696.9,"population_density":1469.9,"all_players":1,"players_per_million":0.05,"player_ids":["volleyball:women-152205"],"label":"Suphan Buri","country":"Thailand"},"geometry":{"type":"Polygon","coordinates":[[[101.291897,13.985209],[101.123991,14.642076],[100.45249,14.832364],[99.950498,14.364493],[100.121173,13.70703],[100.791105,13.518015],[101.291897,13.985209]]]}},{"type":"Feature","properties":{"hex_id":"8364a5fffffffff","population":1737014,"population_year":2025,"area_km2":14771.4,"population_density":117.6,"all_players":1,"players_per_million":0.58,"player_ids":["volleyball:women-142174"],"label":"Nakhon Pathom","country":"Thailand"},"geometry":{"type":"Polygon","coordinates":[[[100.121173,13.70703],[99.950498,14.364493],[99.277024,14.551609],[98.776001,14.080183],[98.949307,13.422389],[99.621042,13.236333],[100.121173,13.70703]]]}},{"type":"Feature","properties":{"hex_id":"8364b4fffffffff","population":1980684,"population_year":2025,"area_km2":14387.3,"population_density":137.7,"all_players":1,"players_per_million":0.5,"player_ids":["volleyball:women-183330"],"label":"Khon Kaen","country":"Thailand"},"geometry":{"type":"Polygon","coordinates":[[[103.137733,16.48245],[102.973397,17.133721],[102.301759,17.330096],[101.795802,16.873739],[101.96315,16.221378],[102.633475,16.026446],[103.137733,16.48245]]]}},{"type":"Feature","properties":{"hex_id":"836593fffffffff","population":1657113,"population_year":2025,"area_km2":14227.8,"population_density":116.5,"all_players":1,"players_per_million":0.6,"player_ids":["volleyball:women-174980"],"label":"Ubon Ratchathani","country":"Thailand"},"geometry":{"type":"Polygon","coordinates":[[[105.944076,15.027903],[105.788469,15.679778],[105.130328,15.882713],[104.628684,15.431709],[104.787531,14.778203],[105.444807,14.577315],[105.944076,15.027903]]]}},{"type":"Feature","properties":{"hex_id":"836598fffffffff","population":1414018,"population_year":2025,"area_km2":14495.3,"population_density":97.5,"all_players":1,"players_per_million":0.71,"player_ids":["volleyball:women-147213"],"label":"Buri Ram","country":"Thailand"},"geometry":{"type":"Polygon","coordinates":[[[103.626031,14.521046],[103.464048,15.17593],[102.798155,15.372577],[102.295498,14.912642],[102.460504,14.256636],[103.125176,14.061667],[103.626031,14.521046]]]}},{"type":"Feature","properties":{"hex_id":"836599fffffffff","population":1877572,"population_year":2025,"area_km2":14604.7,"population_density":128.6,"all_players":1,"players_per_million":0.53,"player_ids":["volleyball:women-145244"],"label":"Nakhon Ratchasima","country":"Thailand"},"geometry":{"type":"Polygon","coordinates":[[[102.460504,14.256636],[102.295498,14.912642],[101.626527,15.106112],[101.123991,14.642076],[101.291897,13.985209],[101.959472,13.79322],[102.460504,14.256636]]]}},{"type":"Feature","properties":{"hex_id":"83659afffffffff","population":1705617,"population_year":2025,"area_km2":14387.3,"population_density":118.6,"all_players":1,"players_per_million":0.59,"player_ids":["volleyball:women-142172"],"label":"Roi Et","country":"Thailand"},"geometry":{"type":"Polygon","coordinates":[[[103.966406,15.631515],[103.804802,16.284148],[103.137733,16.48245],[102.633475,16.026446],[102.798155,15.372577],[103.464048,15.17593],[103.966406,15.631515]]]}},{"type":"Feature","properties":{"hex_id":"83818efffffffff","population":1349887,"population_year":2025,"area_km2":14659.9,"population_density":92.1,"all_players":1,"players_per_million":0.74,"player_ids":["volleyball:men-161930"],"label":"Campina Grande","country":"Brazil"},"geometry":{"type":"Polygon","coordinates":[[[-35.57876,-7.558052],[-35.233892,-6.974007],[-35.56665,-6.385931],[-36.245012,-6.380926],[-36.591714,-6.96546],[-36.258266,-7.554509],[-35.57876,-7.558052]]]}},{"type":"Feature","properties":{"hex_id":"83a810fffffffff","population":24232036,"population_year":2025,"area_km2":12479.4,"population_density":1941.8,"all_players":4,"players_per_million":0.17,"player_ids":["volleyball:men-178341","volleyball:women-151187","volleyball:women-152119","volleyball:women-163000"],"label":"São Paulo","country":"Brazil"},"geometry":{"type":"Polygon","coordinates":[[[-46.29901,-24.248724],[-45.933728,-23.740374],[-46.268552,-23.19855],[-46.967078,-23.166485],[-47.331841,-23.675521],[-46.998649,-24.215936],[-46.29901,-24.248724]]]}},{"type":"Feature","properties":{"hex_id":"83a831fffffffff","population":3481652,"population_year":2025,"area_km2":11889.7,"population_density":292.8,"all_players":1,"players_per_million":0.29,"player_ids":["volleyball:women-119575"],"label":"Curitiba","country":"Brazil"},"geometry":{"type":"Polygon","coordinates":[[[-48.461028,-26.195141],[-48.095234,-25.707467],[-48.427056,-25.175061],[-49.122632,-25.131953],[-49.487409,-25.620271],[-49.157677,-26.151054],[-48.461028,-26.195141]]]}},{"type":"Feature","properties":{"hex_id":"83a881fffffffff","population":2871054,"population_year":2025,"area_km2":13361.1,"population_density":214.9,"all_players":1,"players_per_million":0.35,"player_ids":["volleyball:women-136896"],"label":"Belo Horizonte","country":"Brazil"},"geometry":{"type":"Polygon","coordinates":[[[-43.049294,-20.61768],[-42.687026,-20.078722],[-43.024289,-19.521358],[-43.722951,-19.503925],[-44.08545,-20.043635],[-43.749109,-20.600024],[-43.049294,-20.61768]]]}},{"type":"Feature","properties":{"hex_id":"83a88cfffffffff","population":3442626,"population_year":2025,"area_km2":13448.5,"population_density":256.0,"all_players":2,"players_per_million":0.58,"player_ids":["volleyball:men-136468","volleyball:men-136947"],"label":"Contagem","country":"Brazil"},"geometry":{"type":"Polygon","coordinates":[[[-44.08545,-20.043635],[-43.722951,-19.503925],[-44.058763,-18.941939],[-44.755983,-18.920725],[-45.118474,-19.461066],[-44.783806,-20.02199],[-44.08545,-20.043635]]]}},{"type":"Feature","properties":{"hex_id":"83a8a0fffffffff","population":8274783,"population_year":2025,"area_km2":12679.7,"population_density":652.6,"all_players":1,"players_per_million":0.12,"player_ids":["volleyball:women-173849"],"label":"Rio de Janeiro","country":"Brazil"},"geometry":{"type":"Polygon","coordinates":[[[-43.124812,-23.832505],[-42.760671,-23.312736],[-43.099555,-22.773798],[-43.801686,-22.755715],[-44.166042,-23.27637],[-43.828106,-23.81422],[-43.124812,-23.832505]]]}},{"type":"Feature","properties":{"hex_id":"83a8d1fffffffff","population":1307414,"population_year":2025,"area_km2":13968.4,"population_density":93.6,"all_players":2,"players_per_million":1.53,"player_ids":["volleyball:men-164313","volleyball:women-173848"],"label":"Brasília","country":"Brazil"},"geometry":{"type":"Polygon","coordinates":[[[-47.109521,-16.03319],[-46.748934,-15.481233],[-47.078169,-14.899273],[-47.766284,-14.870479],[-48.126183,-15.422507],[-47.798704,-16.003258],[-47.109521,-16.03319]]]}},{"type":"Feature","properties":{"hex_id":"83a90efffffffff","population":2931559,"population_year":2025,"area_km2":10757.4,"population_density":272.5,"all_players":1,"players_per_million":0.34,"player_ids":["volleyball:men-142744"],"label":"Caxias do Sul","country":"Brazil"},"geometry":{"type":"Polygon","coordinates":[[[-50.694112,-29.975751],[-50.327685,-29.525999],[-50.656495,-29.017369],[-51.349222,-28.960207],[-51.714121,-29.410621],[-51.387869,-29.917536],[-50.694112,-29.975751]]]}},{"type":"Feature","properties":{"hex_id":"83a91bfffffffff","population":1545297,"population_year":2025,"area_km2":11387.2,"population_density":135.7,"all_players":1,"players_per_million":0.65,"player_ids":["volleyball:women-136897"],"label":"Nova Trento","country":"Brazil"},"geometry":{"type":"Polygon","coordinates":[[[-48.529304,-28.191965],[-48.162311,-27.719724],[-48.495111,-27.200878],[-49.192836,-27.155857],[-49.55879,-27.628793],[-49.228108,-28.146055],[-48.529304,-28.191965]]]}},{"type":"Feature","properties":{"hex_id":"83b243fffffffff","population":2241166,"population_year":2025,"area_km2":10249.3,"population_density":218.7,"all_players":2,"players_per_million":0.89,"player_ids":["volleyball:men-142420","volleyball:men-182708"],"label":"Córdoba","country":"Argentina"},"geometry":{"type":"Polygon","coordinates":[[[-64.339469,-30.742004],[-64.703774,-31.253366],[-64.402296,-31.723186],[-63.7387,-31.680908],[-63.379667,-31.171639],[-63.678922,-30.702564],[-64.339469,-30.742004]]]}},{"type":"Feature","properties":{"hex_id":"83b252fffffffff","population":719974,"population_year":2025,"area_km2":10857.3,"population_density":66.3,"all_players":1,"players_per_million":1.39,"player_ids":["volleyball:men-142415"],"label":"San Juan","country":"Argentina"},"geometry":{"type":"Polygon","coordinates":[[[-68.405233,-30.910532],[-68.792939,-31.419424],[-68.486872,-31.907057],[-67.794544,-31.885123],[-67.411516,-31.377893],[-67.71609,-30.890943],[-68.405233,-30.910532]]]}},{"type":"Feature","properties":{"hex_id":"83c2cdfffffffff","population":497295,"population_year":2025,"area_km2":9415.5,"population_density":52.8,"all_players":1,"players_per_million":2.01,"player_ids":["volleyball:men-163555"],"label":"Paraná","country":"Argentina"},"geometry":{"type":"Polygon","coordinates":[[[-60.501438,-31.424731],[-60.842284,-31.931555],[-60.546841,-32.376319],[-59.913334,-32.31362],[-59.578161,-31.809268],[-59.870796,-31.365154],[-60.501438,-31.424731]]]}},{"type":"Feature","properties":{"hex_id":"83c2e3fffffffff","population":14955631,"population_year":2025,"area_km2":8646.0,"population_density":1729.8,"all_players":1,"players_per_million":0.07,"player_ids":["volleyball:men-162546"],"label":"Buenos Aires","country":"Argentina"},"geometry":{"type":"Polygon","coordinates":[[[-58.126426,-34.977792],[-57.770125,-34.604602],[-58.07815,-34.129709],[-58.738685,-34.029993],[-59.071246,-34.523027],[-58.77656,-34.937002],[-58.567821,-34.91082],[-58.126426,-34.977792]]]}},{"type":"Feature","properties":{"hex_id":"83c34efffffffff","population":124231,"population_year":2025,"area_km2":9228.9,"population_density":13.5,"all_players":1,"players_per_million":8.05,"player_ids":["volleyball:men-142411"],"label":"General Villegas Partido","country":"Argentina"},"geometry":{"type":"Polygon","coordinates":[[[-63.61674,-34.980731],[-63.982977,-35.470017],[-63.677291,-35.901065],[-63.007756,-35.842443],[-62.647066,-35.355151],[-62.950329,-34.924495],[-63.61674,-34.980731]]]}},{"type":"Feature","properties":{"hex_id":"83c36dfffffffff","population":68491,"population_year":2025,"area_km2":9980.8,"population_density":6.9,"all_players":1,"players_per_million":14.6,"player_ids":["volleyball:men-152692"],"label":"General Alvear","country":"Argentina"},"geometry":{"type":"Polygon","coordinates":[[[-67.645094,-34.298674],[-68.033964,-34.789455],[-67.724298,-35.245624],[-67.0274,-35.210555],[-66.643469,-34.721393],[-66.95145,-34.265688],[-67.645094,-34.298674]]]}}]}