{"type":"FeatureCollection","metadata":{"population_source":"WorldPop Global 2 R2025A","population_source_url":"https://hub.worldpop.org/project/categories?id=3","population_license":"CC BY 4.0","population_year":2025,"raster_resolution":"1km","h3_resolution":2,"population_method":"official_country_rasters","occupied_cells":108,"mapped_players":349},"features":[{"type":"Feature","properties":{"hex_id":"820747fffffffff","population":53546,"population_year":2025,"area_km2":74863.4,"population_density":0.7,"all_players":1,"players_per_million":18.68,"player_ids":["volleyball:women-184664"],"label":"Akureyri","country":"Iceland"},"geometry":{"type":"Polygon","coordinates":[[[-14.94239,65.109825],[-17.546112,66.095565],[-20.90437,65.434808],[-21.32794,63.819532],[-18.741713,62.920399],[-15.697123,63.552517],[-14.94239,65.109825]]]}},{"type":"Feature","properties":{"hex_id":"821197fffffffff","population":5411512,"population_year":2025,"area_km2":81458.9,"population_density":66.4,"all_players":2,"players_per_million":0.37,"player_ids":["volleyball:men-148447","volleyball:men-158933"],"label":"Kharkiv","country":"Ukraine"},"geometry":{"type":"Polygon","coordinates":[[[34.739692,51.127123],[36.116724,49.779343],[38.481259,49.879789],[39.607695,51.365697],[38.242666,52.766684],[35.733455,52.627433],[34.739692,51.127123]]]}},{"type":"Feature","properties":{"hex_id":"821257fffffffff","population":119375,"population_year":2025,"area_km2":88726.5,"population_density":1.3,"all_players":1,"players_per_million":8.38,"player_ids":["volleyball:men-157588"],"label":"Athabasca","country":"Canada"},"geometry":{"type":"Polygon","coordinates":[[[-112.259581,56.66737],[-114.22928,55.478388],[-113.357086,53.867769],[-110.686347,53.386336],[-108.678607,54.501948],[-109.368403,56.171176],[-112.259581,56.66737]]]}},{"type":"Feature","properties":{"hex_id":"8212cffffffffff","population":1447775,"population_year":2025,"area_km2":81458.9,"population_density":17.8,"all_players":4,"players_per_million":2.76,"player_ids":["volleyball:men-162249","volleyball:men-169578","volleyball:women-174676","volleyball:women-174682"],"label":"Calgary","country":"Canada"},"geometry":{"type":"Polygon","coordinates":[[[-114.293343,51.131925],[-115.913157,50.003546],[-115.101052,48.471845],[-112.788004,48.011188],[-111.127907,49.073528],[-111.813584,50.661988],[-114.293343,51.131925]]]}},{"type":"Feature","properties":{"hex_id":"8212d7fffffffff","population":626499,"population_year":2025,"area_km2":76219.8,"population_density":8.2,"all_players":2,"players_per_million":3.19,"player_ids":["volleyball:men-162251","volleyball:men-168914"],"label":"Kelowna","country":"Canada"},"geometry":{"type":"Polygon","coordinates":[[[-121.777262,52.190065],[-123.122866,50.984711],[-122.065326,49.540804],[-119.747324,49.236416],[-118.32059,50.385511],[-119.284605,51.895658],[-121.777262,52.190065]]]}},{"type":"Feature","properties":{"hex_id":"8212dffffffffff","population":1026503,"population_year":2025,"area_km2":77926.1,"population_density":13.2,"all_players":1,"players_per_million":0.97,"player_ids":["volleyball:women-168354"],"label":"Cranbrook","country":"Canada"},"geometry":{"type":"Polygon","coordinates":[[[-118.32059,50.385511],[-119.747324,49.236416],[-119.232215,47.804097],[-116.945809,47.422734],[-115.101052,48.471845],[-115.913157,50.003546],[-118.32059,50.385511]]]}},{"type":"Feature","properties":{"hex_id":"8212effffffffff","population":2419420,"population_year":2025,"area_km2":85294.5,"population_density":28.4,"all_players":2,"players_per_million":0.83,"player_ids":["volleyball:men-168941","volleyball:women-191827"],"label":"Avonmore","country":"Canada"},"geometry":{"type":"Polygon","coordinates":[[[-113.357086,53.867769],[-115.135928,52.705407],[-114.293343,51.131925],[-111.813584,50.661988],[-109.994611,51.754866],[-110.686347,53.386336],[-113.357086,53.867769]]]}},{"type":"Feature","properties":{"hex_id":"821867fffffffff","population":5245763,"population_year":2025,"area_km2":80847.5,"population_density":64.9,"all_players":2,"players_per_million":0.38,"player_ids":["volleyball:women-162900","volleyball:women-189359"],"label":"Rennes","country":"France"},"geometry":{"type":"Polygon","coordinates":[[[-0.631095,50.601911],[-2.906528,50.142292],[-3.243656,48.547301],[-1.396608,47.443512],[0.764026,47.90745],[1.18851,49.470279],[-0.631095,50.601911]]]}},{"type":"Feature","properties":{"hex_id":"82186ffffffffff","population":5547991,"population_year":2025,"area_km2":81458.9,"population_density":68.1,"all_players":4,"players_per_million":0.72,"player_ids":["volleyball:men-132948","volleyball:men-136851","volleyball:men-180586","volleyball:men-186253"],"label":"Tours","country":"France"},"geometry":{"type":"Polygon","coordinates":[[[0.764026,47.90745],[-1.396608,47.443512],[-1.752798,45.828917],[-0.028005,44.712978],[2.026569,45.184249],[2.458902,46.763731],[0.764026,47.90745]]]}},{"type":"Feature","properties":{"hex_id":"82194ffffffffff","population":23325550,"population_year":2025,"area_km2":76219.8,"population_density":306.0,"all_players":4,"players_per_million":0.17,"player_ids":["volleyball:men-120735","volleyball:men-152494","volleyball:women-168161","volleyball:women-181275"],"label":"Coudekerque-Branche","country":"France"},"geometry":{"type":"Polygon","coordinates":[[[2.101314,52.517134],[-0.219137,52.141681],[-0.631095,50.601911],[1.18851,49.470279],[3.384772,49.85377],[3.881134,51.360376],[2.101314,52.517134]]]}},{"type":"Feature","properties":{"hex_id":"82195ffffffffff","population":22721748,"population_year":2025,"area_km2":79647.5,"population_density":285.3,"all_players":2,"players_per_million":0.09,"player_ids":["volleyball:men-137337","volleyball:women-162356"],"label":"Reading","country":"United Kingdom"},"geometry":{"type":"Polygon","coordinates":[[[-2.178886,53.251551],[-4.578382,52.792439],[-4.88976,51.223728],[-2.906528,50.142292],[-0.631095,50.601911],[-0.219137,52.141681],[-2.178886,53.251551]]]}},{"type":"Feature","properties":{"hex_id":"82196ffffffffff","population":13271725,"population_year":2025,"area_km2":72289.7,"population_density":183.6,"all_players":16,"players_per_million":1.21,"player_ids":["volleyball:men-141546","volleyball:men-147956","volleyball:men-150703","volleyball:men-153711","volleyball:men-156678","volleyball:men-162829","volleyball:men-188782","volleyball:men-188784","volleyball:women-150809","volleyball:women-167778","volleyball:women-168148","volleyball:women-181248","volleyball:women-181636","volleyball:women-181644","volleyball:women-181650","volleyball:women-201620"],"label":"Apeldoorn","country":"Netherlands"},"geometry":{"type":"Polygon","coordinates":[[[4.948742,54.288287],[2.592789,53.997752],[2.101314,52.517134],[3.881134,51.360376],[6.259687,51.96477],[6.848229,53.43156],[4.948742,54.288287]]]}},{"type":"Feature","properties":{"hex_id":"821e07fffffffff","population":15880792,"population_year":2025,"area_km2":85294.5,"population_density":186.2,"all_players":5,"players_per_million":0.31,"player_ids":["volleyball:men-120324","volleyball:men-142678","volleyball:women-168823","volleyball:women-181963","volleyball:women-184022"],"label":"Rybnik","country":"Poland"},"geometry":{"type":"Polygon","coordinates":[[[16.606047,49.899182],[15.817384,48.388123],[17.489488,47.234679],[19.952961,47.57214],[20.822886,49.074367],[19.15135,50.248654],[16.606047,49.899182]]]}},{"type":"Feature","properties":{"hex_id":"821e17fffffffff","population":8258126,"population_year":2025,"area_km2":87326.6,"population_density":94.6,"all_players":10,"players_per_million":1.21,"player_ids":["volleyball:men-114956","volleyball:men-114957","volleyball:men-114962","volleyball:men-151390","volleyball:men-151391","volleyball:men-151404","volleyball:men-155920","volleyball:men-168715","volleyball:men-168747","volleyball:men-182325"],"label":"Maribor","country":"Slovenia"},"geometry":{"type":"Polygon","coordinates":[[[13.374348,47.965938],[12.677318,46.406957],[14.337206,45.273432],[16.708897,45.679719],[17.489488,47.234679],[15.817384,48.388123],[13.374348,47.965938]]]}},{"type":"Feature","properties":{"hex_id":"821e1ffffffffff","population":8697926,"population_year":2025,"area_km2":89801.2,"population_density":96.9,"all_players":10,"players_per_million":1.15,"player_ids":["volleyball:men-124911","volleyball:men-143794","volleyball:men-173250","volleyball:women-142478","volleyball:women-148070","volleyball:women-152168","volleyball:women-152176","volleyball:women-181204","volleyball:women-181277","volleyball:women-219224"],"label":"Belgrade","country":"Serbia"},"geometry":{"type":"Polygon","coordinates":[[[17.489488,47.234679],[16.708897,45.679719],[18.31474,44.47068],[20.700526,44.796864],[21.555106,46.342738],[19.952961,47.57214],[17.489488,47.234679]]]}},{"type":"Feature","properties":{"hex_id":"821e27fffffffff","population":12111129,"population_year":2025,"area_km2":80544.7,"population_density":150.4,"all_players":11,"players_per_million":0.91,"player_ids":["volleyball:men-142679","volleyball:men-150742","volleyball:men-153395","volleyball:men-163563","volleyball:women-122391","volleyball:women-136317","volleyball:women-142297","volleyball:women-143463","volleyball:women-152217","volleyball:women-152232","volleyball:women-164099"],"label":"Jawor","country":"Poland"},"geometry":{"type":"Polygon","coordinates":[[[15.658506,52.45677],[14.863027,50.992748],[16.606047,49.899182],[19.15135,50.248654],[20.036282,51.703743],[18.289963,52.819052],[15.658506,52.45677]]]}},{"type":"Feature","properties":{"hex_id":"821e2ffffffffff","population":9972390,"population_year":2025,"area_km2":82705.0,"population_density":120.6,"all_players":9,"players_per_million":0.9,"player_ids":["volleyball:men-152866","volleyball:men-152872","volleyball:men-153387","volleyball:men-153389","volleyball:men-164124","volleyball:men-193299","volleyball:women-156480","volleyball:women-181268","volleyball:women-185611"],"label":"Kraków","country":"Poland"},"geometry":{"type":"Polygon","coordinates":[[[20.036282,51.703743],[19.15135,50.248654],[20.822886,49.074367],[23.367705,49.334469],[24.329,50.776322],[22.6731,51.971887],[20.036282,51.703743]]]}},{"type":"Feature","properties":{"hex_id":"821e37fffffffff","population":10279073,"population_year":2025,"area_km2":82705.0,"population_density":124.3,"all_players":3,"players_per_million":0.29,"player_ids":["volleyball:women-142304","volleyball:women-184298","volleyball:women-185457"],"label":"Plzeň","country":"Czech Republic"},"geometry":{"type":"Polygon","coordinates":[[[12.345747,50.554275],[11.648396,49.039345],[13.374348,47.965938],[15.817384,48.388123],[16.606047,49.899182],[14.863027,50.992748],[12.345747,50.554275]]]}},{"type":"Feature","properties":{"hex_id":"821e47fffffffff","population":3761221,"population_year":2025,"area_km2":85294.5,"population_density":44.1,"all_players":1,"players_per_million":0.27,"player_ids":["volleyball:men-176897"],"label":"Zhmerynka","country":"Ukraine"},"geometry":{"type":"Polygon","coordinates":[[[28.492806,49.683116],[27.469819,48.258057],[28.956125,46.940583],[31.422272,47.03192],[32.491778,48.437419],[31.052695,49.771325],[28.492806,49.683116]]]}},{"type":"Feature","properties":{"hex_id":"821e5ffffffffff","population":2872391,"population_year":2025,"area_km2":89440.6,"population_density":32.1,"all_players":1,"players_per_million":0.35,"player_ids":["volleyball:men-157065"],"label":"Odesa","country":"Ukraine"},"geometry":{"type":"Polygon","coordinates":[[[28.956125,46.940583],[27.961374,45.468587],[29.387082,44.107766],[31.765884,44.203681],[32.802663,45.655674],[31.422272,47.03192],[28.956125,46.940583]]]}},{"type":"Feature","properties":{"hex_id":"821e67fffffffff","population":5717680,"population_year":2025,"area_km2":80847.5,"population_density":70.7,"all_players":1,"players_per_million":0.17,"player_ids":["volleyball:men-170133"],"label":"Chernihiv","country":"Ukraine"},"geometry":{"type":"Polygon","coordinates":[[[27.993406,52.327164],[26.940864,50.952157],[28.492806,49.683116],[31.052695,49.771325],[32.156918,51.126789],[30.654128,52.413789],[27.993406,52.327164]]]}},{"type":"Feature","properties":{"hex_id":"821e77fffffffff","population":6819278,"population_year":2025,"area_km2":84307.8,"population_density":80.9,"all_players":3,"players_per_million":0.44,"player_ids":["volleyball:men-148636","volleyball:men-174256","volleyball:men-196687"],"label":"Ozertsi","country":"Ukraine"},"geometry":{"type":"Polygon","coordinates":[[[24.329,50.776322],[23.367705,49.334469],[24.952412,48.084867],[27.469819,48.258057],[28.492806,49.683116],[26.940864,50.952157],[24.329,50.776322]]]}},{"type":"Feature","properties":{"hex_id":"821e87fffffffff","population":12834722,"population_year":2025,"area_km2":92775.6,"population_density":138.3,"all_players":1,"players_per_million":0.08,"player_ids":["volleyball:women-173731"],"label":"Rome","country":"Italy"},"geometry":{"type":"Polygon","coordinates":[[[11.369193,43.208977],[10.754951,41.575053],[12.334661,40.405578],[14.548451,40.851244],[15.239936,42.485371],[13.642239,43.674337],[11.369193,43.208977]]]}},{"type":"Feature","properties":{"hex_id":"821e97fffffffff","population":1460796,"population_year":2025,"area_km2":93159.0,"population_density":15.7,"all_players":1,"players_per_million":0.68,"player_ids":["volleyball:women-150441"],"label":"Narbolia","country":"Italy"},"geometry":{"type":"Polygon","coordinates":[[[8.584299,41.06115],[8.045142,39.402136],[9.598985,38.251433],[11.719175,38.741667],[12.334661,40.405578],[10.754951,41.575053],[8.584299,41.06115]]]}},{"type":"Feature","properties":{"hex_id":"821e9ffffffffff","population":2800256,"population_year":2025,"area_km2":96323.1,"population_density":29.1,"all_players":1,"players_per_million":0.36,"player_ids":["volleyball:women-136701"],"label":"Palermo","country":"Italy"},"geometry":{"type":"Polygon","coordinates":[[[12.334661,40.405578],[11.719175,38.741667],[13.244313,37.523712],[15.400739,37.949689],[16.087589,39.612646],[14.548451,40.851244],[12.334661,40.405578]]]}},{"type":"Feature","properties":{"hex_id":"821ea7fffffffff","population":14372848,"population_year":2025,"area_km2":88726.5,"population_density":162.0,"all_players":12,"players_per_million":0.83,"player_ids":["volleyball:men-152388","volleyball:men-152408","volleyball:men-163028","volleyball:men-163033","volleyball:men-171191","volleyball:men-174076","volleyball:men-182436","volleyball:women-136694","volleyball:women-143372","volleyball:women-150840","volleyball:women-173402","volleyball:women-180467"],"label":"Desenzano del Garda","country":"Italy"},"geometry":{"type":"Polygon","coordinates":[[[10.343213,45.921928],[9.731941,44.323805],[11.369193,43.208977],[13.642239,43.674337],[14.337206,45.273432],[12.677318,46.406957],[10.343213,45.921928]]]}},{"type":"Feature","properties":{"hex_id":"821ec7fffffffff","population":6669519,"population_year":2025,"area_km2":95515.4,"population_density":69.8,"all_players":11,"players_per_million":1.65,"player_ids":["volleyball:men-152619","volleyball:men-156676","volleyball:men-164985","volleyball:men-168269","volleyball:men-181605","volleyball:men-181806","volleyball:men-181809","volleyball:men-182150","volleyball:women-122541","volleyball:women-138283","volleyball:women-163141"],"label":"Sofia","country":"Bulgaria"},"geometry":{"type":"Polygon","coordinates":[[[22.238177,43.517311],[21.399102,41.932468],[22.87671,40.608844],[25.176743,40.851016],[26.072885,42.421413],[24.614981,43.76451],[22.238177,43.517311]]]}},{"type":"Feature","properties":{"hex_id":"821ecffffffffff","population":24160946,"population_year":2025,"area_km2":96323.1,"population_density":250.8,"all_players":8,"players_per_million":0.33,"player_ids":["volleyball:men-136515","volleyball:men-164160","volleyball:men-164163","volleyball:men-174445","volleyball:women-137087","volleyball:women-152263","volleyball:women-163982","volleyball:women-183499"],"label":"Istanbul","country":"Turkey"},"geometry":{"type":"Polygon","coordinates":[[[26.072885,42.421413],[25.176743,40.851016],[26.578016,39.470649],[28.846869,39.643311],[29.788911,41.195121],[28.419296,42.593125],[26.072885,42.421413]]]}},{"type":"Feature","properties":{"hex_id":"821eeffffffffff","population":7816430,"population_year":2025,"area_km2":92775.6,"population_density":84.3,"all_players":3,"players_per_million":0.38,"player_ids":["volleyball:men-168268","volleyball:women-124202","volleyball:women-170613"],"label":"Dobrich","country":"Bulgaria"},"geometry":{"type":"Polygon","coordinates":[[[25.532273,45.296738],[24.614981,43.76451],[26.072885,42.421413],[28.419296,42.593125],[29.387082,44.107766],[27.961374,45.468587],[25.532273,45.296738]]]}},{"type":"Feature","properties":{"hex_id":"821ef7fffffffff","population":5580375,"population_year":2025,"area_km2":93933.6,"population_density":59.4,"all_players":12,"players_per_million":2.15,"player_ids":["volleyball:men-132022","volleyball:men-150382","volleyball:men-152537","volleyball:men-173251","volleyball:men-177006","volleyball:men-191376","volleyball:men-192041","volleyball:women-136812","volleyball:women-137941","volleyball:women-143548","volleyball:women-173179","volleyball:women-181205"],"label":"Sarajevo","country":"Serbia"},"geometry":{"type":"Polygon","coordinates":[[[18.31474,44.47068],[17.543183,42.876114],[19.087059,41.616885],[21.399102,41.932468],[22.238177,43.517311],[20.700526,44.796864],[18.31474,44.47068]]]}},{"type":"Feature","properties":{"hex_id":"821f07fffffffff","population":6981829,"population_year":2025,"area_km2":73030.9,"population_density":95.6,"all_players":1,"players_per_million":0.14,"player_ids":["volleyball:women-209880"],"label":"Greifswald","country":"Germany"},"geometry":{"type":"Polygon","coordinates":[[[10.065692,55.394879],[9.374531,53.975514],[11.24517,53.03204],[13.839529,53.487245],[14.640207,54.902182],[12.739823,55.867327],[10.065692,55.394879]]]}},{"type":"Feature","properties":{"hex_id":"821f0ffffffffff","population":5507138,"population_year":2025,"area_km2":75672.4,"population_density":72.8,"all_players":5,"players_per_million":0.91,"player_ids":["volleyball:men-150741","volleyball:men-163087","volleyball:women-163098","volleyball:women-164104","volleyball:women-181263"],"label":"Gdańsk","country":"Poland"},"geometry":{"type":"Polygon","coordinates":[[[14.640207,54.902182],[13.839529,53.487245],[15.658506,52.45677],[18.289963,52.819052],[19.189333,54.224652],[17.362293,55.278144],[14.640207,54.902182]]]}},{"type":"Feature","properties":{"hex_id":"821f17fffffffff","population":19193666,"population_year":2025,"area_km2":74863.4,"population_density":256.4,"all_players":8,"players_per_million":0.42,"player_ids":["volleyball:women-151016","volleyball:women-153929","volleyball:women-157403","volleyball:women-163658","volleyball:women-163939","volleyball:women-181646","volleyball:women-181647","volleyball:women-204638"],"label":"Gifhorn","country":"Germany"},"geometry":{"type":"Polygon","coordinates":[[[6.848229,53.43156],[6.259687,51.96477],[8.088631,51.039696],[10.549623,51.56399],[11.24517,53.03204],[9.374531,53.975514],[6.848229,53.43156]]]}},{"type":"Feature","properties":{"hex_id":"821f1ffffffffff","population":12840810,"population_year":2025,"area_km2":77902.3,"population_density":164.8,"all_players":7,"players_per_million":0.55,"player_ids":["volleyball:men-152352","volleyball:men-152713","volleyball:men-174660","volleyball:women-150812","volleyball:women-150973","volleyball:women-182628","volleyball:women-183505"],"label":"Kyritz","country":"Germany"},"geometry":{"type":"Polygon","coordinates":[[[11.24517,53.03204],[10.549623,51.56399],[12.345747,50.554275],[14.863027,50.992748],[15.658506,52.45677],[13.839529,53.487245],[11.24517,53.03204]]]}},{"type":"Feature","properties":{"hex_id":"821f57fffffffff","population":8583259,"population_year":2025,"area_km2":77902.3,"population_density":110.2,"all_players":3,"players_per_million":0.35,"player_ids":["volleyball:men-142676","volleyball:men-152870","volleyball:women-163097"],"label":"Olsztyn","country":"Poland"},"geometry":{"type":"Polygon","coordinates":[[[19.189333,54.224652],[18.289963,52.819052],[20.036282,51.703743],[22.6731,51.971887],[23.657106,53.363901],[21.924017,54.501998],[19.189333,54.224652]]]}},{"type":"Feature","properties":{"hex_id":"821f87fffffffff","population":16111686,"population_year":2025,"area_km2":80847.5,"population_density":199.3,"all_players":6,"players_per_million":0.37,"player_ids":["volleyball:men-119804","volleyball:men-136442","volleyball:men-169039","volleyball:men-188030","volleyball:women-158238","volleyball:women-177914"],"label":"Mulhouse","country":"France"},"geometry":{"type":"Polygon","coordinates":[[[5.163511,48.943764],[4.652435,47.393027],[6.371339,46.417017],[8.645314,46.977068],[9.251571,48.534678],[7.489806,49.526212],[5.163511,48.943764]]]}},{"type":"Feature","properties":{"hex_id":"821f8ffffffffff","population":12778297,"population_year":2025,"area_km2":84307.8,"population_density":151.6,"all_players":4,"players_per_million":0.31,"player_ids":["volleyball:men-144005","volleyball:men-152469","volleyball:women-144980","volleyball:women-162999"],"label":"Mühldorf am Inn","country":"Germany"},"geometry":{"type":"Polygon","coordinates":[[[9.251571,48.534678],[8.645314,46.977068],[10.343213,45.921928],[12.677318,46.406957],[13.374348,47.965938],[11.648396,49.039345],[9.251571,48.534678]]]}},{"type":"Feature","properties":{"hex_id":"821f9ffffffffff","population":16398717,"population_year":2025,"area_km2":85294.5,"population_density":192.3,"all_players":6,"players_per_million":0.37,"player_ids":["volleyball:men-124865","volleyball:men-152370","volleyball:men-162520","volleyball:men-182292","volleyball:women-143370","volleyball:women-174577"],"label":"Milan","country":"Italy"},"geometry":{"type":"Polygon","coordinates":[[[6.371339,46.417017],[5.848477,44.82547],[7.509948,43.786609],[9.731941,44.323805],[10.343213,45.921928],[8.645314,46.977068],[6.371339,46.417017]]]}},{"type":"Feature","properties":{"hex_id":"821fa7fffffffff","population":28149582,"population_year":2025,"area_km2":76219.8,"population_density":369.3,"all_players":6,"players_per_million":0.21,"player_ids":["volleyball:men-158881","volleyball:women-135880","volleyball:women-152042","volleyball:women-160209","volleyball:women-170698","volleyball:women-186339"],"label":"Ettelbruck","country":"Belgium"},"geometry":{"type":"Polygon","coordinates":[[[3.881134,51.360376],[3.384772,49.85377],[5.163511,48.943764],[7.489806,49.526212],[8.088631,51.039696],[6.259687,51.96477],[3.881134,51.360376]]]}},{"type":"Feature","properties":{"hex_id":"821faffffffffff","population":20512004,"population_year":2025,"area_km2":79647.5,"population_density":257.5,"all_players":8,"players_per_million":0.39,"player_ids":["volleyball:men-152349","volleyball:men-163592","volleyball:men-182299","volleyball:women-163616","volleyball:women-163661","volleyball:women-163664","volleyball:women-177765","volleyball:women-181272"],"label":"Bad Soden am Taunus","country":"Germany"},"geometry":{"type":"Polygon","coordinates":[[[8.088631,51.039696],[7.489806,49.526212],[9.251571,48.534678],[11.648396,49.039345],[12.345747,50.554275],[10.549623,51.56399],[8.088631,51.039696]]]}},{"type":"Feature","properties":{"hex_id":"821fb7fffffffff","population":17326098,"population_year":2025,"area_km2":77926.1,"population_density":222.3,"all_players":3,"players_per_million":0.17,"player_ids":["volleyball:men-125073","volleyball:women-162903","volleyball:women-179014"],"label":"Paris","country":"France"},"geometry":{"type":"Polygon","coordinates":[[[1.18851,49.470279],[0.764026,47.90745],[2.458902,46.763731],[4.652435,47.393027],[5.163511,48.943764],[3.384772,49.85377],[1.18851,49.470279]]]}},{"type":"Feature","properties":{"hex_id":"822667fffffffff","population":11642346,"population_year":2025,"area_km2":85294.5,"population_density":136.5,"all_players":5,"players_per_million":0.43,"player_ids":["volleyball:men-147721","volleyball:men-189158","volleyball:women-143517","volleyball:women-143524","volleyball:women-200701"],"label":"Indianapolis","country":"United States"},"geometry":{"type":"Polygon","coordinates":[[[-87.526255,42.152917],[-89.578398,41.518555],[-89.726216,39.947222],[-87.951382,39.014788],[-85.979328,39.596509],[-85.703199,41.161269],[-87.526255,42.152917]]]}},{"type":"Feature","properties":{"hex_id":"822707fffffffff","population":1031042,"population_year":2025,"area_km2":95515.4,"population_density":10.8,"all_players":1,"players_per_million":0.97,"player_ids":["volleyball:men-165212"],"label":"Winnipeg","country":"Canada"},"geometry":{"type":"Polygon","coordinates":[[[-95.791373,52.640531],[-98.16677,51.748943],[-97.993762,50.038615],[-95.644608,49.199829],[-93.345722,50.020134],[-93.317375,51.747798],[-95.791373,52.640531]]]}},{"type":"Feature","properties":{"hex_id":"82279ffffffffff","population":282111,"population_year":2025,"area_km2":85294.5,"population_density":3.3,"all_players":1,"players_per_million":3.54,"player_ids":["volleyball:women-171920"],"label":"Billings","country":"United States"},"geometry":{"type":"Polygon","coordinates":[[[-107.59657,43.811281],[-105.701172,44.759514],[-105.976835,46.32296],[-108.219021,46.935542],[-110.133985,45.973009],[-109.788387,44.413071],[-107.59657,43.811281]]]}},{"type":"Feature","properties":{"hex_id":"822837fffffffff","population":14366819,"population_year":2025,"area_km2":89801.2,"population_density":160.0,"all_players":3,"players_per_million":0.21,"player_ids":["volleyball:men-147473","volleyball:men-147542","volleyball:men-174807"],"label":"Greenbrae","country":"United States"},"geometry":{"type":"Polygon","coordinates":[[[-121.707157,36.574218],[-120.150308,37.778361],[-120.625018,39.393868],[-122.699099,39.784231],[-124.231246,38.566387],[-123.715986,36.972296],[-121.707157,36.574218]]]}},{"type":"Feature","properties":{"hex_id":"8228d7fffffffff","population":6638102,"population_year":2025,"area_km2":76219.8,"population_density":87.1,"all_players":1,"players_per_million":0.15,"player_ids":["volleyball:women-173585"],"label":"Langley","country":"Canada"},"geometry":{"type":"Polygon","coordinates":[[[-120.980657,46.691537],[-119.232215,47.804097],[-119.747324,49.236416],[-122.065326,49.540804],[-123.785414,48.414997],[-123.218544,46.998589],[-120.980657,46.691537]]]}},{"type":"Feature","properties":{"hex_id":"8228dffffffffff","population":3121728,"population_year":2025,"area_km2":72289.7,"population_density":43.2,"all_players":3,"players_per_million":0.96,"player_ids":["volleyball:men-140428","volleyball:men-183276","volleyball:women-168355"],"label":"Surrey","country":"Canada"},"geometry":{"type":"Polygon","coordinates":[[[-123.785414,48.414997],[-122.065326,49.540804],[-123.122866,50.984711],[-125.501019,51.20399],[-126.653646,49.99834],[-126.038043,48.646404],[-123.785414,48.414997]]]}},{"type":"Feature","properties":{"hex_id":"8229a7fffffffff","population":26139253,"population_year":2025,"area_km2":97556.0,"population_density":267.9,"all_players":6,"players_per_million":0.23,"player_ids":["volleyball:men-147417","volleyball:men-182755","volleyball:men-183138","volleyball:men-213134","volleyball:men-213199","volleyball:women-157937"],"label":"Pacific Palisades","country":"United States"},"geometry":{"type":"Polygon","coordinates":[[[-116.838302,32.260383],[-115.254005,33.431536],[-115.644549,35.13856],[-117.666441,35.65712],[-119.240554,34.468622],[-118.804528,32.779438],[-116.838302,32.260383]]]}},{"type":"Feature","properties":{"hex_id":"8229affffffffff","population":3828785,"population_year":2025,"area_km2":93933.6,"population_density":40.8,"all_players":1,"players_per_million":0.26,"player_ids":["volleyball:women-184074"],"label":"California","country":"United States"},"geometry":{"type":"Polygon","coordinates":[[[-119.240554,34.468622],[-117.666441,35.65712],[-118.098739,37.321697],[-120.150308,37.778361],[-121.707157,36.574218],[-121.231482,34.929532],[-119.240554,34.468622]]]}},{"type":"Feature","properties":{"hex_id":"822a17fffffffff","population":30364242,"population_year":2025,"area_km2":87326.6,"population_density":347.7,"all_players":2,"players_per_million":0.07,"player_ids":["volleyball:men-169859","volleyball:women-181899"],"label":"New Egypt","country":"United States"},"geometry":{"type":"Polygon","coordinates":[[[-73.076912,42.400493],[-75.333452,42.029564],[-75.960619,40.480497],[-74.442775,39.340569],[-72.307877,39.686062],[-71.573772,41.195725],[-73.076912,42.400493]]]}},{"type":"Feature","properties":{"hex_id":"822b9ffffffffff","population":11744141,"population_year":2025,"area_km2":92775.6,"population_density":126.6,"all_players":4,"players_per_million":0.34,"player_ids":["volleyball:men-168918","volleyball:men-183453","volleyball:women-153629","volleyball:women-175158"],"label":"Toronto","country":"Canada"},"geometry":{"type":"Polygon","coordinates":[[[-78.100366,45.982432],[-80.490261,45.49319],[-80.982253,43.86012],[-79.227281,42.744533],[-76.966258,43.195408],[-76.33587,44.798413],[-78.100366,45.982432]]]}},{"type":"Feature","properties":{"hex_id":"822c17fffffffff","population":13079627,"population_year":2025,"area_km2":87326.6,"population_density":149.8,"all_players":3,"players_per_million":0.23,"player_ids":["volleyball:men-152742","volleyball:men-168551","volleyball:men-174373"],"label":"Urmia","country":"Iran"},"geometry":{"type":"Polygon","coordinates":[[[43.137521,38.257426],[42.08453,36.839638],[43.074401,35.326156],[45.054386,35.229859],[46.104835,36.61956],[45.179694,38.133333],[43.137521,38.257426]]]}},{"type":"Feature","properties":{"hex_id":"822cc7fffffffff","population":5450712,"population_year":2025,"area_km2":92775.6,"population_density":58.8,"all_players":2,"players_per_million":0.37,"player_ids":["volleyball:men-152752","volleyball:men-152755"],"label":"Amol","country":"Iran"},"geometry":{"type":"Polygon","coordinates":[[[51.384594,37.453452],[52.182604,35.862725],[54.231192,35.534359],[55.582222,36.7992],[54.846596,38.436844],[52.693662,38.762801],[51.384594,37.453452]]]}},{"type":"Feature","properties":{"hex_id":"822cf7fffffffff","population":25679838,"population_year":2025,"area_km2":88726.5,"population_density":289.4,"all_players":1,"players_per_million":0.04,"player_ids":["volleyball:men-182475"],"label":"Tehran","country":"Iran"},"geometry":{"type":"Polygon","coordinates":[[[48.114436,36.404919],[48.961997,34.864177],[50.947938,34.588558],[52.182604,35.862725],[51.384594,37.453452],[49.298709,37.719799],[48.114436,36.404919]]]}},{"type":"Feature","properties":{"hex_id":"822d17fffffffff","population":6620202,"population_year":2025,"area_km2":95515.4,"population_density":69.3,"all_players":1,"players_per_million":0.15,"player_ids":["volleyball:women-163094"],"label":"Tarsus","country":"Turkey"},"geometry":{"type":"Polygon","coordinates":[[[33.362059,39.853917],[32.385359,38.324197],[33.614584,36.858664],[35.773758,36.910957],[36.77435,38.415715],[35.594615,39.893109],[33.362059,39.853917]]]}},{"type":"Feature","properties":{"hex_id":"822d37fffffffff","population":12356000,"population_year":2025,"area_km2":96323.1,"population_density":128.3,"all_players":7,"players_per_million":0.57,"player_ids":["volleyball:men-143816","volleyball:men-174213","volleyball:women-143585","volleyball:women-152312","volleyball:women-163091","volleyball:women-163116","volleyball:women-163975"],"label":"Ankara","country":"Turkey"},"geometry":{"type":"Polygon","coordinates":[[[29.788911,41.195121],[28.846869,39.643311],[30.164431,38.215301],[32.385359,38.324197],[33.362059,39.853917],[32.086152,41.296943],[29.788911,41.195121]]]}},{"type":"Feature","properties":{"hex_id":"822d67fffffffff","population":6765227,"population_year":2025,"area_km2":82416.4,"population_density":82.1,"all_players":1,"players_per_million":0.15,"player_ids":["volleyball:men-176222"],"label":"Dnipro","country":"Ukraine"},"geometry":{"type":"Polygon","coordinates":[[[34.97725,48.445115],[36.299106,47.056314],[38.692906,46.99246],[39.760902,48.458995],[38.481259,49.879789],[36.116724,49.779343],[34.97725,48.445115]]]}},{"type":"Feature","properties":{"hex_id":"822daffffffffff","population":14794138,"population_year":2025,"area_km2":93933.6,"population_density":157.5,"all_players":1,"players_per_million":0.07,"player_ids":["volleyball:men-164158"],"label":"Reyhanlı","country":"Turkey"},"geometry":{"type":"Polygon","coordinates":[[[36.77435,38.415715],[35.773758,36.910957],[36.912602,35.41856],[38.9993,35.422339],[40.013904,36.899865],[38.930218,38.400687],[36.77435,38.415715]]]}},{"type":"Feature","properties":{"hex_id":"822e0ffffffffff","population":4443662,"population_year":2025,"area_km2":80544.7,"population_density":55.2,"all_players":1,"players_per_million":0.23,"player_ids":["volleyball:women-162224"],"label":"Akita","country":"Japan"},"geometry":{"type":"Polygon","coordinates":[[[141.809657,38.825701],[141.966983,40.491751],[140.284877,41.393622],[138.515018,40.617501],[138.441462,38.9811],[140.055179,38.090666],[141.809657,38.825701]]]}},{"type":"Feature","properties":{"hex_id":"822e1ffffffffff","population":4250082,"population_year":2025,"area_km2":82705.0,"population_density":51.4,"all_players":1,"players_per_million":0.24,"player_ids":["volleyball:women-187809"],"label":"Ebetsu","country":"Japan"},"geometry":{"type":"Polygon","coordinates":[[[143.841653,41.226082],[144.05802,42.901226],[142.305844,43.816095],[140.4084,43.04217],[140.284877,41.393622],[141.966983,40.491751],[143.841653,41.226082]]]}},{"type":"Feature","properties":{"hex_id":"822e2ffffffffff","population":5113664,"population_year":2025,"area_km2":82705.0,"population_density":61.8,"all_players":3,"players_per_million":0.59,"player_ids":["volleyball:men-142565","volleyball:men-163042","volleyball:men-189192"],"label":"Zaō-machi","country":"Japan"},"geometry":{"type":"Polygon","coordinates":[[[143.252469,36.192692],[143.43958,37.868877],[141.809657,38.825701],[140.055179,38.090666],[139.948213,36.441778],[141.516472,35.500079],[143.252469,36.192692]]]}},{"type":"Feature","properties":{"hex_id":"822e67fffffffff","population":29949728,"population_year":2025,"area_km2":74863.4,"population_density":400.1,"all_players":9,"players_per_million":0.3,"player_ids":["volleyball:men-142568","volleyball:men-146409","volleyball:men-163516","volleyball:men-178762","volleyball:women-146519","volleyball:women-162206","volleyball:women-162218","volleyball:women-162227","volleyball:women-174243"],"label":"Okazaki","country":"Japan"},"geometry":{"type":"Polygon","coordinates":[[[138.240188,34.090249],[138.304265,35.714832],[136.756542,36.594877],[135.209181,35.840284],[135.213088,34.249062],[136.697641,33.378798],[138.240188,34.090249]]]}},{"type":"Feature","properties":{"hex_id":"822e6ffffffffff","population":11126476,"population_year":2025,"area_km2":70058.2,"population_density":158.8,"all_players":2,"players_per_million":0.18,"player_ids":["volleyball:men-209863","volleyball:women-190513"],"label":"Onomichi","country":"Japan"},"geometry":{"type":"Polygon","coordinates":[[[135.213088,34.249062],[135.209181,35.840284],[133.690522,36.661487],[132.241949,35.885847],[132.308377,34.331159],[133.762313,33.515468],[135.213088,34.249062]]]}},{"type":"Feature","properties":{"hex_id":"822f5ffffffffff","population":40494200,"population_year":2025,"area_km2":79647.5,"population_density":508.4,"all_players":7,"players_per_million":0.17,"player_ids":["volleyball:men-192353","volleyball:men-192453","volleyball:women-141953","volleyball:women-151944","volleyball:women-163040","volleyball:women-189525","volleyball:women-190503"],"label":"Kanagawa Prefecture","country":"Japan"},"geometry":{"type":"Polygon","coordinates":[[[141.379662,33.846135],[141.516472,35.500079],[139.948213,36.441778],[138.304265,35.714832],[138.240188,34.090249],[139.748325,33.162808],[141.379662,33.846135]]]}},{"type":"Feature","properties":{"hex_id":"823087fffffffff","population":25771056,"population_year":2025,"area_km2":63447.1,"population_density":406.2,"all_players":1,"players_per_million":0.04,"player_ids":["volleyball:women-143206"],"label":"Lianyungang","country":"People's Republic of China"},"geometry":{"type":"Polygon","coordinates":[[[121.006688,32.682213],[121.261315,34.029993],[119.95687,35.087873],[118.365822,34.802491],[118.117265,33.439024],[119.453159,32.376319],[121.006688,32.682213]]]}},{"type":"Feature","properties":{"hex_id":"8230cffffffffff","population":1974565,"population_year":2025,"area_km2":65980.3,"population_density":29.9,"all_players":1,"players_per_million":0.51,"player_ids":["volleyball:men-200705"],"label":"Hagi","country":"Japan"},"geometry":{"type":"Polygon","coordinates":[[[129.409707,35.861246],[129.115986,34.537795],[130.557843,33.768644],[132.308377,34.331159],[132.241949,35.885847],[130.759352,36.651654],[129.409707,35.861246]]]}},{"type":"Feature","properties":{"hex_id":"8230dffffffffff","population":4363794,"population_year":2025,"area_km2":68186.6,"population_density":64.0,"all_players":3,"players_per_million":0.69,"player_ids":["volleyball:men-142562","volleyball:men-142570","volleyball:women-162223"],"label":"Sasebo","country":"Japan"},"geometry":{"type":"Polygon","coordinates":[[[127.394514,33.936306],[127.110454,32.565288],[128.534469,31.786712],[130.260732,32.389001],[130.557843,33.768644],[129.115986,34.537795],[127.394514,33.936306]]]}},{"type":"Feature","properties":{"hex_id":"8230e7fffffffff","population":32628938,"population_year":2025,"area_km2":59429.4,"population_density":549.0,"all_players":1,"players_per_million":0.03,"player_ids":["volleyball:women-163760"],"label":"Paju","country":"South Korea"},"geometry":{"type":"Polygon","coordinates":[[[125.111877,37.903324],[124.835996,36.642936],[126.253349,35.974736],[127.968639,36.57549],[127.809941,38.077868],[126.346943,38.738746],[125.111877,37.903324]]]}},{"type":"Feature","properties":{"hex_id":"823947fffffffff","population":8221573,"population_year":2025,"area_km2":85294.5,"population_density":96.4,"all_players":1,"players_per_million":0.12,"player_ids":["volleyball:men-164897"],"label":"Artà","country":"Spain"},"geometry":{"type":"Polygon","coordinates":[[[1.216871,41.967575],[0.837298,40.335353],[2.409691,39.323588],[4.408495,39.931959],[4.868332,41.580315],[3.24935,42.604792],[1.216871,41.967575]]]}},{"type":"Feature","properties":{"hex_id":"823967fffffffff","population":5102029,"population_year":2025,"area_km2":82416.4,"population_density":61.9,"all_players":2,"players_per_million":0.39,"player_ids":["volleyball:women-151231","volleyball:women-168983"],"label":"Narbonne","country":"France"},"geometry":{"type":"Polygon","coordinates":[[[-0.028005,44.712978],[-0.397973,43.08589],[1.216871,41.967575],[3.24935,42.604792],[3.696702,44.221235],[2.026569,45.184249],[-0.028005,44.712978]]]}},{"type":"Feature","properties":{"hex_id":"82396ffffffffff","population":6845595,"population_year":2025,"area_km2":85627.7,"population_density":79.9,"all_players":7,"players_per_million":1.02,"player_ids":["volleyball:men-142686","volleyball:men-186251","volleyball:men-203390","volleyball:women-162899","volleyball:women-182123","volleyball:women-182124","volleyball:women-188044"],"label":"Nice","country":"France"},"geometry":{"type":"Polygon","coordinates":[[[3.696702,44.221235],[3.24935,42.604792],[4.868332,41.580315],[6.97784,42.158616],[7.509948,43.786609],[5.848477,44.82547],[3.696702,44.221235]]]}},{"type":"Feature","properties":{"hex_id":"823f27fffffffff","population":1974664,"population_year":2025,"area_km2":98815.5,"population_density":20.0,"all_players":1,"players_per_million":0.51,"player_ids":["volleyball:men-153200"],"label":"Cariati","country":"Italy"},"geometry":{"type":"Polygon","coordinates":[[[16.087589,39.612646],[15.400739,37.949689],[16.884717,36.66837],[19.059614,37.029019],[19.811123,38.685282],[18.32526,39.988178],[16.087589,39.612646]]]}},{"type":"Feature","properties":{"hex_id":"823f67fffffffff","population":10093818,"population_year":2025,"area_km2":99241.3,"population_density":101.7,"all_players":2,"players_per_million":0.2,"player_ids":["volleyball:men-143804","volleyball:women-143590"],"label":"İzmir","country":"Turkey"},"geometry":{"type":"Polygon","coordinates":[[[26.578016,39.470649],[25.702401,37.868316],[27.050977,36.45835],[29.24697,36.632905],[30.164431,38.215301],[28.846869,39.643311],[26.578016,39.470649]]]}},{"type":"Feature","properties":{"hex_id":"82416ffffffffff","population":6472282,"population_year":2025,"area_km2":98815.5,"population_density":65.5,"all_players":1,"players_per_million":0.15,"player_ids":["volleyball:women-123019"],"label":"Nakhon Phanom","country":"Thailand"},"geometry":{"type":"Polygon","coordinates":[[[106.288989,16.125989],[106.480984,17.863327],[104.998628,18.920583],[103.315255,18.233591],[103.137733,16.48245],[104.628684,15.431709],[106.288989,16.125989]]]}},{"type":"Feature","properties":{"hex_id":"824437fffffffff","population":2576712,"population_year":2025,"area_km2":82705.0,"population_density":31.2,"all_players":3,"players_per_million":1.16,"player_ids":["volleyball:men-114422","volleyball:men-137102","volleyball:men-147263"],"label":"Havana","country":"Cuba"},"geometry":{"type":"Polygon","coordinates":[[[-83.891248,21.244199],[-82.41895,22.034607],[-82.310403,23.682659],[-83.710823,24.573869],[-85.232359,23.784705],[-85.303339,22.103149],[-83.891248,21.244199]]]}},{"type":"Feature","properties":{"hex_id":"824447fffffffff","population":3715636,"population_year":2025,"area_km2":92775.6,"population_density":40.0,"all_players":1,"players_per_million":0.27,"player_ids":["volleyball:women-210045"],"label":"Baton Rouge","country":"United States"},"geometry":{"type":"Polygon","coordinates":[[[-91.44306,29.038514],[-89.789168,29.876068],[-89.779473,31.590738],[-91.474426,32.491469],[-93.177711,31.651131],[-93.135951,29.913303],[-91.44306,29.038514]]]}},{"type":"Feature","properties":{"hex_id":"82446ffffffffff","population":9292440,"population_year":2025,"area_km2":96323.1,"population_density":96.5,"all_players":3,"players_per_million":0.32,"player_ids":["volleyball:women-132247","volleyball:women-189583","volleyball:women-192906"],"label":"Katy","country":"United States"},"geometry":{"type":"Polygon","coordinates":[[[-94.808948,29.022702],[-93.135951,29.913303],[-93.177711,31.651131],[-94.945821,32.516906],[-96.66289,31.619531],[-96.567347,29.863731],[-94.808948,29.022702]]]}},{"type":"Feature","properties":{"hex_id":"8244affffffffff","population":7848067,"population_year":2025,"area_km2":77902.3,"population_density":100.7,"all_players":2,"players_per_million":0.25,"player_ids":["volleyball:women-152195","volleyball:women-205186"],"label":"Lake Worth Beach","country":"United States"},"geometry":{"type":"Polygon","coordinates":[[[-80.698565,26.062694],[-79.211732,26.761492],[-79.057436,28.372892],[-80.425375,29.321821],[-81.966494,28.631807],[-82.084301,26.984013],[-80.698565,26.062694]]]}},{"type":"Feature","properties":{"hex_id":"82458ffffffffff","population":2916269,"population_year":2025,"area_km2":77902.3,"population_density":37.4,"all_players":4,"players_per_million":1.37,"player_ids":["volleyball:men-151817","volleyball:men-151821","volleyball:men-157318","volleyball:women-143339"],"label":"Cienfuegos","country":"Cuba"},"geometry":{"type":"Polygon","coordinates":[[[-81.081708,21.169796],[-79.650763,21.921223],[-79.508242,23.533066],[-80.82969,24.429618],[-82.310403,23.682659],[-82.41895,22.034607],[-81.081708,21.169796]]]}},{"type":"Feature","properties":{"hex_id":"824597fffffffff","population":2520483,"population_year":2025,"area_km2":70058.2,"population_density":36.0,"all_players":1,"players_per_million":0.4,"player_ids":["volleyball:men-147273"],"label":"Holguin","country":"Cuba"},"geometry":{"type":"Polygon","coordinates":[[[-77.336996,18.638235],[-75.998548,19.358823],[-75.818705,20.905271],[-77.004019,21.769252],[-78.389552,21.054853],[-78.541785,19.47005],[-77.336996,18.638235]]]}},{"type":"Feature","properties":{"hex_id":"8248dffffffffff","population":1232145,"population_year":2025,"area_km2":98815.5,"population_density":12.5,"all_players":1,"players_per_million":0.81,"player_ids":["volleyball:men-213198"],"label":"Rio Rancho","country":"United States"},"geometry":{"type":"Polygon","coordinates":[[[-105.959856,33.74267],[-104.229094,34.766832],[-104.454816,36.494369],[-106.47056,37.197522],[-108.222119,36.158816],[-107.93785,34.432278],[-105.959856,33.74267]]]}},{"type":"Feature","properties":{"hex_id":"8248effffffffff","population":7170957,"population_year":2025,"area_km2":101417.2,"population_density":70.7,"all_players":1,"players_per_million":0.14,"player_ids":["volleyball:women-147590"],"label":"Scottsdale","country":"United States"},"geometry":{"type":"Polygon","coordinates":[[[-110.973266,30.491571],[-109.334035,31.601966],[-109.632511,33.353313],[-111.622726,33.985325],[-113.268008,32.856905],[-112.918132,31.115173],[-110.973266,30.491571]]]}},{"type":"Feature","properties":{"hex_id":"824b37fffffffff","population":19172462,"population_year":2025,"area_km2":70058.2,"population_density":273.7,"all_players":1,"players_per_million":0.05,"player_ids":["volleyball:men-142581"],"label":"Ningbo","country":"People's Republic of China"},"geometry":{"type":"Polygon","coordinates":[[[120.503394,29.892985],[120.2547,28.452967],[121.60089,27.6928],[123.223201,28.386902],[123.486995,29.843289],[122.113538,30.589507],[120.503394,29.892985]]]}},{"type":"Feature","properties":{"hex_id":"824b67fffffffff","population":7712336,"population_year":2025,"area_km2":70058.2,"population_density":110.1,"all_players":3,"players_per_million":0.39,"player_ids":["volleyball:men-163038","volleyball:men-172192","volleyball:men-189064"],"label":"Kumamoto","country":"Japan"},"geometry":{"type":"Polygon","coordinates":[[[130.557843,33.768644],[130.260732,32.389001],[131.702216,31.564914],[133.45368,32.12931],[133.762313,33.515468],[132.308377,34.331159],[130.557843,33.768644]]]}},{"type":"Feature","properties":{"hex_id":"824b77fffffffff","population":1762532,"population_year":2025,"area_km2":73030.9,"population_density":24.1,"all_players":1,"players_per_million":0.57,"player_ids":["volleyball:men-205047"],"label":"Ibusuki","country":"Japan"},"geometry":{"type":"Polygon","coordinates":[[[128.534469,31.786712],[128.246663,30.359872],[129.672315,29.525999],[131.401974,30.12918],[131.702216,31.564914],[130.260732,32.389001],[128.534469,31.786712]]]}},{"type":"Feature","properties":{"hex_id":"824c9ffffffffff","population":1532148,"population_year":2025,"area_km2":65980.3,"population_density":23.2,"all_players":1,"players_per_million":0.65,"player_ids":["volleyball:men-119646"],"label":"Santiago de Cuba","country":"Cuba"},"geometry":{"type":"Polygon","coordinates":[[[-74.481444,21.584829],[-75.818705,20.905271],[-75.998548,19.358823],[-74.509206,18.697242],[-73.199201,19.391406],[-73.3708,20.726751],[-74.481444,21.584829]]]}},{"type":"Feature","properties":{"hex_id":"824cd7fffffffff","population":7721610,"population_year":2025,"area_km2":65961.6,"population_density":117.1,"all_players":8,"players_per_million":1.04,"player_ids":["volleyball:women-119224","volleyball:women-119585","volleyball:women-123978","volleyball:women-123982","volleyball:women-139910","volleyball:women-139927","volleyball:women-149530","volleyball:women-183317"],"label":"Santo Domingo","country":"Dominican Republic"},"geometry":{"type":"Polygon","coordinates":[[[-70.45385,19.381759],[-71.730136,18.713931],[-71.551099,17.332941],[-70.086138,16.633168],[-68.822887,17.323396],[-69.011224,18.690619],[-70.45385,19.381759]]]}},{"type":"Feature","properties":{"hex_id":"8254affffffffff","population":8214252,"population_year":2025,"area_km2":84307.8,"population_density":97.4,"all_players":1,"players_per_million":0.12,"player_ids":["volleyball:men-181197"],"label":"Dakar","country":"Senegal"},"geometry":{"type":"Polygon","coordinates":[[[-17.910453,15.729652],[-19.403783,14.850204],[-19.352866,13.27566],[-17.860226,12.585841],[-16.398619,13.434493],[-16.398113,15.002856],[-17.910453,15.729652]]]}},{"type":"Feature","properties":{"hex_id":"825e5ffffffffff","population":281447,"population_year":2025,"area_km2":70782.3,"population_density":4.0,"all_players":1,"players_per_million":3.55,"player_ids":["volleyball:women-168986"],"label":"Baie-Mahault","country":"France"},"geometry":{"type":"Polygon","coordinates":[[[-60.525074,15.869734],[-59.277584,16.935419],[-59.510088,18.366344],[-60.976707,18.720572],[-62.198208,17.668849],[-61.979153,16.249349],[-60.525074,15.869734]]]}},{"type":"Feature","properties":{"hex_id":"825f5ffffffffff","population":1559237,"population_year":2025,"area_km2":79647.5,"population_density":19.6,"all_players":1,"players_per_million":0.64,"player_ids":["volleyball:women-122646"],"label":"Mount Hope","country":"Trinidad and Tobago"},"geometry":{"type":"Polygon","coordinates":[[[-60.858711,8.692541],[-59.60143,9.791751],[-59.834917,11.355368],[-61.31197,11.80248],[-62.542405,10.713529],[-62.322702,9.16751],[-60.858711,8.692541]]]}},{"type":"Feature","properties":{"hex_id":"8264a7fffffffff","population":26373493,"population_year":2025,"area_km2":102761.2,"population_density":256.6,"all_players":3,"players_per_million":0.11,"player_ids":["volleyball:women-142174","volleyball:women-152179","volleyball:women-152205"],"label":"Nakhon Pathom","country":"Thailand"},"geometry":{"type":"Polygon","coordinates":[[[101.291897,13.985209],[101.458892,15.760959],[99.938788,16.794916],[98.251544,16.046518],[98.101118,14.26415],[99.621042,13.236333],[101.291897,13.985209]]]}},{"type":"Feature","properties":{"hex_id":"8264b7fffffffff","population":7935178,"population_year":2025,"area_km2":100537.4,"population_density":78.9,"all_players":1,"players_per_million":0.13,"player_ids":["volleyball:women-183330"],"label":"Khon Kaen","country":"Thailand"},"geometry":{"type":"Polygon","coordinates":[[[103.137733,16.48245],[103.315255,18.233591],[101.798256,19.272673],[100.100258,18.555033],[99.938788,16.794916],[101.458892,15.760959],[103.137733,16.48245]]]}},{"type":"Feature","properties":{"hex_id":"826597fffffffff","population":3910982,"population_year":2025,"area_km2":99241.3,"population_density":39.4,"all_players":1,"players_per_million":0.26,"player_ids":["volleyball:women-174980"],"label":"Ubon Ratchathani","country":"Thailand"},"geometry":{"type":"Polygon","coordinates":[[[107.546926,13.315851],[107.742624,15.063301],[106.288989,16.125989],[104.628684,15.431709],[104.446527,13.6677],[105.910701,12.614189],[107.546926,13.315851]]]}},{"type":"Feature","properties":{"hex_id":"82659ffffffffff","population":10629164,"population_year":2025,"area_km2":101417.2,"population_density":104.8,"all_players":3,"players_per_million":0.28,"player_ids":["volleyball:women-142172","volleyball:women-145244","volleyball:women-147213"],"label":"Buri Ram","country":"Thailand"},"geometry":{"type":"Polygon","coordinates":[[[104.446527,13.6677],[104.628684,15.431709],[103.137733,16.48245],[101.458892,15.760959],[101.291897,13.985209],[102.788194,12.942278],[104.446527,13.6677]]]}},{"type":"Feature","properties":{"hex_id":"82818ffffffffff","population":4145012,"population_year":2025,"area_km2":103215.8,"population_density":40.2,"all_players":1,"players_per_million":0.24,"player_ids":["volleyball:men-161930"],"label":"Campina Grande","country":"Brazil"},"geometry":{"type":"Polygon","coordinates":[[[-36.605565,-8.138603],[-35.233892,-6.974007],[-35.55458,-5.212334],[-37.243135,-4.606029],[-38.62207,-5.766943],[-38.305671,-7.537486],[-36.605565,-8.138603]]]}},{"type":"Feature","properties":{"hex_id":"82a807fffffffff","population":5285122,"population_year":2025,"area_km2":85294.5,"population_density":62.0,"all_players":1,"players_per_million":0.19,"player_ids":["volleyball:women-119575"],"label":"Curitiba","country":"Brazil"},"geometry":{"type":"Polygon","coordinates":[[[-49.487409,-25.620271],[-48.061859,-24.679886],[-48.35944,-23.093332],[-50.070903,-22.458019],[-51.481406,-23.408711],[-51.195854,-24.984006],[-49.487409,-25.620271]]]}},{"type":"Feature","properties":{"hex_id":"82a817fffffffff","population":35227396,"population_year":2025,"area_km2":87326.6,"population_density":403.4,"all_players":4,"players_per_million":0.11,"player_ids":["volleyball:men-178341","volleyball:women-151187","volleyball:women-152119","volleyball:women-163000"],"label":"São Paulo","country":"Brazil"},"geometry":{"type":"Polygon","coordinates":[[[-46.329568,-25.285204],[-44.896021,-24.304788],[-45.204057,-22.710396],[-46.93561,-22.103817],[-48.35944,-23.093332],[-48.061859,-24.679886],[-46.329568,-25.285204]]]}},{"type":"Feature","properties":{"hex_id":"82a88ffffffffff","population":5538942,"population_year":2025,"area_km2":95515.4,"population_density":58.0,"all_players":3,"players_per_million":0.54,"player_ids":["volleyball:men-136468","volleyball:men-136947","volleyball:women-136896"],"label":"Contagem","country":"Brazil"},"geometry":{"type":"Polygon","coordinates":[[[-44.08545,-20.043635],[-42.662641,-18.976573],[-42.974527,-17.295269],[-44.70061,-16.685821],[-46.117749,-17.759599],[-45.814924,-19.435672],[-44.08545,-20.043635]]]}},{"type":"Feature","properties":{"hex_id":"82a8a7fffffffff","population":15397379,"population_year":2025,"area_km2":88726.5,"population_density":173.5,"all_players":1,"players_per_million":0.06,"player_ids":["volleyball:women-173849"],"label":"Rio de Janeiro","country":"Brazil"},"geometry":{"type":"Polygon","coordinates":[[[-43.150153,-24.877664],[-41.71736,-23.859502],[-42.034051,-22.260838],[-43.775354,-21.684143],[-45.204057,-22.710396],[-44.896021,-24.304788],[-43.150153,-24.877664]]]}},{"type":"Feature","properties":{"hex_id":"82a8d7fffffffff","population":3105120,"population_year":2025,"area_km2":97556.0,"population_density":31.8,"all_players":2,"players_per_million":0.64,"player_ids":["volleyball:men-164313","volleyball:women-173848"],"label":"Brasília","country":"Brazil"},"geometry":{"type":"Polygon","coordinates":[[[-46.117749,-17.759599],[-44.70061,-16.685821],[-45.005667,-14.97354],[-46.718173,-14.342511],[-48.126183,-15.422507],[-47.831229,-17.126909],[-46.117749,-17.759599]]]}},{"type":"Feature","properties":{"hex_id":"82a90ffffffffff","population":5687266,"population_year":2025,"area_km2":75672.4,"population_density":75.2,"all_players":1,"players_per_million":0.18,"player_ids":["volleyball:men-142744"],"label":"Caxias do Sul","country":"Brazil"},"geometry":{"type":"Polygon","coordinates":[[[-51.753337,-30.359872],[-50.327685,-29.525999],[-50.618998,-28.043997],[-52.323074,-27.407025],[-53.729804,-28.251992],[-53.451698,-29.722439],[-51.753337,-30.359872]]]}},{"type":"Feature","properties":{"hex_id":"82a91ffffffffff","population":2751227,"population_year":2025,"area_km2":77902.3,"population_density":35.3,"all_players":1,"players_per_million":0.36,"player_ids":["volleyball:women-136897"],"label":"Nova Trento","country":"Brazil"},"geometry":{"type":"Polygon","coordinates":[[[-48.598026,-30.12918],[-47.158063,-29.25093],[-47.461171,-27.760044],[-49.192836,-27.155857],[-50.618998,-28.043997],[-50.327685,-29.525999],[-48.598026,-30.12918]]]}},{"type":"Feature","properties":{"hex_id":"82b247fffffffff","population":2390059,"population_year":2025,"area_km2":73030.9,"population_density":32.7,"all_players":2,"players_per_million":0.84,"player_ids":["volleyball:men-142420","volleyball:men-182708"],"label":"Córdoba","country":"Argentina"},"geometry":{"type":"Polygon","coordinates":[[[-64.2154,-28.744357],[-65.607305,-29.81272],[-65.373462,-31.289486],[-63.7387,-31.680908],[-62.373572,-30.614686],[-62.615887,-29.155222],[-64.2154,-28.744357]]]}},{"type":"Feature","properties":{"hex_id":"82b257fffffffff","population":494833,"population_year":2025,"area_km2":75672.4,"population_density":6.5,"all_players":1,"players_per_million":2.02,"player_ids":["volleyball:men-142415"],"label":"San Juan","country":"Argentina"},"geometry":{"type":"Polygon","coordinates":[[[-67.259078,-29.367232],[-68.710054,-30.4154],[-68.486872,-31.907057],[-66.801494,-32.33604],[-65.373462,-31.289486],[-65.607305,-29.81272],[-67.259078,-29.367232]]]}},{"type":"Feature","properties":{"hex_id":"82c2cffffffffff","population":1422209,"population_year":2025,"area_km2":65980.3,"population_density":21.6,"all_players":1,"players_per_million":0.7,"player_ids":["volleyball:men-163555"],"label":"Paraná","country":"Argentina"},"geometry":{"type":"Polygon","coordinates":[[[-58.993312,-32.682213],[-57.627165,-31.991695],[-57.886462,-30.589507],[-59.496606,-29.892985],[-60.79563,-30.972609],[-60.546841,-32.376319],[-58.993312,-32.682213]]]}},{"type":"Feature","properties":{"hex_id":"82c2e7fffffffff","population":16637306,"population_year":2025,"area_km2":59429.4,"population_density":280.0,"all_players":1,"players_per_million":0.06,"player_ids":["volleyball:men-162546"],"label":"Buenos Aires","country":"Argentina"},"geometry":{"type":"Polygon","coordinates":[[[-58.223405,-36.629598],[-56.837235,-36.005614],[-57.102564,-34.700194],[-58.738685,-34.029993],[-60.04313,-35.087873],[-59.788176,-36.394827],[-58.223405,-36.629598]]]}},{"type":"Feature","properties":{"hex_id":"82c34ffffffffff","population":487988,"population_year":2025,"area_km2":65961.6,"population_density":7.4,"all_players":1,"players_per_million":2.05,"player_ids":["volleyball:men-142411"],"label":"General Villegas Partido","country":"Argentina"},"geometry":{"type":"Polygon","coordinates":[[[-63.49719,-33.101224],[-64.899351,-34.14503],[-64.659039,-35.522424],[-63.007756,-35.842443],[-61.634178,-34.802491],[-61.882735,-33.439024],[-63.49719,-33.101224]]]}},{"type":"Feature","properties":{"hex_id":"82c36ffffffffff","population":92351,"population_year":2025,"area_km2":68186.6,"population_density":1.4,"all_players":1,"players_per_million":10.83,"player_ids":["volleyball:men-152692"],"label":"General Alvear","country":"Argentina"},"geometry":{"type":"Polygon","coordinates":[[[-66.569458,-33.770896],[-68.033964,-34.789455],[-67.804189,-36.178839],[-66.098784,-36.538081],[-64.659039,-35.522424],[-64.899351,-34.14503],[-66.569458,-33.770896]]]}}]}