{"type":"FeatureCollection","metadata":{"population_source":"WorldPop Global 2 R2025A","population_source_url":"https://hub.worldpop.org/project/categories?id=3","population_license":"CC BY 4.0","population_year":2025,"raster_resolution":"1km","h3_resolution":1,"population_method":"official_country_rasters","occupied_cells":154,"mapped_players":1033},"features":[{"type":"Feature","properties":{"hex_id":"81077ffffffffff","population":396051,"population_year":2025,"area_km2":523941.7,"population_density":0.8,"all_players":1,"players_per_million":2.52,"player_ids":["athletics:14433045"],"label":"Kópavogur","country":"Iceland"},"geometry":{"type":"Polygon","coordinates":[[[-10.558792,67.153548],[-19.871381,68.67811],[-27.216822,65.518953],[-24.570766,61.430405],[-20.650926,60.988277],[-16.371962,60.568694],[-10.444978,63.095054],[-10.558792,67.153548]]]}},{"type":"Feature","properties":{"hex_id":"81083ffffffffff","population":933100,"population_year":2025,"area_km2":328434.6,"population_density":2.8,"all_players":2,"players_per_million":2.14,"player_ids":["athletics:14215417","athletics:14718533"],"label":"Trondheim","country":"Norway"},"geometry":{"type":"Polygon","coordinates":[[[4.012621,63.327061],[8.644221,61.890838],[11.08066,61.540515],[15.771774,62.889968],[17.535446,63.800793],[16.433697,66.327262],[14.813659,67.351769],[8.130261,67.468428],[5.239259,67.015633],[3.699933,64.525608],[4.012621,63.327061]]]}},{"type":"Feature","properties":{"hex_id":"8108bffffffffff","population":9413392,"population_year":2025,"area_km2":447684.2,"population_density":21.0,"all_players":17,"players_per_million":1.81,"player_ids":["athletics:14181111","athletics:14227638","athletics:14463193","athletics:14486887","athletics:14488071","athletics:14502580","athletics:14503964","athletics:14550993","athletics:14571674","athletics:14572038","athletics:14754546","athletics:14762841","athletics:14763144","athletics:14774822","athletics:14780807","athletics:14802582","athletics:14914640"],"label":"Koski Tl","country":"Finland"},"geometry":{"type":"Polygon","coordinates":[[[11.08066,61.540515],[11.555978,58.130531],[18.275236,56.632953],[25.082722,58.401545],[24.517172,62.478113],[17.535446,63.800793],[15.771774,62.889968],[11.08066,61.540515]]]}},{"type":"Feature","properties":{"hex_id":"8108fffffffffff","population":1665418,"population_year":2025,"area_km2":447684.2,"population_density":3.7,"all_players":1,"players_per_million":0.6,"player_ids":["athletics:14717314"],"label":"Nurmo","country":"Finland"},"geometry":{"type":"Polygon","coordinates":[[[17.535446,63.800793],[24.517172,62.478113],[31.517537,64.873037],[31.83128,68.929958],[20.597244,70.052152],[14.813659,67.351769],[16.433697,66.327262],[17.535446,63.800793]]]}},{"type":"Feature","properties":{"hex_id":"8109bffffffffff","population":4354591,"population_year":2025,"area_km2":447684.2,"population_density":9.7,"all_players":10,"players_per_million":2.3,"player_ids":["athletics:14215311","athletics:14479487","athletics:14481209","athletics:14481276","athletics:14593954","athletics:14644249","athletics:14653717","athletics:14705412","athletics:14834505","athletics:14855967"],"label":"Oslo","country":"Norway"},"geometry":{"type":"Polygon","coordinates":[[[4.012621,63.327061],[-2.297526,61.54551],[-0.931587,57.689497],[5.523647,55.706768],[11.555978,58.130531],[11.08066,61.540515],[8.644221,61.890838],[4.012621,63.327061]]]}},{"type":"Feature","properties":{"hex_id":"81113ffffffffff","population":12600486,"population_year":2025,"area_km2":510516.1,"population_density":24.7,"all_players":14,"players_per_million":1.11,"player_ids":["athletics:14182365","athletics:14430316","athletics:14454573","athletics:14461736","athletics:14461739","athletics:14503895","athletics:14504754","athletics:14504791","athletics:14515181","athletics:14544648","athletics:14592895","athletics:14604068","athletics:14627075","athletics:14740515"],"label":"Lappeenranta","country":"Finland"},"geometry":{"type":"Polygon","coordinates":[[[25.082722,58.401545],[31.095814,56.470005],[37.661108,58.480663],[38.741468,62.771655],[31.517537,64.873037],[24.517172,62.478113],[25.082722,58.401545]]]}},{"type":"Feature","properties":{"hex_id":"8111bffffffffff","population":41364282,"population_year":2025,"area_km2":565620.1,"population_density":73.1,"all_players":5,"players_per_million":0.12,"player_ids":["athletics:14426901","athletics:14455242","athletics:14571586","athletics:14807288","athletics:14849032"],"label":"Kharkiv","country":"Ukraine"},"geometry":{"type":"Polygon","coordinates":[[[30.654128,52.413789],[36.116724,49.779343],[42.136829,51.409437],[43.547482,55.820804],[37.661108,58.480663],[31.095814,56.470005],[31.017704,54.340219],[30.654128,52.413789]]]}},{"type":"Feature","properties":{"hex_id":"81127ffffffffff","population":908704,"population_year":2025,"area_km2":647632.6,"population_density":1.4,"all_players":1,"players_per_million":1.1,"player_ids":["athletics:14771436"],"label":"Saskatoon","country":"Canada"},"geometry":{"type":"Polygon","coordinates":[[[-110.956309,59.515942],[-114.22928,55.478388],[-109.994611,51.754866],[-102.902298,51.556776],[-98.561848,55.218551],[-102.119965,59.471859],[-110.956309,59.515942]]]}},{"type":"Feature","properties":{"hex_id":"8112bffffffffff","population":269082,"population_year":2025,"area_km2":510516.1,"population_density":0.5,"all_players":2,"players_per_million":7.43,"player_ids":["athletics:14470536","athletics:14501254"],"label":"Ketchikan","country":"United States"},"geometry":{"type":"Polygon","coordinates":[[[-133.521093,56.759266],[-133.851142,52.846691],[-128.909854,50.154512],[-123.122866,50.984711],[-121.442455,54.91665],[-126.852536,58.04535],[-133.521093,56.759266]]]}},{"type":"Feature","properties":{"hex_id":"8112fffffffffff","population":5303773,"population_year":2025,"area_km2":565620.1,"population_density":9.4,"all_players":2,"players_per_million":0.38,"player_ids":["athletics:14423557","athletics:14591210"],"label":"Calgary","country":"Canada"},"geometry":{"type":"Polygon","coordinates":[[[-121.442455,54.91665],[-123.122866,50.984711],[-120.907545,49.395034],[-119.232215,47.804097],[-112.788004,48.011188],[-109.994611,51.754866],[-114.22928,55.478388],[-121.442455,54.91665]]]}},{"type":"Feature","properties":{"hex_id":"8115bffffffffff","population":2243940,"population_year":2025,"area_km2":523941.7,"population_density":4.3,"all_players":1,"players_per_million":0.45,"player_ids":["athletics:14691893"],"label":"Hulunbuir","country":"People's Republic of China"},"geometry":{"type":"Polygon","coordinates":[[[111.70886,49.606695],[116.212896,47.309451],[122.152595,47.997963],[124.345783,51.539549],[119.522746,54.65963],[112.463708,53.643972],[111.933609,51.732178],[111.70886,49.606695]]]}},{"type":"Feature","properties":{"hex_id":"81183ffffffffff","population":6292474,"population_year":2025,"area_km2":595741.2,"population_density":10.6,"all_players":4,"players_per_million":0.64,"player_ids":["athletics:14283143","athletics:14377494","athletics:14594406","athletics:14759587"],"label":"Letterkenny","country":"Ireland"},"geometry":{"type":"Polygon","coordinates":[[[-13.791647,56.736324],[-18.841172,53.740207],[-16.382341,49.609269],[-9.724736,48.430094],[-4.88976,51.223728],[-6.436337,55.37739],[-13.791647,56.736324]]]}},{"type":"Feature","properties":{"hex_id":"81187ffffffffff","population":21841357,"population_year":2025,"area_km2":595741.2,"population_density":36.7,"all_players":13,"players_per_million":0.6,"player_ids":["athletics:14185853","athletics:14389358","athletics:14523787","athletics:14576456","athletics:14632699","athletics:14678934","athletics:14685757","athletics:14701817","athletics:14707040","athletics:14720465","athletics:14750701","athletics:14753918","athletics:14770113"],"label":"Cholet","country":"France"},"geometry":{"type":"Polygon","coordinates":[[[-4.88976,51.223728],[-9.724736,48.430094],[-8.101589,44.050631],[-2.417796,42.54048],[2.026569,45.184249],[1.18851,49.470279],[-4.88976,51.223728]]]}},{"type":"Feature","properties":{"hex_id":"81193ffffffffff","population":771399,"population_year":2025,"area_km2":510516.1,"population_density":1.5,"all_players":2,"players_per_million":2.59,"player_ids":["athletics:14422111","athletics:14918707"],"label":"Inverness","country":"United Kingdom"},"geometry":{"type":"Polygon","coordinates":[[[-10.444978,63.095054],[-16.371962,60.568694],[-13.791647,56.736324],[-6.436337,55.37739],[-0.931587,57.689497],[-2.297526,61.54551],[-10.444978,63.095054]]]}},{"type":"Feature","properties":{"hex_id":"81197ffffffffff","population":88036357,"population_year":2025,"area_km2":523941.7,"population_density":168.0,"all_players":71,"players_per_million":0.81,"player_ids":["athletics:14270101","athletics:14274781","athletics:14276543","athletics:14329163","athletics:14359991","athletics:14360349","athletics:14361462","athletics:14363849","athletics:14372338","athletics:14372810","athletics:14378282","athletics:14407278","athletics:14409457","athletics:14420260","athletics:14425340","athletics:14443881","athletics:14451249","athletics:14451250","athletics:14452345","athletics:14457638","athletics:14471539","athletics:14476603","athletics:14482223","athletics:14482227","athletics:14506023","athletics:14508434","athletics:14513077","athletics:14513285","athletics:14522654","athletics:14533464","athletics:14533469","athletics:14536023","athletics:14538249","athletics:14548983","athletics:14560483","athletics:14561420","athletics:14577176","athletics:14594317","athletics:14602072","athletics:14625026","athletics:14631296","athletics:14632781","athletics:14634367","athletics:14637207","athletics:14642894","athletics:14644747","athletics:14655247","athletics:14685108","athletics:14688805","athletics:14693884","athletics:14694062","athletics:14706169","athletics:14707010","athletics:14709423","athletics:14720966","athletics:14735462","athletics:14740867","athletics:14762871","athletics:14770049","athletics:14771648","athletics:14778459","athletics:14823767","athletics:14833321","athletics:14843498","athletics:14865892","athletics:14876047","athletics:14878135","athletics:14900662","athletics:14910035","athletics:14928278","athletics:14950130"],"label":"London","country":"United Kingdom"},"geometry":{"type":"Polygon","coordinates":[[[-0.931587,57.689497],[-6.436337,55.37739],[-4.88976,51.223728],[1.18851,49.470279],[3.630009,50.610463],[6.259687,51.96477],[5.523647,55.706768],[-0.931587,57.689497]]]}},{"type":"Feature","properties":{"hex_id":"811e3ffffffffff","population":71057199,"population_year":2025,"area_km2":595741.2,"population_density":119.3,"all_players":72,"players_per_million":1.01,"player_ids":["athletics:14168152","athletics:14178277","athletics:14263753","athletics:14281995","athletics:14294652","athletics:14300261","athletics:14300421","athletics:14329266","athletics:14360165","athletics:14361154","athletics:14363774","athletics:14375343","athletics:14379859","athletics:14380461","athletics:14388995","athletics:14390519","athletics:14397893","athletics:14403432","athletics:14424480","athletics:14446694","athletics:14446721","athletics:14451085","athletics:14462623","athletics:14472475","athletics:14473908","athletics:14474319","athletics:14474496","athletics:14475570","athletics:14505427","athletics:14507104","athletics:14525768","athletics:14526253","athletics:14535413","athletics:14543976","athletics:14573639","athletics:14589388","athletics:14593394","athletics:14597064","athletics:14602703","athletics:14605811","athletics:14605824","athletics:14628042","athletics:14630471","athletics:14644015","athletics:14645504","athletics:14647721","athletics:14662815","athletics:14665548","athletics:14666860","athletics:14681991","athletics:14683914","athletics:14684777","athletics:14695933","athletics:14701207","athletics:14701702","athletics:14706915","athletics:14739745","athletics:14740139","athletics:14742698","athletics:14761148","athletics:14786982","athletics:14791117","athletics:14796722","athletics:14797371","athletics:14797452","athletics:14830504","athletics:14857218","athletics:14859880","athletics:14866229","athletics:14874438","athletics:14942779","athletics:14945080"],"label":"Ljubljana","country":"Czech Republic"},"geometry":{"type":"Polygon","coordinates":[[[12.345747,50.554275],[12.677318,46.406957],[18.31474,44.47068],[24.013384,46.595885],[24.329,50.776322],[18.289963,52.819052],[12.345747,50.554275]]]}},{"type":"Feature","properties":{"hex_id":"811e7ffffffffff","population":33092235,"population_year":2025,"area_km2":595741.2,"population_density":55.5,"all_players":16,"players_per_million":0.48,"player_ids":["athletics:14295835","athletics:14363463","athletics:14388489","athletics:14408893","athletics:14421950","athletics:14424732","athletics:14524329","athletics:14594836","athletics:14606579","athletics:14632011","athletics:14686964","athletics:14739628","athletics:14739638","athletics:14803002","athletics:14830537","athletics:14908884"],"label":"Kropyvnytskyi","country":"Ukraine"},"geometry":{"type":"Polygon","coordinates":[[[24.329,50.776322],[24.013384,46.595885],[29.387082,44.107766],[35.197789,45.672385],[36.116724,49.779343],[30.654128,52.413789],[24.329,50.776322]]]}},{"type":"Feature","properties":{"hex_id":"811ebffffffffff","population":42059136,"population_year":2025,"area_km2":647632.6,"population_density":64.9,"all_players":36,"players_per_million":0.86,"player_ids":["athletics:14199823","athletics:14284942","athletics:14300447","athletics:14375750","athletics:14381808","athletics:14400947","athletics:14403082","athletics:14409892","athletics:14411785","athletics:14435687","athletics:14480247","athletics:14488967","athletics:14514016","athletics:14533436","athletics:14538311","athletics:14567410","athletics:14567432","athletics:14593885","athletics:14665531","athletics:14682378","athletics:14682711","athletics:14699224","athletics:14699307","athletics:14699358","athletics:14723644","athletics:14736174","athletics:14737204","athletics:14739812","athletics:14752217","athletics:14753080","athletics:14775977","athletics:14780703","athletics:14827877","athletics:14905172","athletics:14905216","athletics:14929174"],"label":"Rome","country":"Italy"},"geometry":{"type":"Polygon","coordinates":[[[7.509948,43.786609],[8.045142,39.402136],[13.244313,37.523712],[18.32526,39.988178],[18.31474,44.47068],[12.677318,46.406957],[7.509948,43.786609]]]}},{"type":"Feature","properties":{"hex_id":"811efffffffffff","population":50991723,"population_year":2025,"area_km2":666617.1,"population_density":76.5,"all_players":21,"players_per_million":0.41,"player_ids":["athletics:14195399","athletics:14268585","athletics:14280590","athletics:14280966","athletics:14364637","athletics:14372662","athletics:14408349","athletics:14428121","athletics:14476183","athletics:14516137","athletics:14627594","athletics:14629838","athletics:14669734","athletics:14709517","athletics:14743213","athletics:14756709","athletics:14759195","athletics:14838227","athletics:14841858","athletics:14875939","athletics:14927349"],"label":"Kardítsa","country":"Greece"},"geometry":{"type":"Polygon","coordinates":[[[18.31474,44.47068],[18.32526,39.988178],[23.474781,37.630343],[28.846869,39.643311],[29.387082,44.107766],[24.013384,46.595885],[18.31474,44.47068]]]}},{"type":"Feature","properties":{"hex_id":"811f3ffffffffff","population":49754999,"population_year":2025,"area_km2":510516.1,"population_density":97.5,"all_players":41,"players_per_million":0.82,"player_ids":["athletics:14193195","athletics:14361447","athletics:14377776","athletics:14401199","athletics:14403185","athletics:14424786","athletics:14426447","athletics:14429853","athletics:14481392","athletics:14497556","athletics:14509240","athletics:14510348","athletics:14511112","athletics:14526544","athletics:14535353","athletics:14597052","athletics:14597875","athletics:14604425","athletics:14625525","athletics:14626440","athletics:14642563","athletics:14650587","athletics:14654845","athletics:14676577","athletics:14679384","athletics:14680446","athletics:14695941","athletics:14704769","athletics:14705532","athletics:14736473","athletics:14742575","athletics:14753334","athletics:14771929","athletics:14777637","athletics:14793061","athletics:14812323","athletics:14825097","athletics:14829644","athletics:14878245","athletics:14930161","athletics:14984693"],"label":"Berlin","country":"Germany"},"geometry":{"type":"Polygon","coordinates":[[[5.523647,55.706768],[6.259687,51.96477],[12.345747,50.554275],[18.289963,52.819052],[18.275236,56.632953],[11.555978,58.130531],[5.523647,55.706768]]]}},{"type":"Feature","properties":{"hex_id":"811f7ffffffffff","population":25290714,"population_year":2025,"area_km2":523941.7,"population_density":48.3,"all_players":24,"players_per_million":0.95,"player_ids":["athletics:14329304","athletics:14334855","athletics:14336191","athletics:14363902","athletics:14388144","athletics:14408107","athletics:14417641","athletics:14434325","athletics:14475585","athletics:14500229","athletics:14500245","athletics:14524564","athletics:14620985","athletics:14625015","athletics:14665173","athletics:14675493","athletics:14703758","athletics:14704467","athletics:14736349","athletics:14799803","athletics:14841124","athletics:14844866","athletics:14875227","athletics:14935635"],"label":"Warsaw","country":"Poland"},"geometry":{"type":"Polygon","coordinates":[[[18.275236,56.632953],[18.289963,52.819052],[24.329,50.776322],[30.654128,52.413789],[31.017704,54.340219],[31.095814,56.470005],[25.082722,58.401545],[18.275236,56.632953]]]}},{"type":"Feature","properties":{"hex_id":"811fbffffffffff","population":119418410,"population_year":2025,"area_km2":565620.1,"population_density":211.1,"all_players":114,"players_per_million":0.95,"player_ids":["athletics:14183680","athletics:14193865","athletics:14200480","athletics:14273725","athletics:14284455","athletics:14329341","athletics:14329797","athletics:14335205","athletics:14360841","athletics:14361931","athletics:14373479","athletics:14377046","athletics:14377384","athletics:14401271","athletics:14404859","athletics:14407894","athletics:14419938","athletics:14420076","athletics:14420240","athletics:14424718","athletics:14428253","athletics:14428757","athletics:14448966","athletics:14450062","athletics:14450088","athletics:14457538","athletics:14473492","athletics:14474566","athletics:14481078","athletics:14483212","athletics:14487463","athletics:14487580","athletics:14497298","athletics:14507608","athletics:14508777","athletics:14509523","athletics:14510629","athletics:14514022","athletics:14514026","athletics:14526691","athletics:14528844","athletics:14536209","athletics:14565871","athletics:14573919","athletics:14584926","athletics:14586894","athletics:14593203","athletics:14593204","athletics:14595370","athletics:14603864","athletics:14621598","athletics:14625668","athletics:14627121","athletics:14629026","athletics:14632353","athletics:14632689","athletics:14634371","athletics:14645336","athletics:14649117","athletics:14652395","athletics:14652627","athletics:14676801","athletics:14679517","athletics:14679916","athletics:14680524","athletics:14680682","athletics:14681333","athletics:14683883","athletics:14683945","athletics:14685406","athletics:14697662","athletics:14700830","athletics:14701876","athletics:14701882","athletics:14702376","athletics:14702578","athletics:14709531","athletics:14714656","athletics:14733137","athletics:14734248","athletics:14734289","athletics:14736176","athletics:14736254","athletics:14738788","athletics:14739461","athletics:14740317","athletics:14741773","athletics:14752018","athletics:14753471","athletics:14753981","athletics:14755665","athletics:14757334","athletics:14771269","athletics:14775971","athletics:14778502","athletics:14779993","athletics:14794967","athletics:14799335","athletics:14804796","athletics:14839284","athletics:14840255","athletics:14845074","athletics:14850216","athletics:14853060","athletics:14856078","athletics:14858133","athletics:14880182","athletics:14898142","athletics:14899530","athletics:14909605","athletics:14918450","athletics:14953777","athletics:15010318","athletics:15169563"],"label":"Milan","country":"Germany"},"geometry":{"type":"Polygon","coordinates":[[[1.18851,49.470279],[2.026569,45.184249],[7.509948,43.786609],[12.677318,46.406957],[12.345747,50.554275],[6.259687,51.96477],[3.630009,50.610463],[1.18851,49.470279]]]}},{"type":"Feature","properties":{"hex_id":"8120bffffffffff","population":103642617,"population_year":2025,"area_km2":707475.0,"population_density":146.5,"all_players":1,"players_per_million":0.01,"player_ids":["athletics:14956284"],"label":"Samarkand","country":"Uzbekistan"},"geometry":{"type":"Polygon","coordinates":[[[65.030331,37.894404],[67.98289,33.902397],[73.592618,33.705753],[76.945351,37.477284],[74.436338,41.761837],[68.048608,41.985775],[65.030331,37.894404]]]}},{"type":"Feature","properties":{"hex_id":"8120fffffffffff","population":18723403,"population_year":2025,"area_km2":707475.0,"population_density":26.5,"all_players":1,"players_per_million":0.05,"player_ids":["athletics:14401268"],"label":"Almaty","country":"Kazakhstan"},"geometry":{"type":"Polygon","coordinates":[[[74.436338,41.761837],[76.945351,37.477284],[82.728687,36.835377],[86.70821,40.312767],[84.903315,44.772027],[78.337155,45.598111],[74.436338,41.761837]]]}},{"type":"Feature","properties":{"hex_id":"8124fffffffffff","population":30996370,"population_year":2025,"area_km2":523941.7,"population_density":59.2,"all_players":1,"players_per_million":0.03,"player_ids":["athletics:14521585"],"label":"Wuhai","country":"People's Republic of China"},"geometry":{"type":"Polygon","coordinates":[[[101.933828,40.61512],[102.303253,36.369976],[104.504316,35.604157],[106.967721,34.902991],[110.694611,37.163896],[110.981139,41.216599],[106.535601,43.139813],[101.933828,40.61512]]]}},{"type":"Feature","properties":{"hex_id":"81253ffffffffff","population":1473867,"population_year":2025,"area_km2":647632.6,"population_density":2.3,"all_players":1,"players_per_million":0.68,"player_ids":["athletics:14382710"],"label":"Ulaangom","country":"Mongolia"},"geometry":{"type":"Polygon","coordinates":[[[87.772964,52.654203],[89.577507,48.132924],[95.845115,46.679222],[100.985874,49.434628],[100.363977,53.907861],[93.387021,55.707268],[87.772964,52.654203]]]}},{"type":"Feature","properties":{"hex_id":"81257ffffffffff","population":4712572,"population_year":2025,"area_km2":565620.1,"population_density":8.3,"all_players":1,"players_per_million":0.21,"player_ids":["athletics:14867157"],"label":"Ulaanbaatar","country":"Mongolia"},"geometry":{"type":"Polygon","coordinates":[[[100.363977,53.907861],[100.985874,49.434628],[106.499377,47.463169],[111.70886,49.606695],[111.933609,51.732178],[112.463708,53.643972],[106.403496,56.210611],[100.363977,53.907861]]]}},{"type":"Feature","properties":{"hex_id":"81263ffffffffff","population":10240947,"population_year":2025,"area_km2":614937.0,"population_density":16.7,"all_players":5,"players_per_million":0.49,"player_ids":["athletics:14368938","athletics:14426023","athletics:14464527","athletics:14674710","athletics:14803230"],"label":"Hopkins","country":"United States"},"geometry":{"type":"Polygon","coordinates":[[[-99.917049,47.471519],[-102.323756,45.197628],[-103.535954,44.08338],[-101.04033,40.088597],[-95.246862,39.326803],[-92.81941,41.451207],[-91.476262,42.44496],[-93.395849,46.63002],[-99.917049,47.471519]]]}},{"type":"Feature","properties":{"hex_id":"81267ffffffffff","population":25791718,"population_year":2025,"area_km2":602082.0,"population_density":42.8,"all_players":7,"players_per_million":0.27,"player_ids":["athletics:14486888","athletics:14491584","athletics:14498578","athletics:14533525","athletics:14708434","athletics:14845926","athletics:14905834"],"label":"Indianapolis","country":"United States"},"geometry":{"type":"Polygon","coordinates":[[[-88.065886,34.059836],[-84.585167,37.099589],[-85.703199,41.161269],[-91.476262,42.44496],[-92.81941,41.451207],[-95.246862,39.326803],[-93.265212,35.090108],[-88.065886,34.059836]]]}},{"type":"Feature","properties":{"hex_id":"8126bffffffffff","population":8947665,"population_year":2025,"area_km2":647632.6,"population_density":13.8,"all_players":1,"players_per_million":0.11,"player_ids":["athletics:14713272"],"label":"Denver","country":"United States"},"geometry":{"type":"Polygon","coordinates":[[[-104.454816,36.494369],[-101.04033,40.088597],[-103.535954,44.08338],[-109.788387,44.413071],[-113.046271,40.72062],[-110.257485,36.800197],[-104.454816,36.494369]]]}},{"type":"Feature","properties":{"hex_id":"8126fffffffffff","population":17160726,"population_year":2025,"area_km2":666617.1,"population_density":25.7,"all_players":5,"players_per_million":0.29,"player_ids":["athletics:14450465","athletics:14503660","athletics:14596561","athletics:14715853","athletics:14717691"],"label":"Plano","country":"United States"},"geometry":{"type":"Polygon","coordinates":[[[-96.66289,31.619531],[-93.265212,35.090108],[-95.246862,39.326803],[-101.04033,40.088597],[-104.454816,36.494369],[-102.093235,32.268747],[-96.66289,31.619531]]]}},{"type":"Feature","properties":{"hex_id":"81277ffffffffff","population":23070026,"population_year":2025,"area_km2":647632.6,"population_density":35.6,"all_players":6,"players_per_million":0.26,"player_ids":["athletics:14373498","athletics:14389747","athletics:14536919","athletics:14603138","athletics:14715244","athletics:14716925"],"label":"West Branch","country":"United States"},"geometry":{"type":"Polygon","coordinates":[[[-88.654124,49.812423],[-93.395849,46.63002],[-91.476262,42.44496],[-85.703199,41.161269],[-80.982253,43.86012],[-81.919627,48.295316],[-88.654124,49.812423]]]}},{"type":"Feature","properties":{"hex_id":"81283ffffffffff","population":15759816,"population_year":2025,"area_km2":595741.2,"population_density":26.5,"all_players":3,"players_per_million":0.19,"player_ids":["athletics:14486939","athletics:14681630","athletics:14695265"],"label":"Davis","country":"United States"},"geometry":{"type":"Polygon","coordinates":[[[-121.707157,36.574218],[-119.002282,40.570572],[-122.134831,44.057691],[-127.958662,43.419208],[-130.222638,39.442424],[-127.138101,36.079796],[-121.707157,36.574218]]]}},{"type":"Feature","properties":{"hex_id":"8128bffffffffff","population":4004885,"population_year":2025,"area_km2":595741.2,"population_density":6.7,"all_players":1,"players_per_million":0.25,"player_ids":["athletics:14481824"],"label":"Moscow","country":"United States"},"geometry":{"type":"Polygon","coordinates":[[[-113.046271,40.72062],[-109.788387,44.413071],[-112.788004,48.011188],[-119.232215,47.804097],[-122.134831,44.057691],[-119.002282,40.570572],[-113.046271,40.72062]]]}},{"type":"Feature","properties":{"hex_id":"8128fffffffffff","population":14259378,"population_year":2025,"area_km2":523941.7,"population_density":27.2,"all_players":10,"players_per_million":0.7,"player_ids":["athletics:14174336","athletics:14266948","athletics:14326707","athletics:14369211","athletics:14409929","athletics:14426684","athletics:14607142","athletics:14809348","athletics:14877563","athletics:14941414"],"label":"Richmond","country":"Canada"},"geometry":{"type":"Polygon","coordinates":[[[-122.134831,44.057691],[-119.232215,47.804097],[-120.907545,49.395034],[-123.122866,50.984711],[-128.909854,50.154512],[-131.290159,46.416948],[-127.958662,43.419208],[-122.134831,44.057691]]]}},{"type":"Feature","properties":{"hex_id":"8129bffffffffff","population":31485482,"population_year":2025,"area_km2":666617.1,"population_density":47.2,"all_players":7,"players_per_million":0.22,"player_ids":["athletics:14423522","athletics:14437218","athletics:14440868","athletics:14465104","athletics:14476943","athletics:14486785","athletics:14577492"],"label":"Oceanside","country":"United States"},"geometry":{"type":"Polygon","coordinates":[[[-113.268008,32.856905],[-110.257485,36.800197],[-113.046271,40.72062],[-119.002282,40.570572],[-121.707157,36.574218],[-118.804528,32.779438],[-113.268008,32.856905]]]}},{"type":"Feature","properties":{"hex_id":"812a3ffffffffff","population":39671228,"population_year":2025,"area_km2":595741.2,"population_density":66.6,"all_players":12,"players_per_million":0.3,"player_ids":["athletics:14316952","athletics:14317560","athletics:14416979","athletics:14436941","athletics:14463876","athletics:14574865","athletics:14574966","athletics:14624749","athletics:14628218","athletics:14716563","athletics:14761424","athletics:14877777"],"label":"New York City","country":"United States"},"geometry":{"type":"Polygon","coordinates":[[[-69.955068,44.277849],[-75.333452,42.029564],[-75.063317,37.849069],[-70.311412,35.933887],[-65.448142,37.822091],[-64.835193,41.948534],[-69.955068,44.277849]]]}},{"type":"Feature","properties":{"hex_id":"812abffffffffff","population":54889027,"population_year":2025,"area_km2":595741.2,"population_density":92.1,"all_players":14,"players_per_million":0.26,"player_ids":["athletics:14313263","athletics:14373744","athletics:14464956","athletics:14478094","athletics:14479216","athletics:14501531","athletics:14522818","athletics:14530244","athletics:14551247","athletics:14659011","athletics:14715397","athletics:14715503","athletics:14716862","athletics:14745764"],"label":"London","country":"United States"},"geometry":{"type":"Polygon","coordinates":[[[-80.982253,43.86012],[-85.703199,41.161269],[-84.585167,37.099589],[-79.557618,35.583567],[-75.063317,37.849069],[-75.333452,42.029564],[-80.982253,43.86012]]]}},{"type":"Feature","properties":{"hex_id":"812afffffffffff","population":6566236,"population_year":2025,"area_km2":523941.7,"population_density":12.5,"all_players":2,"players_per_million":0.3,"player_ids":["athletics:14509544","athletics:14516985"],"label":"Chesapeake","country":"United States"},"geometry":{"type":"Polygon","coordinates":[[[-75.063317,37.849069],[-79.557618,35.583567],[-79.270109,33.659462],[-78.735928,31.57726],[-74.640468,30.219492],[-70.449419,32.12169],[-70.311412,35.933887],[-75.063317,37.849069]]]}},{"type":"Feature","properties":{"hex_id":"812b3ffffffffff","population":2964922,"population_year":2025,"area_km2":647632.6,"population_density":4.6,"all_players":2,"players_per_million":0.67,"player_ids":["athletics:14571874","athletics:14607093"],"label":"Q2138","country":"Canada"},"geometry":{"type":"Polygon","coordinates":[[[-63.200774,50.770503],[-69.719479,48.757432],[-69.955068,44.277849],[-64.835193,41.948534],[-59.172925,43.654244],[-57.837872,47.957631],[-63.200774,50.770503]]]}},{"type":"Feature","properties":{"hex_id":"812bbffffffffff","population":23927662,"population_year":2025,"area_km2":666617.1,"population_density":35.9,"all_players":11,"players_per_million":0.46,"player_ids":["athletics:14330302","athletics:14366482","athletics:14400932","athletics:14405301","athletics:14421456","athletics:14535607","athletics:14541853","athletics:14579721","athletics:14631553","athletics:14687513","athletics:14876627"],"label":"Toronto","country":"Canada"},"geometry":{"type":"Polygon","coordinates":[[[-76.057729,50.990211],[-81.919627,48.295316],[-80.982253,43.86012],[-75.333452,42.029564],[-69.955068,44.277849],[-69.719479,48.757432],[-76.057729,50.990211]]]}},{"type":"Feature","properties":{"hex_id":"812c3ffffffffff","population":48394646,"population_year":2025,"area_km2":614937.0,"population_density":78.7,"all_players":3,"players_per_million":0.06,"player_ids":["athletics:14698109","athletics:14735409","athletics:14828209"],"label":"Batman","country":"Turkey"},"geometry":{"type":"Polygon","coordinates":[[[38.930218,38.400687],[43.074401,35.326156],[46.40451,36.114445],[48.114436,36.404919],[49.670644,40.636123],[45.504839,43.945519],[41.788831,43.124283],[39.938746,42.736298],[38.930218,38.400687]]]}},{"type":"Feature","properties":{"hex_id":"812cfffffffffff","population":40779359,"population_year":2025,"area_km2":647632.6,"population_density":63.0,"all_players":1,"players_per_million":0.02,"player_ids":["athletics:14302761"],"label":"Ashgabat","country":"Turkmenistan"},"geometry":{"type":"Polygon","coordinates":[[[48.114436,36.404919],[51.71868,33.03025],[56.949853,33.546049],[59.150327,37.656443],[55.527294,41.39291],[49.670644,40.636123],[48.114436,36.404919]]]}},{"type":"Feature","properties":{"hex_id":"812d3ffffffffff","population":35376976,"population_year":2025,"area_km2":647632.6,"population_density":54.6,"all_players":1,"players_per_million":0.03,"player_ids":["athletics:14797505"],"label":"Bursa","country":"Turkey"},"geometry":{"type":"Polygon","coordinates":[[[29.387082,44.107766],[28.846869,39.643311],[33.614584,36.858664],[38.930218,38.400687],[39.938746,42.736298],[35.197789,45.672385],[29.387082,44.107766]]]}},{"type":"Feature","properties":{"hex_id":"812dbffffffffff","population":70393013,"population_year":2025,"area_km2":666617.1,"population_density":105.6,"all_players":7,"players_per_million":0.1,"player_ids":["athletics:14283592","athletics:14595151","athletics:14595920","athletics:14699069","athletics:14737427","athletics:14897470","athletics:15063908"],"label":"Nicosia","country":"Israel"},"geometry":{"type":"Polygon","coordinates":[[[33.614584,36.858664],[32.928331,32.240102],[37.164282,29.339076],[42.026294,30.891357],[43.074401,35.326156],[38.930218,38.400687],[33.614584,36.858664]]]}},{"type":"Feature","properties":{"hex_id":"812e3ffffffffff","population":12920451,"population_year":2025,"area_km2":595741.2,"population_density":21.7,"all_players":2,"players_per_million":0.15,"player_ids":["athletics:14649131","athletics:14714601"],"label":"Rikuzentakata","country":"Japan"},"geometry":{"type":"Polygon","coordinates":[[[148.856926,38.18238],[147.817284,42.633407],[142.305844,43.816095],[138.515018,40.617501],[139.948213,36.441778],[144.831325,35.18743],[148.856926,38.18238]]]}},{"type":"Feature","properties":{"hex_id":"812e7ffffffffff","population":52072688,"population_year":2025,"area_km2":510516.1,"population_density":102.0,"all_players":20,"players_per_million":0.38,"player_ids":["athletics:14286162","athletics:14370411","athletics:14419637","athletics:14421697","athletics:14444487","athletics:14547456","athletics:14573292","athletics:14632538","athletics:14649141","athletics:14649145","athletics:14671473","athletics:14686838","athletics:14740573","athletics:14806962","athletics:14855118","athletics:14860379","athletics:14860572","athletics:14883987","athletics:14998155","athletics:15044337"],"label":"Osaka Prefecture","country":"Japan"},"geometry":{"type":"Polygon","coordinates":[[[139.948213,36.441778],[138.515018,40.617501],[133.570126,41.410447],[130.657533,38.194564],[132.308377,34.331159],[136.697641,33.378798],[139.948213,36.441778]]]}},{"type":"Feature","properties":{"hex_id":"812efffffffffff","population":3054086,"population_year":2025,"area_km2":523941.7,"population_density":5.8,"all_players":1,"players_per_million":0.33,"player_ids":["athletics:14547883"],"label":"Otaru","country":"Japan"},"geometry":{"type":"Polygon","coordinates":[[[142.305844,43.816095],[140.81932,47.943535],[137.965723,48.304388],[134.763936,48.418018],[131.774401,45.253613],[133.570126,41.410447],[138.515018,40.617501],[142.305844,43.816095]]]}},{"type":"Feature","properties":{"hex_id":"812f7ffffffffff","population":38419612,"population_year":2025,"area_km2":565620.1,"population_density":67.9,"all_players":9,"players_per_million":0.23,"player_ids":["athletics:14326241","athletics:14327811","athletics:14423325","athletics:14719623","athletics:14766515","athletics:14815041","athletics:14840153","athletics:14895907","athletics:14931241"],"label":"Kanagawa Prefecture","country":"Japan"},"geometry":{"type":"Polygon","coordinates":[[[145.91104,30.789834],[144.831325,35.18743],[139.948213,36.441778],[136.697641,33.378798],[137.3956,31.331749],[137.800087,29.424814],[142.433222,27.949606],[145.91104,30.789834]]]}},{"type":"Feature","properties":{"hex_id":"81303ffffffffff","population":61755412,"population_year":2025,"area_km2":328434.6,"population_density":188.0,"all_players":1,"players_per_million":0.02,"player_ids":["athletics:14430151"],"label":"Penglai District","country":"People's Republic of China"},"geometry":{"type":"Polygon","coordinates":[[[119.13691,41.148271],[118.582885,38.614967],[118.869299,37.429854],[121.690154,36.205283],[123.162765,36.005614],[125.585234,37.691245],[126.346943,38.738746],[125.085829,41.118552],[123.984121,41.999374],[120.555881,41.717194],[119.13691,41.148271]]]}},{"type":"Feature","properties":{"hex_id":"8130bffffffffff","population":241379936,"population_year":2025,"area_km2":447684.2,"population_density":539.2,"all_players":2,"players_per_million":0.01,"player_ids":["athletics:14376449","athletics:14889043"],"label":"Shaoxing","country":"People's Republic of China"},"geometry":{"type":"Polygon","coordinates":[[[124.020556,32.661445],[123.162765,36.005614],[121.690154,36.205283],[118.869299,37.429854],[115.340961,35.522424],[116.2613,31.680908],[120.503394,29.892985],[124.020556,32.661445]]]}},{"type":"Feature","properties":{"hex_id":"8130fffffffffff","population":61653931,"population_year":2025,"area_km2":447684.2,"population_density":137.7,"all_players":6,"players_per_million":0.1,"player_ids":["athletics:14460527","athletics:14532326","athletics:14671546","athletics:14766546","athletics:14766617","athletics:14841940"],"label":"Kitakyūshū","country":"Japan"},"geometry":{"type":"Polygon","coordinates":[[[123.162765,36.005614],[124.020556,32.661445],[128.534469,31.786712],[132.308377,34.331159],[130.657533,38.194564],[126.346943,38.738746],[125.585234,37.691245],[123.162765,36.005614]]]}},{"type":"Feature","properties":{"hex_id":"8131bffffffffff","population":167852256,"population_year":2025,"area_km2":447684.2,"population_density":374.9,"all_players":1,"players_per_million":0.01,"player_ids":["athletics:14266426"],"label":"Luquan District","country":"People's Republic of China"},"geometry":{"type":"Polygon","coordinates":[[[110.981139,41.216599],[110.694611,37.163896],[115.340961,35.522424],[118.869299,37.429854],[118.582885,38.614967],[119.13691,41.148271],[115.501139,43.254142],[110.981139,41.216599]]]}},{"type":"Feature","properties":{"hex_id":"81347ffffffffff","population":2492876,"population_year":2025,"area_km2":707475.0,"population_density":3.5,"all_players":3,"players_per_million":1.2,"player_ids":["athletics:14427311","athletics:14757952","athletics:14780010"],"label":"Las Palmas de Gran Canaria","country":"Spain"},"geometry":{"type":"Polygon","coordinates":[[[-20.108383,33.794128],[-23.542517,30.029487],[-21.487401,25.694857],[-16.394663,25.007863],[-12.948555,28.514936],[-14.570452,32.954386],[-20.108383,33.794128]]]}},{"type":"Feature","properties":{"hex_id":"81383ffffffffff","population":31514301,"population_year":2025,"area_km2":614937.0,"population_density":51.2,"all_players":4,"players_per_million":0.13,"player_ids":["athletics:14165989","athletics:14590424","athletics:14656737","athletics:14976579"],"label":"Tiaret","country":"Spain"},"geometry":{"type":"Polygon","coordinates":[[[-5.442348,35.124424],[-4.341769,30.698974],[-1.240802,29.828776],[0.260947,29.300375],[4.204174,32.110107],[3.543589,36.597898],[0.238716,37.588846],[-1.416234,38.115997],[-5.442348,35.124424]]]}},{"type":"Feature","properties":{"hex_id":"81387ffffffffff","population":36845141,"population_year":2025,"area_km2":666617.1,"population_density":55.3,"all_players":5,"players_per_million":0.14,"player_ids":["athletics:14488117","athletics:14597364","athletics:14648912","athletics:14678299","athletics:14844189"],"label":"Barika","country":"Algeria"},"geometry":{"type":"Polygon","coordinates":[[[3.543589,36.597898],[4.204174,32.110107],[8.974636,30.254841],[13.48858,32.875015],[13.244313,37.523712],[8.045142,39.402136],[3.543589,36.597898]]]}},{"type":"Feature","properties":{"hex_id":"81393ffffffffff","population":34532782,"population_year":2025,"area_km2":647632.6,"population_density":53.3,"all_players":30,"players_per_million":0.87,"player_ids":["athletics:14218673","athletics:14260762","athletics:14294819","athletics:14295066","athletics:14420300","athletics:14435170","athletics:14452646","athletics:14470735","athletics:14476604","athletics:14515916","athletics:14526967","athletics:14575235","athletics:14592926","athletics:14594593","athletics:14595639","athletics:14635475","athletics:14645110","athletics:14645137","athletics:14691558","athletics:14737874","athletics:14751896","athletics:14756630","athletics:14758919","athletics:14785105","athletics:14805421","athletics:14812711","athletics:14821865","athletics:14822316","athletics:14849411","athletics:14971542"],"label":"Madrid","country":"Spain"},"geometry":{"type":"Polygon","coordinates":[[[-8.101589,44.050631],[-12.384127,40.869133],[-10.744488,36.38323],[-5.442348,35.124424],[-1.416234,38.115997],[-2.417796,42.54048],[-8.101589,44.050631]]]}},{"type":"Feature","properties":{"hex_id":"81397ffffffffff","population":31465600,"population_year":2025,"area_km2":602082.0,"population_density":52.3,"all_players":20,"players_per_million":0.64,"player_ids":["athletics:14261358","athletics:14261420","athletics:14410257","athletics:14423830","athletics:14481710","athletics:14572111","athletics:14589314","athletics:14627382","athletics:14646018","athletics:14648428","athletics:14648429","athletics:14709654","athletics:14711683","athletics:14734117","athletics:14734118","athletics:14783906","athletics:14798791","athletics:14800408","athletics:14812578","athletics:14937005"],"label":"Montpellier","country":"Spain"},"geometry":{"type":"Polygon","coordinates":[[[-2.417796,42.54048],[-1.416234,38.115997],[0.238716,37.588846],[3.543589,36.597898],[8.045142,39.402136],[7.509948,43.786609],[2.026569,45.184249],[-2.417796,42.54048]]]}},{"type":"Feature","properties":{"hex_id":"8139bffffffffff","population":29060879,"population_year":2025,"area_km2":666617.1,"population_density":43.6,"all_players":8,"players_per_million":0.28,"player_ids":["athletics:14442050","athletics:14442147","athletics:14585136","athletics:14640588","athletics:14652586","athletics:14773269","athletics:14790858","athletics:14929058"],"label":"Khemisset","country":"Morocco"},"geometry":{"type":"Polygon","coordinates":[[[-10.744488,36.38323],[-14.570452,32.954386],[-12.948555,28.514936],[-8.002014,27.502909],[-4.341769,30.698974],[-5.442348,35.124424],[-10.744488,36.38323]]]}},{"type":"Feature","properties":{"hex_id":"813dbffffffffff","population":338594846,"population_year":2025,"area_km2":602082.0,"population_density":562.4,"all_players":6,"players_per_million":0.02,"player_ids":["athletics:14381862","athletics:14422692","athletics:14477764","athletics:14549089","athletics:14740932","athletics:15023839"],"label":"Aligarh district","country":"India"},"geometry":{"type":"Polygon","coordinates":[[[72.931624,26.106099],[75.010886,22.410566],[79.445503,21.802903],[82.644974,25.201987],[82.168245,26.544149],[81.028378,29.173754],[75.868402,29.662739],[72.931624,26.106099]]]}},{"type":"Feature","properties":{"hex_id":"813e7ffffffffff","population":111131590,"population_year":2025,"area_km2":707475.0,"population_density":157.1,"all_players":2,"players_per_million":0.02,"player_ids":["athletics:14167545","athletics:14579484"],"label":"Cairo","country":"Egypt"},"geometry":{"type":"Polygon","coordinates":[[[27.91173,30.313709],[27.504443,25.566739],[31.724402,22.868397],[36.387576,24.725676],[37.164282,29.339076],[32.928331,32.240102],[27.91173,30.313709]]]}},{"type":"Feature","properties":{"hex_id":"813f3ffffffffff","population":7824989,"population_year":2025,"area_km2":707475.0,"population_density":11.1,"all_players":2,"players_per_million":0.26,"player_ids":["athletics:14594823","athletics:14811238"],"label":"Syracuse","country":"Italy"},"geometry":{"type":"Polygon","coordinates":[[[13.244313,37.523712],[13.48858,32.875015],[18.343416,30.627348],[23.243175,32.934452],[23.474781,37.630343],[18.32526,39.988178],[13.244313,37.523712]]]}},{"type":"Feature","properties":{"hex_id":"813f7ffffffffff","population":23244108,"population_year":2025,"area_km2":707475.0,"population_density":32.9,"all_players":7,"players_per_million":0.3,"player_ids":["athletics:14421225","athletics:14590157","athletics:14669731","athletics:14751824","athletics:14776186","athletics:14840400","athletics:14928872"],"label":"Chania","country":"Turkey"},"geometry":{"type":"Polygon","coordinates":[[[23.474781,37.630343],[23.243175,32.934452],[27.91173,30.313709],[32.928331,32.240102],[33.614584,36.858664],[28.846869,39.643311],[23.474781,37.630343]]]}},{"type":"Feature","properties":{"hex_id":"81407ffffffffff","population":61337955,"population_year":2025,"area_km2":647632.6,"population_density":94.7,"all_players":2,"players_per_million":0.03,"player_ids":["athletics:14523268","athletics:14693572"],"label":"Dali Bai Autonomous Prefecture","country":"People's Republic of China"},"geometry":{"type":"Polygon","coordinates":[[[105.568,24.011141],[104.42056,28.291742],[99.516939,29.61536],[95.855137,26.622305],[97.148502,22.297036],[101.970677,21.002365],[105.568,24.011141]]]}},{"type":"Feature","properties":{"hex_id":"81413ffffffffff","population":120800976,"population_year":2025,"area_km2":595741.2,"population_density":202.8,"all_players":4,"players_per_million":0.03,"player_ids":["athletics:14427057","athletics:14583567","athletics:14637831","athletics:14744957"],"label":"Zhaoqing","country":"People's Republic of China"},"geometry":{"type":"Polygon","coordinates":[[[118.803002,19.252195],[117.990477,23.508952],[113.703767,25.199133],[110.205767,22.499632],[111.205113,18.077041],[115.517768,16.517912],[118.803002,19.252195]]]}},{"type":"Feature","properties":{"hex_id":"8141bffffffffff","population":147726784,"population_year":2025,"area_km2":523941.7,"population_density":282.0,"all_players":1,"players_per_million":0.01,"player_ids":["athletics:14534938"],"label":"Shaowu","country":"People's Republic of China"},"geometry":{"type":"Polygon","coordinates":[[[121.347514,26.200276],[120.503394,29.892985],[116.2613,31.680908],[112.740922,29.367232],[113.703767,25.199133],[117.990477,23.508952],[119.641465,24.728661],[121.347514,26.200276]]]}},{"type":"Feature","properties":{"hex_id":"81427ffffffffff","population":198959790,"population_year":2025,"area_km2":647632.6,"population_density":307.2,"all_players":1,"players_per_million":0.01,"player_ids":["athletics:14698105"],"label":"Khanewal","country":"Pakistan"},"geometry":{"type":"Polygon","coordinates":[[[65.31585,30.032245],[67.931507,26.281366],[72.931624,26.106099],[75.868402,29.662739],[73.592618,33.705753],[67.98289,33.902397],[65.31585,30.032245]]]}},{"type":"Feature","properties":{"hex_id":"81443ffffffffff","population":10265740,"population_year":2025,"area_km2":595741.2,"population_density":17.2,"all_players":6,"players_per_million":0.58,"player_ids":["athletics:14519911","athletics:14574170","athletics:14587743","athletics:14630191","athletics:14709120","athletics:14828679"],"label":"Havana","country":"Cuba"},"geometry":{"type":"Polygon","coordinates":[[[-83.891248,21.244199],[-80.82969,24.429618],[-81.966494,28.631807],[-86.545778,29.759287],[-89.807712,26.426478],[-88.2959,22.120731],[-83.891248,21.244199]]]}},{"type":"Feature","properties":{"hex_id":"81447ffffffffff","population":18780862,"population_year":2025,"area_km2":647632.6,"population_density":29.0,"all_players":5,"players_per_million":0.27,"player_ids":["athletics:14486620","athletics:14490237","athletics:14563272","athletics:14596460","athletics:14679502"],"label":"Lafayette","country":"United States"},"geometry":{"type":"Polygon","coordinates":[[[-89.807712,26.426478],[-86.545778,29.759287],[-88.065886,34.059836],[-93.265212,35.090108],[-96.66289,31.619531],[-94.743568,27.264006],[-89.807712,26.426478]]]}},{"type":"Feature","properties":{"hex_id":"8144bffffffffff","population":13618822,"population_year":2025,"area_km2":510516.1,"population_density":26.7,"all_players":9,"players_per_million":0.66,"player_ids":["athletics:14177939","athletics:14368117","athletics:14387755","athletics:14414505","athletics:14439750","athletics:14477940","athletics:14553598","athletics:14715880","athletics:14835094"],"label":"Nassau","country":"The Bahamas"},"geometry":{"type":"Polygon","coordinates":[[[-76.831217,23.342863],[-73.868279,26.190449],[-74.640468,30.219492],[-78.735928,31.57726],[-81.966494,28.631807],[-80.82969,24.429618],[-76.831217,23.342863]]]}},{"type":"Feature","properties":{"hex_id":"8144fffffffffff","population":31558550,"population_year":2025,"area_km2":565620.1,"population_density":55.8,"all_players":7,"players_per_million":0.22,"player_ids":["athletics:14490255","athletics:14536762","athletics:14541956","athletics:14576396","athletics:14756997","athletics:14785286","athletics:14850487"],"label":"Atlanta","country":"United States"},"geometry":{"type":"Polygon","coordinates":[[[-81.966494,28.631807],[-78.735928,31.57726],[-79.270109,33.659462],[-79.557618,35.583567],[-84.585167,37.099589],[-88.065886,34.059836],[-86.545778,29.759287],[-81.966494,28.631807]]]}},{"type":"Feature","properties":{"hex_id":"8145bffffffffff","population":6770206,"population_year":2025,"area_km2":523941.7,"population_density":12.9,"all_players":6,"players_per_million":0.89,"player_ids":["athletics:14263462","athletics:14285696","athletics:14325599","athletics:14468667","athletics:14637147","athletics:14709137"],"label":"Camagüey","country":"Jamaica"},"geometry":{"type":"Polygon","coordinates":[[[-78.539302,16.469566],[-75.998548,19.358823],[-76.831217,23.342863],[-80.82969,24.429618],[-83.891248,21.244199],[-82.727942,17.133437],[-80.745134,16.733205],[-78.539302,16.469566]]]}},{"type":"Feature","properties":{"hex_id":"81487ffffffffff","population":7407980,"population_year":2025,"area_km2":707475.0,"population_density":10.5,"all_players":2,"players_per_million":0.27,"player_ids":["athletics:14521979","athletics:14647494"],"label":"San Diego","country":"United States"},"geometry":{"type":"Polygon","coordinates":[[[-113.460448,24.671634],[-110.662618,28.72381],[-113.268008,32.856905],[-118.804528,32.779438],[-121.336628,28.653019],[-118.632643,24.676155],[-113.460448,24.671634]]]}},{"type":"Feature","properties":{"hex_id":"8148bffffffffff","population":22495747,"population_year":2025,"area_km2":707475.0,"population_density":31.8,"all_players":2,"players_per_million":0.09,"player_ids":["athletics:14593015","athletics:14656699"],"label":"Midland","country":"United States"},"geometry":{"type":"Polygon","coordinates":[[[-97.905634,23.589794],[-94.743568,27.264006],[-96.66289,31.619531],[-102.093235,32.268747],[-105.250678,28.43866],[-103.011626,24.121727],[-97.905634,23.589794]]]}},{"type":"Feature","properties":{"hex_id":"8148fffffffffff","population":14949273,"population_year":2025,"area_km2":707475.0,"population_density":21.1,"all_players":8,"players_per_million":0.54,"player_ids":["athletics:14213214","athletics:14234882","athletics:14335825","athletics:14365572","athletics:14453864","athletics:14593049","athletics:14690230","athletics:14753734"],"label":"Chihuahua City","country":"Mexico"},"geometry":{"type":"Polygon","coordinates":[[[-105.250678,28.43866],[-102.093235,32.268747],[-104.454816,36.494369],[-110.257485,36.800197],[-113.268008,32.856905],[-110.662618,28.72381],[-105.250678,28.43866]]]}},{"type":"Feature","properties":{"hex_id":"8149bffffffffff","population":82320512,"population_year":2025,"area_km2":707475.0,"population_density":116.4,"all_players":5,"players_per_million":0.06,"player_ids":["athletics:14291173","athletics:14365568","athletics:14385600","athletics:14539114","athletics:14635886"],"label":"Mexico City","country":"Mexico"},"geometry":{"type":"Polygon","coordinates":[[[-99.004086,15.55132],[-96.05021,19.269007],[-97.905634,23.589794],[-103.011626,24.121727],[-105.946435,20.212679],[-103.819339,15.969878],[-99.004086,15.55132]]]}},{"type":"Feature","properties":{"hex_id":"814a3ffffffffff","population":1356428,"population_year":2025,"area_km2":595741.2,"population_density":2.3,"all_players":2,"players_per_million":1.47,"player_ids":["athletics:14714426","athletics:14893694"],"label":"Tomigusuku","country":"Japan"},"geometry":{"type":"Polygon","coordinates":[[[125.719882,25.218062],[126.560782,21.137466],[131.050919,19.835922],[134.795943,22.710396],[133.976139,26.829336],[129.381002,28.043997],[125.719882,25.218062]]]}},{"type":"Feature","properties":{"hex_id":"814b7ffffffffff","population":8198106,"population_year":2025,"area_km2":523941.7,"population_density":15.6,"all_players":4,"players_per_million":0.49,"player_ids":["athletics:14679687","athletics:14747887","athletics:14766547","athletics:14950023"],"label":"Hyūga-shi","country":"Japan"},"geometry":{"type":"Polygon","coordinates":[[[128.534469,31.786712],[129.381002,28.043997],[133.976139,26.829336],[137.800087,29.424814],[137.3956,31.331749],[136.697641,33.378798],[132.308377,34.331159],[128.534469,31.786712]]]}},{"type":"Feature","properties":{"hex_id":"814cbffffffffff","population":7978932,"population_year":2025,"area_km2":447684.2,"population_density":17.8,"all_players":5,"players_per_million":0.63,"player_ids":["athletics:14412588","athletics:14571850","athletics:14676383","athletics:14742125","athletics:14756963"],"label":"Santiago de Cuba","country":"Cuba"},"geometry":{"type":"Polygon","coordinates":[[[-71.730136,18.713931],[-69.383269,21.326184],[-69.980891,22.397527],[-70.339044,24.945216],[-73.868279,26.190449],[-76.831217,23.342863],[-75.998548,19.358823],[-71.730136,18.713931]]]}},{"type":"Feature","properties":{"hex_id":"814cfffffffffff","population":14033548,"population_year":2025,"area_km2":447684.2,"population_density":31.3,"all_players":9,"players_per_million":0.64,"player_ids":["athletics:14285523","athletics:14371527","athletics:14414638","athletics:14437678","athletics:14532760","athletics:14749613","athletics:14829806","athletics:14912251","athletics:15040816"],"label":"San Juan","country":"Dominican Republic"},"geometry":{"type":"Polygon","coordinates":[[[-69.383269,21.326184],[-71.730136,18.713931],[-69.89993,15.209504],[-65.768822,14.482401],[-63.616,18.007411],[-65.407239,20.979704],[-66.686099,20.812431],[-69.383269,21.326184]]]}},{"type":"Feature","properties":{"hex_id":"814d7ffffffffff","population":14674,"population_year":2025,"area_km2":447684.2,"population_density":0.0,"all_players":1,"players_per_million":68.15,"player_ids":["athletics:14414524"],"label":"Sandy Ground","country":"Anguilla"},"geometry":{"type":"Polygon","coordinates":[[[-59.510088,18.366344],[-57.230112,21.814639],[-60.036175,24.987465],[-63.73633,24.369915],[-63.986419,23.185424],[-65.407239,20.979704],[-63.616,18.007411],[-59.510088,18.366344]]]}},{"type":"Feature","properties":{"hex_id":"8152bffffffffff","population":49347689,"population_year":2025,"area_km2":595741.2,"population_density":82.8,"all_players":6,"players_per_million":0.12,"player_ids":["athletics:14477352","athletics:14513998","athletics:14526757","athletics:14595214","athletics:14774179","athletics:14848753"],"label":"Atsbi Wenberta","country":"Ethiopia"},"geometry":{"type":"Polygon","coordinates":[[[35.008409,15.638246],[34.393733,11.276322],[37.848935,8.893463],[41.867809,10.627354],[42.722899,14.799802],[39.336569,17.433883],[35.008409,15.638246]]]}},{"type":"Feature","properties":{"hex_id":"8152fffffffffff","population":32067962,"population_year":2025,"area_km2":523941.7,"population_density":61.2,"all_players":2,"players_per_million":0.06,"player_ids":["athletics:14572523","athletics:14643405"],"label":"Djibouti","country":"Djibouti"},"geometry":{"type":"Polygon","coordinates":[[[42.722899,14.799802],[41.867809,10.627354],[43.424424,9.440448],[45.240404,8.29213],[48.701817,9.876091],[49.728526,13.808566],[46.820519,16.390229],[42.722899,14.799802]]]}},{"type":"Feature","properties":{"hex_id":"81537ffffffffff","population":16988306,"population_year":2025,"area_km2":565620.1,"population_density":30.0,"all_players":1,"players_per_million":0.06,"player_ids":["athletics:14523471"],"label":"Jubail","country":"Saudi Arabia"},"geometry":{"type":"Polygon","coordinates":[[[45.678762,27.848758],[44.621776,23.461153],[47.86784,20.598095],[51.981036,21.936732],[52.589722,23.991946],[53.353616,25.802498],[50.187904,29.089392],[45.678762,27.848758]]]}},{"type":"Feature","properties":{"hex_id":"8154bffffffffff","population":6936761,"population_year":2025,"area_km2":595741.2,"population_density":11.6,"all_players":1,"players_per_million":0.14,"player_ids":["athletics:14894836"],"label":"Dakar","country":"Senegal"},"geometry":{"type":"Polygon","coordinates":[[[-22.644744,17.902725],[-25.454791,14.423931],[-23.629131,10.672391],[-19.256081,10.227431],[-16.398619,13.434493],[-17.936911,17.348672],[-22.644744,17.902725]]]}},{"type":"Feature","properties":{"hex_id":"8154fffffffffff","population":17673803,"population_year":2025,"area_km2":523941.7,"population_density":33.7,"all_players":1,"players_per_million":0.06,"player_ids":["athletics:14623929"],"label":"Conakry","country":"Guinea"},"geometry":{"type":"Polygon","coordinates":[[[-16.398619,13.434493],[-19.256081,10.227431],[-18.496978,8.439383],[-17.487884,6.558659],[-13.708147,6.270965],[-10.883976,9.211077],[-12.071696,12.842516],[-16.398619,13.434493]]]}},{"type":"Feature","properties":{"hex_id":"81583ffffffffff","population":76278201,"population_year":2025,"area_km2":595741.2,"population_density":128.0,"all_players":2,"players_per_million":0.03,"player_ids":["athletics:14884267","athletics:14978353"],"label":"Kaduna","country":"Nigeria"},"geometry":{"type":"Polygon","coordinates":[[[2.302843,16.098689],[2.888108,11.881771],[6.801169,9.899743],[10.416288,12.057325],[10.097978,16.449183],[5.882263,18.516052],[2.302843,16.098689]]]}},{"type":"Feature","properties":{"hex_id":"8158bffffffffff","population":107607985,"population_year":2025,"area_km2":510516.1,"population_density":210.8,"all_players":7,"players_per_million":0.07,"player_ids":["athletics:14270067","athletics:14419510","athletics:14484475","athletics:14576455","athletics:14579526","athletics:14591118","athletics:14643442"],"label":"Abeokuta","country":"Nigeria"},"geometry":{"type":"Polygon","coordinates":[[[-0.319183,9.731837],[0.309804,5.864518],[3.943036,3.968797],[7.212915,5.860392],[6.801169,9.899743],[2.888108,11.881771],[-0.319183,9.731837]]]}},{"type":"Feature","properties":{"hex_id":"8158fffffffffff","population":72024112,"population_year":2025,"area_km2":565620.1,"population_density":127.3,"all_players":1,"players_per_million":0.01,"player_ids":["athletics:14523980"],"label":"Ngaoundéré","country":"Cameroon"},"geometry":{"type":"Polygon","coordinates":[[[6.801169,9.899743],[7.212915,5.860392],[9.102371,4.860812],[10.722778,3.789625],[14.58325,5.76286],[14.435042,9.913391],[10.416288,12.057325],[6.801169,9.899743]]]}},{"type":"Feature","properties":{"hex_id":"8159bffffffffff","population":32198434,"population_year":2025,"area_km2":523941.7,"population_density":61.5,"all_players":2,"players_per_million":0.06,"player_ids":["athletics:14523962","athletics:14913220"],"label":"Ouagadougou","country":"Burkina Faso"},"geometry":{"type":"Polygon","coordinates":[[[-4.866872,15.219885],[-4.013998,11.545296],[-0.319183,9.731837],[2.888108,11.881771],[2.302843,16.098689],[-1.71131,17.935405],[-3.292565,16.71898],[-4.866872,15.219885]]]}},{"type":"Feature","properties":{"hex_id":"815e7ffffffffff","population":1296052,"population_year":2025,"area_km2":510516.1,"population_density":2.5,"all_players":10,"players_per_million":7.72,"player_ids":["athletics:14195659","athletics:14416826","athletics:14462837","athletics:14469918","athletics:14520432","athletics:14592846","athletics:14631507","athletics:14646562","athletics:14887838","athletics:14893596"],"label":"Saint Andrew Parish","country":"Grenada"},"geometry":{"type":"Polygon","coordinates":[[[-59.834917,11.355368],[-57.535307,15.054266],[-59.510088,18.366344],[-63.616,18.007411],[-65.768822,14.482401],[-63.969049,11.14894],[-59.834917,11.355368]]]}},{"type":"Feature","properties":{"hex_id":"815f3ffffffffff","population":1690028,"population_year":2025,"area_km2":647632.6,"population_density":2.6,"all_players":2,"players_per_million":1.18,"player_ids":["athletics:14638015","athletics:14738969"],"label":"Cayenne","country":"France"},"geometry":{"type":"Polygon","coordinates":[[[-53.682044,-0.170178],[-51.252816,3.813395],[-53.403819,7.752291],[-57.846431,7.694211],[-60.165868,3.84262],[-58.16364,-0.07918],[-53.682044,-0.170178]]]}},{"type":"Feature","properties":{"hex_id":"815f7ffffffffff","population":6903837,"population_year":2025,"area_km2":565620.1,"population_density":12.2,"all_players":1,"players_per_million":0.14,"player_ids":["athletics:14376122"],"label":"Toco","country":"Trinidad and Tobago"},"geometry":{"type":"Polygon","coordinates":[[[-60.165868,3.84262],[-57.846431,7.694211],[-59.834917,11.355368],[-63.969049,11.14894],[-65.058471,9.308112],[-66.195256,7.728775],[-64.328272,3.824532],[-60.165868,3.84262]]]}},{"type":"Feature","properties":{"hex_id":"81603ffffffffff","population":130572120,"population_year":2025,"area_km2":595741.2,"population_density":219.2,"all_players":2,"players_per_million":0.02,"player_ids":["athletics:14606734","athletics:14734673"],"label":"Kerala","country":"India"},"geometry":{"type":"Polygon","coordinates":[[[79.170565,9.844673],[77.800917,14.162484],[73.552971,14.946524],[70.86173,11.593032],[72.193634,7.473864],[76.264085,6.511601],[79.170565,9.844673]]]}},{"type":"Feature","properties":{"hex_id":"81613ffffffffff","population":23505288,"population_year":2025,"area_km2":647632.6,"population_density":36.3,"all_players":1,"players_per_million":0.04,"player_ids":["athletics:14671060"],"label":"Kegalle","country":"Sri Lanka"},"geometry":{"type":"Polygon","coordinates":[[[84.929667,4.348487],[83.593158,8.820602],[79.170565,9.844673],[76.264085,6.511601],[77.598304,2.223344],[81.853074,1.084854],[84.929667,4.348487]]]}},{"type":"Feature","properties":{"hex_id":"81617ffffffffff","population":513397,"population_year":2025,"area_km2":565620.1,"population_density":0.9,"all_players":1,"players_per_million":1.95,"player_ids":["athletics:14427032"],"label":"Gaafaru","country":"Maldives"},"geometry":{"type":"Polygon","coordinates":[[[77.598304,2.223344],[76.264085,6.511601],[72.193634,7.473864],[69.633811,4.311474],[70.280112,2.281283],[70.68987,0.386461],[74.826761,-0.870188],[77.598304,2.223344]]]}},{"type":"Feature","properties":{"hex_id":"8161bffffffffff","population":70051421,"population_year":2025,"area_km2":666617.1,"population_density":105.1,"all_players":1,"players_per_million":0.01,"player_ids":["athletics:14841034"],"label":"Tamil Nadu","country":"India"},"geometry":{"type":"Polygon","coordinates":[[[86.805421,12.238125],[85.445337,16.70096],[80.850069,17.60337],[77.800917,14.162484],[79.170565,9.844673],[83.593158,8.820602],[86.805421,12.238125]]]}},{"type":"Feature","properties":{"hex_id":"81643ffffffffff","population":6509931,"population_year":2025,"area_km2":729486.9,"population_density":8.9,"all_players":1,"players_per_million":0.15,"player_ids":["athletics:14424032"],"label":"Surat Thani","country":"Thailand"},"geometry":{"type":"Polygon","coordinates":[[[100.801361,8.618891],[99.621042,13.236333],[94.893577,14.501203],[91.464699,11.111889],[92.750684,6.523961],[97.373041,5.289412],[100.801361,8.618891]]]}},{"type":"Feature","properties":{"hex_id":"8165bffffffffff","population":97524895,"population_year":2025,"area_km2":707475.0,"population_density":137.8,"all_players":1,"players_per_million":0.01,"player_ids":["athletics:14992965"],"label":"Surin","country":"Thailand"},"geometry":{"type":"Polygon","coordinates":[[[108.772478,10.507688],[107.742624,15.063301],[103.137733,16.48245],[99.621042,13.236333],[100.801361,8.618891],[105.357168,7.303219],[108.772478,10.507688]]]}},{"type":"Feature","properties":{"hex_id":"81663ffffffffff","population":31391637,"population_year":2025,"area_km2":595741.2,"population_density":52.7,"all_players":4,"players_per_million":0.13,"player_ids":["athletics:14369345","athletics:14479637","athletics:14768739","athletics:14841613"],"label":"Ciénaga","country":"Colombia"},"geometry":{"type":"Polygon","coordinates":[[[-76.701678,12.819508],[-79.317401,9.553624],[-77.440699,5.563142],[-72.936618,4.995193],[-70.443514,8.370077],[-72.317998,12.204723],[-76.701678,12.819508]]]}},{"type":"Feature","properties":{"hex_id":"8166fffffffffff","population":32644277,"population_year":2025,"area_km2":666617.1,"population_density":49.0,"all_players":9,"players_per_million":0.28,"player_ids":["athletics:14262339","athletics:14328011","athletics:14369335","athletics:14428732","athletics:14517841","athletics:14587338","athletics:14652260","athletics:14701514","athletics:14701543"],"label":"Bogotá","country":"Ecuador"},"geometry":{"type":"Polygon","coordinates":[[[-77.440699,5.563142],[-80.134859,1.975922],[-78.218164,-2.264143],[-73.588317,-2.770303],[-71.016075,0.901274],[-72.936618,4.995193],[-77.440699,5.563142]]]}},{"type":"Feature","properties":{"hex_id":"81673ffffffffff","population":8373126,"population_year":2025,"area_km2":510516.1,"population_density":16.4,"all_players":15,"players_per_million":1.79,"player_ids":["athletics:14285680","athletics:14413464","athletics:14413487","athletics:14413641","athletics:14414603","athletics:14445000","athletics:14450995","athletics:14516275","athletics:14569308","athletics:14574022","athletics:14630564","athletics:14631861","athletics:14635736","athletics:14654737","athletics:14738009"],"label":"Kingston","country":"Jamaica"},"geometry":{"type":"Polygon","coordinates":[[[-75.998548,19.358823],[-78.539302,16.469566],[-76.701678,12.819508],[-72.317998,12.204723],[-69.89993,15.209504],[-71.730136,18.713931],[-75.998548,19.358823]]]}},{"type":"Feature","properties":{"hex_id":"81677ffffffffff","population":16749088,"population_year":2025,"area_km2":523941.7,"population_density":32.0,"all_players":4,"players_per_million":0.24,"player_ids":["athletics:14180980","athletics:14427350","athletics:14436431","athletics:14530331"],"label":"Willemstad","country":"Curaçao"},"geometry":{"type":"Polygon","coordinates":[[[-69.89993,15.209504],[-72.317998,12.204723],[-70.443514,8.370077],[-66.195256,7.728775],[-65.058471,9.308112],[-63.969049,11.14894],[-65.768822,14.482401],[-69.89993,15.209504]]]}},{"type":"Feature","properties":{"hex_id":"8168bffffffffff","population":13341248,"population_year":2025,"area_km2":602082.0,"population_density":22.2,"all_players":1,"players_per_million":0.07,"player_ids":["athletics:14898569"],"label":"Central Hulu Sungai","country":"Indonesia"},"geometry":{"type":"Polygon","coordinates":[[[118.801447,-1.090818],[117.998885,3.326713],[116.677233,3.822102],[113.985132,4.672131],[110.723994,1.535866],[111.648325,-2.768743],[115.671728,-3.824532],[118.801447,-1.090818]]]}},{"type":"Feature","properties":{"hex_id":"81697ffffffffff","population":61355356,"population_year":2025,"area_km2":602082.0,"population_density":101.9,"all_players":1,"players_per_million":0.02,"player_ids":["athletics:14522941"],"label":"Manila","country":"Philippines"},"geometry":{"type":"Polygon","coordinates":[[[115.517768,16.517912],[116.372319,12.105102],[117.720512,11.610617],[120.449366,10.736966],[123.854824,13.797501],[123.023555,18.12707],[118.803002,19.252195],[115.517768,16.517912]]]}},{"type":"Feature","properties":{"hex_id":"816a7ffffffffff","population":39281735,"population_year":2025,"area_km2":602082.0,"population_density":65.2,"all_players":2,"players_per_million":0.05,"player_ids":["athletics:14774192","athletics:14792211"],"label":"Chukudum","country":"South Sudan"},"geometry":{"type":"Polygon","coordinates":[[[37.776764,4.740955],[37.848935,8.893463],[34.393733,11.276322],[30.2491,9.396155],[30.105009,7.994339],[29.961298,5.181923],[33.814945,2.80266],[37.776764,4.740955]]]}},{"type":"Feature","properties":{"hex_id":"816afffffffffff","population":97315062,"population_year":2025,"area_km2":666617.1,"population_density":146.0,"all_players":4,"players_per_million":0.04,"player_ids":["athletics:14636764","athletics:14645754","athletics:14661449","athletics:14973644"],"label":"Kinama zone","country":"Rwanda"},"geometry":{"type":"Polygon","coordinates":[[[33.663619,-1.677295],[33.814945,2.80266],[29.961298,5.181923],[25.886011,3.202074],[25.586785,-1.270444],[29.508441,-3.781048],[33.663619,-1.677295]]]}},{"type":"Feature","properties":{"hex_id":"816b7ffffffffff","population":30957514,"population_year":2025,"area_km2":647632.6,"population_density":47.8,"all_players":2,"players_per_million":0.06,"player_ids":["athletics:14456885","athletics:14755875"],"label":"Khartoum","country":"Sudan"},"geometry":{"type":"Polygon","coordinates":[[[26.786746,16.229863],[26.468997,11.757965],[30.2491,9.396155],[34.393733,11.276322],[35.008409,15.638246],[31.193691,18.242013],[26.786746,16.229863]]]}},{"type":"Feature","properties":{"hex_id":"816d3ffffffffff","population":29859986,"population_year":2025,"area_km2":647632.6,"population_density":46.1,"all_players":2,"players_per_million":0.07,"player_ids":["athletics:14366343","athletics:14434925"],"label":"San Cristóbal Verapaz","country":"Guatemala"},"geometry":{"type":"Polygon","coordinates":[[[-92.748264,10.965445],[-89.864907,14.465456],[-91.359302,18.628702],[-96.05021,19.269007],[-99.004086,15.55132],[-97.212261,11.421136],[-92.748264,10.965445]]]}},{"type":"Feature","properties":{"hex_id":"816d7ffffffffff","population":18299575,"population_year":2025,"area_km2":602082.0,"population_density":30.4,"all_players":1,"players_per_million":0.05,"player_ids":["athletics:14414628"],"label":"San José","country":"Costa Rica"},"geometry":{"type":"Polygon","coordinates":[[[-89.864907,14.465456],[-92.748264,10.965445],[-92.245635,9.646037],[-91.120071,7.059509],[-86.589994,6.605187],[-83.843685,10.069625],[-85.631069,13.836854],[-89.864907,14.465456]]]}},{"type":"Feature","properties":{"hex_id":"81753ffffffffff","population":54458211,"population_year":2025,"area_km2":447684.2,"population_density":121.6,"all_players":6,"players_per_million":0.11,"player_ids":["athletics:14426462","athletics:14775357","athletics:14823620","athletics:14873268","athletics:14893979","athletics:14924908"],"label":"Accra","country":"Ghana"},"geometry":{"type":"Polygon","coordinates":[[[-6.957445,8.664197],[-6.064496,5.36274],[-4.862616,5.210611],[-2.579035,4.020024],[0.309804,5.864518],[-0.319183,9.731837],[-4.013998,11.545296],[-6.957445,8.664197]]]}},{"type":"Feature","properties":{"hex_id":"8175bffffffffff","population":18609698,"population_year":2025,"area_km2":447684.2,"population_density":41.6,"all_players":2,"players_per_million":0.11,"player_ids":["athletics:14622202","athletics:14636900"],"label":"Man","country":"Ivory Coast"},"geometry":{"type":"Polygon","coordinates":[[[-10.883976,9.211077],[-13.708147,6.270965],[-11.830187,2.638933],[-8.412776,2.46758],[-7.899841,3.559838],[-6.064496,5.36274],[-6.957445,8.664197],[-10.883976,9.211077]]]}},{"type":"Feature","properties":{"hex_id":"817a3ffffffffff","population":8897699,"population_year":2025,"area_km2":595741.2,"population_density":14.9,"all_players":1,"players_per_million":0.11,"player_ids":["athletics:14330105"],"label":"Mogadishu","country":"Somalia"},"geometry":{"type":"Polygon","coordinates":[[[49.076283,-2.354734],[48.947069,1.89827],[45.302588,4.23272],[41.590006,2.35869],[41.586655,-2.043983],[45.433877,-4.428419],[49.076283,-2.354734]]]}},{"type":"Feature","properties":{"hex_id":"817a7ffffffffff","population":65758369,"population_year":2025,"area_km2":647632.6,"population_density":101.5,"all_players":25,"players_per_million":0.38,"player_ids":["athletics:14208053","athletics:14330373","athletics:14373314","athletics:14376567","athletics:14413305","athletics:14464203","athletics:14479183","athletics:14482919","athletics:14530634","athletics:14593938","athletics:14643526","athletics:14657163","athletics:14657344","athletics:14677961","athletics:14692921","athletics:14707661","athletics:14749924","athletics:14760499","athletics:14798146","athletics:14808798","athletics:14913746","athletics:14940422","athletics:14974928","athletics:14989901","athletics:15090820"],"label":"Uasin Gishu County","country":"Kenya"},"geometry":{"type":"Polygon","coordinates":[[[41.586655,-2.043983],[41.590006,2.35869],[37.776764,4.740955],[33.814945,2.80266],[33.663619,-1.677295],[37.624159,-4.150913],[41.586655,-2.043983]]]}},{"type":"Feature","properties":{"hex_id":"817afffffffffff","population":61077402,"population_year":2025,"area_km2":565620.1,"population_density":108.0,"all_players":5,"players_per_million":0.08,"player_ids":["athletics:14388506","athletics:14577970","athletics:14751317","athletics:14763375","athletics:14848765"],"label":"Assela","country":"Ethiopia"},"geometry":{"type":"Polygon","coordinates":[[[45.302588,4.23272],[45.240404,8.29213],[43.424424,9.440448],[41.867809,10.627354],[37.848935,8.893463],[37.776764,4.740955],[41.590006,2.35869],[45.302588,4.23272]]]}},{"type":"Feature","properties":{"hex_id":"8181bffffffffff","population":21939270,"population_year":2025,"area_km2":707475.0,"population_density":31.0,"all_players":3,"players_per_million":0.14,"player_ids":["athletics:14268877","athletics:14269216","athletics:14327283"],"label":"João Pessoa","country":"Brazil"},"geometry":{"type":"Polygon","coordinates":[[[-32.577536,-12.754155],[-30.225126,-8.70174],[-32.528268,-4.64962],[-37.243135,-4.606029],[-39.695155,-8.696744],[-37.348487,-12.792371],[-32.577536,-12.754155]]]}},{"type":"Feature","properties":{"hex_id":"81823ffffffffff","population":6613515,"population_year":2025,"area_km2":595741.2,"population_density":11.1,"all_players":1,"players_per_million":0.15,"player_ids":["athletics:14429097"],"label":"Pointe-Noire","country":"Republic of the Congo"},"geometry":{"type":"Polygon","coordinates":[[[13.101649,-7.336896],[13.611699,-2.844753],[10.189894,-0.431885],[6.386374,-2.341804],[5.789351,-6.624088],[9.073557,-9.206516],[13.101649,-7.336896]]]}},{"type":"Feature","properties":{"hex_id":"8182bffffffffff","population":9666174,"population_year":2025,"area_km2":595741.2,"population_density":16.2,"all_players":1,"players_per_million":0.1,"player_ids":["athletics:14852717"],"label":"Yaoundé","country":"Cameroon"},"geometry":{"type":"Polygon","coordinates":[[[17.669408,-0.846984],[18.099816,3.534623],[14.58325,5.76286],[10.722778,3.789625],[10.189894,-0.431885],[13.611699,-2.844753],[17.669408,-0.846984]]]}},{"type":"Feature","properties":{"hex_id":"81833ffffffffff","population":25074496,"population_year":2025,"area_km2":647632.6,"population_density":38.7,"all_players":1,"players_per_million":0.04,"player_ids":["athletics:15021775"],"label":"Luanda","country":"Angola"},"geometry":{"type":"Polygon","coordinates":[[[16.28544,-14.623075],[16.762979,-9.981512],[13.101649,-7.336896],[9.073557,-9.206516],[8.488704,-13.659571],[12.029259,-16.433715],[16.28544,-14.623075]]]}},{"type":"Feature","properties":{"hex_id":"8183bffffffffff","population":37999192,"population_year":2025,"area_km2":666617.1,"population_density":57.0,"all_players":4,"players_per_million":0.11,"player_ids":["athletics:14375638","athletics:14595067","athletics:14804999","athletics:14910752"],"label":"Kinshasa","country":"Democratic Republic of the Congo"},"geometry":{"type":"Polygon","coordinates":[[[21.012272,-7.972666],[21.400325,-3.335735],[17.669408,-0.846984],[13.611699,-2.844753],[13.101649,-7.336896],[16.762979,-9.981512],[21.012272,-7.972666]]]}},{"type":"Feature","properties":{"hex_id":"8185bffffffffff","population":131416,"population_year":2025,"area_km2":565620.1,"population_density":0.2,"all_players":1,"players_per_million":7.61,"player_ids":["athletics:14642679"],"label":"Victoria","country":"Seychelles"},"geometry":{"type":"Polygon","coordinates":[[[52.689526,-4.612861],[52.885934,-8.931892],[56.791433,-10.490964],[60.391647,-7.747813],[59.884855,-3.625405],[56.040764,-2.304118],[54.342631,-3.593324],[52.689526,-4.612861]]]}},{"type":"Feature","properties":{"hex_id":"81893ffffffffff","population":250204,"population_year":2025,"area_km2":666617.1,"population_density":0.4,"all_players":1,"players_per_million":4.0,"player_ids":["athletics:14385035"],"label":"Moorea-Maiao","country":"France"},"geometry":{"type":"Polygon","coordinates":[[[-148.806309,-18.242013],[-147.534733,-13.929126],[-150.7527,-10.680211],[-155.279374,-11.520975],[-156.84511,-15.737455],[-153.609865,-19.220506],[-148.806309,-18.242013]]]}},{"type":"Feature","properties":{"hex_id":"818b7ffffffffff","population":3308888,"population_year":2025,"area_km2":666617.1,"population_density":5.0,"all_players":2,"players_per_million":0.6,"player_ids":["athletics:14591647","athletics:14746476"],"label":"Pallpata District","country":"Peru"},"geometry":{"type":"Polygon","coordinates":[[[-71.619868,-7.003124],[-74.275639,-10.846247],[-72.257376,-15.063301],[-67.619263,-15.302305],[-65.150174,-11.472124],[-67.11855,-7.389407],[-71.619868,-7.003124]]]}},{"type":"Feature","properties":{"hex_id":"818bbffffffffff","population":3093743,"population_year":2025,"area_km2":647632.6,"population_density":4.8,"all_players":1,"players_per_million":0.32,"player_ids":["athletics:14429487"],"label":"Matupá","country":"Brazil"},"geometry":{"type":"Polygon","coordinates":[[[-54.256132,-16.171868],[-51.776426,-12.387612],[-53.966092,-8.249606],[-58.487095,-8.000708],[-60.846751,-11.739864],[-58.81696,-15.773842],[-54.256132,-16.171868]]]}},{"type":"Feature","properties":{"hex_id":"818e7ffffffffff","population":16354493,"population_year":2025,"area_km2":707475.0,"population_density":23.1,"all_players":2,"players_per_million":0.12,"player_ids":["athletics:14293276","athletics:14546586"],"label":"Huancayo","country":"Peru"},"geometry":{"type":"Polygon","coordinates":[[[-79.036844,-10.410684],[-81.898882,-14.26415],[-79.899742,-18.555033],[-75.001372,-18.920583],[-72.257376,-15.063301],[-74.275639,-10.846247],[-79.036844,-10.410684]]]}},{"type":"Feature","properties":{"hex_id":"818f3ffffffffff","population":13520599,"population_year":2025,"area_km2":707475.0,"population_density":19.1,"all_players":3,"players_per_million":0.22,"player_ids":["athletics:14262292","athletics:14501901","athletics:14746400"],"label":"Guayaquil","country":"Ecuador"},"geometry":{"type":"Polygon","coordinates":[[[-84.773307,2.504605],[-87.594004,-1.196428],[-85.748308,-5.520061],[-80.994381,-6.061929],[-78.218164,-2.264143],[-80.134859,1.975922],[-84.773307,2.504605]]]}},{"type":"Feature","properties":{"hex_id":"81943ffffffffff","population":4904207,"population_year":2025,"area_km2":595741.2,"population_density":8.2,"all_players":1,"players_per_million":0.2,"player_ids":["athletics:14850871"],"label":"Dili","country":"Timor-Leste"},"geometry":{"type":"Polygon","coordinates":[[[120.39857,-9.791751],[121.192543,-13.975216],[125.297865,-15.691264],[128.72923,-13.199443],[127.931665,-8.866885],[123.699174,-7.171745],[120.39857,-9.791751]]]}},{"type":"Feature","properties":{"hex_id":"81963ffffffffff","population":26858215,"population_year":2025,"area_km2":729486.9,"population_density":36.8,"all_players":1,"players_per_million":0.04,"player_ids":["athletics:14930603"],"label":"Lusaka","country":"Zambia"},"geometry":{"type":"Polygon","coordinates":[[[33.173278,-15.790435],[33.34314,-11.032729],[29.268943,-8.474704],[24.9542,-10.610164],[24.619558,-15.359563],[28.761238,-17.991301],[33.173278,-15.790435]]]}},{"type":"Feature","properties":{"hex_id":"8196bffffffffff","population":46355702,"population_year":2025,"area_km2":707475.0,"population_density":65.5,"all_players":2,"players_per_million":0.04,"player_ids":["athletics:14487535","athletics:14840516"],"label":"Singida","country":"Tanzania"},"geometry":{"type":"Polygon","coordinates":[[[37.543405,-8.803195],[37.624159,-4.150913],[33.663619,-1.677295],[29.508441,-3.781048],[29.268943,-8.474704],[33.34314,-11.032729],[37.543405,-8.803195]]]}},{"type":"Feature","properties":{"hex_id":"81973ffffffffff","population":25257526,"population_year":2025,"area_km2":707475.0,"population_density":35.7,"all_players":1,"players_per_million":0.04,"player_ids":["athletics:14805965"],"label":"Gweru","country":"Zimbabwe"},"geometry":{"type":"Polygon","coordinates":[[[37.281129,-22.885971],[37.372092,-18.233776],[33.173278,-15.790435],[28.761238,-17.991301],[28.491882,-22.684204],[32.812319,-25.145186],[37.281129,-22.885971]]]}},{"type":"Feature","properties":{"hex_id":"81977ffffffffff","population":4813685,"population_year":2025,"area_km2":707475.0,"population_density":6.8,"all_players":1,"players_per_million":0.21,"player_ids":["athletics:14847443"],"label":"Tutume","country":"Botswana"},"geometry":{"type":"Polygon","coordinates":[[[28.491882,-22.684204],[28.761238,-17.991301],[24.619558,-15.359563],[20.192244,-17.370809],[19.75867,-22.005854],[23.910011,-24.696711],[28.491882,-22.684204]]]}},{"type":"Feature","properties":{"hex_id":"819d3ffffffffff","population":666690,"population_year":2025,"area_km2":666617.1,"population_density":1.0,"all_players":2,"players_per_million":3.0,"player_ids":["athletics:14514560","athletics:14517121"],"label":"Rockhampton","country":"Australia"},"geometry":{"type":"Polygon","coordinates":[[[155.419957,-21.999746],[154.220719,-17.66142],[149.681051,-16.397259],[146.041409,-19.302203],[146.846074,-23.721804],[151.703594,-25.170738],[155.419957,-21.999746]]]}},{"type":"Feature","properties":{"hex_id":"81a73ffffffffff","population":2011346,"population_year":2025,"area_km2":447684.2,"population_density":4.5,"all_players":2,"players_per_million":0.99,"player_ids":["athletics:14514549","athletics:14745474"],"label":"Subiaco","country":"Australia"},"geometry":{"type":"Polygon","coordinates":[[[118.588203,-27.826272],[115.570257,-25.722246],[114.395275,-26.30569],[111.552066,-26.654916],[110.054805,-29.808573],[113.256895,-32.609931],[117.977474,-31.877886],[118.588203,-27.826272]]]}},{"type":"Feature","properties":{"hex_id":"81a83ffffffffff","population":63293155,"population_year":2025,"area_km2":595741.2,"population_density":106.2,"all_players":13,"players_per_million":0.21,"player_ids":["athletics:14175971","athletics:14460894","athletics:14488481","athletics:14497005","athletics:14545924","athletics:14546452","athletics:14579558","athletics:14657140","athletics:14674309","athletics:14697693","athletics:14718734","athletics:14755064","athletics:14813665"],"label":"São Joaquim da Barra","country":"Brazil"},"geometry":{"type":"Polygon","coordinates":[[[-47.461171,-27.760044],[-44.896021,-24.304788],[-47.235943,-20.470042],[-52.046783,-20.176039],[-54.552341,-23.657242],[-52.323074,-27.407025],[-47.461171,-27.760044]]]}},{"type":"Feature","properties":{"hex_id":"81a8bffffffffff","population":38630964,"population_year":2025,"area_km2":647632.6,"population_density":59.6,"all_players":3,"players_per_million":0.08,"player_ids":["athletics:14691803","athletics:14718731","athletics:14723385"],"label":"Juiz de Fora","country":"Brazil"},"geometry":{"type":"Polygon","coordinates":[[[-39.968603,-24.399277],[-37.456339,-20.657406],[-39.830275,-16.779215],[-44.70061,-16.685821],[-47.235943,-20.470042],[-44.896021,-24.304788],[-39.968603,-24.399277]]]}},{"type":"Feature","properties":{"hex_id":"81a8fffffffffff","population":14363422,"population_year":2025,"area_km2":666617.1,"population_density":21.5,"all_players":2,"players_per_million":0.14,"player_ids":["athletics:14175843","athletics:14816432"],"label":"Sobradinho","country":"Brazil"},"geometry":{"type":"Polygon","coordinates":[[[-47.235943,-20.470042],[-44.70061,-16.685821],[-47.015769,-12.607157],[-51.776426,-12.387612],[-54.256132,-16.171868],[-52.046783,-20.176039],[-47.235943,-20.470042]]]}},{"type":"Feature","properties":{"hex_id":"81a97ffffffffff","population":13851468,"population_year":2025,"area_km2":523941.7,"population_density":26.4,"all_players":1,"players_per_million":0.07,"player_ids":["athletics:14922045"],"label":"Tebicuary","country":"Paraguay"},"geometry":{"type":"Polygon","coordinates":[[[-54.854902,-30.51203],[-52.323074,-27.407025],[-54.552341,-23.657242],[-59.153405,-23.133384],[-60.358535,-24.728661],[-61.529913,-26.578843],[-59.496606,-29.892985],[-54.854902,-30.51203]]]}},{"type":"Feature","properties":{"hex_id":"81acbffffffffff","population":4367763,"population_year":2025,"area_km2":666617.1,"population_density":6.6,"all_players":1,"players_per_million":0.23,"player_ids":["athletics:14572721"],"label":"Ondangwa","country":"Namibia"},"geometry":{"type":"Polygon","coordinates":[[[19.75867,-22.005854],[20.192244,-17.370809],[16.28544,-14.623075],[12.029259,-16.433715],[11.465301,-20.922822],[15.277564,-23.752624],[19.75867,-22.005854]]]}},{"type":"Feature","properties":{"hex_id":"81ad3ffffffffff","population":1212407,"population_year":2025,"area_km2":602082.0,"population_density":2.0,"all_players":3,"players_per_million":2.47,"player_ids":["athletics:14220168","athletics:14417677","athletics:14462668"],"label":"Cape Town","country":"South Africa"},"geometry":{"type":"Polygon","coordinates":[[[10.25427,-29.673903],[9.551546,-34.155187],[13.78958,-36.8927],[18.352922,-34.994007],[18.839987,-30.861032],[14.745412,-28.129236],[13.242963,-28.616915],[10.25427,-29.673903]]]}},{"type":"Feature","properties":{"hex_id":"81adbffffffffff","population":1065402,"population_year":2025,"area_km2":647632.6,"population_density":1.6,"all_players":1,"players_per_million":0.94,"player_ids":["athletics:14935809"],"label":"Hukuntsi","country":"Botswana"},"geometry":{"type":"Polygon","coordinates":[[[23.533518,-29.166646],[23.910011,-24.696711],[19.75867,-22.005854],[15.277564,-23.752624],[14.745412,-28.129236],[18.839987,-30.861032],[23.533518,-29.166646]]]}},{"type":"Feature","properties":{"hex_id":"81b2fffffffffff","population":17138003,"population_year":2025,"area_km2":523941.7,"population_density":32.7,"all_players":3,"players_per_million":0.18,"player_ids":["athletics:14407566","athletics:14718347","athletics:14748703"],"label":"Santiago","country":"Chile"},"geometry":{"type":"Polygon","coordinates":[[[-73.644747,-30.428475],[-76.580606,-33.882664],[-75.495684,-35.604157],[-74.031951,-37.379975],[-69.305389,-37.163896],[-66.569458,-33.770896],[-68.710054,-30.4154],[-73.644747,-30.428475]]]}},{"type":"Feature","properties":{"hex_id":"81b93ffffffffff","population":1648815,"population_year":2025,"area_km2":647632.6,"population_density":2.5,"all_players":2,"players_per_million":1.21,"player_ids":["athletics:14519260","athletics:14565327"],"label":"Adelaide","country":"Australia"},"geometry":{"type":"Polygon","coordinates":[[[139.652226,-38.734209],[139.129671,-34.088237],[134.339984,-32.08928],[129.914908,-34.478008],[129.866095,-38.967618],[134.798626,-41.238933],[139.652226,-38.734209]]]}},{"type":"Feature","properties":{"hex_id":"81bb3ffffffffff","population":1275828,"population_year":2025,"area_km2":602082.0,"population_density":2.1,"all_players":1,"players_per_million":0.78,"player_ids":["athletics:14578186"],"label":"Hastings","country":"New Zealand"},"geometry":{"type":"MultiPolygon","coordinates":[[[[-180.0,-37.582832],[-179.761284,-37.588846],[-177.984745,-37.664358],[-175.131668,-41.580315],[-177.973431,-45.184249],[-180.0,-45.219479],[-180.0,-37.582832]]],[[[180.0,-45.219479],[176.129353,-45.286766],[173.535818,-41.30856],[176.688659,-37.499409],[180.0,-37.582832],[180.0,-45.219479]]]]}},{"type":"Feature","properties":{"hex_id":"81bb7ffffffffff","population":2835946,"population_year":2025,"area_km2":666617.1,"population_density":4.3,"all_players":7,"players_per_million":2.47,"player_ids":["athletics:14464500","athletics:14465380","athletics:14499691","athletics:14610254","athletics:14668954","athletics:14728356","athletics:14785591"],"label":"Auckland","country":"New Zealand"},"geometry":{"type":"Polygon","coordinates":[[[176.688659,-37.499409],[174.332728,-33.405709],[169.018604,-32.862675],[165.511402,-36.515279],[167.615873,-40.869133],[173.535818,-41.30856],[176.688659,-37.499409]]]}},{"type":"Feature","properties":{"hex_id":"81bc7ffffffffff","population":10279782,"population_year":2025,"area_km2":595741.2,"population_density":17.3,"all_players":4,"players_per_million":0.39,"player_ids":["athletics:14220053","athletics:14558613","athletics:14741268","athletics:14838299"],"label":"Ceres","country":"South Africa"},"geometry":{"type":"Polygon","coordinates":[[[27.613905,-35.822076],[27.918941,-31.644147],[23.533518,-29.166646],[18.839987,-30.861032],[18.352922,-34.994007],[22.732651,-37.488282],[27.613905,-35.822076]]]}},{"type":"Feature","properties":{"hex_id":"81bcfffffffffff","population":54771011,"population_year":2025,"area_km2":666617.1,"population_density":82.2,"all_players":14,"players_per_million":0.26,"player_ids":["athletics:14221197","athletics:14381280","athletics:14417763","athletics:14544053","athletics:14578589","athletics:14696997","athletics:14741320","athletics:14745817","athletics:14748228","athletics:14789586","athletics:14789653","athletics:14883897","athletics:14932729","athletics:14942761"],"label":"Welkom","country":"South Africa"},"geometry":{"type":"Polygon","coordinates":[[[32.620327,-29.624454],[32.812319,-25.145186],[28.491882,-22.684204],[23.910011,-24.696711],[23.533518,-29.166646],[27.918941,-31.644147],[32.620327,-29.624454]]]}},{"type":"Feature","properties":{"hex_id":"81be3ffffffffff","population":7422285,"population_year":2025,"area_km2":729486.9,"population_density":10.2,"all_players":9,"players_per_million":1.21,"player_ids":["athletics:14387190","athletics:14406120","athletics:14455195","athletics:14455361","athletics:14464506","athletics:14572123","athletics:14575440","athletics:14608674","athletics:14743991"],"label":"Crows Nest","country":"Australia"},"geometry":{"type":"Polygon","coordinates":[[[159.810679,-35.59178],[158.196039,-31.026208],[152.877292,-29.753699],[148.729494,-32.935272],[149.839959,-37.608844],[155.640338,-39.007712],[159.810679,-35.59178]]]}},{"type":"Feature","properties":{"hex_id":"81be7ffffffffff","population":7973734,"population_year":2025,"area_km2":707475.0,"population_density":11.3,"all_players":10,"players_per_million":1.25,"player_ids":["athletics:14272002","athletics:14336764","athletics:14411267","athletics:14549778","athletics:14552175","athletics:14636659","athletics:14671065","athletics:14690008","athletics:14922448","athletics:14940604"],"label":"East Melbourne","country":"Australia"},"geometry":{"type":"Polygon","coordinates":[[[149.839959,-37.608844],[148.729494,-32.935272],[143.536871,-31.277795],[139.129671,-34.088237],[139.652226,-38.734209],[145.182884,-40.615783],[149.839959,-37.608844]]]}},{"type":"Feature","properties":{"hex_id":"81bebffffffffff","population":4369258,"population_year":2025,"area_km2":707475.0,"population_density":6.2,"all_players":6,"players_per_million":1.37,"player_ids":["athletics:14272049","athletics:14684694","athletics:14768392","athletics:14865727","athletics:14874649","athletics:15006779"],"label":"Caboolture","country":"Australia"},"geometry":{"type":"Polygon","coordinates":[[[161.882144,-27.596488],[160.312535,-23.16469],[155.419957,-21.999746],[151.703594,-25.170738],[152.877292,-29.753699],[158.196039,-31.026208],[161.882144,-27.596488]]]}},{"type":"Feature","properties":{"hex_id":"81befffffffffff","population":652227,"population_year":2025,"area_km2":707475.0,"population_density":0.9,"all_players":2,"players_per_million":3.07,"player_ids":["athletics:14436890","athletics:14517594"],"label":"Toowoomba","country":"Australia"},"geometry":{"type":"Polygon","coordinates":[[[152.877292,-29.753699],[151.703594,-25.170738],[146.846074,-23.721804],[142.844847,-26.664336],[143.536871,-31.277795],[148.729494,-32.935272],[152.877292,-29.753699]]]}},{"type":"Feature","properties":{"hex_id":"81c23ffffffffff","population":1573459,"population_year":2025,"area_km2":328434.6,"population_density":4.8,"all_players":1,"players_per_million":0.64,"player_ids":["athletics:14545494"],"label":"Mar del Plata","country":"Argentina"},"geometry":{"type":"Polygon","coordinates":[[[-57.995322,-42.261113],[-54.914171,-41.118552],[-53.849703,-40.222115],[-54.414766,-37.691245],[-55.164004,-36.642936],[-58.309846,-36.205283],[-59.788176,-36.394827],[-61.417115,-38.614967],[-61.702806,-39.800882],[-59.444119,-41.717194],[-57.995322,-42.261113]]]}},{"type":"Feature","properties":{"hex_id":"81c2fffffffffff","population":24752838,"population_year":2025,"area_km2":447684.2,"population_density":55.3,"all_players":6,"players_per_million":0.24,"player_ids":["athletics:14230856","athletics:14304406","athletics:14374159","athletics:14444291","athletics:14496688","athletics:14805747"],"label":"Montevideo","country":"Uruguay"},"geometry":{"type":"Polygon","coordinates":[[[-55.164004,-36.642936],[-52.605486,-33.936306],[-54.854902,-30.51203],[-59.496606,-29.892985],[-61.882735,-33.439024],[-59.788176,-36.394827],[-58.309846,-36.205283],[-55.164004,-36.642936]]]}},{"type":"Feature","properties":{"hex_id":"81cebffffffffff","population":4208885,"population_year":2025,"area_km2":510516.1,"population_density":8.2,"all_players":3,"players_per_million":0.71,"player_ids":["athletics:14414721","athletics:14536113","athletics:14543229"],"label":"Temuco","country":"Chile"},"geometry":{"type":"Polygon","coordinates":[[[-67.492505,-44.179727],[-66.103092,-40.399611],[-69.305389,-37.163896],[-74.031951,-37.379975],[-76.084187,-41.116232],[-72.784934,-44.702354],[-67.492505,-44.179727]]]}},{"type":"Feature","properties":{"hex_id":"81dabffffffffff","population":1120976,"population_year":2025,"area_km2":647632.6,"population_density":1.7,"all_players":3,"players_per_million":2.68,"player_ids":["athletics:14413007","athletics:14558985","athletics:14633982"],"label":"Dunedin","country":"New Zealand"},"geometry":{"type":"Polygon","coordinates":[[[176.129353,-45.286766],[173.535818,-41.30856],[167.615873,-40.869133],[163.614305,-44.491235],[165.865034,-48.699061],[172.539491,-49.056818],[176.129353,-45.286766]]]}}]}