{"type":"FeatureCollection","metadata":{"population_source":"WorldPop Global 2 R2025A","population_source_url":"https://hub.worldpop.org/project/categories?id=3","population_license":"CC BY 4.0","population_year":2025,"raster_resolution":"1km","h3_resolution":2,"population_method":"official_country_rasters","occupied_cells":104,"mapped_players":2120},"features":[{"type":"Feature","properties":{"hex_id":"820c77fffffffff","population":442048,"population_year":2025,"area_km2":77902.3,"population_density":5.7,"all_players":2,"players_per_million":4.52,"player_ids":["nfl:PiliBr00","nfl:UlofEd00"],"label":"Anchorage","country":"United States"},"geometry":{"type":"Polygon","coordinates":[[[-149.202517,63.948243],[-152.41831,63.127542],[-152.502076,61.583335],[-149.734494,60.884637],[-146.754537,61.634869],[-146.313176,63.149544],[-149.202517,63.948243]]]}},{"type":"Feature","properties":{"hex_id":"8212cffffffffff","population":1447775,"population_year":2025,"area_km2":81458.9,"population_density":17.8,"all_players":2,"players_per_million":1.38,"player_ids":["nfl:LeonDe00","nfl:OgboAm00"],"label":"Calgary","country":"Canada"},"geometry":{"type":"Polygon","coordinates":[[[-114.293343,51.131925],[-115.913157,50.003546],[-115.101052,48.471845],[-112.788004,48.011188],[-111.127907,49.073528],[-111.813584,50.661988],[-114.293343,51.131925]]]}},{"type":"Feature","properties":{"hex_id":"8212dffffffffff","population":1026503,"population_year":2025,"area_km2":77926.1,"population_density":13.2,"all_players":4,"players_per_million":3.9,"player_ids":["nfl:CulpDe00","nfl:RehkRy00","nfl:RypiBr00","nfl:YankCo00"],"label":"Spokane","country":"United States"},"geometry":{"type":"Polygon","coordinates":[[[-118.32059,50.385511],[-119.747324,49.236416],[-119.232215,47.804097],[-116.945809,47.422734],[-115.101052,48.471845],[-115.913157,50.003546],[-118.32059,50.385511]]]}},{"type":"Feature","properties":{"hex_id":"8212effffffffff","population":2419420,"population_year":2025,"area_km2":85294.5,"population_density":28.4,"all_players":1,"players_per_million":0.41,"player_ids":["nfl:HubbCh01"],"label":"Sherwood Park","country":"Canada"},"geometry":{"type":"Polygon","coordinates":[[[-113.357086,53.867769],[-115.135928,52.705407],[-114.293343,51.131925],[-111.813584,50.661988],[-109.994611,51.754866],[-110.686347,53.386336],[-113.357086,53.867769]]]}},{"type":"Feature","properties":{"hex_id":"821e17fffffffff","population":8258126,"population_year":2025,"area_km2":87326.6,"population_density":94.6,"all_players":1,"players_per_million":0.12,"player_ids":["nfl:RaimBe00"],"label":"Steinbrunn","country":"Austria"},"geometry":{"type":"Polygon","coordinates":[[[13.374348,47.965938],[12.677318,46.406957],[14.337206,45.273432],[16.708897,45.679719],[17.489488,47.234679],[15.817384,48.388123],[13.374348,47.965938]]]}},{"type":"Feature","properties":{"hex_id":"821f07fffffffff","population":6981829,"population_year":2025,"area_km2":73030.9,"population_density":95.6,"all_players":1,"players_per_million":0.14,"player_ids":["nfl:FrohHj00"],"label":"Svendborg","country":"Denmark"},"geometry":{"type":"Polygon","coordinates":[[[10.065692,55.394879],[9.374531,53.975514],[11.24517,53.03204],[13.839529,53.487245],[14.640207,54.902182],[12.739823,55.867327],[10.065692,55.394879]]]}},{"type":"Feature","properties":{"hex_id":"821faffffffffff","population":20512004,"population_year":2025,"area_km2":79647.5,"population_density":257.5,"all_players":1,"players_per_million":0.05,"player_ids":["nfl:JohnJa12"],"label":"Stuttgart","country":"Germany"},"geometry":{"type":"Polygon","coordinates":[[[8.088631,51.039696],[7.489806,49.526212],[9.251571,48.534678],[11.648396,49.039345],[12.345747,50.554275],[10.549623,51.56399],[8.088631,51.039696]]]}},{"type":"Feature","properties":{"hex_id":"822607fffffffff","population":801807,"population_year":2025,"area_km2":86328.2,"population_density":9.3,"all_players":4,"players_per_million":4.99,"player_ids":["nfl:KiefKo00","nfl:McCoMa00","nfl:RozeCh00","nfl:VanGAn00"],"label":"Sioux Center","country":"United States"},"geometry":{"type":"Polygon","coordinates":[[[-97.551209,45.038257],[-99.490649,44.209999],[-99.333552,42.604335],[-97.30469,41.807241],[-95.412903,42.599409],[-95.464507,44.208686],[-97.551209,45.038257]]]}},{"type":"Feature","properties":{"hex_id":"82260ffffffffff","population":2387088,"population_year":2025,"area_km2":87326.6,"population_density":27.3,"all_players":16,"players_per_million":6.7,"player_ids":["nfl:BrowSp00","nfl:BullJo01","nfl:DeJeCo00","nfl:FantNo00","nfl:FidoTh00","nfl:GiffLu00","nfl:HaacMa00","nfl:HummJa00","nfl:JurgCa01","nfl:LazaAl00","nfl:MossRi00","nfl:NelsAn01","nfl:PhilHa00","nfl:SiglMa00","nfl:SundJa00","nfl:WattXa00"],"label":"Omaha","country":"United States"},"geometry":{"type":"Polygon","coordinates":[[[-95.246862,39.326803],[-93.407414,40.114355],[-93.458032,41.743249],[-95.412903,42.599409],[-97.30469,41.807241],[-97.188746,40.164276],[-95.246862,39.326803]]]}},{"type":"Feature","properties":{"hex_id":"822617fffffffff","population":181214,"population_year":2025,"area_km2":87326.6,"population_density":2.1,"all_players":2,"players_per_million":11.04,"player_ids":["nfl:ReimTi00","nfl:ZabeGr00"],"label":"Rapid City","country":"United States"},"geometry":{"type":"Polygon","coordinates":[[[-101.222964,41.740408],[-99.333552,42.604335],[-99.490649,44.209999],[-101.607513,44.957697],[-103.535954,44.08338],[-103.308747,42.472631],[-101.222964,41.740408]]]}},{"type":"Feature","properties":{"hex_id":"82261ffffffffff","population":360909,"population_year":2025,"area_km2":89801.2,"population_density":4.0,"all_players":1,"players_per_million":2.77,"player_ids":["nfl:StalIs00"],"label":"Kearney","country":"United States"},"geometry":{"type":"Polygon","coordinates":[[[-99.035029,39.30874],[-97.188746,40.164276],[-97.30469,41.807241],[-99.333552,42.604335],[-101.222964,41.740408],[-101.04033,40.088597],[-99.035029,39.30874]]]}},{"type":"Feature","properties":{"hex_id":"822627fffffffff","population":1660249,"population_year":2025,"area_km2":89801.2,"population_density":18.5,"all_players":12,"players_per_million":7.23,"player_ids":["nfl:AwosKa00","nfl:BlacYa00","nfl:HullEv00","nfl:KallNi00","nfl:LancTr00","nfl:MaucCo00","nfl:RaduDi00","nfl:SpanBr00","nfl:StriDa01","nfl:ThieAd00","nfl:WelcTr00","nfl:ZylsSh00"],"label":"Marshall","country":"United States"},"geometry":{"type":"Polygon","coordinates":[[[-95.579863,47.511001],[-97.687441,46.680814],[-97.551209,45.038257],[-95.464507,44.208686],[-93.418118,44.972526],[-93.395849,46.63002],[-95.579863,47.511001]]]}},{"type":"Feature","properties":{"hex_id":"82262ffffffffff","population":2511826,"population_year":2025,"area_km2":87326.6,"population_density":28.8,"all_players":6,"players_per_million":2.39,"player_ids":["nfl:CampJa04","nfl:CashBl00","nfl:JohnJe07","nfl:PennTr00","nfl:PipkTr00","nfl:SinnBe00"],"label":"Eden Prairie","country":"United States"},"geometry":{"type":"Polygon","coordinates":[[[-93.418118,44.972526],[-95.464507,44.208686],[-95.412903,42.599409],[-93.458032,41.743249],[-91.476262,42.44496],[-91.384239,44.06279],[-93.418118,44.972526]]]}},{"type":"Feature","properties":{"hex_id":"822637fffffffff","population":210700,"population_year":2025,"area_km2":87326.6,"population_density":2.4,"all_players":3,"players_per_million":14.24,"player_ids":["nfl:GoedDa00","nfl:KrafTu00","nfl:WentCa00"],"label":"Timber Lake","country":"United States"},"geometry":{"type":"Polygon","coordinates":[[[-99.917049,47.471519],[-101.894822,46.57467],[-101.607513,44.957697],[-99.490649,44.209999],[-97.551209,45.038257],[-97.687441,46.680814],[-99.917049,47.471519]]]}},{"type":"Feature","properties":{"hex_id":"822647fffffffff","population":4073203,"population_year":2025,"area_km2":85294.5,"population_density":47.8,"all_players":32,"players_per_million":7.86,"player_ids":["nfl:AdamTo03","nfl:BurdLu00","nfl:CookBr03","nfl:CoopDa01","nfl:EdwaJo00","nfl:EpenAJ00","nfl:FordMi01","nfl:FoxxJa01","nfl:GreeAr01","nfl:HancBl00","nfl:HaskHa00","nfl:JackAd00","nfl:JohnAm00","nfl:JohnAn07","nfl:LaPoSa01","nfl:LoveDo00","nfl:NiesMi00","nfl:OkwuAl00","nfl:OluoFo00","nfl:OwenJo01","nfl:PattJa01","nfl:PattRi01","nfl:PaytRi00","nfl:PuniDo00","nfl:SaunKh00","nfl:SchrCo00","nfl:TurnMa00","nfl:WharTe00","nfl:WillIs03","nfl:WillJa11","nfl:WillKy02","nfl:WingMe00"],"label":"St. Louis","country":"United States"},"geometry":{"type":"Polygon","coordinates":[[[-89.748537,36.65876],[-87.990764,37.382074],[-87.951382,39.014788],[-89.726216,39.947222],[-91.54335,39.225656],[-91.525283,37.57043],[-89.748537,36.65876]]]}},{"type":"Feature","properties":{"hex_id":"82264ffffffffff","population":4363740,"population_year":2025,"area_km2":85627.7,"population_density":51.0,"all_players":29,"players_per_million":6.65,"player_ids":["nfl:AmadUg00","nfl:BarnDe01","nfl:BartGr00","nfl:BlanRe00","nfl:ByrdHe00","nfl:ChanTy01","nfl:CoxxMo00","nfl:DodsTy01","nfl:FantPr00","nfl:HudsTa00","nfl:JackTh00","nfl:JameJo01","nfl:JeffVa00","nfl:JennJa00","nfl:KnoxDa00","nfl:MasoJo00","nfl:MillRy01","nfl:PatrLu00","nfl:PettDe00","nfl:RamsJa00","nfl:RayxLa02","nfl:ReevJa00","nfl:RiceMo00","nfl:RivePh00","nfl:ScotTr01","nfl:SirmJa00","nfl:SmitTr05","nfl:StewRe00","nfl:WalkKe00"],"label":"Nashville","country":"United States"},"geometry":{"type":"Polygon","coordinates":[[[-88.065886,34.059836],[-86.366648,34.786557],[-86.303213,36.434527],[-87.990764,37.382074],[-89.748537,36.65876],[-89.759172,34.984893],[-88.065886,34.059836]]]}},{"type":"Feature","properties":{"hex_id":"822657fffffffff","population":3851243,"population_year":2025,"area_km2":88726.5,"population_density":43.4,"all_players":22,"players_per_million":5.71,"player_ids":["nfl:AdebAd00","nfl:BeebCo00","nfl:BellRo01","nfl:BoydKh00","nfl:CollMa00","nfl:ErseAi00","nfl:GoulAn00","nfl:GrupBl00","nfl:HeckCh00","nfl:KrulLu00","nfl:LockDr00","nfl:MembAr00","nfl:NoelJa00","nfl:ParrJa01","nfl:RichMa01","nfl:RobeSa00","nfl:SimmIs00","nfl:SmitBr06","nfl:TinsMi00","nfl:VokoTr00","nfl:WebbSa00","nfl:WhitRa01"],"label":"Kansas City","country":"United States"},"geometry":{"type":"Polygon","coordinates":[[[-93.311082,36.785418],[-91.525283,37.57043],[-91.54335,39.225656],[-93.407414,40.114355],[-95.246862,39.326803],[-95.167911,37.653738],[-93.311082,36.785418]]]}},{"type":"Feature","properties":{"hex_id":"82265ffffffffff","population":2641058,"population_year":2025,"area_km2":89440.6,"population_density":29.5,"all_players":18,"players_per_million":6.82,"player_ids":["nfl:AustCa00","nfl:BadiTy00","nfl:BohaQu00","nfl:CarvJe00","nfl:DeanNa00","nfl:EchoBr00","nfl:GrayEr01","nfl:GregEr00","nfl:HarrDa07","nfl:HenrHu00","nfl:JoneCa04","nfl:NealEl00","nfl:OdumGe00","nfl:PollTo00","nfl:ReedJe00","nfl:SimmEl00","nfl:WilsCe01","nfl:WoodJa02"],"label":"Memphis","country":"United States"},"geometry":{"type":"Polygon","coordinates":[[[-91.490847,34.200716],[-89.759172,34.984893],[-89.748537,36.65876],[-91.525283,37.57043],[-93.311082,36.785418],[-93.265212,35.090108],[-91.490847,34.200716]]]}},{"type":"Feature","properties":{"hex_id":"822667fffffffff","population":11642346,"population_year":2025,"area_km2":85294.5,"population_density":136.5,"all_players":57,"players_per_million":4.9,"player_ids":["nfl:AlleNi00","nfl:BookAu00","nfl:BrenJu00","nfl:CastSe01","nfl:ChinJe00","nfl:DalySc01","nfl:DayxSh00","nfl:EdwaDa01","nfl:ElliJa03","nfl:FeenDa00","nfl:FishBl00","nfl:FiskBr00","nfl:FlouRy00","nfl:FlowDa00","nfl:FryaJo00","nfl:GlasGr00","nfl:GranKe01","nfl:GreeKe02","nfl:GuerIs00","nfl:HiggJa01","nfl:IrviBu00","nfl:JerrMi00","nfl:JohnEr01","nfl:JohnLo01","nfl:JoneDa07","nfl:JoneNa01","nfl:KarlGe00","nfl:KarrTe00","nfl:KiseJa00","nfl:LondLa00","nfl:LoveJu00","nfl:McCaJJ00","nfl:McGrCa00","nfl:McLaTe00","nfl:MeviHa00","nfl:MichJo00","nfl:MitcCa01","nfl:NewsGr00","nfl:OConPa00","nfl:OtomEs00","nfl:PierAl00","nfl:PociEt00","nfl:ReedJa03","nfl:RhatJo00","nfl:RichBo01","nfl:RidgJo00","nfl:SherTr00","nfl:SkorPe00","nfl:SpilRo00","nfl:TaylRe01","nfl:TomlLa01","nfl:TracTy00","nfl:TreaLa00","nfl:WernPe00","nfl:WestCJ00","nfl:WinfPe00","nfl:WrigJa05"],"label":"Indianapolis","country":"United States"},"geometry":{"type":"Polygon","coordinates":[[[-87.526255,42.152917],[-89.578398,41.518555],[-89.726216,39.947222],[-87.951382,39.014788],[-85.979328,39.596509],[-85.703199,41.161269],[-87.526255,42.152917]]]}},{"type":"Feature","properties":{"hex_id":"82266ffffffffff","population":4140731,"population_year":2025,"area_km2":82416.4,"population_density":50.2,"all_players":9,"players_per_million":2.17,"player_ids":["nfl:BarbRi00","nfl:CombBr00","nfl:FantGe00","nfl:HobbNa00","nfl:HudsBr00","nfl:KeyxDe00","nfl:MereJo00","nfl:RobiWa01","nfl:WatkJo00"],"label":"Louisville","country":"United States"},"geometry":{"type":"Polygon","coordinates":[[[-85.979328,39.596509],[-87.951382,39.014788],[-87.990764,37.382074],[-86.303213,36.434527],[-84.585167,37.099589],[-84.278055,38.60875],[-85.979328,39.596509]]]}},{"type":"Feature","properties":{"hex_id":"822677fffffffff","population":1707453,"population_year":2025,"area_km2":85321.7,"population_density":20.0,"all_players":9,"players_per_million":5.27,"player_ids":["nfl:CochJa00","nfl:ColbCo00","nfl:HeflJa00","nfl:HockTJ00","nfl:KreiCa00","nfl:LeexLo00","nfl:LindTy00","nfl:PortDa00","nfl:WirfTr00"],"label":"Mount Vernon","country":"United States"},"geometry":{"type":"Polygon","coordinates":[[[-91.476262,42.44496],[-93.458032,41.743249],[-93.407414,40.114355],[-91.54335,39.225656],[-89.726216,39.947222],[-89.578398,41.518555],[-91.476262,42.44496]]]}},{"type":"Feature","properties":{"hex_id":"822687fffffffff","population":1387619,"population_year":2025,"area_km2":92775.6,"population_density":15.0,"all_players":4,"players_per_million":2.88,"player_ids":["nfl:CrumFr00","nfl:RussBr00","nfl:SkipDa00","nfl:WingAn01"],"label":"Arvada","country":"United States"},"geometry":{"type":"Polygon","coordinates":[[[-106.738368,38.891674],[-104.928668,39.882147],[-105.177534,41.537334],[-107.300929,42.200724],[-109.131063,41.19652],[-108.818288,39.54349],[-106.738368,38.891674]]]}},{"type":"Feature","properties":{"hex_id":"82268ffffffffff","population":3218622,"population_year":2025,"area_km2":95515.4,"population_density":33.7,"all_players":16,"players_per_million":4.97,"player_ids":["nfl:CampCa99","nfl:CarlDa00","nfl:ElliCh00","nfl:FergTe00","nfl:FoxxMo00","nfl:HelmGu00","nfl:MartJa02","nfl:McCaCh01","nfl:McCaLu00","nfl:MedrKa00","nfl:MumaCh00","nfl:PennMi00","nfl:RoseRo01","nfl:ScotJK00","nfl:SmitCh05","nfl:StolJa00"],"label":"Aurora","country":"United States"},"geometry":{"type":"Polygon","coordinates":[[[-104.454816,36.494369],[-102.671357,37.471973],[-102.876807,39.164785],[-104.928668,39.882147],[-106.738368,38.891674],[-106.47056,37.197522],[-104.454816,36.494369]]]}},{"type":"Feature","properties":{"hex_id":"822697fffffffff","population":2718995,"population_year":2025,"area_km2":93159.0,"population_density":29.2,"all_players":27,"players_per_million":9.93,"player_ids":["nfl:AndeZa02","nfl:BartCo00","nfl:BassJe00","nfl:BattTy00","nfl:BlacJu01","nfl:BollGa00","nfl:ChriBr00","nfl:CoveBr00","nfl:DartJa00","nfl:ElliKa00","nfl:FehoSi00","nfl:FotuLe00","nfl:GayxMa00","nfl:HaweJa00","nfl:JameAn01","nfl:JoneBr08","nfl:LatuCa01","nfl:NacuPu00","nfl:PoweJa00","nfl:ReidKa00","nfl:SchuDa00","nfl:SuamKi00","nfl:TaimTa00","nfl:TongKh00","nfl:TufeJa00","nfl:WarrJa01","nfl:WilsZa00"],"label":"Salt Lake City","country":"United States"},"geometry":{"type":"Polygon","coordinates":[[[-110.584833,38.489935],[-108.818288,39.54349],[-109.131063,41.19652],[-111.27157,41.789209],[-113.046271,40.72062],[-112.673648,39.075149],[-110.584833,38.489935]]]}},{"type":"Feature","properties":{"hex_id":"8226a7fffffffff","population":171314,"population_year":2025,"area_km2":88726.5,"population_density":1.9,"all_players":2,"players_per_million":11.67,"player_ids":["nfl:BryaTa00","nfl:WilsLo00"],"label":"Casper","country":"United States"},"geometry":{"type":"Polygon","coordinates":[[[-105.177534,41.537334],[-103.308747,42.472631],[-103.535954,44.08338],[-105.701172,44.759514],[-107.59657,43.811281],[-107.300929,42.200724],[-105.177534,41.537334]]]}},{"type":"Feature","properties":{"hex_id":"8226affffffffff","population":752318,"population_year":2025,"area_km2":91641.3,"population_density":8.2,"all_players":5,"players_per_million":6.65,"player_ids":["nfl:BobeJa00","nfl:EkelAu00","nfl:McBrTr01","nfl:RisnDa00","nfl:SiegTr00"],"label":"Eaton","country":"United States"},"geometry":{"type":"Polygon","coordinates":[[[-102.876807,39.164785],[-101.04033,40.088597],[-101.222964,41.740408],[-103.308747,42.472631],[-105.177534,41.537334],[-104.928668,39.882147],[-102.876807,39.164785]]]}},{"type":"Feature","properties":{"hex_id":"8226c7fffffffff","population":1987377,"population_year":2025,"area_km2":95515.4,"population_density":20.8,"all_players":11,"players_per_million":5.53,"player_ids":["nfl:DownEt00","nfl:GoodAn00","nfl:HumpCr00","nfl:KittGe00","nfl:KolaCh00","nfl:LittCa00","nfl:OlivCo00","nfl:RedmJa01","nfl:ShepSt00","nfl:TaylDa02","nfl:WincJa00"],"label":"Oklahoma City","country":"United States"},"geometry":{"type":"Polygon","coordinates":[[[-98.622726,34.188046],[-96.863145,35.093055],[-96.968153,36.804751],[-98.893095,37.623022],[-100.6928,36.709267],[-100.527345,34.986722],[-98.622726,34.188046]]]}},{"type":"Feature","properties":{"hex_id":"8226cffffffffff","population":9574277,"population_year":2025,"area_km2":96323.1,"population_density":99.4,"all_players":91,"players_per_million":9.5,"player_ids":["nfl:AdamJa00","nfl:AdebPa00","nfl:AdenHa00","nfl:ArroEl00","nfl:AvilSt00","nfl:BoltNi00","nfl:BoswCh00","nfl:BowmBi01","nfl:BrenJa01","nfl:BrewAa01","nfl:BrowBa01","nfl:BrowBo04","nfl:BrowEv00","nfl:BuecSh00","nfl:ButlAd00","nfl:ButlJo00","nfl:ClemMi03","nfl:ColeBr02","nfl:CrawKi00","nfl:CrosMa00","nfl:DuveDe00","nfl:ElliDe02","nfl:EvanAk00","nfl:EwerQu00","nfl:FordJa02","nfl:FranJo02","nfl:GarrMy00","nfl:GipsTr00","nfl:GipsXa00","nfl:GonzCh00","nfl:GordOl00","nfl:GreeAJ00","nfl:HortDy00","nfl:HumpLi01","nfl:IngrEd00","nfl:IngrJa00","nfl:JohnBu01","nfl:JoneJa12","nfl:LacyTy00","nfl:LimmBe00","nfl:LoopTy00","nfl:LundCh00","nfl:MaduJu00","nfl:MatiRo00","nfl:McDoCo01","nfl:MickRJ00","nfl:MillJa02","nfl:MillVo00","nfl:MimsMa00","nfl:MinoKo00","nfl:MoorDa03","nfl:MossDr00","nfl:MurpBy01","nfl:MurpGa00","nfl:MurrKy00","nfl:NewmXa00","nfl:NoteJo00","nfl:NwanKe00","nfl:OdeyDa00","nfl:OkudJe00","nfl:OmenCh00","nfl:OwenTy00","nfl:PricMy00","nfl:ProcJa00","nfl:RiceRa01","nfl:RichDe03","nfl:RobeRo00","nfl:RobiAS00","nfl:RogeCa01","nfl:SandJa01","nfl:SandSh00","nfl:ShavTy00","nfl:SherWi01","nfl:SmitJa06","nfl:SmitTy02","nfl:SpeeEJ00","nfl:StafMa00","nfl:StepBr01","nfl:ThomSo00","nfl:TuneCl00","nfl:TurnSh00","nfl:WallTy00","nfl:WeasTh00","nfl:WillBr06","nfl:WillCa04","nfl:WillMi08","nfl:WiseDe00","nfl:WoodCh01","nfl:WoodCr00","nfl:WoodZa00","nfl:WoolTa00"],"label":"Dallas","country":"United States"},"geometry":{"type":"Polygon","coordinates":[[[-96.66289,31.619531],[-94.945821,32.516906],[-95.017507,34.246081],[-96.863145,35.093055],[-98.622726,34.188046],[-98.493873,32.444355],[-96.66289,31.619531]]]}},{"type":"Feature","properties":{"hex_id":"8226d7fffffffff","population":469359,"population_year":2025,"area_km2":97556.0,"population_density":4.8,"all_players":1,"players_per_million":2.13,"player_ids":["nfl:CabeBr00"],"label":"Clovis","country":"United States"},"geometry":{"type":"Polygon","coordinates":[[[-102.279867,34.021113],[-100.527345,34.986722],[-100.6928,36.709267],[-102.671357,37.471973],[-104.454816,36.494369],[-104.229094,34.766832],[-102.279867,34.021113]]]}},{"type":"Feature","properties":{"hex_id":"8226dffffffffff","population":723835,"population_year":2025,"area_km2":98815.5,"population_density":7.3,"all_players":1,"players_per_million":1.38,"player_ids":["nfl:CollLJ00"],"label":"Munday","country":"United States"},"geometry":{"type":"Polygon","coordinates":[[[-100.211784,31.489938],[-98.493873,32.444355],[-98.622726,34.188046],[-100.527345,34.986722],[-102.279867,34.021113],[-102.093235,32.268747],[-100.211784,31.489938]]]}},{"type":"Feature","properties":{"hex_id":"8226e7fffffffff","population":1510616,"population_year":2025,"area_km2":91641.3,"population_density":16.5,"all_players":8,"players_per_million":5.3,"player_ids":["nfl:DaviKa02","nfl:GiddDJ00","nfl:HallBr03","nfl:JenkTe00","nfl:LoudIs00","nfl:NealDe00","nfl:PhilJo01","nfl:PoweBe00"],"label":"Wichita","country":"United States"},"geometry":{"type":"Polygon","coordinates":[[[-96.968153,36.804751],[-95.167911,37.653738],[-95.246862,39.326803],[-97.188746,40.164276],[-99.035029,39.30874],[-98.893095,37.623022],[-96.968153,36.804751]]]}},{"type":"Feature","properties":{"hex_id":"8226effffffffff","population":2803341,"population_year":2025,"area_km2":92775.6,"population_density":30.2,"all_players":17,"players_per_million":6.06,"player_ids":["nfl:AlleBr00","nfl:BrowTr03","nfl:CollZa00","nfl:ColoTr01","nfl:DaviIs00","nfl:DaviZa00","nfl:GreeDr00","nfl:HillDa04","nfl:HillJu00","nfl:JacoJo01","nfl:LockTy00","nfl:McGuIs00","nfl:OttxTy00","nfl:PresBr00","nfl:RodrMa00","nfl:SkinQu00","nfl:WayxTr00"],"label":"Tulsa","country":"United States"},"geometry":{"type":"Polygon","coordinates":[[[-95.017507,34.246081],[-93.265212,35.090108],[-93.311082,36.785418],[-95.167911,37.653738],[-96.968153,36.804751],[-96.863145,35.093055],[-95.017507,34.246081]]]}},{"type":"Feature","properties":{"hex_id":"822747fffffffff","population":1114372,"population_year":2025,"area_km2":92775.6,"population_density":12.0,"all_players":4,"players_per_million":3.59,"player_ids":["nfl:BortTa00","nfl:GoedLu00","nfl:IngoAl01","nfl:VanxCo00"],"label":"Green Bay","country":"United States"},"geometry":{"type":"Polygon","coordinates":[[[-86.763856,47.084746],[-89.066565,46.415378],[-89.249838,44.754421],[-87.290551,43.768738],[-85.090138,44.382483],[-84.748614,46.035179],[-86.763856,47.084746]]]}},{"type":"Feature","properties":{"hex_id":"82274ffffffffff","population":6546722,"population_year":2025,"area_km2":89440.6,"population_density":73.2,"all_players":22,"players_per_million":3.36,"player_ids":["nfl:BariBr00","nfl:BradAn00","nfl:BrooKa00","nfl:BrowMi02","nfl:ConkJa00","nfl:CousKi00","nfl:DellGa00","nfl:FortLu01","nfl:HutcAi00","nfl:JordMi01","nfl:KneeMa00","nfl:MoodJa00","nfl:MotoTa00","nfl:MurpCa00","nfl:NowaTr00","nfl:PintDa00","nfl:RushCo00","nfl:SielZa00","nfl:SmitMa06","nfl:TeSlIs00","nfl:VanSBe00","nfl:WyliAn00"],"label":"Grand Rapids","country":"United States"},"geometry":{"type":"Polygon","coordinates":[[[-85.090138,44.382483],[-87.290551,43.768738],[-87.526255,42.152917],[-85.703199,41.161269],[-83.600197,41.724215],[-83.224953,43.327485],[-85.090138,44.382483]]]}},{"type":"Feature","properties":{"hex_id":"822757fffffffff","population":3436263,"population_year":2025,"area_km2":91641.3,"population_density":37.5,"all_players":11,"players_per_million":3.2,"player_ids":["nfl:AltxJo01","nfl:CampEl00","nfl:ChenLe00","nfl:HamxC.00","nfl:HookAm00","nfl:JohnTy00","nfl:LindCo00","nfl:LuepHu00","nfl:MafeBo00","nfl:OkadTy00","nfl:TravJa00"],"label":"Minneapolis","country":"United States"},"geometry":{"type":"Polygon","coordinates":[[[-91.178447,47.383632],[-93.395849,46.63002],[-93.418118,44.972526],[-91.384239,44.06279],[-89.249838,44.754421],[-89.066565,46.415378],[-91.178447,47.383632]]]}},{"type":"Feature","properties":{"hex_id":"82275ffffffffff","population":7416006,"population_year":2025,"area_km2":88726.5,"population_density":83.6,"all_players":45,"players_per_million":6.07,"player_ids":["nfl:AlleBr05","nfl:BarnZa00","nfl:BaunZa00","nfl:BellNi01","nfl:BentKe00","nfl:BiadTy00","nfl:BredBe00","nfl:CaliMi00","nfl:CannSa00","nfl:DikeCh00","nfl:EdwaTJ02","nfl:FergJa00","nfl:GainJo00","nfl:GaroJi00","nfl:HarrSh00","nfl:JackKe03","nfl:JoneCh11","nfl:KeegTr00","nfl:KmetCo00","nfl:KroeKa00","nfl:LathJC00","nfl:LoweVe00","nfl:MbowMa00","nfl:McDoWi00","nfl:MeinQu02","nfl:MillRy02","nfl:MillSc01","nfl:MurrEr00","nfl:NelsJa01","nfl:NiemNi00","nfl:NjonMa00","nfl:OConAi00","nfl:OgunDa00","nfl:PalcAl00","nfl:PalmTe00","nfl:SanbJa00","nfl:SaubEr00","nfl:StriLo00","nfl:SzmyAn00","nfl:TonyRo00","nfl:VanNLu00","nfl:WagnDa00","nfl:WattT.00","nfl:WelcKr00","nfl:ZeitKe00"],"label":"Milwaukee","country":"United States"},"geometry":{"type":"Polygon","coordinates":[[[-89.249838,44.754421],[-91.384239,44.06279],[-91.476262,42.44496],[-89.578398,41.518555],[-87.526255,42.152917],[-87.290551,43.768738],[-89.249838,44.754421]]]}},{"type":"Feature","properties":{"hex_id":"8227b7fffffffff","population":149406,"population_year":2025,"area_km2":85627.7,"population_density":1.7,"all_players":1,"players_per_million":6.69,"player_ids":["nfl:AyomEl00"],"label":"Medicine Hat","country":"Canada"},"geometry":{"type":"Polygon","coordinates":[[[-109.994611,51.754866],[-111.813584,50.661988],[-111.127907,49.073528],[-108.766427,48.526513],[-106.930953,49.548823],[-107.466262,51.18753],[-109.994611,51.754866]]]}},{"type":"Feature","properties":{"hex_id":"822817fffffffff","population":626076,"population_year":2025,"area_km2":87326.6,"population_density":7.2,"all_players":3,"players_per_million":4.79,"player_ids":["nfl:KingJa02","nfl:RodgAa00","nfl:SancRi00"],"label":"Anderson","country":"United States"},"geometry":{"type":"Polygon","coordinates":[[[-120.625018,39.393868],[-119.002282,40.570572],[-119.474595,42.150515],[-121.616722,42.535325],[-123.21638,41.345253],[-122.699099,39.784231],[-120.625018,39.393868]]]}},{"type":"Feature","properties":{"hex_id":"82281ffffffffff","population":950330,"population_year":2025,"area_km2":82705.0,"population_density":11.5,"all_players":1,"players_per_million":1.05,"player_ids":["nfl:HerbJu00"],"label":"Eugene","country":"United States"},"geometry":{"type":"Polygon","coordinates":[[[-123.21638,41.345253],[-121.616722,42.535325],[-122.134831,44.057691],[-124.296252,44.370406],[-125.864396,43.168755],[-125.30494,41.66639],[-123.21638,41.345253]]]}},{"type":"Feature","properties":{"hex_id":"822837fffffffff","population":14366819,"population_year":2025,"area_km2":89801.2,"population_density":160.0,"all_players":61,"players_per_million":4.25,"player_ids":["nfl:AdamDa01","nfl:AjiaAu00","nfl:ArmsAr01","nfl:AwuzCh00","nfl:BailLe00","nfl:BankAa00","nfl:BlacMe00","nfl:BlanDa00","nfl:BoweBr01","nfl:BrowJa08","nfl:BuchTe00","nfl:CappAl00","nfl:CartDe02","nfl:CookBr00","nfl:CurhJa00","nfl:DalmDr00","nfl:DaviAs00","nfl:DaviRa04","nfl:DeguJo00","nfl:DickMa00","nfl:DwelRo00","nfl:ErtzZa00","nfl:FiskTu00","nfl:FoskIs00","nfl:FranTr00","nfl:GoffJa00","nfl:GranCa01","nfl:HaggLu00","nfl:HarrNa00","nfl:HodgIs00","nfl:HoopAu00","nfl:JohnDJ00","nfl:JohnJo05","nfl:JohnTa01","nfl:LandNa01","nfl:LatuKe00","nfl:LatuLa00","nfl:LuxxBr00","nfl:MillKo00","nfl:MimsJo00","nfl:MundJo00","nfl:NormOm00","nfl:OladOl00","nfl:PharJe00","nfl:PoleEs00","nfl:ReedNi00","nfl:RiveRo01","nfl:SkatCa00","nfl:SmarSt00","nfl:ThomSh01","nfl:TongJa00","nfl:TooTHe00","nfl:VakiSi00","nfl:VeaxVi00","nfl:WalkMy00","nfl:WillEv00","nfl:WillJo16","nfl:WithAh00","nfl:WrigNa00","nfl:WrigRe00","nfl:WrigRy00"],"label":"Sacramento","country":"United States"},"geometry":{"type":"Polygon","coordinates":[[[-121.707157,36.574218],[-120.150308,37.778361],[-120.625018,39.393868],[-122.699099,39.784231],[-124.231246,38.566387],[-123.715986,36.972296],[-121.707157,36.574218]]]}},{"type":"Feature","properties":{"hex_id":"822887fffffffff","population":936839,"population_year":2025,"area_km2":85294.5,"population_density":11.0,"all_players":3,"players_per_million":3.2,"player_ids":["nfl:MatlSc00","nfl:OjukJo00","nfl:WillJo10"],"label":"Meridian","country":"United States"},"geometry":{"type":"Polygon","coordinates":[[[-115.603107,42.837738],[-113.828092,43.921354],[-114.238428,45.473015],[-116.483698,45.929069],[-118.250236,44.830691],[-117.782019,43.291713],[-115.603107,42.837738]]]}},{"type":"Feature","properties":{"hex_id":"82288ffffffffff","population":1046369,"population_year":2025,"area_km2":80847.5,"population_density":12.9,"all_players":2,"players_per_million":1.91,"player_ids":["nfl:ElliJo03","nfl:KuppCo00"],"label":"Moscow","country":"United States"},"geometry":{"type":"Polygon","coordinates":[[[-118.250236,44.830691],[-116.483698,45.929069],[-116.945809,47.422734],[-119.232215,47.804097],[-120.980657,46.691537],[-120.463169,45.21242],[-118.250236,44.830691]]]}},{"type":"Feature","properties":{"hex_id":"822897fffffffff","population":392854,"population_year":2025,"area_km2":85627.7,"population_density":4.6,"all_players":2,"players_per_million":5.09,"player_ids":["nfl:CookDy00","nfl:DissWi00"],"label":"Bozeman","country":"United States"},"geometry":{"type":"Polygon","coordinates":[[[-111.631969,43.394374],[-109.788387,44.413071],[-110.133985,45.973009],[-112.389584,46.506775],[-114.238428,45.473015],[-113.828092,43.921354],[-111.631969,43.394374]]]}},{"type":"Feature","properties":{"hex_id":"82289ffffffffff","population":332572,"population_year":2025,"area_km2":81458.9,"population_density":4.1,"all_players":1,"players_per_million":3.01,"player_ids":["nfl:OConPa01"],"label":"Kalispell","country":"United States"},"geometry":{"type":"Polygon","coordinates":[[[-114.238428,45.473015],[-112.389584,46.506775],[-112.788004,48.011188],[-115.101052,48.471845],[-116.945809,47.422734],[-116.483698,45.929069],[-114.238428,45.473015]]]}},{"type":"Feature","properties":{"hex_id":"8228affffffffff","population":293919,"population_year":2025,"area_km2":84307.8,"population_density":3.5,"all_players":1,"players_per_million":3.4,"player_ids":["nfl:MusgLu00"],"label":"Bend","country":"United States"},"geometry":{"type":"Polygon","coordinates":[[[-119.474595,42.150515],[-117.782019,43.291713],[-118.250236,44.830691],[-120.463169,45.21242],[-122.134831,44.057691],[-121.616722,42.535325],[-119.474595,42.150515]]]}},{"type":"Feature","properties":{"hex_id":"8228b7fffffffff","population":584798,"population_year":2025,"area_km2":89440.6,"population_density":6.5,"all_players":3,"players_per_million":5.13,"player_ids":["nfl:HillTa00","nfl:LoveCo00","nfl:TogiTo00"],"label":"Pocatello","country":"United States"},"geometry":{"type":"Polygon","coordinates":[[[-113.046271,40.72062],[-111.27157,41.789209],[-111.631969,43.394374],[-113.828092,43.921354],[-115.603107,42.837738],[-115.183371,41.242911],[-113.046271,40.72062]]]}},{"type":"Feature","properties":{"hex_id":"8228d7fffffffff","population":6638102,"population_year":2025,"area_km2":76219.8,"population_density":87.1,"all_players":23,"players_per_million":3.46,"player_ids":["nfl:BakeBu00","nfl:BrueCa00","nfl:ChisEf00","nfl:ClevEz00","nfl:ConeJo00","nfl:ConnTa00","nfl:EgbuEm01","nfl:FuagTa00","nfl:GaskMy00","nfl:GayeAl01","nfl:GordKy00","nfl:HekkJo00","nfl:LucaAb00","nfl:OttoCa00","nfl:RappTa00","nfl:RingKe00","nfl:SampDr00","nfl:SareFo00","nfl:SlatJa01","nfl:ThroCa01","nfl:TryoJo00","nfl:TuimJT00","nfl:WestJa01"],"label":"Bellevue","country":"United States"},"geometry":{"type":"Polygon","coordinates":[[[-120.980657,46.691537],[-119.232215,47.804097],[-119.747324,49.236416],[-122.065326,49.540804],[-123.785414,48.414997],[-123.218544,46.998589],[-120.980657,46.691537]]]}},{"type":"Feature","properties":{"hex_id":"8228dffffffffff","population":3121728,"population_year":2025,"area_km2":72289.7,"population_density":43.2,"all_players":3,"players_per_million":0.96,"player_ids":["nfl:BeneTh00","nfl:HollJe02","nfl:ManuGi00"],"label":"North Vancouver","country":"Canada"},"geometry":{"type":"Polygon","coordinates":[[[-123.785414,48.414997],[-122.065326,49.540804],[-123.122866,50.984711],[-125.501019,51.20399],[-126.653646,49.99834],[-126.038043,48.646404],[-123.785414,48.414997]]]}},{"type":"Feature","properties":{"hex_id":"8228f7fffffffff","population":3870003,"population_year":2025,"area_km2":79647.5,"population_density":48.6,"all_players":18,"players_per_million":4.65,"player_ids":["nfl:BartBe00","nfl:BateJo00","nfl:BourKe00","nfl:BranBl00","nfl:EbukSa00","nfl:ForsAl00","nfl:HardDa01","nfl:HarrMa10","nfl:HufaTa00","nfl:MoldEl00","nfl:OdigOs00","nfl:OladKi00","nfl:PoyeJo00","nfl:QuitTe00","nfl:SeumIs00","nfl:TourSa00","nfl:TuipMa00","nfl:TurnCo00"],"label":"Portland","country":"United States"},"geometry":{"type":"Polygon","coordinates":[[[-122.134831,44.057691],[-120.463169,45.21242],[-120.980657,46.691537],[-123.218544,46.998589],[-124.859982,45.831702],[-124.296252,44.370406],[-122.134831,44.057691]]]}},{"type":"Feature","properties":{"hex_id":"822917fffffffff","population":605031,"population_year":2025,"area_km2":95515.4,"population_density":6.3,"all_players":1,"players_per_million":1.65,"player_ids":["nfl:WillNo01"],"label":"Oxnard","country":"United States"},"geometry":{"type":"Polygon","coordinates":[[[-120.318338,31.57331],[-118.804528,32.779438],[-119.240554,34.468622],[-121.231482,34.929532],[-122.726209,33.706603],[-122.250772,32.039958],[-120.318338,31.57331]]]}},{"type":"Feature","properties":{"hex_id":"822987fffffffff","population":2847941,"population_year":2025,"area_km2":95515.4,"population_density":29.8,"all_players":14,"players_per_million":4.92,"player_ids":["nfl:BellDa00","nfl:BluxKy00","nfl:FautTr00","nfl:HernWi00","nfl:HickJa01","nfl:KillMi00","nfl:KincDa00","nfl:LaulJo00","nfl:MataMo00","nfl:OdunRo00","nfl:StanRo00","nfl:StevRh00","nfl:TillCe01","nfl:WashDa03"],"label":"Las Vegas","country":"United States"},"geometry":{"type":"Polygon","coordinates":[[[-115.644549,35.13856],[-113.999549,36.284189],[-114.382127,37.963949],[-116.46105,38.483502],[-118.098739,37.321697],[-117.666441,35.65712],[-115.644549,35.13856]]]}},{"type":"Feature","properties":{"hex_id":"82298ffffffffff","population":924688,"population_year":2025,"area_km2":91641.3,"population_density":10.1,"all_players":3,"players_per_million":3.24,"player_ids":["nfl:CorbAu00","nfl:KahoAl00","nfl:VanNKy00"],"label":"Reno","country":"United States"},"geometry":{"type":"Polygon","coordinates":[[[-118.098739,37.321697],[-116.46105,38.483502],[-116.888006,40.116316],[-119.002282,40.570572],[-120.625018,39.393868],[-120.150308,37.778361],[-118.098739,37.321697]]]}},{"type":"Feature","properties":{"hex_id":"822997fffffffff","population":326591,"population_year":2025,"area_km2":96323.1,"population_density":3.4,"all_players":1,"players_per_million":3.06,"player_ids":["nfl:SeweNe00"],"label":"St. George","country":"United States"},"geometry":{"type":"Polygon","coordinates":[[[-111.962358,35.70494],[-110.257485,36.800197],[-110.584833,38.489935],[-112.673648,39.075149],[-114.382127,37.963949],[-113.999549,36.284189],[-111.962358,35.70494]]]}},{"type":"Feature","properties":{"hex_id":"8229a7fffffffff","population":26139253,"population_year":2025,"area_km2":97556.0,"population_density":267.9,"all_players":128,"players_per_million":4.9,"player_ids":["nfl:AgneJa00","nfl:AllgTy00","nfl:AngeBr00","nfl:AnusCh00","nfl:AraiMa00","nfl:AustAl00","nfl:BaccAn00","nfl:BachAl00","nfl:BailJa00","nfl:BandMi00","nfl:BellQu00","nfl:BitoJo00","nfl:BojoCo00","nfl:BrewAa00","nfl:BrooCh00","nfl:BrunDa00","nfl:BryaMy01","nfl:BullCa00","nfl:BurgTe00","nfl:BynuCa00","nfl:CalcGr00","nfl:CardJo00","nfl:CharZa00","nfl:ClarKe01","nfl:CollBe00","nfl:CracRi00","nfl:CrenBr00","nfl:CurlKa00","nfl:DaniJa02","nfl:DaviJa06","nfl:DaviMi03","nfl:DediJu00","nfl:DemeEm00","nfl:DorsKh00","nfl:DoubRo00","nfl:DulcGr00","nfl:DyexTr00","nfl:EppsMa00","nfl:FolkNi20","nfl:GainGr00","nfl:GrahMa00","nfl:HallDa03","nfl:HallTy01","nfl:HavrLu00","nfl:HawkJa00","nfl:HenlDa00","nfl:HickEl00","nfl:HolaGe00","nfl:HolmDa01","nfl:HowdJo00","nfl:JackBr02","nfl:JackDr01","nfl:JeffTo00","nfl:JohnCa04","nfl:JoneJa10","nfl:KazeDa00","nfl:KeenJa00","nfl:KleiEl00","nfl:LakeQu00","nfl:LenoDe00","nfl:LewiMa00","nfl:LloyDe00","nfl:LondDr00","nfl:LongDa02","nfl:MapuMa00","nfl:MascEa00","nfl:McDuTr00","nfl:McKeTa01","nfl:McNiJe00","nfl:MekaPa00","nfl:MeyeAn00","nfl:MonhJo00","nfl:MyerJa00","nfl:NailJa00","nfl:NeedNi00","nfl:NixoKe00","nfl:NwosUc00","nfl:OkerBo00","nfl:OlubSe00","nfl:OrzeMa00","nfl:ParkCo02","nfl:PatrTi00","nfl:PattJa03","nfl:PettDa00","nfl:PhilCl00","nfl:PhilJa02","nfl:PittAn01","nfl:PittMi01","nfl:PondEl02","nfl:PryoMa00","nfl:QuesDa00","nfl:RaveCJ00","nfl:RemiNi00","nfl:RhyaSe00","nfl:RobiCu00","nfl:RolaCh00","nfl:RossDA03","nfl:SchoBr00","nfl:SchwCa00","nfl:ScotDa03","nfl:ShahRa00","nfl:ShakKh00","nfl:ShelCo00","nfl:SimmJo01","nfl:SingAl00","nfl:SkinJL00","nfl:SmitJa11","nfl:SmitJu00","nfl:TakiSi00","nfl:TavaJa00","nfl:TaylKe03","nfl:ThibKa00","nfl:ThomCa03","nfl:ThomJa04","nfl:ToiaJa00","nfl:TremBr00","nfl:TuipTu00","nfl:TupoJo00","nfl:VeleDe00","nfl:WagnBo00","nfl:WarnFr00","nfl:WattLu00","nfl:WhelDa00","nfl:WillAv02","nfl:WillKy03","nfl:WillMa06","nfl:WilsMi02","nfl:YounBr01"],"label":"San Diego","country":"United States"},"geometry":{"type":"Polygon","coordinates":[[[-116.838302,32.260383],[-115.254005,33.431536],[-115.644549,35.13856],[-117.666441,35.65712],[-119.240554,34.468622],[-118.804528,32.779438],[-116.838302,32.260383]]]}},{"type":"Feature","properties":{"hex_id":"8229affffffffff","population":3828785,"population_year":2025,"area_km2":93933.6,"population_density":40.8,"all_players":18,"players_per_million":4.7,"player_ids":["nfl:AlleJo02","nfl:BarnKr00","nfl:HortTo00","nfl:JohnJa13","nfl:JoneCa05","nfl:KendEr00","nfl:LoveJo03","nfl:McMiJa01","nfl:MiltKe01","nfl:MoreJa01","nfl:MosbAr00","nfl:OlivJo00","nfl:PortJo02","nfl:PrenAd00","nfl:ReedD.00","nfl:VorhAn00","nfl:WortXa00","nfl:YuroBe00"],"label":"Fresno","country":"United States"},"geometry":{"type":"Polygon","coordinates":[[[-119.240554,34.468622],[-117.666441,35.65712],[-118.098739,37.321697],[-120.150308,37.778361],[-121.707157,36.574218],[-121.231482,34.929532],[-119.240554,34.468622]]]}},{"type":"Feature","properties":{"hex_id":"8229b7fffffffff","population":1974096,"population_year":2025,"area_km2":98815.5,"population_density":20.0,"all_players":1,"players_per_million":0.51,"player_ids":["nfl:HintKy00"],"label":"Peoria","country":"United States"},"geometry":{"type":"Polygon","coordinates":[[[-113.268008,32.856905],[-111.622726,33.985325],[-111.962358,35.70494],[-113.999549,36.284189],[-115.644549,35.13856],[-115.254005,33.431536],[-113.268008,32.856905]]]}},{"type":"Feature","properties":{"hex_id":"822a17fffffffff","population":30364242,"population_year":2025,"area_km2":87326.6,"population_density":347.7,"all_players":94,"players_per_million":3.1,"player_ids":["nfl:AlleJo03","nfl:AlleZa01","nfl:ApplEl00","nfl:BadgMi00","nfl:BarkSa00","nfl:BarmCh00","nfl:BookTy00","nfl:BrowJi01","nfl:CartAb00","nfl:CiarJi00","nfl:CiscAn00","nfl:ClarAl01","nfl:CornAj00","nfl:CrosHo01","nfl:DawkDi00","nfl:DeckEv00","nfl:DillAJ00","nfl:DotsJa00","nfl:DougRa00","nfl:ElueJe00","nfl:EstiAu00","nfl:EzeiDo00","nfl:FatuFo00","nfl:FitzMi00","nfl:FlacJo00","nfl:FranZa00","nfl:FrazMi00","nfl:FrieWi00","nfl:FullJo01","nfl:GaryRa00","nfl:GesiMi00","nfl:GileJo01","nfl:GoncMa00","nfl:HansCJ00","nfl:HarrMa09","nfl:HennMa00","nfl:HennTh00","nfl:HickRo00","nfl:HorsCa00","nfl:IzieCh00","nfl:JeanJa00","nfl:JenkJo00","nfl:JoneEl00","nfl:JoneTr00","nfl:JordJa00","nfl:JoseSe00","nfl:KamaMo00","nfl:KamaSa00","nfl:KaneSa00","nfl:KennTo01","nfl:KoonMa00","nfl:KooxYo00","nfl:KpasTa00","nfl:LaubDy00","nfl:LovaRi00","nfl:MahoCh00","nfl:McGlMi00","nfl:McMaBr01","nfl:MonaKy00","nfl:MoorD.00","nfl:MuhaAl00","nfl:NijmYo01","nfl:NjokDa00","nfl:PeppJa00","nfl:PickKe00","nfl:PinnJa01","nfl:PittKy00","nfl:ReddHa00","nfl:ReynCr00","nfl:RichAs00","nfl:RobiEt00","nfl:RuckJe00","nfl:RuizCe00","nfl:SamuCu00","nfl:SchoLu00","nfl:ShorJu00","nfl:SimoCo01","nfl:SmitTy05","nfl:SpeiOm00","nfl:StewJo03","nfl:SwifDA00","nfl:TartTe00","nfl:TaylJa04","nfl:VanDRy00","nfl:VanRGr00","nfl:WallCa00","nfl:WardJi02","nfl:WeekJo00","nfl:WhitKy00","nfl:WillCh08","nfl:WillEl00","nfl:WillKe08","nfl:WyplLu00","nfl:ZaccOl01"],"label":"Philadelphia","country":"United States"},"geometry":{"type":"Polygon","coordinates":[[[-73.076912,42.400493],[-75.333452,42.029564],[-75.960619,40.480497],[-74.442775,39.340569],[-72.307877,39.686062],[-71.573772,41.195725],[-73.076912,42.400493]]]}},{"type":"Feature","properties":{"hex_id":"822a37fffffffff","population":10409321,"population_year":2025,"area_km2":89801.2,"population_density":115.9,"all_players":17,"players_per_million":1.63,"player_ids":["nfl:BoboJa00","nfl:FreiPa00","nfl:GrayNo00","nfl:HursMa00","nfl:KendDr00","nfl:LikeIs00","nfl:LindCh00","nfl:LongHu00","nfl:McKeSe01","nfl:MullKa00","nfl:OkuaSa00","nfl:RicaPa00","nfl:TrapOz00","nfl:TrinZa00","nfl:TrusXa00","nfl:YiadIs00","nfl:ZintZa00"],"label":"Dudley","country":"United States"},"geometry":{"type":"Polygon","coordinates":[[[-69.955068,44.277849],[-72.323382,43.964363],[-73.076912,42.400493],[-71.573772,41.195725],[-69.342223,41.490681],[-68.482715,43.008011],[-69.955068,44.277849]]]}},{"type":"Feature","properties":{"hex_id":"822a87fffffffff","population":4299023,"population_year":2025,"area_km2":85294.5,"population_density":50.4,"all_players":20,"players_per_million":4.65,"player_ids":["nfl:AdomCa00","nfl:BrisJa01","nfl:BurrJo01","nfl:FrazZa00","nfl:GoodC.00","nfl:HainRo00","nfl:HamlDa00","nfl:HookMa00","nfl:JackDa02","nfl:JeffQu00","nfl:JohnTy02","nfl:KuntCh02","nfl:McMiDo00","nfl:MoorSk01","nfl:SandMi01","nfl:StilDa01","nfl:StonGe00","nfl:StraBr00","nfl:ThomRo07","nfl:WatsJu01"],"label":"Pittsburgh","country":"United States"},"geometry":{"type":"Polygon","coordinates":[[[-79.734069,41.163834],[-81.867503,40.674246],[-82.267059,39.125451],[-80.651775,38.089298],[-78.619418,38.540002],[-78.104271,40.06406],[-79.734069,41.163834]]]}},{"type":"Feature","properties":{"hex_id":"822a8ffffffffff","population":6334016,"population_year":2025,"area_km2":80847.5,"population_density":78.3,"all_players":38,"players_per_million":6.0,"player_ids":["nfl:AlleKe00","nfl:AnthDa00","nfl:BashCa00","nfl:BectMe00","nfl:ClarKe02","nfl:CrosKe00","nfl:DeabDi00","nfl:DortGr01","nfl:EdmuTe00","nfl:EdmuTr01","nfl:EvanEt00","nfl:FerrCl00","nfl:HendTr02","nfl:HenrKJ00","nfl:HortZa00","nfl:KartJo00","nfl:LawrDe03","nfl:McMiJa00","nfl:MoseMo00","nfl:OgunLa00","nfl:PagePa00","nfl:PratGe00","nfl:ReadD.00","nfl:ReveSh00","nfl:SankJo00","nfl:StinAa00","nfl:TaylDa00","nfl:TenuLu00","nfl:ThomDr00","nfl:ThorJu00","nfl:VinsCa00","nfl:WallKV00","nfl:WarrTy00","nfl:WhitBl01","nfl:WilsJa02","nfl:WilsPa00","nfl:WilsRu00","nfl:WrigJa04"],"label":"Richmond","country":"United States"},"geometry":{"type":"Polygon","coordinates":[[[-78.619418,38.540002],[-80.651775,38.089298],[-81.068449,36.598719],[-79.557618,35.583567],[-77.618683,35.999192],[-77.099922,37.463561],[-78.619418,38.540002]]]}},{"type":"Feature","properties":{"hex_id":"822a97fffffffff","population":8425121,"population_year":2025,"area_km2":85627.7,"population_density":98.4,"all_players":49,"players_per_million":5.82,"player_ids":["nfl:AlexDa01","nfl:AndeTy00","nfl:AsamBr00","nfl:BarnDe02","nfl:BateBr00","nfl:BateJe00","nfl:BrigJo00","nfl:CookBr02","nfl:CoopJo02","nfl:DeckTa00","nfl:DuliAs00","nfl:EdwaMi01","nfl:EskrDW00","nfl:GillRe00","nfl:HamiDa02","nfl:HamiTy00","nfl:HarrMa06","nfl:HarrZa00","nfl:HoecMi00","nfl:HubeJo00","nfl:HudsJa00","nfl:JohnKa03","nfl:JohnPa03","nfl:KineCo00","nfl:MartBa00","nfl:MayeMi00","nfl:McCuLi00","nfl:McQuJa00","nfl:MontDa01","nfl:MunfTh00","nfl:MyerJo00","nfl:OgleAn00","nfl:PaceIv00","nfl:RiccGi00","nfl:RobbBr00","nfl:SaulBe00","nfl:SawyJa00","nfl:SkowBe00","nfl:SmooDa00","nfl:StolCh00","nfl:StovCa00","nfl:ThunJo00","nfl:TippJo00","nfl:TranDr00","nfl:ValeCa00","nfl:VannNi00","nfl:VersJa00","nfl:WhylJo01","nfl:WormCh00"],"label":"Cincinnati","country":"United States"},"geometry":{"type":"Polygon","coordinates":[[[-83.600197,41.724215],[-85.703199,41.161269],[-85.979328,39.596509],[-84.278055,38.60875],[-82.267059,39.125451],[-81.867503,40.674246],[-83.600197,41.724215]]]}},{"type":"Feature","properties":{"hex_id":"822a9ffffffffff","population":2499801,"population_year":2025,"area_km2":81458.9,"population_density":30.7,"all_players":6,"players_per_million":2.4,"player_ids":["nfl:MiluWy00","nfl:MitcJa00","nfl:PleaAu00","nfl:StouJo00","nfl:TuckDa00","nfl:WrigDa00"],"label":"Cedar Bluff","country":"United States"},"geometry":{"type":"Polygon","coordinates":[[[-82.267059,39.125451],[-84.278055,38.60875],[-84.585167,37.099589],[-82.992984,36.123996],[-81.068449,36.598719],[-80.651775,38.089298],[-82.267059,39.125451]]]}},{"type":"Feature","properties":{"hex_id":"822aa7fffffffff","population":3417567,"population_year":2025,"area_km2":88726.5,"population_density":38.5,"all_players":6,"players_per_million":1.76,"player_ids":["nfl:CarlSt00","nfl:DippCJ00","nfl:GiveKe01","nfl:JoneDa04","nfl:McGoCo01","nfl:RhodLu00"],"label":"Larksville","country":"United States"},"geometry":{"type":"Polygon","coordinates":[[[-76.966258,43.195408],[-79.227281,42.744533],[-79.734069,41.163834],[-78.104271,40.06406],[-75.960619,40.480497],[-75.333452,42.029564],[-76.966258,43.195408]]]}},{"type":"Feature","properties":{"hex_id":"822aaffffffffff","population":16213426,"population_year":2025,"area_km2":84307.8,"population_density":192.3,"all_players":109,"players_per_million":6.72,"player_ids":["nfl:AddiJo00","nfl:AlieMo00","nfl:AlleJo01","nfl:AlleLe01","nfl:AndeSp00","nfl:AnzaAl00","nfl:AverTr01","nfl:BageTy00","nfl:BankDe00","nfl:BellMa01","nfl:BenfCh00","nfl:BookTh00","nfl:BrasCh00","nfl:BrasCh01","nfl:BresBr00","nfl:BrigGa00","nfl:BrinAu00","nfl:BullCo00","nfl:BurkOr00","nfl:CageLa01","nfl:CarsCa01","nfl:ChesJu00","nfl:ChisDa00","nfl:CokeJa01","nfl:ColbJo00","nfl:CoruBl00","nfl:CrosNi00","nfl:DarrCh00","nfl:DiggSt00","nfl:DiggTr00","nfl:DimuVi00","nfl:DumaJa00","nfl:EbikAr00","nfl:EdmoCh00","nfl:FashOl00","nfl:FeltTa00","nfl:GillJa00","nfl:GodwCh00","nfl:GoldEd00","nfl:GrosYe00","nfl:HandDa00","nfl:HarrAn00","nfl:HartCa00","nfl:HaveRo00","nfl:HaynCh00","nfl:HellDe00","nfl:HollMa00","nfl:HuntAd00","nfl:JackJo03","nfl:JacoCu00","nfl:JenkEJ00","nfl:JenkKr01","nfl:JohnJu02","nfl:JohnNa01","nfl:JohnZi00","nfl:JonaKi00","nfl:JurgMi02","nfl:KwenWi00","nfl:LaneRa00","nfl:LeexVe00","nfl:MageJo00","nfl:MartDa01","nfl:MeltBo00","nfl:MeltMa00","nfl:MitcZa00","nfl:MustPJ00","nfl:MustSa01","nfl:NchaDu00","nfl:NichBi00","nfl:ONeiBr00","nfl:OluwOl00","nfl:PachIs00","nfl:ParsMi00","nfl:ReedTr01","nfl:RobiCh00","nfl:RousWa00","nfl:RuccHa00","nfl:RunyCa00","nfl:RylaCh00","nfl:SavaDa00","nfl:ScotNi01","nfl:SettTi00","nfl:SillDa01","nfl:SlyeJo00","nfl:SnowCh00","nfl:StewM.00","nfl:StilTa00","nfl:StroDo01","nfl:TaylJo02","nfl:TellWy00","nfl:ThomIa00","nfl:ThorDo00","nfl:TillDo00","nfl:TradDa00","nfl:TuckSe00","nfl:TurnDJ00","nfl:TuteBh00","nfl:WalkRa00","nfl:WallJo00","nfl:WashCa00","nfl:WaxxMa00","nfl:WilkEl00","nfl:WillCa03","nfl:WillTy02","nfl:WinsKe02","nfl:WoodJo02","nfl:WrigMa00","nfl:WrigOw00","nfl:YounCh04"],"label":"Baltimore","country":"United States"},"geometry":{"type":"Polygon","coordinates":[[[-75.960619,40.480497],[-78.104271,40.06406],[-78.619418,38.540002],[-77.099922,37.463561],[-75.063317,37.849069],[-74.442775,39.340569],[-75.960619,40.480497]]]}},{"type":"Feature","properties":{"hex_id":"822ab7fffffffff","population":10815218,"population_year":2025,"area_km2":89440.6,"population_density":120.9,"all_players":74,"players_per_million":6.84,"player_ids":["nfl:AlixRa00","nfl:BachJo01","nfl:BakeJe00","nfl:BarnAJ00","nfl:BoroLa00","nfl:BrowCh10","nfl:BrowPh01","nfl:BrowSy00","nfl:BryaCo01","nfl:CampPa00","nfl:ClarDe03","nfl:ConnJa00","nfl:DaniJa01","nfl:DannMi00","nfl:DeitMi00","nfl:DrumDy00","nfl:EichTo00","nfl:EvanMi01","nfl:FannHa00","nfl:FarrLu00","nfl:GardSa00","nfl:GolsCh00","nfl:GrahBr99","nfl:GrahJa02","nfl:HaddKa00","nfl:HairMa00","nfl:HallMi00","nfl:HarmDe01","nfl:HuntKa00","nfl:JackAl01","nfl:JohnDe08","nfl:JohnTh00","nfl:JohnWi02","nfl:JoneDr00","nfl:JoneNi00","nfl:JudoMa00","nfl:JuszKy00","nfl:KareKh00","nfl:KelcTr00","nfl:KingKa00","nfl:KingKo00","nfl:LattMa01","nfl:LewiCa00","nfl:LewiJo01","nfl:MaddAv00","nfl:MausDo00","nfl:McGrBr00","nfl:MerrKa00","nfl:MoorJa04","nfl:NewmLu00","nfl:NichLe00","nfl:OkorCh00","nfl:OnweMi00","nfl:PhilDe00","nfl:PratMa20","nfl:ReedJa04","nfl:RobiDa01","nfl:RobiDo00","nfl:SamaNi00","nfl:ScruJu00","nfl:SunaRe00","nfl:TaylBr04","nfl:ThomTa01","nfl:TiptMa00","nfl:TrubMi00","nfl:TuckTr00","nfl:TurnJo00","nfl:UwazEy00","nfl:WalkDe04","nfl:WalkJa03","nfl:WardDe02","nfl:WilsEr00","nfl:WomaSa00","nfl:ZakeNi00"],"label":"Detroit","country":"United States"},"geometry":{"type":"Polygon","coordinates":[[[-80.982253,43.86012],[-83.224953,43.327485],[-83.600197,41.724215],[-81.867503,40.674246],[-79.734069,41.163834],[-79.227281,42.744533],[-80.982253,43.86012]]]}},{"type":"Feature","properties":{"hex_id":"822ad7fffffffff","population":3814677,"population_year":2025,"area_km2":76219.8,"population_density":50.0,"all_players":30,"players_per_million":7.86,"player_ids":["nfl:BerrBr00","nfl:ButlMa02","nfl:CodrBr00","nfl:HampOm00","nfl:HemiTo00","nfl:HighAl02","nfl:HillJu02","nfl:HineNy00","nfl:HughMi00","nfl:JohnBr24","nfl:JohnKa01","nfl:KnigZo00","nfl:LandHa00","nfl:LegeXa00","nfl:LewiTy00","nfl:McNeAl00","nfl:MonkJa00","nfl:PeebAe00","nfl:ReedJa02","nfl:RenfHu00","nfl:RileJo00","nfl:SandTJ00","nfl:StreKe00","nfl:ThomXa01","nfl:UdohOl01","nfl:WhitKe03","nfl:WhitZa01","nfl:WillJa10","nfl:WillJo03","nfl:YounDa02"],"label":"Raleigh","country":"United States"},"geometry":{"type":"Polygon","coordinates":[[[-77.618683,35.999192],[-79.557618,35.583567],[-79.985888,34.15372],[-78.568356,33.165261],[-76.715776,33.549278],[-76.1969,34.952047],[-77.618683,35.999192]]]}},{"type":"Feature","properties":{"hex_id":"822af7fffffffff","population":2171642,"population_year":2025,"area_km2":79647.5,"population_density":27.3,"all_players":11,"players_per_million":5.07,"player_ids":["nfl:ChriCo00","nfl:ClarCh00","nfl:GranCh00","nfl:GreeMi02","nfl:HolmJa01","nfl:JonePa00","nfl:LambKe01","nfl:MurcLa00","nfl:NnadDe00","nfl:SweaJo00","nfl:TaylTy00"],"label":"Chesapeake","country":"United States"},"geometry":{"type":"Polygon","coordinates":[[[-75.063317,37.849069],[-77.099922,37.463561],[-77.618683,35.999192],[-76.1969,34.952047],[-74.258118,35.309765],[-73.646509,36.741215],[-75.063317,37.849069]]]}},{"type":"Feature","properties":{"hex_id":"822b8ffffffffff","population":3267276,"population_year":2025,"area_km2":91641.3,"population_density":35.7,"all_players":3,"players_per_million":0.92,"player_ids":["nfl:DennSi00","nfl:DixoRi00","nfl:RogeCa00"],"label":"Syracuse","country":"United States"},"geometry":{"type":"Polygon","coordinates":[[[-73.944231,45.197835],[-76.33587,44.798413],[-76.966258,43.195408],[-75.333452,42.029564],[-73.076912,42.400493],[-72.323382,43.964363],[-73.944231,45.197835]]]}},{"type":"Feature","properties":{"hex_id":"822b9ffffffffff","population":11744141,"population_year":2025,"area_km2":92775.6,"population_density":126.6,"all_players":13,"players_per_million":1.11,"player_ids":["nfl:AdamIs01","nfl:AndrJo02","nfl:DolaSh00","nfl:GallNe00","nfl:KaliNi00","nfl:LandIs00","nfl:McDuIs00","nfl:MetcJo00","nfl:PalmJo00","nfl:RobiTa00","nfl:ShepNa00","nfl:UrbaBr00","nfl:WaynJa01"],"label":"Ajax","country":"Canada"},"geometry":{"type":"Polygon","coordinates":[[[-78.100366,45.982432],[-80.490261,45.49319],[-80.982253,43.86012],[-79.227281,42.744533],[-76.966258,43.195408],[-76.33587,44.798413],[-78.100366,45.982432]]]}},{"type":"Feature","properties":{"hex_id":"822baffffffffff","population":6643169,"population_year":2025,"area_km2":93933.6,"population_density":70.7,"all_players":4,"players_per_million":0.6,"player_ids":["nfl:BergMa00","nfl:SmitKi00","nfl:SowxSi00","nfl:StJuBe00"],"label":"Victoriaville","country":"Canada"},"geometry":{"type":"Polygon","coordinates":[[[-70.65056,47.146099],[-73.17262,46.811656],[-73.944231,45.197835],[-72.323382,43.964363],[-69.955068,44.277849],[-69.060562,45.844655],[-70.65056,47.146099]]]}},{"type":"Feature","properties":{"hex_id":"824417fffffffff","population":1532020,"population_year":2025,"area_km2":80544.7,"population_density":19.0,"all_players":5,"players_per_million":3.26,"player_ids":["nfl:CherCl00","nfl:JohnDE04","nfl:JoneJe01","nfl:MartJa04","nfl:ThomDe07"],"label":"Fort Myers","country":"United States"},"geometry":{"type":"Polygon","coordinates":[[[-82.310403,23.682659],[-80.82969,24.429618],[-80.698565,26.062694],[-82.084301,26.984013],[-83.616841,26.242156],[-83.710823,24.573869],[-82.310403,23.682659]]]}},{"type":"Feature","properties":{"hex_id":"82441ffffffffff","population":5165806,"population_year":2025,"area_km2":82705.0,"population_density":62.5,"all_players":32,"players_per_million":6.19,"player_ids":["nfl:AlShAz00","nfl:BeckAn01","nfl:BeltDa00","nfl:BrooJa04","nfl:CartZa00","nfl:DaviMa02","nfl:FordJe00","nfl:FowlDa00","nfl:FranSa00","nfl:GrifSh00","nfl:HansJa01","nfl:HarrJa05","nfl:HigbTy00","nfl:HughCh01","nfl:JenkRa00","nfl:JennDo00","nfl:McClRa00","nfl:McFaMi01","nfl:MoorCh00","nfl:NeuzRy00","nfl:NewtJe00","nfl:OladCh00","nfl:OruwAm00","nfl:PeniMi00","nfl:PutnWi00","nfl:RodgIs00","nfl:StrnJu00","nfl:TampTJ00","nfl:ValdMa00","nfl:WaltBr01","nfl:WatsCh00","nfl:WestLa01"],"label":"Tampa","country":"United States"},"geometry":{"type":"Polygon","coordinates":[[[-83.616841,26.242156],[-82.084301,26.984013],[-81.966494,28.631807],[-83.420798,29.571467],[-85.007143,28.83498],[-85.084348,27.153536],[-83.616841,26.242156]]]}},{"type":"Feature","properties":{"hex_id":"824447fffffffff","population":3715636,"population_year":2025,"area_km2":92775.6,"population_density":40.0,"all_players":59,"players_per_million":15.88,"player_ids":["nfl:AmosTr00","nfl:BechJa00","nfl:BoutKa00","nfl:ButlPe00","nfl:CambDa00","nfl:ChasJa00","nfl:ClarDa02","nfl:ClarJo00","nfl:ColeKe02","nfl:CoopEd00","nfl:CushLl00","nfl:DaviDe02","nfl:DecuAu00","nfl:DotsKe00","nfl:EdwaCl00","nfl:EtieTr00","nfl:EtieTr01","nfl:FordCo00","nfl:FultKr00","nfl:GageRu00","nfl:GodcDa00","nfl:HarrCh06","nfl:HarrTr03","nfl:JackDo02","nfl:JacoDe00","nfl:JeffJu00","nfl:JoneDe01","nfl:JoneEm02","nfl:LarvGa00","nfl:LucaCo01","nfl:MartTa00","nfl:MathPh00","nfl:MaulAr00","nfl:MitcEl00","nfl:MonrJa00","nfl:MoreFo00","nfl:NabeMa00","nfl:QueePa00","nfl:ReidJu00","nfl:RoacMa01","nfl:RobeAm00","nfl:SampDy00","nfl:SamxAn00","nfl:SmitDe07","nfl:SmitMa07","nfl:SorrBa00","nfl:SpeaTy00","nfl:StinDe00","nfl:ThomBr06","nfl:ThomNa01","nfl:TomxZa00","nfl:TorrOC00","nfl:VanPSe00","nfl:VancGr00","nfl:WallGa00","nfl:WardCh01","nfl:WheaTy02","nfl:WickDo00","nfl:WindJa00"],"label":"Baton Rouge","country":"United States"},"geometry":{"type":"Polygon","coordinates":[[[-91.44306,29.038514],[-89.789168,29.876068],[-89.779473,31.590738],[-91.474426,32.491469],[-93.177711,31.651131],[-93.135951,29.913303],[-91.44306,29.038514]]]}},{"type":"Feature","properties":{"hex_id":"82444ffffffffff","population":1823298,"population_year":2025,"area_km2":93159.0,"population_density":19.6,"all_players":27,"players_per_million":14.81,"player_ids":["nfl:BernJa01","nfl:BrowMo00","nfl:BurkTr00","nfl:CampWi01","nfl:ChatEl00","nfl:JackCa01","nfl:JackLa03","nfl:MartNi01","nfl:MitcMa02","nfl:MukuIs00","nfl:NewtJo00","nfl:PresDa01","nfl:RichDe01","nfl:RobiCa00","nfl:RochRo00","nfl:SneeLJ00","nfl:TillJe00","nfl:TurpKa00","nfl:WashAr00","nfl:WashBr01","nfl:WashTa00","nfl:WhitDe02","nfl:WhitTr01","nfl:WillSa01","nfl:WillTr21","nfl:WilsDo01","nfl:WoodXa00"],"label":"Shreveport","country":"United States"},"geometry":{"type":"Polygon","coordinates":[[[-93.177711,31.651131],[-91.474426,32.491469],[-91.490847,34.200716],[-93.265212,35.090108],[-95.017507,34.246081],[-94.945821,32.516906],[-93.177711,31.651131]]]}},{"type":"Feature","properties":{"hex_id":"824457fffffffff","population":2432844,"population_year":2025,"area_km2":88726.5,"population_density":27.4,"all_players":33,"players_per_million":13.56,"player_ids":["nfl:AbraKr00","nfl:ArmoJa00","nfl:BennJa00","nfl:BryaCo02","nfl:CartMi03","nfl:CrosCh00","nfl:CrumJa00","nfl:DaviKa01","nfl:EdwaMa01","nfl:FlotCo00","nfl:GanoGr44","nfl:GranRi00","nfl:HallDe04","nfl:HowaTy00","nfl:HuffBr00","nfl:JackMc00","nfl:JameDJ00","nfl:JameSh00","nfl:JeffJo01","nfl:JohnCe01","nfl:JoneBe03","nfl:JoneTi00","nfl:JoneVe00","nfl:LeonRi02","nfl:LuteDa00","nfl:McCrRo01","nfl:McWiMa01","nfl:ReavJe00","nfl:TolbJa00","nfl:WaitCo00","nfl:WardAl00","nfl:WithDe00","nfl:YounBy00"],"label":"Mobile","country":"United States"},"geometry":{"type":"Polygon","coordinates":[[[-88.170272,28.973403],[-86.545778,29.759287],[-86.487848,31.44625],[-88.101738,32.375354],[-89.779473,31.590738],[-89.789168,29.876068],[-88.170272,28.973403]]]}},{"type":"Feature","properties":{"hex_id":"82445ffffffffff","population":1787935,"population_year":2025,"area_km2":89440.6,"population_density":20.0,"all_players":29,"players_per_million":16.22,"player_ids":["nfl:AkerCa00","nfl:BensTr01","nfl:BlaiCh00","nfl:BozeSw00","nfl:BrooNa01","nfl:BrowAJ00","nfl:BrowBe01","nfl:BrowJa07","nfl:CharSa00","nfl:DaviDe00","nfl:ForbEm00","nfl:GainKe00","nfl:GayJWi00","nfl:GrayJ.00","nfl:HallKe01","nfl:HeatMa00","nfl:HoliJi00","nfl:HuntJa03","nfl:JenkEl00","nfl:JoneCh09","nfl:JoneJa14","nfl:KeysAu00","nfl:LewiDa05","nfl:MetcDK00","nfl:MingJo00","nfl:MinsGa00","nfl:PeguJJ00","nfl:SherJa01","nfl:SimmJe01"],"label":"Starkville","country":"United States"},"geometry":{"type":"Polygon","coordinates":[[[-89.779473,31.590738],[-88.101738,32.375354],[-88.065886,34.059836],[-89.759172,34.984893],[-91.490847,34.200716],[-91.474426,32.491469],[-89.779473,31.590738]]]}},{"type":"Feature","properties":{"hex_id":"82446ffffffffff","population":9292440,"population_year":2025,"area_km2":96323.1,"population_density":96.5,"all_players":92,"players_per_million":9.9,"player_ids":["nfl:AchaDe00","nfl:ArmsDo00","nfl:BaldJo01","nfl:BankBr02","nfl:BankKe01","nfl:BankMa00","nfl:BartSh00","nfl:BateJa00","nfl:BattMi00","nfl:BeacKe00","nfl:BentUl00","nfl:BernTe00","nfl:BlueJa01","nfl:BonnEt00","nfl:BrooJo01","nfl:BrouVe00","nfl:CampDa01","nfl:CartAj00","nfl:ChaiKL00","nfl:ChilZi00","nfl:ConnHa00","nfl:CoopKe00","nfl:CosmSa00","nfl:DabnDr00","nfl:DaltAn00","nfl:DelpGr00","nfl:ElliJo02","nfl:EvanMi00","nfl:GoldMa02","nfl:GonzZa00","nfl:GoodCa00","nfl:HallEr00","nfl:HowaXa00","nfl:HuntDa01","nfl:HurtJa00","nfl:JackDo03","nfl:JamiDS00","nfl:JohnLa01","nfl:JohnRo07","nfl:JoneBr06","nfl:JoneCh12","nfl:JoneJo07","nfl:LambCe00","nfl:LittWa00","nfl:LockPJ00","nfl:MahoPa00","nfl:MannBr01","nfl:MattJa00","nfl:McCoEr01","nfl:McCoRy00","nfl:McCoTr00","nfl:McCoZy02","nfl:McGlDw00","nfl:McLaCh00","nfl:MilrJa00","nfl:MitcAd00","nfl:MoorDa05","nfl:MorrQu00","nfl:MorsTh00","nfl:MurrKe00","nfl:OgbaEm00","nfl:OgboOt00","nfl:OjomMo00","nfl:OkorOg00","nfl:OlivEd00","nfl:OlszGu00","nfl:OssaJo00","nfl:OverDe00","nfl:PaulCh00","nfl:PaulPa01","nfl:PitrJa00","nfl:RobeEl00","nfl:SchlAu00","nfl:ScouNi00","nfl:ShefKe00","nfl:SimsSt00","nfl:StouUp00","nfl:StuaGr00","nfl:SuttCo00","nfl:SweaTV01","nfl:TramAu00","nfl:TurnDe02","nfl:VaugZe00","nfl:WaddJa00","nfl:WashPa01","nfl:WillJo011","nfl:WillTr06","nfl:WilsJe01","nfl:WilsTy01","nfl:WinfAn00","nfl:WintDe00","nfl:WrigBr01"],"label":"Houston","country":"United States"},"geometry":{"type":"Polygon","coordinates":[[[-94.808948,29.022702],[-93.135951,29.913303],[-93.177711,31.651131],[-94.945821,32.516906],[-96.66289,31.619531],[-96.567347,29.863731],[-94.808948,29.022702]]]}},{"type":"Feature","properties":{"hex_id":"8244a7fffffffff","population":5328381,"population_year":2025,"area_km2":75672.4,"population_density":70.4,"all_players":76,"players_per_million":14.26,"player_ids":["nfl:AbduYa00","nfl:AlexMa02","nfl:AndeRo04","nfl:ArneDa00","nfl:AtweTu00","nfl:AustKe00","nfl:BartJa01","nfl:BattJo00","nfl:BethTa00","nfl:BoniNi00","nfl:BorrAn00","nfl:BosaJo00","nfl:BosaNi00","nfl:BridTe00","nfl:BrowJa09","nfl:BrowMa04","nfl:BurnBr00","nfl:BushDe01","nfl:CampTy01","nfl:CookJa01","nfl:DaviCa02","nfl:DaviJa09","nfl:DaviLa00","nfl:DorlBr00","nfl:FlowZa00","nfl:FordJo00","nfl:GadsOr01","nfl:HardMy00","nfl:HartBo00","nfl:HendCJ00","nfl:HerbKh00","nfl:HiggJa00","nfl:HousJa01","nfl:HuntTy01","nfl:HyppRu00","nfl:IveyDJ00","nfl:JackLa00","nfl:JeudJe00","nfl:JobeJo00","nfl:KancCa00","nfl:KincKa00","nfl:KnowKe00","nfl:LammCh00","nfl:MarsJa00","nfl:MartKe03","nfl:MeteJo00","nfl:MoorEl00","nfl:MoreFa00","nfl:OlivBr02","nfl:PerrDe00","nfl:PierJa01","nfl:PierJa99","nfl:PineEd00","nfl:PortDa01","nfl:RestXa00","nfl:RidlCa00","nfl:RobeEl01","nfl:RousGr00","nfl:SamuAs00","nfl:SingDe00","nfl:SlatTe00","nfl:SmitBr09","nfl:SmitGe00","nfl:SteeTy00","nfl:StevTy01","nfl:StewSh00","nfl:SurtPa01","nfl:TaylLe01","nfl:TaylMa02","nfl:ThorCo00","nfl:ThorTy00","nfl:TurnDa01","nfl:UcheJo00","nfl:WalkAn01","nfl:WillJa15","nfl:WilsMa04"],"label":"Fort Lauderdale","country":"United States"},"geometry":{"type":"Polygon","coordinates":[[[-79.508242,23.533066],[-78.073265,24.24011],[-77.908907,25.835601],[-79.211732,26.761492],[-80.698565,26.062694],[-80.82969,24.429618],[-79.508242,23.533066]]]}},{"type":"Feature","properties":{"hex_id":"8244affffffffff","population":7848067,"population_year":2025,"area_km2":77902.3,"population_density":100.7,"all_players":49,"players_per_million":6.24,"player_ids":["nfl:BoarCh00","nfl:BrisJa00","nfl:CarlJa01","nfl:CartJa05","nfl:DaviGa01","nfl:DaviTy05","nfl:DeanJa00","nfl:DextGe00","nfl:ElamKa00","nfl:ForsSt00","nfl:GardCh00","nfl:GillAs00","nfl:GreeRe00","nfl:HarvJa00","nfl:HarvRJ00","nfl:HayeJo01","nfl:HendTr00","nfl:HolcCo00","nfl:HomeTr00","nfl:HornJi00","nfl:HuntJa02","nfl:InglTa00","nfl:JameDe00","nfl:JohnFr01","nfl:JoseKe03","nfl:JulePJ00","nfl:KnigTy00","nfl:LeexMa02","nfl:MackKh00","nfl:MayeMa00","nfl:MilaMa00","nfl:MillVe00","nfl:MiltJo00","nfl:MorrMi00","nfl:MostRa00","nfl:ODonPa00","nfl:PhilJo02","nfl:SandRa00","nfl:SherJa00","nfl:SmitAr01","nfl:SmitKe05","nfl:SmitXa00","nfl:StutDa00","nfl:TaylJa02","nfl:TownTo01","nfl:WeavXa00","nfl:WestJa02","nfl:WestNi00","nfl:ZavaCh00"],"label":"Orlando","country":"United States"},"geometry":{"type":"Polygon","coordinates":[[[-80.698565,26.062694],[-79.211732,26.761492],[-79.057436,28.372892],[-80.425375,29.321821],[-81.966494,28.631807],[-82.084301,26.984013],[-80.698565,26.062694]]]}},{"type":"Feature","properties":{"hex_id":"8244c7fffffffff","population":6948496,"population_year":2025,"area_km2":80847.5,"population_density":85.9,"all_players":121,"players_per_million":17.41,"player_ids":["nfl:AlfoDe00","nfl:AndeWi01","nfl:AshbJu00","nfl:BakeDa02","nfl:BateRa00","nfl:BealRo00","nfl:BellDA03","nfl:BishCo00","nfl:BlacJo00","nfl:BlouJo00","nfl:BondIs00","nfl:BranBr00","nfl:BrowDe05","nfl:BrowOr00","nfl:BryaHa00","nfl:BullJa00","nfl:ButkHa00","nfl:ByarKe01","nfl:CartBa00","nfl:CartMi02","nfl:ChukBe00","nfl:ColeAJ01","nfl:CoxxBr02","nfl:DiabYa00","nfl:DownJo00","nfl:DuggKy00","nfl:DuprAl00","nfl:DurhPa00","nfl:EboiJu00","nfl:EdogCh00","nfl:EnagKi00","nfl:EngrEv00","nfl:FergRe00","nfl:FitzJo00","nfl:FloyLe00","nfl:FoxxTo00","nfl:GibsAn00","nfl:GillBl00","nfl:GoodTy00","nfl:GrabTy00","nfl:GreeBJ00","nfl:HamiKy00","nfl:HancJo00","nfl:HardMe00","nfl:HarrWi02","nfl:HerrMa02","nfl:HewiNe00","nfl:HeywCa01","nfl:HeywCo00","nfl:HeywSh00","nfl:HiltMi01","nfl:HuntTr00","nfl:IncoTh00","nfl:IveyJa00","nfl:JackNi00","nfl:JarrGr00","nfl:JoneBr09","nfl:JoneDo03","nfl:JoneTr01","nfl:KamaAl00","nfl:KennKy00","nfl:KeyxAr00","nfl:KnigDe00","nfl:LawrDe00","nfl:LeviCo00","nfl:LoweRe00","nfl:MafaPh00","nfl:MaloDe00","nfl:MarkWo00","nfl:MartCh02","nfl:MartSa01","nfl:McCoJa02","nfl:McLeDe00","nfl:MeyeJa01","nfl:MillDa02","nfl:MimsAm00","nfl:MitcKe01","nfl:MoorNi00","nfl:MorrWa01","nfl:MumpKo00","nfl:OkonCh00","nfl:PappOw00","nfl:RankSh00","nfl:RaymKa00","nfl:RobiDe01","nfl:RobiJa03","nfl:RobiMi01","nfl:RodrCh00","nfl:RomoJo00","nfl:RoyaJa00","nfl:SalyJa00","nfl:SampCa00","nfl:SlayDa01","nfl:SmitCh04","nfl:SmitLe01","nfl:SmitPr00","nfl:SmitRo07","nfl:StacNa00","nfl:StarMa00","nfl:StigQw00","nfl:StokEr00","nfl:SweaMo00","nfl:SwinBr01","nfl:TerrAJ00","nfl:ThomAn02","nfl:ThomTr04","nfl:TomlDa00","nfl:TremTo00","nfl:TurnDJ01","nfl:VildKi00","nfl:WalkQu00","nfl:WalkTr03","nfl:WashMa00","nfl:WatsJa02","nfl:WiggNa00","nfl:WillKe07","nfl:WillMa12","nfl:WonnDJ00","nfl:WoodCo01","nfl:WyatDe00","nfl:Ya-SRo00"],"label":"Atlanta","country":"United States"},"geometry":{"type":"Polygon","coordinates":[[[-83.318504,31.226884],[-81.720688,31.908012],[-81.592393,33.531156],[-83.104736,34.505705],[-84.761579,33.833075],[-84.845862,32.177532],[-83.318504,31.226884]]]}},{"type":"Feature","properties":{"hex_id":"8244cffffffffff","population":5279881,"population_year":2025,"area_km2":81458.9,"population_density":64.8,"all_players":43,"players_per_million":8.14,"player_ids":["nfl:AdkiNa00","nfl:AlleDa02","nfl:BaroTy00","nfl:BertJD00","nfl:BrosMa00","nfl:BrowBr06","nfl:ChubBr00","nfl:ClevBe00","nfl:DobbJo00","nfl:FairDy00","nfl:FielJu00","nfl:GibbJa01","nfl:GreeJo04","nfl:HarpTh00","nfl:HiggTe00","nfl:HornJa00","nfl:JohnPa02","nfl:KinnDa00","nfl:KinsMa00","nfl:LawrTr00","nfl:LawsCa00","nfl:LoguZi00","nfl:MaysCa00","nfl:McCoLa00","nfl:McCrMa01","nfl:McKiXa00","nfl:McPhEv00","nfl:MondSm01","nfl:MurpMy00","nfl:NourHu00","nfl:OjulAz00","nfl:OjulBJ00","nfl:RatlTa00","nfl:SaylJa00","nfl:SermTr00","nfl:SmitHa00","nfl:SpecBa00","nfl:StraCo01","nfl:TaylAl01","nfl:VidaKi00","nfl:WagnWi00","nfl:WallDa01","nfl:WhitRi01"],"label":"Marietta","country":"United States"},"geometry":{"type":"Polygon","coordinates":[[[-84.761579,33.833075],[-83.104736,34.505705],[-82.992984,36.123996],[-84.585167,37.099589],[-86.303213,36.434527],[-86.366648,34.786557],[-84.761579,33.833075]]]}},{"type":"Feature","properties":{"hex_id":"8244d7fffffffff","population":1889865,"population_year":2025,"area_km2":76219.8,"population_density":24.8,"all_players":10,"players_per_million":5.29,"player_ids":["nfl:BrinWa00","nfl:FordPo00","nfl:KinlJa00","nfl:LassKa00","nfl:RushDa00","nfl:SimpJo00","nfl:SmitNo02","nfl:TothBr00","nfl:WattEr00","nfl:YounBy01"],"label":"Savannah","country":"United States"},"geometry":{"type":"Polygon","coordinates":[[[-80.283005,30.942583],[-78.735928,31.57726],[-78.568356,33.165261],[-79.985888,34.15372],[-81.592393,33.531156],[-81.720688,31.908012],[-80.283005,30.942583]]]}},{"type":"Feature","properties":{"hex_id":"8244dffffffffff","population":7412190,"population_year":2025,"area_km2":77926.1,"population_density":95.1,"all_players":63,"players_per_million":8.5,"player_ids":["nfl:AlexJa00","nfl:AutrDe00","nfl:BiggZe01","nfl:BradGa00","nfl:BrooBr01","nfl:BrooJa03","nfl:BrooKe02","nfl:BrowDy00","nfl:BullJo00","nfl:BurcJo00","nfl:CaldJa00","nfl:ClowJa00","nfl:DaviAk01","nfl:DaviJo03","nfl:DickLa00","nfl:DowdRi01","nfl:DuckSt00","nfl:DuraDe01","nfl:EkwoIk00","nfl:EmmaNi00","nfl:GlazDe00","nfl:GrayCe00","nfl:GwynJo00","nfl:HamiAn01","nfl:HampNi00","nfl:HargJa00","nfl:HillB.00","nfl:HoffBr00","nfl:HopkDe00","nfl:HoppTy00","nfl:HyatJa00","nfl:IngrTy00","nfl:JackDM00","nfl:JoneD.01","nfl:JoneDa05","nfl:KendDe00","nfl:LammKe00","nfl:LaneJa00","nfl:LeotEk00","nfl:LeveNi00","nfl:MayeDr00","nfl:McClNi00","nfl:McFaJo00","nfl:McLaJa00","nfl:MustMa00","nfl:OuztRo00","nfl:PearJa00","nfl:PickZa00","nfl:PiniBr00","nfl:RileQu00","nfl:RudoMa00","nfl:SamuDe00","nfl:ShipWi00","nfl:SimpTo00","nfl:SimpTr00","nfl:SurrCh00","nfl:TindCh00","nfl:TuttSh00","nfl:WalkDe01","nfl:WalkJa02","nfl:WattMa00","nfl:WillGa00","nfl:WilsEm00"],"label":"Charlotte","country":"United States"},"geometry":{"type":"Polygon","coordinates":[[[-81.592393,33.531156],[-79.985888,34.15372],[-79.557618,35.583567],[-81.068449,36.598719],[-82.992984,36.123996],[-83.104736,34.505705],[-81.592393,33.531156]]]}},{"type":"Feature","properties":{"hex_id":"8244e7fffffffff","population":1664158,"population_year":2025,"area_km2":84307.8,"population_density":19.7,"all_players":17,"players_per_million":10.22,"player_ids":["nfl:ArnoTe00","nfl:BeltAn00","nfl:BrowTr02","nfl:FarmJo00","nfl:FitzRy01","nfl:FranFe00","nfl:HarrRo02","nfl:JoneMa06","nfl:NealSi00","nfl:PierDa01","nfl:RobiMa03","nfl:SoloJa00","nfl:StewGr00","nfl:ThomAz00","nfl:ThomJu03","nfl:WardJa00","nfl:WrigAl01"],"label":"Tallahassee","country":"United States"},"geometry":{"type":"Polygon","coordinates":[[[-85.007143,28.83498],[-83.420798,29.571467],[-83.318504,31.226884],[-84.845862,32.177532],[-86.487848,31.44625],[-86.545778,29.759287],[-85.007143,28.83498]]]}},{"type":"Feature","properties":{"hex_id":"8244effffffffff","population":3612428,"population_year":2025,"area_km2":85294.5,"population_density":42.4,"all_players":58,"players_per_million":16.06,"player_ids":["nfl:AbduAm00","nfl:AndrJa00","nfl:BigsTa00","nfl:BozeBr00","nfl:BrewCJ00","nfl:BridTr00","nfl:BritKJ00","nfl:ChamCh01","nfl:ChubNi00","nfl:CollNi00","nfl:CrosJa00","nfl:CunnMa00","nfl:CunnZa00","nfl:DaviMa01","nfl:DiabMo00","nfl:EdmoCh01","nfl:HarrJo02","nfl:HubbCh00","nfl:HumpMa00","nfl:HuzzAl00","nfl:IgbiNo00","nfl:JackMi01","nfl:JackSh01","nfl:JennAn00","nfl:JohnTe03","nfl:JoneJo03","nfl:JudkQu00","nfl:KighAm00","nfl:LutzWi00","nfl:MartBr00","nfl:McKiKo00","nfl:MeekJa00","nfl:MoonDa00","nfl:MoonJe00","nfl:MoorMa04","nfl:MullNi00","nfl:NixxBo00","nfl:ParhDy00","nfl:PaynDa00","nfl:PhilAn02","nfl:PickGe00","nfl:PritNe00","nfl:ReicWi00","nfl:RobiBr01","nfl:RobiQu00","nfl:SilmCa00","nfl:SmitTr04","nfl:SmitZa00","nfl:TaylCa01","nfl:ThomDa07","nfl:ThraJa01","nfl:WashTr00","nfl:WillMy00","nfl:WillQu00","nfl:WillQu01","nfl:WillSa00","nfl:WilsMa03","nfl:WinsJa00"],"label":"Birmingham","country":"United States"},"geometry":{"type":"Polygon","coordinates":[[[-86.487848,31.44625],[-84.845862,32.177532],[-84.761579,33.833075],[-86.366648,34.786557],[-88.065886,34.059836],[-88.101738,32.375354],[-86.487848,31.44625]]]}},{"type":"Feature","properties":{"hex_id":"8244f7fffffffff","population":4583226,"population_year":2025,"area_km2":79647.5,"population_density":57.5,"all_players":37,"players_per_million":8.07,"player_ids":["nfl:BryaPa00","nfl:ConnCh01","nfl:CorlMa00","nfl:DallDe00","nfl:DaviJa11","nfl:DougDe00","nfl:DurdCo00","nfl:EguaKi00","nfl:HenrDe00","nfl:HillTy00","nfl:HutcXa00","nfl:JackJo06","nfl:JeanAs00","nfl:JenkKe01","nfl:JennTe00","nfl:JoneEr01","nfl:JoneMa05","nfl:LaynRa00","nfl:LeexRi00","nfl:MallWi00","nfl:McClWa00","nfl:MitcQu00","nfl:MoorKe03","nfl:RichAn03","nfl:RiveJa00","nfl:RumpCh00","nfl:SantCa01","nfl:SharDa02","nfl:SimpJa00","nfl:SlayDa00","nfl:SmitJo01","nfl:SpeeAm00","nfl:TunsLa00","nfl:WalkDe03","nfl:WallTr00","nfl:WillDa09","nfl:WillLe02"],"label":"Jacksonville","country":"United States"},"geometry":{"type":"Polygon","coordinates":[[[-81.966494,28.631807],[-80.425375,29.321821],[-80.283005,30.942583],[-81.720688,31.908012],[-83.318504,31.226884],[-83.420798,29.571467],[-81.966494,28.631807]]]}},{"type":"Feature","properties":{"hex_id":"824507fffffffff","population":300479,"population_year":2025,"area_km2":85294.5,"population_density":3.5,"all_players":1,"players_per_million":3.33,"player_ids":["nfl:NuneRa00"],"label":"DANGRIGA","country":"Belize"},"geometry":{"type":"Polygon","coordinates":[[[-86.954405,16.244453],[-85.505127,17.104271],[-85.43965,18.760151],[-86.860523,19.585107],[-88.353613,18.718699],[-88.381314,17.034156],[-86.954405,16.244453]]]}},{"type":"Feature","properties":{"hex_id":"8245b7fffffffff","population":1038411,"population_year":2025,"area_km2":72289.7,"population_density":14.4,"all_players":1,"players_per_million":0.96,"player_ids":["nfl:BallCo00"],"label":"Montego Bay","country":"Jamaica"},"geometry":{"type":"Polygon","coordinates":[[[-78.539302,16.469566],[-77.180408,17.235914],[-77.336996,18.638235],[-78.541785,19.47005],[-79.925049,18.715079],[-80.057079,17.125741],[-78.539302,16.469566]]]}},{"type":"Feature","properties":{"hex_id":"82464ffffffffff","population":1076096,"population_year":2025,"area_km2":98815.5,"population_density":10.9,"all_players":11,"players_per_million":10.22,"player_ids":["nfl:BuckDe00","nfl:FairKa01","nfl:GabrDi00","nfl:GilmAl00","nfl:IosiAn00","nfl:LiufMa00","nfl:MariMa01","nfl:McMiTe00","nfl:MuasDa00","nfl:TagoTu00","nfl:WilsRo02"],"label":"Honolulu","country":"United States"},"geometry":{"type":"Polygon","coordinates":[[[-159.133129,23.438175],[-160.24133,22.005854],[-159.475161,20.422209],[-157.606849,20.259692],[-156.478386,21.691033],[-157.237348,23.285729],[-159.133129,23.438175]]]}},{"type":"Feature","properties":{"hex_id":"824897fffffffff","population":940964,"population_year":2025,"area_km2":98815.5,"population_density":9.5,"all_players":3,"players_per_million":3.19,"player_ids":["nfl:DiggQu00","nfl:WardCa00","nfl:WhitJo04"],"label":"Cuero","country":"United States"},"geometry":{"type":"Polygon","coordinates":[[[-96.384751,26.330133],[-94.743568,27.264006],[-94.808948,29.022702],[-96.567347,29.863731],[-98.247879,28.919834],[-98.13039,27.145531],[-96.384751,26.330133]]]}},{"type":"Feature","properties":{"hex_id":"82489ffffffffff","population":6429694,"population_year":2025,"area_km2":99241.3,"population_density":64.8,"all_players":41,"players_per_million":6.38,"player_ids":["nfl:AndeCa00","nfl:BarrJa01","nfl:BillAn00","nfl:BlacKo00","nfl:BrooTa00","nfl:BryaMa02","nfl:BurfSp00","nfl:CollAl01","nfl:DaveMa00","nfl:DickCa00","nfl:DobbJK00","nfl:FlowTr01","nfl:GarcEl00","nfl:GibbJa00","nfl:GrahTa00","nfl:GranKy00","nfl:GuytTy00","nfl:HallLo00","nfl:HawkTr00","nfl:HiggEl00","nfl:JaimBr00","nfl:JohnQu02","nfl:JoneJa13","nfl:JoneZa00","nfl:LealDe00","nfl:LeveKT00","nfl:LyncJa00","nfl:MayfBa00","nfl:PeriSa00","nfl:ReynJo00","nfl:RodrLe00","nfl:SimsBe00","nfl:SmytDu00","nfl:SteeTe01","nfl:StidJa00","nfl:SummTy00","nfl:UmanPr00","nfl:WashCa01","nfl:WileJa00","nfl:WilsGa00","nfl:WisdRa00"],"label":"Austin","country":"United States"},"geometry":{"type":"Polygon","coordinates":[[[-98.247879,28.919834],[-96.567347,29.863731],[-96.66289,31.619531],[-98.493873,32.444355],[-100.211784,31.489938],[-100.061215,29.721882],[-98.247879,28.919834]]]}},{"type":"Feature","properties":{"hex_id":"8248c7fffffffff","population":2668504,"population_year":2025,"area_km2":101417.2,"population_density":26.3,"all_players":1,"players_per_million":0.37,"player_ids":["nfl:JoneAa00"],"label":"El Paso","country":"United States"},"geometry":{"type":"Polygon","coordinates":[[[-107.394937,30.925257],[-105.716219,31.987732],[-105.959856,33.74267],[-107.93785,34.432278],[-109.632511,33.353313],[-109.334035,31.601966],[-107.394937,30.925257]]]}},{"type":"Feature","properties":{"hex_id":"8248dffffffffff","population":1232145,"population_year":2025,"area_km2":98815.5,"population_density":12.5,"all_players":1,"players_per_million":0.81,"player_ids":["nfl:OTooCo00"],"label":"Albuquerque","country":"United States"},"geometry":{"type":"Polygon","coordinates":[[[-105.959856,33.74267],[-104.229094,34.766832],[-104.454816,36.494369],[-106.47056,37.197522],[-108.222119,36.158816],[-107.93785,34.432278],[-105.959856,33.74267]]]}},{"type":"Feature","properties":{"hex_id":"8248effffffffff","population":7170957,"population_year":2025,"area_km2":101417.2,"population_density":70.7,"all_players":29,"players_per_million":4.04,"player_ids":["nfl:AlleKy00","nfl:AndrMa00","nfl:BurkDe01","nfl:DaviDJ00","nfl:FlanDe00","nfl:FrabMi00","nfl:HattHo00","nfl:JackAu00","nfl:JansJ.00","nfl:JordCa00","nfl:KirkCh01","nfl:LopeRo00","nfl:LucaCh01","nfl:McNaAu00","nfl:MorgJo03","nfl:MorrBe00","nfl:MurpBy00","nfl:OlivIs00","nfl:OwenCo00","nfl:PearRi00","nfl:PeatAn00","nfl:PolaIs00","nfl:PurdBr00","nfl:RansLa00","nfl:RattSp00","nfl:RobiBi01","nfl:RobiTy02","nfl:ShouTy00","nfl:SlovKe00"],"label":"Phoenix","country":"United States"},"geometry":{"type":"Polygon","coordinates":[[[-110.973266,30.491571],[-109.334035,31.601966],[-109.632511,33.353313],[-111.622726,33.985325],[-113.268008,32.856905],[-112.918132,31.115173],[-110.973266,30.491571]]]}},{"type":"Feature","properties":{"hex_id":"8254c7fffffffff","population":1781048,"population_year":2025,"area_km2":74863.4,"population_density":23.8,"all_players":1,"players_per_million":0.56,"player_ids":["nfl:PayeKw00"],"label":"Conakry","country":"Guinea"},"geometry":{"type":"Polygon","coordinates":[[[-14.970363,11.216545],[-16.399582,10.397267],[-16.40004,8.930403],[-15.017096,8.290872],[-13.620577,9.08223],[-13.574644,10.540215],[-14.970363,11.216545]]]}},{"type":"Feature","properties":{"hex_id":"82589ffffffffff","population":3121315,"population_year":2025,"area_km2":70058.2,"population_density":44.6,"all_players":2,"players_per_million":0.64,"player_ids":["nfl:OnyeDa00","nfl:OrhoRu00"],"label":"Lagos","country":"Nigeria"},"geometry":{"type":"Polygon","coordinates":[[[3.125247,6.42502],[2.826003,5.055078],[3.943036,3.968797],[5.380973,4.221154],[5.720322,5.590237],[4.581792,6.708567],[3.125247,6.42502]]]}},{"type":"Feature","properties":{"hex_id":"826727fffffffff","population":7393879,"population_year":2025,"area_km2":68186.6,"population_density":108.4,"all_players":1,"players_per_million":0.14,"player_ids":["nfl:SainMi00"],"label":"Port-au-prince","country":"Haiti"},"geometry":{"type":"Polygon","coordinates":[[[-73.199201,19.391406],[-74.509206,18.697242],[-74.340779,17.3045],[-72.851414,16.617248],[-71.551099,17.332941],[-71.730136,18.713931],[-73.199201,19.391406]]]}},{"type":"Feature","properties":{"hex_id":"826737fffffffff","population":1800117,"population_year":2025,"area_km2":70058.2,"population_density":25.7,"all_players":1,"players_per_million":0.56,"player_ids":["nfl:PearMa00"],"label":"Kingston","country":"Jamaica"},"geometry":{"type":"Polygon","coordinates":[[[-75.998548,19.358823],[-77.336996,18.638235],[-77.180408,17.235914],[-75.673235,16.563292],[-74.340779,17.3045],[-74.509206,18.697242],[-75.998548,19.358823]]]}},{"type":"Feature","properties":{"hex_id":"8282dffffffffff","population":30257808,"population_year":2025,"area_km2":72289.7,"population_density":418.6,"all_players":1,"players_per_million":0.03,"player_ids":["nfl:OjabDa00"],"label":"Port Harcourt","country":"Nigeria"},"geometry":{"type":"Polygon","coordinates":[[[7.656465,3.293009],[8.344199,4.732154],[7.212915,5.860392],[5.720322,5.590237],[5.380973,4.221154],[6.164724,3.047732],[7.656465,3.293009]]]}},{"type":"Feature","properties":{"hex_id":"82971ffffffffff","population":7694285,"population_year":2025,"area_km2":103215.8,"population_density":74.5,"all_players":2,"players_per_million":0.26,"player_ids":["nfl:MaguTJ00","nfl:MukuAn00"],"label":"Harare","country":"Zimbabwe"},"geometry":{"type":"Polygon","coordinates":[[[33.678039,-18.851575],[34.348791,-17.178754],[33.173278,-15.790435],[31.325347,-16.066011],[30.632357,-17.73753],[31.808529,-19.135021],[33.678039,-18.851575]]]}},{"type":"Feature","properties":{"hex_id":"829a17fffffffff","population":45643,"population_year":2025,"area_km2":87326.6,"population_density":0.5,"all_players":6,"players_per_million":131.45,"player_ids":["nfl:EkuaDa00","nfl:LuvuFr00","nfl:MauiFr00","nfl:SavaJo00","nfl:SeweNo00","nfl:SewePe00"],"label":"Malaeimi","country":"American Samoa"},"geometry":{"type":"Polygon","coordinates":[[[-170.353594,-14.849664],[-169.130218,-13.615008],[-169.583712,-12.057325],[-171.215063,-11.730952],[-172.421258,-12.932376],[-172.01383,-14.492671],[-170.353594,-14.849664]]]}},{"type":"Feature","properties":{"hex_id":"82a727fffffffff","population":1275914,"population_year":2025,"area_km2":68186.6,"population_density":18.7,"all_players":1,"players_per_million":0.78,"player_ids":["nfl:WishMi00"],"label":"Perth","country":"Australia"},"geometry":{"type":"Polygon","coordinates":[[[116.156806,-31.717896],[115.365356,-30.470522],[113.5891,-30.27389],[112.519247,-31.318696],[113.256895,-32.609931],[115.121218,-32.812717],[116.156806,-31.717896]]]}},{"type":"Feature","properties":{"hex_id":"82be0ffffffffff","population":6793674,"population_year":2025,"area_km2":104135.0,"population_density":65.2,"all_players":3,"players_per_million":0.44,"player_ids":["nfl:CrawJe00","nfl:DickMi00","nfl:MailJo00"],"label":"Sydney","country":"Australia"},"geometry":{"type":"Polygon","coordinates":[[[152.177285,-35.125129],[152.420459,-33.332138],[150.704674,-32.253721],[148.729494,-32.935272],[148.409969,-34.714468],[150.140595,-35.826845],[152.177285,-35.125129]]]}},{"type":"Feature","properties":{"hex_id":"82be67fffffffff","population":5799918,"population_year":2025,"area_km2":101417.2,"population_density":57.2,"all_players":4,"players_per_million":0.69,"player_ids":["nfl:FaalDa00","nfl:GotsAd00","nfl:JohnCa02","nfl:TaylTo01"],"label":"Melbourne","country":"Australia"},"geometry":{"type":"Polygon","coordinates":[[[147.365513,-40.022078],[147.728894,-38.261419],[145.990588,-37.115507],[143.887418,-37.698406],[143.445429,-39.437203],[145.182884,-40.615783],[147.365513,-40.022078]]]}}]}