{"type":"FeatureCollection","metadata":{"population_source":"WorldPop Global 2 R2025A","population_source_url":"https://hub.worldpop.org/project/categories?id=3","population_license":"CC BY 4.0","population_year":2025,"raster_resolution":"1km","h3_resolution":2,"population_method":"official_country_rasters","occupied_cells":169,"mapped_players":306},"features":[{"type":"Feature","properties":{"hex_id":"820747fffffffff","population":53546,"population_year":2025,"area_km2":74863.4,"population_density":0.7,"all_players":1,"players_per_million":18.68,"player_ids":["ufc:ufcstats:fd55393021a8c255"],"label":"Akureyri","country":"Iceland"},"geometry":{"type":"Polygon","coordinates":[[[-14.94239,65.109825],[-17.546112,66.095565],[-20.90437,65.434808],[-21.32794,63.819532],[-18.741713,62.920399],[-15.697123,63.552517],[-14.94239,65.109825]]]}},{"type":"Feature","properties":{"hex_id":"8208b7fffffffff","population":2250279,"population_year":2025,"area_km2":65961.6,"population_density":34.1,"all_players":1,"players_per_million":0.44,"player_ids":["ufc:ufcstats:0a1942069c9ad6b6"],"label":"Uddevalla","country":"Sweden"},"geometry":{"type":"Polygon","coordinates":[[[12.360313,59.444957],[11.555978,58.130531],[13.543636,57.232114],[16.36093,57.622703],[17.2862,58.926343],[15.277419,59.851205],[12.360313,59.444957]]]}},{"type":"Feature","properties":{"hex_id":"820b5ffffffffff","population":23621,"population_year":2025,"area_km2":88726.5,"population_density":0.3,"all_players":1,"players_per_million":42.34,"player_ids":["ufc:ufcstats:d661ce4da776fc20"],"label":"Dudinka","country":"Russia"},"geometry":{"type":"Polygon","coordinates":[[[78.735479,68.768114],[82.743184,67.952281],[86.645208,68.69087],[86.839772,70.363695],[82.426178,71.280253],[78.233547,70.414135],[78.735479,68.768114]]]}},{"type":"Feature","properties":{"hex_id":"820b9ffffffffff","population":1776390,"population_year":2025,"area_km2":92775.6,"population_density":19.1,"all_players":1,"players_per_million":0.56,"player_ids":["ufc:ufcstats:369ea36e450ae62a"],"label":"Krasnoyarsk","country":"Russia"},"geometry":{"type":"Polygon","coordinates":[[[88.417425,57.832602],[88.185607,56.123457],[90.656161,55.086997],[93.387021,55.707268],[93.821625,57.385984],[91.329458,58.476866],[88.417425,57.832602]]]}},{"type":"Feature","properties":{"hex_id":"820c77fffffffff","population":442048,"population_year":2025,"area_km2":77902.3,"population_density":5.7,"all_players":1,"players_per_million":2.26,"player_ids":["ufc:ufcstats:729d4bd5a6cd0a97"],"label":"Anchorage","country":"United States"},"geometry":{"type":"Polygon","coordinates":[[[-149.202517,63.948243],[-152.41831,63.127542],[-152.502076,61.583335],[-149.734494,60.884637],[-146.754537,61.634869],[-146.313176,63.149544],[-149.202517,63.948243]]]}},{"type":"Feature","properties":{"hex_id":"8211affffffffff","population":18096890,"population_year":2025,"area_km2":79647.5,"population_density":227.2,"all_players":2,"players_per_million":0.11,"player_ids":["ufc:ufcstats:279566840aa55bf2","ufc:ufcstats:ff62013d2fce6d13"],"label":"Moscow","country":"Russia"},"geometry":{"type":"Polygon","coordinates":[[[33.713464,56.746598],[35.299111,55.46002],[37.971643,55.638414],[39.236041,57.141268],[37.661108,58.480663],[34.802815,58.263078],[33.713464,56.746598]]]}},{"type":"Feature","properties":{"hex_id":"8212dffffffffff","population":1026503,"population_year":2025,"area_km2":77926.1,"population_density":13.2,"all_players":2,"players_per_million":1.95,"player_ids":["ufc:ufcstats:3253b16d38ae087d","ufc:ufcstats:809bd1a871491508"],"label":"Spokane","country":"United States"},"geometry":{"type":"Polygon","coordinates":[[[-118.32059,50.385511],[-119.747324,49.236416],[-119.232215,47.804097],[-116.945809,47.422734],[-115.101052,48.471845],[-115.913157,50.003546],[-118.32059,50.385511]]]}},{"type":"Feature","properties":{"hex_id":"821497fffffffff","population":12834604,"population_year":2025,"area_km2":68186.6,"population_density":188.2,"all_players":1,"players_per_million":0.08,"player_ids":["ufc:ufcstats:efb96bf3e9ada36f"],"label":"Hulan District","country":"People's Republic of China"},"geometry":{"type":"Polygon","coordinates":[[[125.255381,46.392445],[125.981142,45.096434],[128.107633,44.749718],[129.638412,45.672954],[129.033144,47.011171],[126.771271,47.385306],[125.255381,46.392445]]]}},{"type":"Feature","properties":{"hex_id":"82185ffffffffff","population":956632,"population_year":2025,"area_km2":89440.6,"population_density":10.7,"all_players":1,"players_per_million":1.05,"player_ids":["ufc:ufcstats:58bbef3770bb2dfc"],"label":"Gijón","country":"Spain"},"geometry":{"type":"Polygon","coordinates":[[[-5.733942,46.36037],[-7.898252,45.74022],[-8.101589,44.050631],[-6.231988,43.009176],[-4.162635,43.625899],[-3.870647,45.286766],[-5.733942,46.36037]]]}},{"type":"Feature","properties":{"hex_id":"82186ffffffffff","population":5547991,"population_year":2025,"area_km2":81458.9,"population_density":68.1,"all_players":1,"players_per_million":0.18,"player_ids":["ufc:ufcstats:787bb1f087ccff8a"],"label":"La Roche-sur-Yon","country":"France"},"geometry":{"type":"Polygon","coordinates":[[[0.764026,47.90745],[-1.396608,47.443512],[-1.752798,45.828917],[-0.028005,44.712978],[2.026569,45.184249],[2.458902,46.763731],[0.764026,47.90745]]]}},{"type":"Feature","properties":{"hex_id":"82190ffffffffff","population":1891088,"population_year":2025,"area_km2":75672.4,"population_density":25.0,"all_players":1,"players_per_million":0.53,"player_ids":["ufc:ufcstats:eabf206b162b3b83"],"label":"Airdrie","country":"United Kingdom"},"geometry":{"type":"Polygon","coordinates":[[[-5.83227,58.353838],[-8.508655,57.881131],[-8.7409,56.382588],[-6.436337,55.37739],[-3.903181,55.840606],[-3.536381,57.317288],[-5.83227,58.353838]]]}},{"type":"Feature","properties":{"hex_id":"821947fffffffff","population":12519310,"population_year":2025,"area_km2":74863.4,"population_density":167.2,"all_players":1,"players_per_million":0.08,"player_ids":["ufc:ufcstats:113df4fde64735c6"],"label":"Bishop Auckland","country":"United Kingdom"},"geometry":{"type":"Polygon","coordinates":[[[0.670759,55.133806],[-1.785543,54.762388],[-2.178886,53.251551],[-0.219137,52.141681],[2.101314,52.517134],[2.592789,53.997752],[0.670759,55.133806]]]}},{"type":"Feature","properties":{"hex_id":"82194ffffffffff","population":23325550,"population_year":2025,"area_km2":76219.8,"population_density":306.0,"all_players":2,"players_per_million":0.09,"player_ids":["ufc:ufcstats:3e8118c1ab52f211","ufc:ufcstats:a67d071163962af8"],"label":"St Mary's Hospital","country":"United Kingdom"},"geometry":{"type":"Polygon","coordinates":[[[2.101314,52.517134],[-0.219137,52.141681],[-0.631095,50.601911],[1.18851,49.470279],[3.384772,49.85377],[3.881134,51.360376],[2.101314,52.517134]]]}},{"type":"Feature","properties":{"hex_id":"821957fffffffff","population":9970811,"population_year":2025,"area_km2":77902.3,"population_density":128.0,"all_players":4,"players_per_million":0.4,"player_ids":["ufc:ufcstats:396fe87b84ac2e1c","ufc:ufcstats:399afbabc02376b5","ufc:ufcstats:51018a31ddf31eb2","ufc:ufcstats:7826923b47f8d72a"],"label":"Liverpool","country":"United Kingdom"},"geometry":{"type":"Polygon","coordinates":[[[-3.903181,55.840606],[-6.436337,55.37739],[-6.713499,53.841054],[-4.578382,52.792439],[-2.178886,53.251551],[-1.785543,54.762388],[-3.903181,55.840606]]]}},{"type":"Feature","properties":{"hex_id":"82195ffffffffff","population":22721748,"population_year":2025,"area_km2":79647.5,"population_density":285.3,"all_players":2,"players_per_million":0.09,"player_ids":["ufc:ufcstats:4c88a1db5a46c6a4","ufc:ufcstats:a93f94c923c3a9cb"],"label":"Gloucester","country":"United Kingdom"},"geometry":{"type":"Polygon","coordinates":[[[-2.178886,53.251551],[-4.578382,52.792439],[-4.88976,51.223728],[-2.906528,50.142292],[-0.631095,50.601911],[-0.219137,52.141681],[-2.178886,53.251551]]]}},{"type":"Feature","properties":{"hex_id":"821977fffffffff","population":4073107,"population_year":2025,"area_km2":73030.9,"population_density":55.8,"all_players":1,"players_per_million":0.25,"player_ids":["ufc:ufcstats:fd406a32a6fb3a29"],"label":"Alloa","country":"United Kingdom"},"geometry":{"type":"Polygon","coordinates":[[[-0.931587,57.689497],[-3.536381,57.317288],[-3.903181,55.840606],[-1.785543,54.762388],[0.670759,55.133806],[1.152198,56.583354],[-0.931587,57.689497]]]}},{"type":"Feature","properties":{"hex_id":"821e07fffffffff","population":15880792,"population_year":2025,"area_km2":85294.5,"population_density":186.2,"all_players":6,"players_per_million":0.38,"player_ids":["ufc:ufcstats:009341ed974bad72","ufc:ufcstats:333b9e5c723ac873","ufc:ufcstats:5b86d491d63890c5","ufc:ufcstats:72db2a14ffa73ece","ufc:ufcstats:8eb046f83e82bf26","ufc:ufcstats:f96856f9d69fd7e4"],"label":"Bielsko-Biała","country":"Slovakia"},"geometry":{"type":"Polygon","coordinates":[[[16.606047,49.899182],[15.817384,48.388123],[17.489488,47.234679],[19.952961,47.57214],[20.822886,49.074367],[19.15135,50.248654],[16.606047,49.899182]]]}},{"type":"Feature","properties":{"hex_id":"821e27fffffffff","population":12111129,"population_year":2025,"area_km2":80544.7,"population_density":150.4,"all_players":2,"players_per_million":0.17,"player_ids":["ufc:ufcstats:c9cf753cfdf77fc2","ufc:ufcstats:d7c3816669784109"],"label":"Uniejów","country":"Poland"},"geometry":{"type":"Polygon","coordinates":[[[15.658506,52.45677],[14.863027,50.992748],[16.606047,49.899182],[19.15135,50.248654],[20.036282,51.703743],[18.289963,52.819052],[15.658506,52.45677]]]}},{"type":"Feature","properties":{"hex_id":"821e57fffffffff","population":6962930,"population_year":2025,"area_km2":88726.5,"population_density":78.5,"all_players":1,"players_per_million":0.14,"player_ids":["ufc:ufcstats:cd13728ae1151f46"],"label":"Chișinău","country":"Moldova"},"geometry":{"type":"Polygon","coordinates":[[[24.952412,48.084867],[24.013384,46.595885],[25.532273,45.296738],[27.961374,45.468587],[28.956125,46.940583],[27.469819,48.258057],[24.952412,48.084867]]]}},{"type":"Feature","properties":{"hex_id":"821e67fffffffff","population":5717680,"population_year":2025,"area_km2":80847.5,"population_density":70.7,"all_players":1,"players_per_million":0.17,"player_ids":["ufc:ufcstats:f139d6836efd43dd"],"label":"Irpin","country":"Ukraine"},"geometry":{"type":"Polygon","coordinates":[[[27.993406,52.327164],[26.940864,50.952157],[28.492806,49.683116],[31.052695,49.771325],[32.156918,51.126789],[30.654128,52.413789],[27.993406,52.327164]]]}},{"type":"Feature","properties":{"hex_id":"821ee7fffffffff","population":5038047,"population_year":2025,"area_km2":91641.3,"population_density":55.0,"all_players":1,"players_per_million":0.2,"player_ids":["ufc:ufcstats:d7e40dca3ae125be"],"label":"Strehaia","country":"Romania"},"geometry":{"type":"Polygon","coordinates":[[[21.555106,46.342738],[20.700526,44.796864],[22.238177,43.517311],[24.614981,43.76451],[25.532273,45.296738],[24.013384,46.595885],[21.555106,46.342738]]]}},{"type":"Feature","properties":{"hex_id":"821ef7fffffffff","population":5580375,"population_year":2025,"area_km2":93933.6,"population_density":59.4,"all_players":3,"players_per_million":0.54,"player_ids":["ufc:ufcstats:38c626ca912c7bac","ufc:ufcstats:7d8435c56043b0ae","ufc:ufcstats:866fd7b1a6c90e7f"],"label":"Dubrovnik","country":"Croatia"},"geometry":{"type":"Polygon","coordinates":[[[18.31474,44.47068],[17.543183,42.876114],[19.087059,41.616885],[21.399102,41.932468],[22.238177,43.517311],[20.700526,44.796864],[18.31474,44.47068]]]}},{"type":"Feature","properties":{"hex_id":"821f17fffffffff","population":19193666,"population_year":2025,"area_km2":74863.4,"population_density":256.4,"all_players":2,"players_per_million":0.1,"player_ids":["ufc:ufcstats:54f64b5e283b0ce7","ufc:ufcstats:b7b84ccd221be298"],"label":"Halle","country":"Germany"},"geometry":{"type":"Polygon","coordinates":[[[6.848229,53.43156],[6.259687,51.96477],[8.088631,51.039696],[10.549623,51.56399],[11.24517,53.03204],[9.374531,53.975514],[6.848229,53.43156]]]}},{"type":"Feature","properties":{"hex_id":"821f27fffffffff","population":4146711,"population_year":2025,"area_km2":68186.6,"population_density":60.8,"all_players":1,"players_per_million":0.24,"player_ids":["ufc:ufcstats:9d19d9e4aa2662e8"],"label":"Silkeborg","country":"Denmark"},"geometry":{"type":"Polygon","coordinates":[[[8.799628,57.640256],[8.115982,56.270471],[10.065692,55.394879],[12.739823,55.867327],[13.543636,57.232114],[11.555978,58.130531],[8.799628,57.640256]]]}},{"type":"Feature","properties":{"hex_id":"821f47fffffffff","population":3249991,"population_year":2025,"area_km2":74863.4,"population_density":43.4,"all_players":1,"players_per_million":0.31,"player_ids":["ufc:ufcstats:a78a87d8c2bbb1cb"],"label":"Kaunas","country":"Lithuania"},"geometry":{"type":"Polygon","coordinates":[[[22.931053,55.842561],[21.924017,54.501998],[23.657106,53.363901],[26.370175,53.543763],[27.453627,54.866734],[25.752737,56.027899],[22.931053,55.842561]]]}},{"type":"Feature","properties":{"hex_id":"821f57fffffffff","population":8583259,"population_year":2025,"area_km2":77902.3,"population_density":110.2,"all_players":1,"players_per_million":0.12,"player_ids":["ufc:ufcstats:6370c1c1e12723d5"],"label":"Warsaw","country":"Poland"},"geometry":{"type":"Polygon","coordinates":[[[19.189333,54.224652],[18.289963,52.819052],[20.036282,51.703743],[22.6731,51.971887],[23.657106,53.363901],[21.924017,54.501998],[19.189333,54.224652]]]}},{"type":"Feature","properties":{"hex_id":"821f77fffffffff","population":1649070,"population_year":2025,"area_km2":73030.9,"population_density":22.6,"all_players":1,"players_per_million":0.61,"player_ids":["ufc:ufcstats:476fe566d2df676e"],"label":"Klaipėda","country":"Lithuania"},"geometry":{"type":"Polygon","coordinates":[[[18.275236,56.632953],[17.362293,55.278144],[19.189333,54.224652],[21.924017,54.501998],[22.931053,55.842561],[21.114076,56.920734],[18.275236,56.632953]]]}},{"type":"Feature","properties":{"hex_id":"821f8ffffffffff","population":12778297,"population_year":2025,"area_km2":84307.8,"population_density":151.6,"all_players":1,"players_per_million":0.08,"player_ids":["ufc:ufcstats:7acbb0972e75281a"],"label":"Mezzocorona","country":"Italy"},"geometry":{"type":"Polygon","coordinates":[[[9.251571,48.534678],[8.645314,46.977068],[10.343213,45.921928],[12.677318,46.406957],[13.374348,47.965938],[11.648396,49.039345],[9.251571,48.534678]]]}},{"type":"Feature","properties":{"hex_id":"821f97fffffffff","population":9069390,"population_year":2025,"area_km2":81458.9,"population_density":111.3,"all_players":1,"players_per_million":0.11,"player_ids":["ufc:ufcstats:1e4f273069fb9e85"],"label":"Vénissieux","country":"France"},"geometry":{"type":"Polygon","coordinates":[[[2.458902,46.763731],[2.026569,45.184249],[3.696702,44.221235],[5.848477,44.82547],[6.371339,46.417017],[4.652435,47.393027],[2.458902,46.763731]]]}},{"type":"Feature","properties":{"hex_id":"821fa7fffffffff","population":28149582,"population_year":2025,"area_km2":76219.8,"population_density":369.3,"all_players":1,"players_per_million":0.04,"player_ids":["ufc:ufcstats:d549cefc7c54ab78"],"label":"Breda","country":"Netherlands"},"geometry":{"type":"Polygon","coordinates":[[[3.881134,51.360376],[3.384772,49.85377],[5.163511,48.943764],[7.489806,49.526212],[8.088631,51.039696],[6.259687,51.96477],[3.881134,51.360376]]]}},{"type":"Feature","properties":{"hex_id":"822007fffffffff","population":23283,"population_year":2025,"area_km2":104599.8,"population_density":0.2,"all_players":1,"players_per_million":42.95,"player_ids":["ufc:ufcstats:8d3273573b85be09"],"label":"Sarysu District","country":"Kazakhstan"},"geometry":{"type":"Polygon","coordinates":[[[69.088418,46.692114],[69.519961,44.913137],[71.878473,44.254457],[73.908466,45.341014],[73.618209,47.13404],[71.153892,47.828188],[69.088418,46.692114]]]}},{"type":"Feature","properties":{"hex_id":"822017fffffffff","population":3824237,"population_year":2025,"area_km2":104135.0,"population_density":36.7,"all_players":1,"players_per_million":0.26,"player_ids":["ufc:ufcstats:a4dc0f2b95df4cc1"],"label":"Bayzaq District","country":"Kazakhstan"},"geometry":{"type":"Polygon","coordinates":[[[67.594251,43.752897],[68.048608,41.985775],[70.306377,41.359581],[72.207713,42.469553],[71.878473,44.254457],[69.519961,44.913137],[67.594251,43.752897]]]}},{"type":"Feature","properties":{"hex_id":"82201ffffffffff","population":3014721,"population_year":2025,"area_km2":104135.0,"population_density":29.0,"all_players":2,"players_per_million":0.66,"player_ids":["ufc:ufcstats:132deb59abae64b1","ufc:ufcstats:c814b4c899793af6"],"label":"Korday","country":"Kazakhstan"},"geometry":{"type":"Polygon","coordinates":[[[71.878473,44.254457],[72.207713,42.469553],[74.436338,41.761837],[76.421286,42.800878],[76.224314,44.593447],[73.908466,45.341014],[71.878473,44.254457]]]}},{"type":"Feature","properties":{"hex_id":"822087fffffffff","population":5204938,"population_year":2025,"area_km2":101417.2,"population_density":51.3,"all_players":1,"players_per_million":0.19,"player_ids":["ufc:ufcstats:8d11d9c13e2ccdf7"],"label":"Kulob","country":"Tajikistan"},"geometry":{"type":"Polygon","coordinates":[[[68.880863,38.470904],[69.262855,36.730185],[71.325185,36.094189],[73.085131,37.16575],[72.809474,38.921736],[70.665594,39.592304],[68.880863,38.470904]]]}},{"type":"Feature","properties":{"hex_id":"822097fffffffff","population":19716092,"population_year":2025,"area_km2":98815.5,"population_density":199.5,"all_players":2,"players_per_million":0.1,"player_ids":["ufc:ufcstats:a09ed60aa67a3f67","ufc:ufcstats:bbab3baf66128ae2"],"label":"Paktia Province","country":"Afghanistan"},"geometry":{"type":"Polygon","coordinates":[[[67.583884,35.608441],[67.98289,33.902397],[69.967267,33.298527],[71.628646,34.369856],[71.325185,36.094189],[69.262855,36.730185],[67.583884,35.608441]]]}},{"type":"Feature","properties":{"hex_id":"8220a7fffffffff","population":19151502,"population_year":2025,"area_km2":102761.2,"population_density":186.4,"all_players":1,"players_per_million":0.05,"player_ids":["ufc:ufcstats:ef5dcb10d2bd4b0f"],"label":"Angren","country":"Uzbekistan"},"geometry":{"type":"Polygon","coordinates":[[[66.248113,40.813541],[66.718397,39.067301],[68.880863,38.470904],[70.665594,39.592304],[70.306377,41.359581],[68.048608,41.985775],[66.248113,40.813541]]]}},{"type":"Feature","properties":{"hex_id":"8220affffffffff","population":13357089,"population_year":2025,"area_km2":103215.8,"population_density":129.4,"all_players":2,"players_per_million":0.15,"player_ids":["ufc:ufcstats:49d2a08964c5eb11","ufc:ufcstats:bf2c8e01b07d3eb1"],"label":"Osh Region","country":"Kyrgyzstan"},"geometry":{"type":"Polygon","coordinates":[[[70.306377,41.359581],[70.665594,39.592304],[72.809474,38.921736],[74.677022,39.982848],[74.436338,41.761837],[72.207713,42.469553],[70.306377,41.359581]]]}},{"type":"Feature","properties":{"hex_id":"8224c7fffffffff","population":5698870,"population_year":2025,"area_km2":74863.4,"population_density":76.1,"all_players":1,"players_per_million":0.18,"player_ids":["ufc:ufcstats:1897b7b913736a7c"],"label":"Alxa League","country":"People's Republic of China"},"geometry":{"type":"Polygon","coordinates":[[[105.277545,40.010051],[104.694357,38.448645],[105.968049,37.379975],[107.78678,37.830135],[108.426284,39.340814],[107.194146,40.451791],[105.277545,40.010051]]]}},{"type":"Feature","properties":{"hex_id":"82260ffffffffff","population":2387088,"population_year":2025,"area_km2":87326.6,"population_density":27.3,"all_players":1,"players_per_million":0.42,"player_ids":["ufc:ufcstats:519e4fe37ce9ff75"],"label":"Omaha","country":"United States"},"geometry":{"type":"Polygon","coordinates":[[[-95.246862,39.326803],[-93.407414,40.114355],[-93.458032,41.743249],[-95.412903,42.599409],[-97.30469,41.807241],[-97.188746,40.164276],[-95.246862,39.326803]]]}},{"type":"Feature","properties":{"hex_id":"82261ffffffffff","population":360909,"population_year":2025,"area_km2":89801.2,"population_density":4.0,"all_players":1,"players_per_million":2.77,"player_ids":["ufc:ufcstats:99bd51917728c25d"],"label":"Stromsburg","country":"United States"},"geometry":{"type":"Polygon","coordinates":[[[-99.035029,39.30874],[-97.188746,40.164276],[-97.30469,41.807241],[-99.333552,42.604335],[-101.222964,41.740408],[-101.04033,40.088597],[-99.035029,39.30874]]]}},{"type":"Feature","properties":{"hex_id":"822647fffffffff","population":4073203,"population_year":2025,"area_km2":85294.5,"population_density":47.8,"all_players":5,"players_per_million":1.23,"player_ids":["ufc:ufcstats:262a7d06203657e6","ufc:ufcstats:4682bc59d5f55145","ufc:ufcstats:4b93a88f3b1de35b","ufc:ufcstats:511e82663651438d","ufc:ufcstats:b9437600497350f3"],"label":"St. Louis","country":"United States"},"geometry":{"type":"Polygon","coordinates":[[[-89.748537,36.65876],[-87.990764,37.382074],[-87.951382,39.014788],[-89.726216,39.947222],[-91.54335,39.225656],[-91.525283,37.57043],[-89.748537,36.65876]]]}},{"type":"Feature","properties":{"hex_id":"822657fffffffff","population":3851243,"population_year":2025,"area_km2":88726.5,"population_density":43.4,"all_players":1,"players_per_million":0.26,"player_ids":["ufc:ufcstats:d0e1b42d41dab603"],"label":"Kansas City","country":"United States"},"geometry":{"type":"Polygon","coordinates":[[[-93.311082,36.785418],[-91.525283,37.57043],[-91.54335,39.225656],[-93.407414,40.114355],[-95.246862,39.326803],[-95.167911,37.653738],[-93.311082,36.785418]]]}},{"type":"Feature","properties":{"hex_id":"82265ffffffffff","population":2641058,"population_year":2025,"area_km2":89440.6,"population_density":29.5,"all_players":2,"players_per_million":0.76,"player_ids":["ufc:ufcstats:a67f5afa8d6a1b80","ufc:ufcstats:d9c6f19f958643e9"],"label":"Cabot","country":"United States"},"geometry":{"type":"Polygon","coordinates":[[[-91.490847,34.200716],[-89.759172,34.984893],[-89.748537,36.65876],[-91.525283,37.57043],[-93.311082,36.785418],[-93.265212,35.090108],[-91.490847,34.200716]]]}},{"type":"Feature","properties":{"hex_id":"822667fffffffff","population":11642346,"population_year":2025,"area_km2":85294.5,"population_density":136.5,"all_players":5,"players_per_million":0.43,"player_ids":["ufc:ufcstats:5444c5a201d3ee5a","ufc:ufcstats:92a9aa9c93192871","ufc:ufcstats:b1b0729d27936f2f","ufc:ufcstats:be9bdec19b7e9ffe","ufc:ufcstats:fa6796c55d6c5440"],"label":"Chicago","country":"United States"},"geometry":{"type":"Polygon","coordinates":[[[-87.526255,42.152917],[-89.578398,41.518555],[-89.726216,39.947222],[-87.951382,39.014788],[-85.979328,39.596509],[-85.703199,41.161269],[-87.526255,42.152917]]]}},{"type":"Feature","properties":{"hex_id":"82266ffffffffff","population":4140731,"population_year":2025,"area_km2":82416.4,"population_density":50.2,"all_players":1,"players_per_million":0.24,"player_ids":["ufc:ufcstats:1a9480fc288e55d7"],"label":"Louisville","country":"United States"},"geometry":{"type":"Polygon","coordinates":[[[-85.979328,39.596509],[-87.951382,39.014788],[-87.990764,37.382074],[-86.303213,36.434527],[-84.585167,37.099589],[-84.278055,38.60875],[-85.979328,39.596509]]]}},{"type":"Feature","properties":{"hex_id":"822687fffffffff","population":1387619,"population_year":2025,"area_km2":92775.6,"population_density":15.0,"all_players":1,"players_per_million":0.72,"player_ids":["ufc:ufcstats:35673bf5204524ee"],"label":"Rifle","country":"United States"},"geometry":{"type":"Polygon","coordinates":[[[-106.738368,38.891674],[-104.928668,39.882147],[-105.177534,41.537334],[-107.300929,42.200724],[-109.131063,41.19652],[-108.818288,39.54349],[-106.738368,38.891674]]]}},{"type":"Feature","properties":{"hex_id":"82268ffffffffff","population":3218622,"population_year":2025,"area_km2":95515.4,"population_density":33.7,"all_players":4,"players_per_million":1.24,"player_ids":["ufc:ufcstats:65f09bacd3957381","ufc:ufcstats:6e15f63b6c2e2c15","ufc:ufcstats:6fd953151d981979","ufc:ufcstats:c58f51dedb310998"],"label":"Denver","country":"United States"},"geometry":{"type":"Polygon","coordinates":[[[-104.454816,36.494369],[-102.671357,37.471973],[-102.876807,39.164785],[-104.928668,39.882147],[-106.738368,38.891674],[-106.47056,37.197522],[-104.454816,36.494369]]]}},{"type":"Feature","properties":{"hex_id":"822697fffffffff","population":2718995,"population_year":2025,"area_km2":93159.0,"population_density":29.2,"all_players":1,"players_per_million":0.37,"player_ids":["ufc:ufcstats:523fa774700d7d3f"],"label":"Layton","country":"United States"},"geometry":{"type":"Polygon","coordinates":[[[-110.584833,38.489935],[-108.818288,39.54349],[-109.131063,41.19652],[-111.27157,41.789209],[-113.046271,40.72062],[-112.673648,39.075149],[-110.584833,38.489935]]]}},{"type":"Feature","properties":{"hex_id":"8226affffffffff","population":752318,"population_year":2025,"area_km2":91641.3,"population_density":8.2,"all_players":2,"players_per_million":2.66,"player_ids":["ufc:ufcstats:6a740daf1b279661","ufc:ufcstats:e4277e87a789d687"],"label":"Fort Morgan","country":"United States"},"geometry":{"type":"Polygon","coordinates":[[[-102.876807,39.164785],[-101.04033,40.088597],[-101.222964,41.740408],[-103.308747,42.472631],[-105.177534,41.537334],[-104.928668,39.882147],[-102.876807,39.164785]]]}},{"type":"Feature","properties":{"hex_id":"8226c7fffffffff","population":1987377,"population_year":2025,"area_km2":95515.4,"population_density":20.8,"all_players":1,"players_per_million":0.5,"player_ids":["ufc:ufcstats:700a674c042b7a96"],"label":"Blackwell","country":"United States"},"geometry":{"type":"Polygon","coordinates":[[[-98.622726,34.188046],[-96.863145,35.093055],[-96.968153,36.804751],[-98.893095,37.623022],[-100.6928,36.709267],[-100.527345,34.986722],[-98.622726,34.188046]]]}},{"type":"Feature","properties":{"hex_id":"8226cffffffffff","population":9574277,"population_year":2025,"area_km2":96323.1,"population_density":99.4,"all_players":3,"players_per_million":0.31,"player_ids":["ufc:ufcstats:13a0275fa13c4d26","ufc:ufcstats:45f0cc9d18f35137","ufc:ufcstats:c68c68efaa5ca6ef"],"label":"Dallas","country":"United States"},"geometry":{"type":"Polygon","coordinates":[[[-96.66289,31.619531],[-94.945821,32.516906],[-95.017507,34.246081],[-96.863145,35.093055],[-98.622726,34.188046],[-98.493873,32.444355],[-96.66289,31.619531]]]}},{"type":"Feature","properties":{"hex_id":"8226d7fffffffff","population":469359,"population_year":2025,"area_km2":97556.0,"population_density":4.8,"all_players":1,"players_per_million":2.13,"player_ids":["ufc:ufcstats:fe2babf95de24fb1"],"label":"Clovis","country":"United States"},"geometry":{"type":"Polygon","coordinates":[[[-102.279867,34.021113],[-100.527345,34.986722],[-100.6928,36.709267],[-102.671357,37.471973],[-104.454816,36.494369],[-104.229094,34.766832],[-102.279867,34.021113]]]}},{"type":"Feature","properties":{"hex_id":"8226e7fffffffff","population":1510616,"population_year":2025,"area_km2":91641.3,"population_density":16.5,"all_players":3,"players_per_million":1.99,"player_ids":["ufc:ufcstats:46e0d677f91bacc0","ufc:ufcstats:814e5233e2acf2ee","ufc:ufcstats:c96d9178c9ed9e62"],"label":"Topeka","country":"United States"},"geometry":{"type":"Polygon","coordinates":[[[-96.968153,36.804751],[-95.167911,37.653738],[-95.246862,39.326803],[-97.188746,40.164276],[-99.035029,39.30874],[-98.893095,37.623022],[-96.968153,36.804751]]]}},{"type":"Feature","properties":{"hex_id":"822707fffffffff","population":1031042,"population_year":2025,"area_km2":95515.4,"population_density":10.8,"all_players":1,"players_per_million":0.97,"player_ids":["ufc:ufcstats:7b433309b0fd12aa"],"label":"Winnipeg","country":"Canada"},"geometry":{"type":"Polygon","coordinates":[[[-95.791373,52.640531],[-98.16677,51.748943],[-97.993762,50.038615],[-95.644608,49.199829],[-93.345722,50.020134],[-93.317375,51.747798],[-95.791373,52.640531]]]}},{"type":"Feature","properties":{"hex_id":"822747fffffffff","population":1114372,"population_year":2025,"area_km2":92775.6,"population_density":12.0,"all_players":1,"players_per_million":0.9,"player_ids":["ufc:ufcstats:7cbf7c78d3b34218"],"label":"Michigan","country":"United States"},"geometry":{"type":"Polygon","coordinates":[[[-86.763856,47.084746],[-89.066565,46.415378],[-89.249838,44.754421],[-87.290551,43.768738],[-85.090138,44.382483],[-84.748614,46.035179],[-86.763856,47.084746]]]}},{"type":"Feature","properties":{"hex_id":"82274ffffffffff","population":6546722,"population_year":2025,"area_km2":89440.6,"population_density":73.2,"all_players":1,"players_per_million":0.15,"player_ids":["ufc:ufcstats:2558ae2e5671e318"],"label":"Jackson","country":"United States"},"geometry":{"type":"Polygon","coordinates":[[[-85.090138,44.382483],[-87.290551,43.768738],[-87.526255,42.152917],[-85.703199,41.161269],[-83.600197,41.724215],[-83.224953,43.327485],[-85.090138,44.382483]]]}},{"type":"Feature","properties":{"hex_id":"82275ffffffffff","population":7416006,"population_year":2025,"area_km2":88726.5,"population_density":83.6,"all_players":4,"players_per_million":0.54,"player_ids":["ufc:ufcstats:47b63240018d5d86","ufc:ufcstats:6ac9bc2953c47345","ufc:ufcstats:6d68c1afe954f121","ufc:ufcstats:d2cd7a69cc55e7ed"],"label":"Sterling","country":"United States"},"geometry":{"type":"Polygon","coordinates":[[[-89.249838,44.754421],[-91.384239,44.06279],[-91.476262,42.44496],[-89.578398,41.518555],[-87.526255,42.152917],[-87.290551,43.768738],[-89.249838,44.754421]]]}},{"type":"Feature","properties":{"hex_id":"822797fffffffff","population":209046,"population_year":2025,"area_km2":82416.4,"population_density":2.5,"all_players":1,"players_per_million":4.78,"player_ids":["ufc:ufcstats:b50a426a33da0012"],"label":"Helena","country":"United States"},"geometry":{"type":"Polygon","coordinates":[[[-111.127907,49.073528],[-112.788004,48.011188],[-112.389584,46.506775],[-110.133985,45.973009],[-108.219021,46.935542],[-108.766427,48.526513],[-111.127907,49.073528]]]}},{"type":"Feature","properties":{"hex_id":"822837fffffffff","population":14366819,"population_year":2025,"area_km2":89801.2,"population_density":160.0,"all_players":3,"players_per_million":0.21,"player_ids":["ufc:ufcstats:093e1f5bb73850be","ufc:ufcstats:32c3ee378671a5d9","ufc:ufcstats:8c0580d4fff106c1"],"label":"Dunnigan","country":"United States"},"geometry":{"type":"Polygon","coordinates":[[[-121.707157,36.574218],[-120.150308,37.778361],[-120.625018,39.393868],[-122.699099,39.784231],[-124.231246,38.566387],[-123.715986,36.972296],[-121.707157,36.574218]]]}},{"type":"Feature","properties":{"hex_id":"822887fffffffff","population":936839,"population_year":2025,"area_km2":85294.5,"population_density":11.0,"all_players":1,"players_per_million":1.07,"player_ids":["ufc:ufcstats:37098a6e6c27fb66"],"label":"Caldwell","country":"United States"},"geometry":{"type":"Polygon","coordinates":[[[-115.603107,42.837738],[-113.828092,43.921354],[-114.238428,45.473015],[-116.483698,45.929069],[-118.250236,44.830691],[-117.782019,43.291713],[-115.603107,42.837738]]]}},{"type":"Feature","properties":{"hex_id":"8228a7fffffffff","population":38474,"population_year":2025,"area_km2":88726.5,"population_density":0.4,"all_players":1,"players_per_million":25.99,"player_ids":["ufc:ufcstats:bc711b6dd95c1af6"],"label":"Winnemucca","country":"United States"},"geometry":{"type":"Polygon","coordinates":[[[-116.888006,40.116316],[-115.183371,41.242911],[-115.603107,42.837738],[-117.782019,43.291713],[-119.474595,42.150515],[-119.002282,40.570572],[-116.888006,40.116316]]]}},{"type":"Feature","properties":{"hex_id":"8228d7fffffffff","population":6638102,"population_year":2025,"area_km2":76219.8,"population_density":87.1,"all_players":4,"players_per_million":0.6,"player_ids":["ufc:ufcstats:8fd808923cffff82","ufc:ufcstats:902ec2cc48c8ae8a","ufc:ufcstats:971246648e162f0d","ufc:ufcstats:b96619b3acd7d9da"],"label":"Federal Way","country":"United States"},"geometry":{"type":"Polygon","coordinates":[[[-120.980657,46.691537],[-119.232215,47.804097],[-119.747324,49.236416],[-122.065326,49.540804],[-123.785414,48.414997],[-123.218544,46.998589],[-120.980657,46.691537]]]}},{"type":"Feature","properties":{"hex_id":"8228f7fffffffff","population":3870003,"population_year":2025,"area_km2":79647.5,"population_density":48.6,"all_players":1,"players_per_million":0.26,"player_ids":["ufc:ufcstats:5987b2458f4b5290"],"label":"Vancouver","country":"United States"},"geometry":{"type":"Polygon","coordinates":[[[-122.134831,44.057691],[-120.463169,45.21242],[-120.980657,46.691537],[-123.218544,46.998589],[-124.859982,45.831702],[-124.296252,44.370406],[-122.134831,44.057691]]]}},{"type":"Feature","properties":{"hex_id":"822917fffffffff","population":605031,"population_year":2025,"area_km2":95515.4,"population_density":6.3,"all_players":1,"players_per_million":1.65,"player_ids":["ufc:ufcstats:b0d6a1d8ac3d563d"],"label":"Santa Barbara","country":"United States"},"geometry":{"type":"Polygon","coordinates":[[[-120.318338,31.57331],[-118.804528,32.779438],[-119.240554,34.468622],[-121.231482,34.929532],[-122.726209,33.706603],[-122.250772,32.039958],[-120.318338,31.57331]]]}},{"type":"Feature","properties":{"hex_id":"8229a7fffffffff","population":26139253,"population_year":2025,"area_km2":97556.0,"population_density":267.9,"all_players":18,"players_per_million":0.69,"player_ids":["ufc:ufcstats:056c493bbd76a918","ufc:ufcstats:07a74004d964c7f4","ufc:ufcstats:0d8011111be000b2","ufc:ufcstats:2e19380f34871c6a","ufc:ufcstats:3a46b268013afede","ufc:ufcstats:4144798612ef96e5","ufc:ufcstats:4d8fa64202cee4c1","ufc:ufcstats:5537efc6e496dd84","ufc:ufcstats:5eb50529a8418b77","ufc:ufcstats:60425d07ef4b91a7","ufc:ufcstats:749f572d1d3161fb","ufc:ufcstats:792be9a24df82ed6","ufc:ufcstats:887961364be5ceb3","ufc:ufcstats:8a1f3b5c526cd6e6","ufc:ufcstats:a495f599e787614f","ufc:ufcstats:b08012bbe542592a","ufc:ufcstats:c77a953488e5607d","ufc:ufcstats:def8166ff24bd237"],"label":"Los Angeles","country":"United States"},"geometry":{"type":"Polygon","coordinates":[[[-116.838302,32.260383],[-115.254005,33.431536],[-115.644549,35.13856],[-117.666441,35.65712],[-119.240554,34.468622],[-118.804528,32.779438],[-116.838302,32.260383]]]}},{"type":"Feature","properties":{"hex_id":"8229affffffffff","population":3828785,"population_year":2025,"area_km2":93933.6,"population_density":40.8,"all_players":3,"players_per_million":0.78,"player_ids":["ufc:ufcstats:2fe9032955c2e013","ufc:ufcstats:955da1675ad58a50","ufc:ufcstats:ab2b4ff41d6ebe0f"],"label":"Hanford","country":"United States"},"geometry":{"type":"Polygon","coordinates":[[[-119.240554,34.468622],[-117.666441,35.65712],[-118.098739,37.321697],[-120.150308,37.778361],[-121.707157,36.574218],[-121.231482,34.929532],[-119.240554,34.468622]]]}},{"type":"Feature","properties":{"hex_id":"822a17fffffffff","population":30364242,"population_year":2025,"area_km2":87326.6,"population_density":347.7,"all_players":8,"players_per_million":0.26,"player_ids":["ufc:ufcstats:45f7cb591c3ab00b","ufc:ufcstats:6d4b63c767106d3a","ufc:ufcstats:7026eca45f65377b","ufc:ufcstats:84b3e7d38f2d2ec5","ufc:ufcstats:cb696ebfb6598724","ufc:ufcstats:d1941565abf50b16","ufc:ufcstats:d6c0cdd7e467c440","ufc:ufcstats:dccb63727f2f5f74"],"label":"Philadelphia","country":"United States"},"geometry":{"type":"Polygon","coordinates":[[[-73.076912,42.400493],[-75.333452,42.029564],[-75.960619,40.480497],[-74.442775,39.340569],[-72.307877,39.686062],[-71.573772,41.195725],[-73.076912,42.400493]]]}},{"type":"Feature","properties":{"hex_id":"822a37fffffffff","population":10409321,"population_year":2025,"area_km2":89801.2,"population_density":115.9,"all_players":4,"players_per_million":0.38,"player_ids":["ufc:ufcstats:05339613bf8e9808","ufc:ufcstats:31ef8b67e13495b3","ufc:ufcstats:751de04455cfaac0","ufc:ufcstats:c6aee362c7a7d482"],"label":"Methuen","country":"United States"},"geometry":{"type":"Polygon","coordinates":[[[-69.955068,44.277849],[-72.323382,43.964363],[-73.076912,42.400493],[-71.573772,41.195725],[-69.342223,41.490681],[-68.482715,43.008011],[-69.955068,44.277849]]]}},{"type":"Feature","properties":{"hex_id":"822a87fffffffff","population":4299023,"population_year":2025,"area_km2":85294.5,"population_density":50.4,"all_players":1,"players_per_million":0.23,"player_ids":["ufc:ufcstats:d8c7c61b176e3994"],"label":"Uhrichsville","country":"United States"},"geometry":{"type":"Polygon","coordinates":[[[-79.734069,41.163834],[-81.867503,40.674246],[-82.267059,39.125451],[-80.651775,38.089298],[-78.619418,38.540002],[-78.104271,40.06406],[-79.734069,41.163834]]]}},{"type":"Feature","properties":{"hex_id":"822a97fffffffff","population":8425121,"population_year":2025,"area_km2":85627.7,"population_density":98.4,"all_players":2,"players_per_million":0.24,"player_ids":["ufc:ufcstats:1af1170ed937cba7","ufc:ufcstats:5442f1bc4b47eaf3"],"label":"Cincinnati","country":"United States"},"geometry":{"type":"Polygon","coordinates":[[[-83.600197,41.724215],[-85.703199,41.161269],[-85.979328,39.596509],[-84.278055,38.60875],[-82.267059,39.125451],[-81.867503,40.674246],[-83.600197,41.724215]]]}},{"type":"Feature","properties":{"hex_id":"822aa7fffffffff","population":3417567,"population_year":2025,"area_km2":88726.5,"population_density":38.5,"all_players":1,"players_per_million":0.29,"player_ids":["ufc:ufcstats:2cfba6c837c03ed0"],"label":"Angola","country":"United States"},"geometry":{"type":"Polygon","coordinates":[[[-76.966258,43.195408],[-79.227281,42.744533],[-79.734069,41.163834],[-78.104271,40.06406],[-75.960619,40.480497],[-75.333452,42.029564],[-76.966258,43.195408]]]}},{"type":"Feature","properties":{"hex_id":"822aaffffffffff","population":16213426,"population_year":2025,"area_km2":84307.8,"population_density":192.3,"all_players":4,"players_per_million":0.25,"player_ids":["ufc:ufcstats:5f61780fe5e9b6d0","ufc:ufcstats:71505842fb6455c3","ufc:ufcstats:af65aa688d13eedf","ufc:ufcstats:c1085e1701b13eca"],"label":"Springfield Township","country":"United States"},"geometry":{"type":"Polygon","coordinates":[[[-75.960619,40.480497],[-78.104271,40.06406],[-78.619418,38.540002],[-77.099922,37.463561],[-75.063317,37.849069],[-74.442775,39.340569],[-75.960619,40.480497]]]}},{"type":"Feature","properties":{"hex_id":"822ab7fffffffff","population":10815218,"population_year":2025,"area_km2":89440.6,"population_density":120.9,"all_players":1,"players_per_million":0.09,"player_ids":["ufc:ufcstats:873626e5547b5235"],"label":"Windsor","country":"Canada"},"geometry":{"type":"Polygon","coordinates":[[[-80.982253,43.86012],[-83.224953,43.327485],[-83.600197,41.724215],[-81.867503,40.674246],[-79.734069,41.163834],[-79.227281,42.744533],[-80.982253,43.86012]]]}},{"type":"Feature","properties":{"hex_id":"822b87fffffffff","population":3438566,"population_year":2025,"area_km2":95515.4,"population_density":36.0,"all_players":1,"players_per_million":0.29,"player_ids":["ufc:ufcstats:8e9eb3fc86db0f7d"],"label":"Gatineau","country":"Canada"},"geometry":{"type":"Polygon","coordinates":[[[-74.929476,48.066013],[-77.471719,47.634566],[-78.100366,45.982432],[-76.33587,44.798413],[-73.944231,45.197835],[-73.17262,46.811656],[-74.929476,48.066013]]]}},{"type":"Feature","properties":{"hex_id":"822b8ffffffffff","population":3267276,"population_year":2025,"area_km2":91641.3,"population_density":35.7,"all_players":1,"players_per_million":0.31,"player_ids":["ufc:ufcstats:fb3e61720be4690c"],"label":"South Cairo","country":"United States"},"geometry":{"type":"Polygon","coordinates":[[[-73.944231,45.197835],[-76.33587,44.798413],[-76.966258,43.195408],[-75.333452,42.029564],[-73.076912,42.400493],[-72.323382,43.964363],[-73.944231,45.197835]]]}},{"type":"Feature","properties":{"hex_id":"822b9ffffffffff","population":11744141,"population_year":2025,"area_km2":92775.6,"population_density":126.6,"all_players":3,"players_per_million":0.26,"player_ids":["ufc:ufcstats:31f8081c7600da93","ufc:ufcstats:38c7f72747f4f712","ufc:ufcstats:dd6103dd7127db1d"],"label":"Huntsville","country":"Canada"},"geometry":{"type":"Polygon","coordinates":[[[-78.100366,45.982432],[-80.490261,45.49319],[-80.982253,43.86012],[-79.227281,42.744533],[-76.966258,43.195408],[-76.33587,44.798413],[-78.100366,45.982432]]]}},{"type":"Feature","properties":{"hex_id":"822baffffffffff","population":6643169,"population_year":2025,"area_km2":93933.6,"population_density":70.7,"all_players":2,"players_per_million":0.3,"player_ids":["ufc:ufcstats:24656ef4d605c96f","ufc:ufcstats:f1d64ae34e088832"],"label":"Laval","country":"Canada"},"geometry":{"type":"Polygon","coordinates":[[[-70.65056,47.146099],[-73.17262,46.811656],[-73.944231,45.197835],[-72.323382,43.964363],[-69.955068,44.277849],[-69.060562,45.844655],[-70.65056,47.146099]]]}},{"type":"Feature","properties":{"hex_id":"822c07fffffffff","population":6356300,"population_year":2025,"area_km2":86328.2,"population_density":73.6,"all_players":1,"players_per_million":0.16,"player_ids":["ufc:ufcstats:a52bc1e62cf0b7c6"],"label":"Yerevan","country":"Armenia"},"geometry":{"type":"Polygon","coordinates":[[[42.116516,39.762213],[43.137521,38.257426],[45.179694,38.133333],[46.302583,39.484506],[45.333799,41.016526],[43.204832,41.142599],[42.116516,39.762213]]]}},{"type":"Feature","properties":{"hex_id":"822c0ffffffffff","population":6105214,"population_year":2025,"area_km2":89801.2,"population_density":68.0,"all_players":1,"players_per_million":0.16,"player_ids":["ufc:ufcstats:b07aed698fba8624"],"label":"Kasumkent","country":"Russia"},"geometry":{"type":"Polygon","coordinates":[[[45.333799,41.016526],[46.302583,39.484506],[48.415833,39.286073],[49.670644,40.636123],[48.749596,42.220966],[46.521525,42.40251],[45.333799,41.016526]]]}},{"type":"Feature","properties":{"hex_id":"822c17fffffffff","population":13079627,"population_year":2025,"area_km2":87326.6,"population_density":149.8,"all_players":1,"players_per_million":0.08,"player_ids":["ufc:ufcstats:08af939f41b5a57b"],"label":"Urmia","country":"Iran"},"geometry":{"type":"Polygon","coordinates":[[[43.137521,38.257426],[42.08453,36.839638],[43.074401,35.326156],[45.054386,35.229859],[46.104835,36.61956],[45.179694,38.133333],[43.137521,38.257426]]]}},{"type":"Feature","properties":{"hex_id":"822c27fffffffff","population":2993098,"population_year":2025,"area_km2":87326.6,"population_density":34.3,"all_players":2,"players_per_million":0.67,"player_ids":["ufc:ufcstats:327d5f279895110d","ufc:ufcstats:c03520b5c88ed6b4"],"label":"Vani","country":"Georgia"},"geometry":{"type":"Polygon","coordinates":[[[39.938746,42.736298],[38.856463,41.330674],[39.97757,39.845483],[42.116516,39.762213],[43.204832,41.142599],[42.150674,42.631271],[39.938746,42.736298]]]}},{"type":"Feature","properties":{"hex_id":"822c2ffffffffff","population":6448334,"population_year":2025,"area_km2":87326.6,"population_density":73.8,"all_players":8,"players_per_million":1.24,"player_ids":["ufc:ufcstats:3bc3f60b21cddc6a","ufc:ufcstats:6a96ad1bc34fb113","ufc:ufcstats:767755fd74662dbf","ufc:ufcstats:7772b283d288dbe2","ufc:ufcstats:9560ff14eb3129f7","ufc:ufcstats:e803242fb2e41112","ufc:ufcstats:e90a2f22417af68e","ufc:ufcstats:eae48ff31db420c2"],"label":"Tbilisi","country":"Russia"},"geometry":{"type":"Polygon","coordinates":[[[42.150674,42.631271],[43.204832,41.142599],[45.333799,41.016526],[46.521525,42.40251],[45.504839,43.945519],[43.258395,44.047542],[42.150674,42.631271]]]}},{"type":"Feature","properties":{"hex_id":"822c77fffffffff","population":2876028,"population_year":2025,"area_km2":91641.3,"population_density":31.4,"all_players":7,"players_per_million":2.43,"player_ids":["ufc:ufcstats:0fd5f4b838e890cc","ufc:ufcstats:275aca31f61ba28c","ufc:ufcstats:2b6fc1c02736833d","ufc:ufcstats:36b8f265bcd1b7a4","ufc:ufcstats:447f9858ae78f921","ufc:ufcstats:881bf86d4cba8578","ufc:ufcstats:d802174b0c0c1f4e"],"label":"Makhachkala","country":"Russia"},"geometry":{"type":"Polygon","coordinates":[[[45.504839,43.945519],[46.521525,42.40251],[48.749596,42.220966],[50.083598,43.599205],[49.121208,45.195051],[46.765254,45.359443],[45.504839,43.945519]]]}},{"type":"Feature","properties":{"hex_id":"822ce7fffffffff","population":4494554,"population_year":2025,"area_km2":91641.3,"population_density":49.0,"all_players":1,"players_per_million":0.22,"player_ids":["ufc:ufcstats:ae81a3ac7b260411"],"label":"Sahil","country":"Azerbaijan"},"geometry":{"type":"Polygon","coordinates":[[[48.415833,39.286073],[49.298709,37.719799],[51.384594,37.453452],[52.693662,38.762801],[51.86683,40.379375],[49.670644,40.636123],[48.415833,39.286073]]]}},{"type":"Feature","properties":{"hex_id":"822d17fffffffff","population":6620202,"population_year":2025,"area_km2":95515.4,"population_density":69.3,"all_players":1,"players_per_million":0.15,"player_ids":["ufc:ufcstats:6e8f1bcdda94ff45"],"label":"Niğde","country":"Turkey"},"geometry":{"type":"Polygon","coordinates":[[[33.362059,39.853917],[32.385359,38.324197],[33.614584,36.858664],[35.773758,36.910957],[36.77435,38.415715],[35.594615,39.893109],[33.362059,39.853917]]]}},{"type":"Feature","properties":{"hex_id":"822d47fffffffff","population":4364585,"population_year":2025,"area_km2":85294.5,"population_density":51.2,"all_players":1,"players_per_million":0.23,"player_ids":["ufc:ufcstats:f14cf73e51b29254"],"label":"Orlovsky","country":"Russia"},"geometry":{"type":"Polygon","coordinates":[[[38.692906,46.99246],[39.897167,45.559577],[42.146575,45.539505],[43.318144,46.98313],[42.14199,48.470618],[39.760902,48.458995],[38.692906,46.99246]]]}},{"type":"Feature","properties":{"hex_id":"822d67fffffffff","population":6765227,"population_year":2025,"area_km2":82416.4,"population_density":82.1,"all_players":1,"players_per_million":0.15,"player_ids":["ufc:ufcstats:1091d4d957141094"],"label":"Khrustalnyi","country":"Ukraine"},"geometry":{"type":"Polygon","coordinates":[[[34.97725,48.445115],[36.299106,47.056314],[38.692906,46.99246],[39.760902,48.458995],[38.481259,49.879789],[36.116724,49.779343],[34.97725,48.445115]]]}},{"type":"Feature","properties":{"hex_id":"822e67fffffffff","population":29949728,"population_year":2025,"area_km2":74863.4,"population_density":400.1,"all_players":1,"players_per_million":0.03,"player_ids":["ufc:ufcstats:d33da8a3d82bdb62"],"label":"Toyohashi","country":"Japan"},"geometry":{"type":"Polygon","coordinates":[[[138.240188,34.090249],[138.304265,35.714832],[136.756542,36.594877],[135.209181,35.840284],[135.213088,34.249062],[136.697641,33.378798],[138.240188,34.090249]]]}},{"type":"Feature","properties":{"hex_id":"822e77fffffffff","population":8733312,"population_year":2025,"area_km2":77902.3,"population_density":112.1,"all_players":1,"players_per_million":0.11,"player_ids":["ufc:ufcstats:98aa60cf58071fd6"],"label":"Takasaki","country":"Japan"},"geometry":{"type":"Polygon","coordinates":[[[139.948213,36.441778],[140.055179,38.090666],[138.441462,38.9811],[136.788028,38.211878],[136.756542,36.594877],[138.304265,35.714832],[139.948213,36.441778]]]}},{"type":"Feature","properties":{"hex_id":"822f5ffffffffff","population":40494200,"population_year":2025,"area_km2":79647.5,"population_density":508.4,"all_players":1,"players_per_million":0.02,"player_ids":["ufc:ufcstats:d8c811df0386d5e8"],"label":"Saitama Prefecture","country":"Japan"},"geometry":{"type":"Polygon","coordinates":[[[141.379662,33.846135],[141.516472,35.500079],[139.948213,36.441778],[138.304265,35.714832],[138.240188,34.090249],[139.748325,33.162808],[141.379662,33.846135]]]}},{"type":"Feature","properties":{"hex_id":"823117fffffffff","population":1117382,"population_year":2025,"area_km2":63447.1,"population_density":17.6,"all_players":1,"players_per_million":0.89,"player_ids":["ufc:ufcstats:7d420039bbfe7c1a"],"label":"Xilingol League","country":"People's Republic of China"},"geometry":{"type":"Polygon","coordinates":[[[116.35906,44.67042],[115.501139,43.254142],[116.49,42.082486],[118.26752,42.301514],[119.150901,43.663682],[118.234614,44.86001],[116.35906,44.67042]]]}},{"type":"Feature","properties":{"hex_id":"82319ffffffffff","population":45114752,"population_year":2025,"area_km2":63447.1,"population_density":711.1,"all_players":1,"players_per_million":0.02,"player_ids":["ufc:ufcstats:1ebe20ebbfa15e29"],"label":"Handan","country":"People's Republic of China"},"geometry":{"type":"Polygon","coordinates":[[[116.992244,35.842443],[117.240208,37.162506],[115.828203,38.174411],[114.139901,37.869616],[113.901216,36.538081],[115.340961,35.522424],[116.992244,35.842443]]]}},{"type":"Feature","properties":{"hex_id":"82396ffffffffff","population":6845595,"population_year":2025,"area_km2":85627.7,"population_density":79.9,"all_players":3,"players_per_million":0.44,"player_ids":["ufc:ufcstats:1d2d98ddd05b38fb","ufc:ufcstats:34ff304266360297","ufc:ufcstats:c2299ec916bc7c56"],"label":"Nice","country":"France"},"geometry":{"type":"Polygon","coordinates":[[[3.696702,44.221235],[3.24935,42.604792],[4.868332,41.580315],[6.97784,42.158616],[7.509948,43.786609],[5.848477,44.82547],[3.696702,44.221235]]]}},{"type":"Feature","properties":{"hex_id":"823977fffffffff","population":2453317,"population_year":2025,"area_km2":85294.5,"population_density":28.8,"all_players":1,"players_per_million":0.41,"player_ids":["ufc:ufcstats:7a5e8c94a86f9895"],"label":"Zaragoza","country":"Spain"},"geometry":{"type":"Polygon","coordinates":[[[-0.397973,43.08589],[-2.417796,42.54048],[-2.728618,40.871785],[-1.091146,39.784657],[0.837298,40.335353],[1.216871,41.967575],[-0.397973,43.08589]]]}},{"type":"Feature","properties":{"hex_id":"8239affffffffff","population":13874337,"population_year":2025,"area_km2":93933.6,"population_density":147.7,"all_players":1,"players_per_million":0.07,"player_ids":["ufc:ufcstats:52c2ae6d2f2d2613"],"label":"Casablanca","country":"Morocco"},"geometry":{"type":"Polygon","coordinates":[[[-7.101894,36.141695],[-8.989073,35.401916],[-9.144461,33.653759],[-7.483894,32.674254],[-5.667272,33.405709],[-5.442348,35.124424],[-7.101894,36.141695]]]}},{"type":"Feature","properties":{"hex_id":"823cc7fffffffff","population":53717375,"population_year":2025,"area_km2":95515.4,"population_density":562.4,"all_players":1,"players_per_million":0.02,"player_ids":["ufc:ufcstats:17e97649403ba428"],"label":"Hakha","country":"Myanmar"},"geometry":{"type":"Polygon","coordinates":[[[93.857073,22.506761],[93.987187,24.209804],[92.394898,25.128232],[90.686309,24.346284],[90.575866,22.648836],[92.154198,21.72722],[93.857073,22.506761]]]}},{"type":"Feature","properties":{"hex_id":"823d17fffffffff","population":44536689,"population_year":2025,"area_km2":92775.6,"population_density":480.0,"all_players":1,"players_per_million":0.02,"player_ids":["ufc:ufcstats:a72a2a769fa5a2be"],"label":"Dehradun","country":"India"},"geometry":{"type":"Polygon","coordinates":[[[75.695319,31.326181],[75.868402,29.662739],[77.645527,28.973819],[79.297948,29.906253],[79.213236,31.570562],[77.387389,32.302945],[75.695319,31.326181]]]}},{"type":"Feature","properties":{"hex_id":"8240e7fffffffff","population":55349040,"population_year":2025,"area_km2":84307.8,"population_density":656.5,"all_players":1,"players_per_million":0.02,"player_ids":["ufc:ufcstats:3cf18e01cb6cbde3"],"label":"Sichuan","country":"People's Republic of China"},"geometry":{"type":"Polygon","coordinates":[[[106.155349,28.869763],[106.355253,30.428475],[104.804952,31.418214],[103.045262,30.849371],[102.861256,29.282121],[104.42056,28.291742],[106.155349,28.869763]]]}},{"type":"Feature","properties":{"hex_id":"824417fffffffff","population":1532020,"population_year":2025,"area_km2":80544.7,"population_density":19.0,"all_players":1,"players_per_million":0.65,"player_ids":["ufc:ufcstats:d8da10db80131bec"],"label":"Cape Coral","country":"United States"},"geometry":{"type":"Polygon","coordinates":[[[-82.310403,23.682659],[-80.82969,24.429618],[-80.698565,26.062694],[-82.084301,26.984013],[-83.616841,26.242156],[-83.710823,24.573869],[-82.310403,23.682659]]]}},{"type":"Feature","properties":{"hex_id":"824447fffffffff","population":3715636,"population_year":2025,"area_km2":92775.6,"population_density":40.0,"all_players":4,"players_per_million":1.08,"player_ids":["ufc:ufcstats:029eaff01e6bb8f0","ufc:ufcstats:9cdd2da1a9104a0b","ufc:ufcstats:a7151778b3381036","ufc:ufcstats:d3df1add9d9a7efb"],"label":"New Orleans","country":"United States"},"geometry":{"type":"Polygon","coordinates":[[[-91.44306,29.038514],[-89.789168,29.876068],[-89.779473,31.590738],[-91.474426,32.491469],[-93.177711,31.651131],[-93.135951,29.913303],[-91.44306,29.038514]]]}},{"type":"Feature","properties":{"hex_id":"82444ffffffffff","population":1823298,"population_year":2025,"area_km2":93159.0,"population_density":19.6,"all_players":1,"players_per_million":0.55,"player_ids":["ufc:ufcstats:05fa626cb33d15b8"],"label":"Atlanta","country":"United States"},"geometry":{"type":"Polygon","coordinates":[[[-93.177711,31.651131],[-91.474426,32.491469],[-91.490847,34.200716],[-93.265212,35.090108],[-95.017507,34.246081],[-94.945821,32.516906],[-93.177711,31.651131]]]}},{"type":"Feature","properties":{"hex_id":"82445ffffffffff","population":1787935,"population_year":2025,"area_km2":89440.6,"population_density":20.0,"all_players":1,"players_per_million":0.56,"player_ids":["ufc:ufcstats:67c1d46f4ed16f9e"],"label":"Amory","country":"United States"},"geometry":{"type":"Polygon","coordinates":[[[-89.779473,31.590738],[-88.101738,32.375354],[-88.065886,34.059836],[-89.759172,34.984893],[-91.490847,34.200716],[-91.474426,32.491469],[-89.779473,31.590738]]]}},{"type":"Feature","properties":{"hex_id":"82446ffffffffff","population":9292440,"population_year":2025,"area_km2":96323.1,"population_density":96.5,"all_players":1,"players_per_million":0.11,"player_ids":["ufc:ufcstats:cdb96af67d096b1e"],"label":"Houston","country":"United States"},"geometry":{"type":"Polygon","coordinates":[[[-94.808948,29.022702],[-93.135951,29.913303],[-93.177711,31.651131],[-94.945821,32.516906],[-96.66289,31.619531],[-96.567347,29.863731],[-94.808948,29.022702]]]}},{"type":"Feature","properties":{"hex_id":"8244a7fffffffff","population":5328381,"population_year":2025,"area_km2":75672.4,"population_density":70.4,"all_players":1,"players_per_million":0.19,"player_ids":["ufc:ufcstats:e00a3dee329a51f7"],"label":"Miami","country":"United States"},"geometry":{"type":"Polygon","coordinates":[[[-79.508242,23.533066],[-78.073265,24.24011],[-77.908907,25.835601],[-79.211732,26.761492],[-80.698565,26.062694],[-80.82969,24.429618],[-79.508242,23.533066]]]}},{"type":"Feature","properties":{"hex_id":"8244c7fffffffff","population":6948496,"population_year":2025,"area_km2":80847.5,"population_density":85.9,"all_players":1,"players_per_million":0.14,"player_ids":["ufc:ufcstats:7f6ed67d3ed3c036"],"label":"Covington","country":"United States"},"geometry":{"type":"Polygon","coordinates":[[[-83.318504,31.226884],[-81.720688,31.908012],[-81.592393,33.531156],[-83.104736,34.505705],[-84.761579,33.833075],[-84.845862,32.177532],[-83.318504,31.226884]]]}},{"type":"Feature","properties":{"hex_id":"8244d7fffffffff","population":1889865,"population_year":2025,"area_km2":76219.8,"population_density":24.8,"all_players":1,"players_per_million":0.53,"player_ids":["ufc:ufcstats:2f181c0467965b98"],"label":"Beaufort","country":"United States"},"geometry":{"type":"Polygon","coordinates":[[[-80.283005,30.942583],[-78.735928,31.57726],[-78.568356,33.165261],[-79.985888,34.15372],[-81.592393,33.531156],[-81.720688,31.908012],[-80.283005,30.942583]]]}},{"type":"Feature","properties":{"hex_id":"8244dffffffffff","population":7412190,"population_year":2025,"area_km2":77926.1,"population_density":95.1,"all_players":2,"players_per_million":0.27,"player_ids":["ufc:ufcstats:4a28cb716c19157a","ufc:ufcstats:f14f644d41ade29f"],"label":"Chapin","country":"United States"},"geometry":{"type":"Polygon","coordinates":[[[-81.592393,33.531156],[-79.985888,34.15372],[-79.557618,35.583567],[-81.068449,36.598719],[-82.992984,36.123996],[-83.104736,34.505705],[-81.592393,33.531156]]]}},{"type":"Feature","properties":{"hex_id":"82464ffffffffff","population":1076096,"population_year":2025,"area_km2":98815.5,"population_density":10.9,"all_players":4,"players_per_million":3.72,"player_ids":["ufc:ufcstats:0c6d9ea8306c029e","ufc:ufcstats:150ff4cc642270b9","ufc:ufcstats:64facb6cc564262d","ufc:ufcstats:82a5152216251682"],"label":"Kailua","country":"United States"},"geometry":{"type":"Polygon","coordinates":[[[-159.133129,23.438175],[-160.24133,22.005854],[-159.475161,20.422209],[-157.606849,20.259692],[-156.478386,21.691033],[-157.237348,23.285729],[-159.133129,23.438175]]]}},{"type":"Feature","properties":{"hex_id":"82481ffffffffff","population":1987203,"population_year":2025,"area_km2":104135.0,"population_density":19.1,"all_players":1,"players_per_million":0.5,"player_ids":["ufc:ufcstats:cbf5e6f231b55443"],"label":"Hidalgo del Parral","country":"Mexico"},"geometry":{"type":"Polygon","coordinates":[[[-106.639261,25.578666],[-105.028152,26.651299],[-105.250678,28.43866],[-107.135557,29.151136],[-108.763145,28.059391],[-108.490011,26.27498],[-106.639261,25.578666]]]}},{"type":"Feature","properties":{"hex_id":"82485ffffffffff","population":2402922,"population_year":2025,"area_km2":100537.4,"population_density":23.9,"all_players":1,"players_per_million":0.42,"player_ids":["ufc:ufcstats:5ef94841c4bc3f86"],"label":"Mexicali","country":"Mexico"},"geometry":{"type":"Polygon","coordinates":[[[-114.506012,29.96281],[-112.918132,31.115173],[-113.268008,32.856905],[-115.254005,33.431536],[-116.838302,32.260383],[-116.441531,30.533965],[-114.506012,29.96281]]]}},{"type":"Feature","properties":{"hex_id":"824887fffffffff","population":1755941,"population_year":2025,"area_km2":101417.2,"population_density":17.3,"all_players":1,"players_per_million":0.57,"player_ids":["ufc:ufcstats:077e3ace32b72be9"],"label":"Laredo","country":"United States"},"geometry":{"type":"Polygon","coordinates":[[[-99.773444,26.162949],[-98.13039,27.145531],[-98.247879,28.919834],[-100.061215,29.721882],[-101.73684,28.725749],[-101.566584,26.941793],[-99.773444,26.162949]]]}},{"type":"Feature","properties":{"hex_id":"824897fffffffff","population":940964,"population_year":2025,"area_km2":98815.5,"population_density":9.5,"all_players":1,"players_per_million":1.06,"player_ids":["ufc:ufcstats:d4c9dcd330403612"],"label":"Corpus Christi","country":"United States"},"geometry":{"type":"Polygon","coordinates":[[[-96.384751,26.330133],[-94.743568,27.264006],[-94.808948,29.022702],[-96.567347,29.863731],[-98.247879,28.919834],[-98.13039,27.145531],[-96.384751,26.330133]]]}},{"type":"Feature","properties":{"hex_id":"82489ffffffffff","population":6429694,"population_year":2025,"area_km2":99241.3,"population_density":64.8,"all_players":1,"players_per_million":0.16,"player_ids":["ufc:ufcstats:b997be68943010fc"],"label":"Austin","country":"United States"},"geometry":{"type":"Polygon","coordinates":[[[-98.247879,28.919834],[-96.567347,29.863731],[-96.66289,31.619531],[-98.493873,32.444355],[-100.211784,31.489938],[-100.061215,29.721882],[-98.247879,28.919834]]]}},{"type":"Feature","properties":{"hex_id":"8248dffffffffff","population":1232145,"population_year":2025,"area_km2":98815.5,"population_density":12.5,"all_players":1,"players_per_million":0.81,"player_ids":["ufc:ufcstats:97cf1a2c7c5e7889"],"label":"Albuquerque","country":"United States"},"geometry":{"type":"Polygon","coordinates":[[[-105.959856,33.74267],[-104.229094,34.766832],[-104.454816,36.494369],[-106.47056,37.197522],[-108.222119,36.158816],[-107.93785,34.432278],[-105.959856,33.74267]]]}},{"type":"Feature","properties":{"hex_id":"8248effffffffff","population":7170957,"population_year":2025,"area_km2":101417.2,"population_density":70.7,"all_players":2,"players_per_million":0.28,"player_ids":["ufc:ufcstats:7447e9f28508106a","ufc:ufcstats:fba03cd6cc28dc41"],"label":"Phoenix","country":"United States"},"geometry":{"type":"Polygon","coordinates":[[[-110.973266,30.491571],[-109.334035,31.601966],[-109.632511,33.353313],[-111.622726,33.985325],[-113.268008,32.856905],[-112.918132,31.115173],[-110.973266,30.491571]]]}},{"type":"Feature","properties":{"hex_id":"824997fffffffff","population":36941748,"population_year":2025,"area_km2":99241.3,"population_density":372.2,"all_players":2,"players_per_million":0.05,"player_ids":["ufc:ufcstats:4148802ae4a50768","ufc:ufcstats:9a97acbfd5a08bfa"],"label":"Mexico City","country":"Mexico"},"geometry":{"type":"Polygon","coordinates":[[[-97.591937,18.289686],[-96.05021,19.269007],[-96.130285,21.025118],[-97.798077,21.815236],[-99.372387,20.819245],[-99.246183,19.050422],[-97.591937,18.289686]]]}},{"type":"Feature","properties":{"hex_id":"8249affffffffff","population":8625037,"population_year":2025,"area_km2":102761.2,"population_density":83.9,"all_players":1,"players_per_million":0.12,"player_ids":["ufc:ufcstats:e8b731feff72294b"],"label":"Guadalajara","country":"Mexico"},"geometry":{"type":"Polygon","coordinates":[[[-104.006979,17.727556],[-102.478889,18.772634],[-102.651462,20.548282],[-104.398166,21.280266],[-105.946435,20.212679],[-105.728157,18.436308],[-104.006979,17.727556]]]}},{"type":"Feature","properties":{"hex_id":"824a27fffffffff","population":1364362,"population_year":2025,"area_km2":80544.7,"population_density":16.9,"all_players":1,"players_per_million":0.73,"player_ids":["ufc:ufcstats:4461d7e47375a895"],"label":"Naha","country":"Japan"},"geometry":{"type":"Polygon","coordinates":[[[127.676926,27.407025],[127.394983,25.883021],[128.804146,24.984006],[130.512591,25.620271],[130.807164,27.155857],[129.381002,28.043997],[127.676926,27.407025]]]}},{"type":"Feature","properties":{"hex_id":"82588ffffffffff","population":31056194,"population_year":2025,"area_km2":74863.4,"population_density":414.8,"all_players":1,"players_per_million":0.03,"player_ids":["ufc:ufcstats:f1b2aa7853d1ed6e"],"label":"Benin City","country":"Nigeria"},"geometry":{"type":"Polygon","coordinates":[[[4.915721,8.129175],[4.581792,6.708567],[5.720322,5.590237],[7.212915,5.860392],[7.588359,7.279048],[6.429971,8.430253],[4.915721,8.129175]]]}},{"type":"Feature","properties":{"hex_id":"82589ffffffffff","population":3121315,"population_year":2025,"area_km2":70058.2,"population_density":44.6,"all_players":2,"players_per_million":0.64,"player_ids":["ufc:ufcstats:1338e2c7480bdf9e","ufc:ufcstats:94426bb170c88115"],"label":"Lagos","country":"Nigeria"},"geometry":{"type":"Polygon","coordinates":[[[3.125247,6.42502],[2.826003,5.055078],[3.943036,3.968797],[5.380973,4.221154],[5.720322,5.590237],[4.581792,6.708567],[3.125247,6.42502]]]}},{"type":"Feature","properties":{"hex_id":"825f0ffffffffff","population":755775,"population_year":2025,"area_km2":88726.5,"population_density":8.5,"all_players":1,"players_per_million":1.32,"player_ids":["ufc:ufcstats:a53d30163304aa6e"],"label":"Skeldon","country":"Guyana"},"geometry":{"type":"Polygon","coordinates":[[[-57.355362,4.400413],[-56.048636,5.516407],[-56.300826,7.171745],[-57.846431,7.694211],[-59.129234,6.585959],[-58.890503,4.947801],[-57.355362,4.400413]]]}},{"type":"Feature","properties":{"hex_id":"825f1ffffffffff","population":610919,"population_year":2025,"area_km2":91641.3,"population_density":6.7,"all_players":1,"players_per_million":1.64,"player_ids":["ufc:ufcstats:2cd428e9606856fd"],"label":"Paramaribo","country":"Suriname"},"geometry":{"type":"Polygon","coordinates":[[[-54.471472,4.960947],[-53.138884,6.083512],[-53.403819,7.752291],[-54.98881,8.285432],[-56.300826,7.171745],[-56.048636,5.516407],[-54.471472,4.960947]]]}},{"type":"Feature","properties":{"hex_id":"8266a7fffffffff","population":3636018,"population_year":2025,"area_km2":88726.5,"population_density":41.0,"all_players":1,"players_per_million":0.28,"player_ids":["ufc:ufcstats:f9ab66e67240db7b"],"label":"Panama City","country":"Panama"},"geometry":{"type":"Polygon","coordinates":[[[-80.872255,10.262406],[-82.288061,9.37146],[-82.150191,7.752189],[-80.581771,7.030409],[-79.165039,7.941424],[-79.317401,9.553624],[-80.872255,10.262406]]]}},{"type":"Feature","properties":{"hex_id":"826737fffffffff","population":1800117,"population_year":2025,"area_km2":70058.2,"population_density":25.7,"all_players":1,"players_per_million":0.56,"player_ids":["ufc:ufcstats:f1fac969a1d70b08"],"label":"Kingston","country":"Jamaica"},"geometry":{"type":"Polygon","coordinates":[[[-75.998548,19.358823],[-77.336996,18.638235],[-77.180408,17.235914],[-75.673235,16.563292],[-74.340779,17.3045],[-74.509206,18.697242],[-75.998548,19.358823]]]}},{"type":"Feature","properties":{"hex_id":"826947fffffffff","population":24404068,"population_year":2025,"area_km2":85294.5,"population_density":286.1,"all_players":1,"players_per_million":0.04,"player_ids":["ufc:ufcstats:cad24459b28592ca"],"label":"Clark Air Base","country":"Philippines"},"geometry":{"type":"Polygon","coordinates":[[[118.334184,16.013184],[118.102539,14.37128],[119.389559,13.411731],[120.936616,14.106],[121.18304,15.773842],[119.867722,16.72154],[118.334184,16.013184]]]}},{"type":"Feature","properties":{"hex_id":"826ac7fffffffff","population":15686252,"population_year":2025,"area_km2":95515.4,"population_density":164.2,"all_players":1,"players_per_million":0.06,"player_ids":["ufc:ufcstats:ffe9703408fb5964"],"label":"Kyangwali Refugee Settlement","country":"Uganda"},"geometry":{"type":"Polygon","coordinates":[[[30.825041,-0.559499],[31.469937,1.021249],[30.388097,2.35084],[28.664505,2.120198],[28.003538,0.553362],[29.081378,-0.796995],[30.825041,-0.559499]]]}},{"type":"Feature","properties":{"hex_id":"827577fffffffff","population":7460273,"population_year":2025,"area_km2":63447.1,"population_density":117.6,"all_players":1,"players_per_million":0.13,"player_ids":["ufc:ufcstats:eae431e70064e046"],"label":"Accra","country":"Ghana"},"geometry":{"type":"Polygon","coordinates":[[[-1.048007,5.588679],[-1.27685,4.273266],[-0.186076,3.230001],[1.158904,3.472805],[1.425991,4.791199],[0.309804,5.864518],[-1.048007,5.588679]]]}},{"type":"Feature","properties":{"hex_id":"82800ffffffffff","population":2852611,"population_year":2025,"area_km2":104135.0,"population_density":27.4,"all_players":1,"players_per_million":0.35,"player_ids":["ufc:ufcstats:4126a78111c0855a"],"label":"São Luís","country":"Brazil"},"geometry":{"type":"Polygon","coordinates":[[[-43.719691,-3.904927],[-42.329578,-2.75193],[-42.63522,-0.977148],[-44.322949,-0.356209],[-45.708272,-1.504004],[-45.411081,-3.277536],[-43.719691,-3.904927]]]}},{"type":"Feature","properties":{"hex_id":"828037fffffffff","population":2852877,"population_year":2025,"area_km2":104135.0,"population_density":27.4,"all_players":1,"players_per_million":0.35,"player_ids":["ufc:ufcstats:12ebd7d157e91701"],"label":"Cajazeiras","country":"Brazil"},"geometry":{"type":"Polygon","coordinates":[[[-39.695155,-8.696744],[-38.305671,-7.537486],[-38.62207,-5.766943],[-40.322212,-5.151417],[-41.713738,-6.308249],[-41.403553,-8.082641],[-39.695155,-8.696744]]]}},{"type":"Feature","properties":{"hex_id":"828047fffffffff","population":3128706,"population_year":2025,"area_km2":101417.2,"population_density":30.8,"all_players":2,"players_per_million":0.64,"player_ids":["ufc:ufcstats:3df5493bb279226f","ufc:ufcstats:aa72b0f831d0bfe5"],"label":"Soure","country":"Brazil"},"geometry":{"type":"Polygon","coordinates":[[[-48.764703,-2.023474],[-47.385187,-0.881815],[-47.674988,0.877548],[-49.333738,1.486994],[-50.700334,0.350394],[-50.42144,-1.400332],[-48.764703,-2.023474]]]}},{"type":"Feature","properties":{"hex_id":"828117fffffffff","population":7248856,"population_year":2025,"area_km2":101417.2,"population_density":71.5,"all_players":2,"players_per_million":0.28,"player_ids":["ufc:ufcstats:7dda2cf308f24a02","ufc:ufcstats:b1f21ce050035d58"],"label":"Feira de Santana","country":"Brazil"},"geometry":{"type":"Polygon","coordinates":[[[-38.743962,-13.939409],[-37.348487,-12.792371],[-37.668868,-11.053571],[-39.379495,-10.457721],[-40.778688,-11.60628],[-40.464024,-13.348757],[-38.743962,-13.939409]]]}},{"type":"Feature","properties":{"hex_id":"828127fffffffff","population":1641490,"population_year":2025,"area_km2":98815.5,"population_density":16.6,"all_players":1,"players_per_million":0.61,"player_ids":["ufc:ufcstats:886264a0c9f4ea5e"],"label":"Montes Claros","country":"Brazil"},"geometry":{"type":"Polygon","coordinates":[[[-42.974527,-17.295269],[-41.558629,-16.193559],[-41.872036,-14.477922],[-43.59345,-13.866922],[-45.005667,-14.97354],[-44.70061,-16.685821],[-42.974527,-17.295269]]]}},{"type":"Feature","properties":{"hex_id":"82815ffffffffff","population":1719868,"population_year":2025,"area_km2":102761.2,"population_density":16.7,"all_players":1,"players_per_million":0.58,"player_ids":["ufc:ufcstats:9673a497a9da119a"],"label":"São Geraldo do Araguaia","country":"Brazil"},"geometry":{"type":"Polygon","coordinates":[[[-47.898087,-7.331624],[-46.505589,-6.197677],[-46.800487,-4.422917],[-48.477574,-3.790659],[-49.858327,-4.923763],[-49.574102,-6.689606],[-47.898087,-7.331624]]]}},{"type":"Feature","properties":{"hex_id":"8281a7fffffffff","population":1533537,"population_year":2025,"area_km2":100537.4,"population_density":15.3,"all_players":1,"players_per_million":0.65,"player_ids":["ufc:ufcstats:9c393e836a852f30"],"label":"Coruripe","country":"Brazil"},"geometry":{"type":"Polygon","coordinates":[[[-35.639918,-13.362886],[-34.264943,-12.203098],[-34.589059,-10.472717],[-36.284909,-9.893325],[-37.668868,-11.053571],[-37.348487,-12.792371],[-35.639918,-13.362886]]]}},{"type":"Feature","properties":{"hex_id":"8282d7fffffffff","population":6178816,"population_year":2025,"area_km2":76219.8,"population_density":81.1,"all_players":1,"players_per_million":0.16,"player_ids":["ufc:ufcstats:2f815ed5f8278ba6"],"label":"Douala","country":"Cameroon"},"geometry":{"type":"Polygon","coordinates":[[[10.026445,2.31899],[10.722778,3.789625],[9.867156,4.989684],[8.344199,4.732154],[7.656465,3.293009],[8.482577,2.080262],[10.026445,2.31899]]]}},{"type":"Feature","properties":{"hex_id":"8282dffffffffff","population":30257808,"population_year":2025,"area_km2":72289.7,"population_density":418.6,"all_players":1,"players_per_million":0.03,"player_ids":["ufc:ufcstats:8667caa0451d245b"],"label":"Imo State","country":"Nigeria"},"geometry":{"type":"Polygon","coordinates":[[[7.656465,3.293009],[8.344199,4.732154],[7.212915,5.860392],[5.720322,5.590237],[5.380973,4.221154],[6.164724,3.047732],[7.656465,3.293009]]]}},{"type":"Feature","properties":{"hex_id":"82831ffffffffff","population":10721390,"population_year":2025,"area_km2":91641.3,"population_density":117.0,"all_players":1,"players_per_million":0.09,"player_ids":["ufc:ufcstats:5d1b7e3dd9e11074"],"label":"Luanda","country":"Angola"},"geometry":{"type":"Polygon","coordinates":[[[13.317277,-10.315468],[14.055441,-8.737647],[13.101649,-7.336896],[11.439145,-7.509362],[10.70687,-9.060308],[11.630481,-10.465471],[13.317277,-10.315468]]]}},{"type":"Feature","properties":{"hex_id":"828a07fffffffff","population":517503,"population_year":2025,"area_km2":86328.2,"population_density":6.0,"all_players":1,"players_per_million":1.93,"player_ids":["ufc:ufcstats:d1c65d2cf2925ddd"],"label":"Porto Velho","country":"Brazil"},"geometry":{"type":"Polygon","coordinates":[[[-62.581506,-9.387742],[-61.313893,-8.376461],[-61.544752,-6.690841],[-63.028605,-6.045492],[-64.293319,-7.051736],[-64.07325,-8.738798],[-62.581506,-9.387742]]]}},{"type":"Feature","properties":{"hex_id":"828a0ffffffffff","population":32923,"population_year":2025,"area_km2":87326.6,"population_density":0.4,"all_players":1,"players_per_million":30.37,"player_ids":["ufc:ufcstats:f53d4f21d1b5f2dc"],"label":"Amazonas","country":"Brazil"},"geometry":{"type":"Polygon","coordinates":[[[-64.728104,-3.684742],[-66.014868,-4.672131],[-65.801418,-6.370765],[-64.293319,-7.051736],[-63.028605,-6.045492],[-63.249517,-4.377108],[-64.728104,-3.684742]]]}},{"type":"Feature","properties":{"hex_id":"828ae7fffffffff","population":145941,"population_year":2025,"area_km2":85321.7,"population_density":1.7,"all_players":1,"players_per_million":6.85,"player_ids":["ufc:ufcstats:9256f591b30c073e"],"label":"Coari","country":"Brazil"},"geometry":{"type":"Polygon","coordinates":[[[-63.249517,-4.377108],[-62.001115,-3.326713],[-62.226645,-1.65412],[-63.686138,-1.060213],[-64.942851,-2.010725],[-64.728104,-3.684742],[-63.249517,-4.377108]]]}},{"type":"Feature","properties":{"hex_id":"828af7fffffffff","population":2527510,"population_year":2025,"area_km2":88726.5,"population_density":28.5,"all_players":3,"players_per_million":1.19,"player_ids":["ufc:ufcstats:b9706f80d005036c","ufc:ufcstats:d0f3959b4a9747e6","ufc:ufcstats:f166e93d04a8c274"],"label":"Manaus","country":"Brazil"},"geometry":{"type":"Polygon","coordinates":[[[-60.503094,-3.948691],[-59.21739,-2.873596],[-59.457191,-1.175734],[-60.968507,-0.578152],[-62.226645,-1.65412],[-62.001115,-3.326713],[-60.503094,-3.948691]]]}},{"type":"Feature","properties":{"hex_id":"828e67fffffffff","population":14012104,"population_year":2025,"area_km2":101417.2,"population_density":138.2,"all_players":2,"players_per_million":0.14,"player_ids":["ufc:ufcstats:850266b3dc4e506e","ufc:ufcstats:d747eb273a40a920"],"label":"Lima","country":"Peru"},"geometry":{"type":"Polygon","coordinates":[[[-75.91228,-10.117015],[-77.383874,-11.159905],[-77.211806,-12.942278],[-75.553473,-13.6677],[-74.089299,-12.614189],[-74.275639,-10.846247],[-75.91228,-10.117015]]]}},{"type":"Feature","properties":{"hex_id":"828f2ffffffffff","population":10404469,"population_year":2025,"area_km2":100537.4,"population_density":103.5,"all_players":1,"players_per_million":0.1,"player_ids":["ufc:ufcstats:7c7332319c14094c"],"label":"Chone","country":"Ecuador"},"geometry":{"type":"Polygon","coordinates":[[[-79.982821,0.245335],[-81.439141,-0.741795],[-81.292442,-2.502528],[-79.674015,-3.267721],[-78.218164,-2.264143],[-78.379976,-0.512277],[-79.982821,0.245335]]]}},{"type":"Feature","properties":{"hex_id":"82a727fffffffff","population":1275914,"population_year":2025,"area_km2":68186.6,"population_density":18.7,"all_players":3,"players_per_million":2.35,"player_ids":["ufc:ufcstats:17734443a833cdf7","ufc:ufcstats:32ab52e5de93092d","ufc:ufcstats:6b453bc35a823c3f"],"label":"Perth","country":"Australia"},"geometry":{"type":"Polygon","coordinates":[[[116.156806,-31.717896],[115.365356,-30.470522],[113.5891,-30.27389],[112.519247,-31.318696],[113.256895,-32.609931],[115.121218,-32.812717],[116.156806,-31.717896]]]}},{"type":"Feature","properties":{"hex_id":"82a807fffffffff","population":5285122,"population_year":2025,"area_km2":85294.5,"population_density":62.0,"all_players":2,"players_per_million":0.38,"player_ids":["ufc:ufcstats:6551c64fbcd1a467","ufc:ufcstats:68d35296f566792b"],"label":"Curitiba","country":"Brazil"},"geometry":{"type":"Polygon","coordinates":[[[-49.487409,-25.620271],[-48.061859,-24.679886],[-48.35944,-23.093332],[-50.070903,-22.458019],[-51.481406,-23.408711],[-51.195854,-24.984006],[-49.487409,-25.620271]]]}},{"type":"Feature","properties":{"hex_id":"82a80ffffffffff","population":2522447,"population_year":2025,"area_km2":87326.6,"population_density":28.9,"all_players":1,"players_per_million":0.4,"player_ids":["ufc:ufcstats:c0d5c0c95c59050b"],"label":"Presidente Prudente","country":"Brazil"},"geometry":{"type":"Polygon","coordinates":[[[-51.481406,-23.408711],[-50.070903,-22.458019],[-50.359831,-20.834788],[-52.046783,-20.176039],[-53.439218,-21.137466],[-53.163082,-22.746553],[-51.481406,-23.408711]]]}},{"type":"Feature","properties":{"hex_id":"82a817fffffffff","population":35227396,"population_year":2025,"area_km2":87326.6,"population_density":403.4,"all_players":10,"players_per_million":0.28,"player_ids":["ufc:ufcstats:07225ba28ae309b6","ufc:ufcstats:095854a135e6db55","ufc:ufcstats:1ae8f3c723aacff4","ufc:ufcstats:253076a23d03dcd0","ufc:ufcstats:294aa73dbf37d281","ufc:ufcstats:528b071cf3da7c56","ufc:ufcstats:64d47ef881a437a4","ufc:ufcstats:7ee0fd831c0fe7c3","ufc:ufcstats:d945aae53e3e54e6","ufc:ufcstats:e5549c82bfb5582d"],"label":"São Paulo","country":"Brazil"},"geometry":{"type":"Polygon","coordinates":[[[-46.329568,-25.285204],[-44.896021,-24.304788],[-45.204057,-22.710396],[-46.93561,-22.103817],[-48.35944,-23.093332],[-48.061859,-24.679886],[-46.329568,-25.285204]]]}},{"type":"Feature","properties":{"hex_id":"82a82ffffffffff","population":3537573,"population_year":2025,"area_km2":82705.0,"population_density":42.8,"all_players":1,"players_per_million":0.28,"player_ids":["ufc:ufcstats:6a1901c62ab3870f"],"label":"Umuarama","country":"Brazil"},"geometry":{"type":"Polygon","coordinates":[[[-52.605017,-25.883021],[-51.195854,-24.984006],[-51.481406,-23.408711],[-53.163082,-22.746553],[-54.552341,-23.657242],[-54.280118,-25.218062],[-52.605017,-25.883021]]]}},{"type":"Feature","properties":{"hex_id":"82a877fffffffff","population":1125384,"population_year":2025,"area_km2":84307.8,"population_density":13.3,"all_players":1,"players_per_million":0.89,"player_ids":["ufc:ufcstats:9d62c2d8ee151f08"],"label":"Dourados","country":"Brazil"},"geometry":{"type":"Polygon","coordinates":[[[-54.552341,-23.657242],[-53.163082,-22.746553],[-53.439218,-21.137466],[-55.090965,-20.456245],[-56.457731,-21.379153],[-56.195482,-22.970772],[-54.552341,-23.657242]]]}},{"type":"Feature","properties":{"hex_id":"82a88ffffffffff","population":5538942,"population_year":2025,"area_km2":95515.4,"population_density":58.0,"all_players":3,"players_per_million":0.54,"player_ids":["ufc:ufcstats:2e5c2aa8e4ab9d82","ufc:ufcstats:71171fc96445bf65","ufc:ufcstats:d3f5d33d61cd00c9"],"label":"Belo Horizonte","country":"Brazil"},"geometry":{"type":"Polygon","coordinates":[[[-44.08545,-20.043635],[-42.662641,-18.976573],[-42.974527,-17.295269],[-44.70061,-16.685821],[-46.117749,-17.759599],[-45.814924,-19.435672],[-44.08545,-20.043635]]]}},{"type":"Feature","properties":{"hex_id":"82a897fffffffff","population":2716638,"population_year":2025,"area_km2":93159.0,"population_density":29.2,"all_players":1,"players_per_million":0.37,"player_ids":["ufc:ufcstats:351c4ec637380ad5"],"label":"Vila Velha","country":"Brazil"},"geometry":{"type":"Polygon","coordinates":[[[-38.868743,-21.747289],[-37.456339,-20.657406],[-37.780286,-19.015324],[-39.511209,-18.46145],[-40.927192,-19.557548],[-40.609178,-21.200843],[-38.868743,-21.747289]]]}},{"type":"Feature","properties":{"hex_id":"82a8a7fffffffff","population":15397379,"population_year":2025,"area_km2":88726.5,"population_density":173.5,"all_players":6,"players_per_million":0.39,"player_ids":["ufc:ufcstats:23024fdfc966410a","ufc:ufcstats:260e9e0d4954aea6","ufc:ufcstats:64a50dad704d1d49","ufc:ufcstats:a0f0004aadf10b71","ufc:ufcstats:b9f28e7045fdfce7","ufc:ufcstats:c21f26bbde777573"],"label":"Rio de Janeiro","country":"Brazil"},"geometry":{"type":"Polygon","coordinates":[[[-43.150153,-24.877664],[-41.71736,-23.859502],[-42.034051,-22.260838],[-43.775354,-21.684143],[-45.204057,-22.710396],[-44.896021,-24.304788],[-43.150153,-24.877664]]]}},{"type":"Feature","properties":{"hex_id":"82a8affffffffff","population":4855487,"population_year":2025,"area_km2":91641.3,"population_density":53.0,"all_players":1,"players_per_million":0.21,"player_ids":["ufc:ufcstats:beecb672a279223e"],"label":"Varginha","country":"Brazil"},"geometry":{"type":"Polygon","coordinates":[[[-45.204057,-22.710396],[-43.775354,-21.684143],[-44.08545,-20.043635],[-45.814924,-19.435672],[-47.235943,-20.470042],[-46.93561,-22.103817],[-45.204057,-22.710396]]]}},{"type":"Feature","properties":{"hex_id":"82a8b7fffffffff","population":866167,"population_year":2025,"area_km2":89440.6,"population_density":9.7,"all_players":1,"players_per_million":1.15,"player_ids":["ufc:ufcstats:f5779a2303ed76ec"],"label":"Rio das Ostras","country":"Brazil"},"geometry":{"type":"Polygon","coordinates":[[[-39.968603,-24.399277],[-38.545364,-23.346585],[-38.868743,-21.747289],[-40.609178,-21.200843],[-42.034051,-22.260838],[-41.71736,-23.859502],[-39.968603,-24.399277]]]}},{"type":"Feature","properties":{"hex_id":"82a8c7fffffffff","population":6103080,"population_year":2025,"area_km2":95515.4,"population_density":63.9,"all_players":2,"players_per_million":0.33,"player_ids":["ufc:ufcstats:36541f1e6c5d4955","ufc:ufcstats:ae7fe94f117f98cf"],"label":"Anápolis","country":"Brazil"},"geometry":{"type":"Polygon","coordinates":[[[-49.241144,-18.169266],[-47.831229,-17.126909],[-48.126183,-15.422507],[-49.819767,-14.772325],[-51.215379,-15.82234],[-50.932065,-17.514519],[-49.241144,-18.169266]]]}},{"type":"Feature","properties":{"hex_id":"82a8d7fffffffff","population":3105120,"population_year":2025,"area_km2":97556.0,"population_density":31.8,"all_players":1,"players_per_million":0.32,"player_ids":["ufc:ufcstats:01641ba5df0c69b0"],"label":"Brasília","country":"Brazil"},"geometry":{"type":"Polygon","coordinates":[[[-46.117749,-17.759599],[-44.70061,-16.685821],[-45.005667,-14.97354],[-46.718173,-14.342511],[-48.126183,-15.422507],[-47.831229,-17.126909],[-46.117749,-17.759599]]]}},{"type":"Feature","properties":{"hex_id":"82a8f7fffffffff","population":2667056,"population_year":2025,"area_km2":93933.6,"population_density":28.4,"all_players":2,"players_per_million":0.75,"player_ids":["ufc:ufcstats:b67d6bacc68d4c92","ufc:ufcstats:cc8c623cca88f54f"],"label":"Uberlândia","country":"Brazil"},"geometry":{"type":"Polygon","coordinates":[[[-47.235943,-20.470042],[-45.814924,-19.435672],[-46.117749,-17.759599],[-47.831229,-17.126909],[-49.241144,-18.169266],[-48.949081,-19.835922],[-47.235943,-20.470042]]]}},{"type":"Feature","properties":{"hex_id":"82a90ffffffffff","population":5687266,"population_year":2025,"area_km2":75672.4,"population_density":75.2,"all_players":1,"players_per_million":0.18,"player_ids":["ufc:ufcstats:18d01f7f8338ae72"],"label":"Porto Alegre","country":"Brazil"},"geometry":{"type":"Polygon","coordinates":[[[-51.753337,-30.359872],[-50.327685,-29.525999],[-50.618998,-28.043997],[-52.323074,-27.407025],[-53.729804,-28.251992],[-53.451698,-29.722439],[-51.753337,-30.359872]]]}},{"type":"Feature","properties":{"hex_id":"82a92ffffffffff","population":1270306,"population_year":2025,"area_km2":70782.3,"population_density":17.9,"all_players":1,"players_per_million":0.79,"player_ids":["ufc:ufcstats:cd2c4d30c6e13b47"],"label":"Bagé","country":"Brazil"},"geometry":{"type":"Polygon","coordinates":[[[-52.889546,-32.565288],[-51.465531,-31.786712],[-51.753337,-30.359872],[-53.451698,-29.722439],[-54.854902,-30.51203],[-54.58085,-31.927643],[-52.889546,-32.565288]]]}},{"type":"Feature","properties":{"hex_id":"82a957fffffffff","population":3802315,"population_year":2025,"area_km2":77902.3,"population_density":48.8,"all_players":2,"players_per_million":0.53,"player_ids":["ufc:ufcstats:52ef95b5860fb28c","ufc:ufcstats:8adcbd525fab8d9b"],"label":"Francisco Beltrão","country":"Brazil"},"geometry":{"type":"Polygon","coordinates":[[[-53.729804,-28.251992],[-52.323074,-27.407025],[-52.605017,-25.883021],[-54.280118,-25.218062],[-55.665148,-26.075268],[-55.397042,-27.584842],[-53.729804,-28.251992]]]}},{"type":"Feature","properties":{"hex_id":"82b35ffffffffff","population":2547730,"population_year":2025,"area_km2":79647.5,"population_density":32.0,"all_players":1,"players_per_million":0.39,"player_ids":["ufc:ufcstats:323d4ca260dfa0ba"],"label":"Salta","country":"Argentina"},"geometry":{"type":"Polygon","coordinates":[[[-64.914945,-24.116355],[-66.296233,-25.199133],[-66.068669,-26.766212],[-64.45063,-27.230124],[-63.094398,-26.146703],[-63.330629,-24.600271],[-64.914945,-24.116355]]]}},{"type":"Feature","properties":{"hex_id":"82bb57fffffffff","population":2517968,"population_year":2025,"area_km2":91641.3,"population_density":27.5,"all_players":4,"players_per_million":1.59,"player_ids":["ufc:ufcstats:193b9d1858bc4df3","ufc:ufcstats:9014c02eff8b3d62","ufc:ufcstats:c15fa95b9a12fde4","ufc:ufcstats:e13abac8089a801a"],"label":"Auckland","country":"New Zealand"},"geometry":{"type":"Polygon","coordinates":[[[176.688659,-37.499409],[176.415194,-35.801656],[174.557652,-35.124424],[172.898106,-36.141695],[173.101494,-37.871743],[175.036544,-38.552712],[176.688659,-37.499409]]]}},{"type":"Feature","properties":{"hex_id":"82bcc7fffffffff","population":16401038,"population_year":2025,"area_km2":95515.4,"population_density":171.7,"all_players":1,"players_per_million":0.06,"player_ids":["ufc:ufcstats:0d7b51c9d2649a6e"],"label":"Welkom","country":"South Africa"},"geometry":{"type":"Polygon","coordinates":[[[29.424697,-28.585894],[30.161044,-27.015106],[28.952033,-25.669244],[27.013681,-25.892672],[26.259296,-27.461202],[27.460057,-28.808795],[29.424697,-28.585894]]]}},{"type":"Feature","properties":{"hex_id":"82bcdffffffffff","population":7053790,"population_year":2025,"area_km2":98815.5,"population_density":71.4,"all_players":1,"players_per_million":0.14,"player_ids":["ufc:ufcstats:3c8a5200436e19f3"],"label":"Pretoria","country":"South Africa"},"geometry":{"type":"Polygon","coordinates":[[[28.952033,-25.669244],[29.682092,-24.063211],[28.491882,-22.684204],[26.579358,-22.908516],[25.832416,-24.51073],[27.013681,-25.892672],[28.952033,-25.669244]]]}},{"type":"Feature","properties":{"hex_id":"82be0ffffffffff","population":6793674,"population_year":2025,"area_km2":104135.0,"population_density":65.2,"all_players":2,"players_per_million":0.29,"player_ids":["ufc:ufcstats:af9f42e6894047fc","ufc:ufcstats:e1248941344b3288"],"label":"Wollongong","country":"Australia"},"geometry":{"type":"Polygon","coordinates":[[[152.177285,-35.125129],[152.420459,-33.332138],[150.704674,-32.253721],[148.729494,-32.935272],[148.409969,-34.714468],[150.140595,-35.826845],[152.177285,-35.125129]]]}},{"type":"Feature","properties":{"hex_id":"82be67fffffffff","population":5799918,"population_year":2025,"area_km2":101417.2,"population_density":57.2,"all_players":1,"players_per_million":0.17,"player_ids":["ufc:ufcstats:a845f0735bc67405"],"label":"Melbourne","country":"Australia"},"geometry":{"type":"Polygon","coordinates":[[[147.365513,-40.022078],[147.728894,-38.261419],[145.990588,-37.115507],[143.887418,-37.698406],[143.445429,-39.437203],[145.182884,-40.615783],[147.365513,-40.022078]]]}},{"type":"Feature","properties":{"hex_id":"82c21ffffffffff","population":718809,"population_year":2025,"area_km2":56786.6,"population_density":12.7,"all_players":1,"players_per_million":1.39,"player_ids":["ufc:ufcstats:239d8e5359022f3b"],"label":"Mar del Plata","country":"Argentina"},"geometry":{"type":"Polygon","coordinates":[[[-56.300463,-38.517762],[-54.888123,-37.903324],[-55.164004,-36.642936],[-56.837235,-36.005614],[-58.223405,-36.629598],[-57.962724,-37.880975],[-56.300463,-38.517762]]]}},{"type":"Feature","properties":{"hex_id":"82c2e7fffffffff","population":16637306,"population_year":2025,"area_km2":59429.4,"population_density":280.0,"all_players":1,"players_per_million":0.06,"player_ids":["ufc:ufcstats:6d1bffff14897645"],"label":"La Plata","country":"Argentina"},"geometry":{"type":"Polygon","coordinates":[[[-58.223405,-36.629598],[-56.837235,-36.005614],[-57.102564,-34.700194],[-58.738685,-34.029993],[-60.04313,-35.087873],[-59.788176,-36.394827],[-58.223405,-36.629598]]]}},{"type":"Feature","properties":{"hex_id":"82ce8ffffffffff","population":1528074,"population_year":2025,"area_km2":74863.4,"population_density":20.4,"all_players":1,"players_per_million":0.65,"player_ids":["ufc:ufcstats:9e8f6c728eb01124"],"label":"Temucuicui","country":"Chile"},"geometry":{"type":"Polygon","coordinates":[[[-72.805854,-40.451791],[-71.573716,-39.340814],[-72.21322,-37.830135],[-74.031951,-37.379975],[-75.305643,-38.448645],[-74.722455,-40.010051],[-72.805854,-40.451791]]]}}]}