{"type":"FeatureCollection","metadata":{"population_source":"WorldPop Global 2 R2025A","population_source_url":"https://hub.worldpop.org/project/categories?id=3","population_license":"CC BY 4.0","population_year":2025,"raster_resolution":"1km","h3_resolution":1,"population_method":"official_country_rasters","occupied_cells":91,"mapped_players":306},"features":[{"type":"Feature","properties":{"hex_id":"81077ffffffffff","population":396051,"population_year":2025,"area_km2":523941.7,"population_density":0.8,"all_players":1,"players_per_million":2.52,"player_ids":["ufc:ufcstats:fd55393021a8c255"],"label":"Akureyri","country":"Iceland"},"geometry":{"type":"Polygon","coordinates":[[[-10.558792,67.153548],[-19.871381,68.67811],[-27.216822,65.518953],[-24.570766,61.430405],[-20.650926,60.988277],[-16.371962,60.568694],[-10.444978,63.095054],[-10.558792,67.153548]]]}},{"type":"Feature","properties":{"hex_id":"8108bffffffffff","population":9413392,"population_year":2025,"area_km2":447684.2,"population_density":21.0,"all_players":1,"players_per_million":0.11,"player_ids":["ufc:ufcstats:0a1942069c9ad6b6"],"label":"Uddevalla","country":"Sweden"},"geometry":{"type":"Polygon","coordinates":[[[11.08066,61.540515],[11.555978,58.130531],[18.275236,56.632953],[25.082722,58.401545],[24.517172,62.478113],[17.535446,63.800793],[15.771774,62.889968],[11.08066,61.540515]]]}},{"type":"Feature","properties":{"hex_id":"810a7ffffffffff","population":196238,"population_year":2025,"area_km2":666617.1,"population_density":0.3,"all_players":1,"players_per_million":5.1,"player_ids":["ufc:ufcstats:d661ce4da776fc20"],"label":"Dudinka","country":"Russia"},"geometry":{"type":"Polygon","coordinates":[[[86.645208,68.69087],[97.85633,67.05472],[108.413824,69.22606],[109.858698,73.856836],[94.14309,76.163043],[82.219119,72.97478],[86.645208,68.69087]]]}},{"type":"Feature","properties":{"hex_id":"810bbffffffffff","population":8932382,"population_year":2025,"area_km2":666617.1,"population_density":13.4,"all_players":1,"players_per_million":0.11,"player_ids":["ufc:ufcstats:369ea36e450ae62a"],"label":"Krasnoyarsk","country":"Russia"},"geometry":{"type":"Polygon","coordinates":[[[77.086922,58.009332],[80.202852,53.696279],[87.772964,52.654203],[93.387021,55.707268],[91.709638,60.139795],[82.82708,61.436708],[77.086922,58.009332]]]}},{"type":"Feature","properties":{"hex_id":"810c7ffffffffff","population":533626,"population_year":2025,"area_km2":510516.1,"population_density":1.0,"all_players":1,"players_per_million":1.87,"player_ids":["ufc:ufcstats:729d4bd5a6cd0a97"],"label":"Anchorage","country":"United States"},"geometry":{"type":"Polygon","coordinates":[[[-149.202517,63.948243],[-155.360739,60.701203],[-152.702606,57.141857],[-145.612516,56.566979],[-139.683593,59.169483],[-140.412111,62.920062],[-149.202517,63.948243]]]}},{"type":"Feature","properties":{"hex_id":"8111bffffffffff","population":41364282,"population_year":2025,"area_km2":565620.1,"population_density":73.1,"all_players":2,"players_per_million":0.05,"player_ids":["ufc:ufcstats:279566840aa55bf2","ufc:ufcstats:ff62013d2fce6d13"],"label":"Moscow","country":"Russia"},"geometry":{"type":"Polygon","coordinates":[[[30.654128,52.413789],[36.116724,49.779343],[42.136829,51.409437],[43.547482,55.820804],[37.661108,58.480663],[31.095814,56.470005],[31.017704,54.340219],[30.654128,52.413789]]]}},{"type":"Feature","properties":{"hex_id":"8114bffffffffff","population":29000700,"population_year":2025,"area_km2":510516.1,"population_density":56.8,"all_players":1,"players_per_million":0.03,"player_ids":["ufc:ufcstats:efb96bf3e9ada36f"],"label":"Hulan District","country":"People's Republic of China"},"geometry":{"type":"Polygon","coordinates":[[[122.152595,47.997963],[125.981142,45.096434],[131.774401,45.253613],[134.763936,48.418018],[131.306406,51.820419],[124.345783,51.539549],[122.152595,47.997963]]]}},{"type":"Feature","properties":{"hex_id":"81187ffffffffff","population":21776966,"population_year":2025,"area_km2":595741.2,"population_density":36.6,"all_players":2,"players_per_million":0.09,"player_ids":["ufc:ufcstats:58bbef3770bb2dfc","ufc:ufcstats:787bb1f087ccff8a"],"label":"La Roche-sur-Yon","country":"France"},"geometry":{"type":"Polygon","coordinates":[[[-4.88976,51.223728],[-9.724736,48.430094],[-8.101589,44.050631],[-2.417796,42.54048],[2.026569,45.184249],[1.18851,49.470279],[-4.88976,51.223728]]]}},{"type":"Feature","properties":{"hex_id":"81197ffffffffff","population":88036357,"population_year":2025,"area_km2":523941.7,"population_density":168.0,"all_players":12,"players_per_million":0.14,"player_ids":["ufc:ufcstats:113df4fde64735c6","ufc:ufcstats:396fe87b84ac2e1c","ufc:ufcstats:399afbabc02376b5","ufc:ufcstats:3e8118c1ab52f211","ufc:ufcstats:4c88a1db5a46c6a4","ufc:ufcstats:51018a31ddf31eb2","ufc:ufcstats:7826923b47f8d72a","ufc:ufcstats:a67d071163962af8","ufc:ufcstats:a93f94c923c3a9cb","ufc:ufcstats:d549cefc7c54ab78","ufc:ufcstats:eabf206b162b3b83","ufc:ufcstats:fd406a32a6fb3a29"],"label":"Liverpool","country":"United Kingdom"},"geometry":{"type":"Polygon","coordinates":[[[-0.931587,57.689497],[-6.436337,55.37739],[-4.88976,51.223728],[1.18851,49.470279],[3.630009,50.610463],[6.259687,51.96477],[5.523647,55.706768],[-0.931587,57.689497]]]}},{"type":"Feature","properties":{"hex_id":"811e3ffffffffff","population":71057199,"population_year":2025,"area_km2":595741.2,"population_density":119.3,"all_players":8,"players_per_million":0.11,"player_ids":["ufc:ufcstats:009341ed974bad72","ufc:ufcstats:333b9e5c723ac873","ufc:ufcstats:5b86d491d63890c5","ufc:ufcstats:72db2a14ffa73ece","ufc:ufcstats:8eb046f83e82bf26","ufc:ufcstats:c9cf753cfdf77fc2","ufc:ufcstats:d7c3816669784109","ufc:ufcstats:f96856f9d69fd7e4"],"label":"Bielsko-Biała","country":"Poland"},"geometry":{"type":"Polygon","coordinates":[[[12.345747,50.554275],[12.677318,46.406957],[18.31474,44.47068],[24.013384,46.595885],[24.329,50.776322],[18.289963,52.819052],[12.345747,50.554275]]]}},{"type":"Feature","properties":{"hex_id":"811e7ffffffffff","population":33092235,"population_year":2025,"area_km2":595741.2,"population_density":55.5,"all_players":2,"players_per_million":0.06,"player_ids":["ufc:ufcstats:cd13728ae1151f46","ufc:ufcstats:f139d6836efd43dd"],"label":"Chișinău","country":"Moldova"},"geometry":{"type":"Polygon","coordinates":[[[24.329,50.776322],[24.013384,46.595885],[29.387082,44.107766],[35.197789,45.672385],[36.116724,49.779343],[30.654128,52.413789],[24.329,50.776322]]]}},{"type":"Feature","properties":{"hex_id":"811ebffffffffff","population":42059136,"population_year":2025,"area_km2":647632.6,"population_density":64.9,"all_players":1,"players_per_million":0.02,"player_ids":["ufc:ufcstats:7d8435c56043b0ae"],"label":"Dubrovnik","country":"Croatia"},"geometry":{"type":"Polygon","coordinates":[[[7.509948,43.786609],[8.045142,39.402136],[13.244313,37.523712],[18.32526,39.988178],[18.31474,44.47068],[12.677318,46.406957],[7.509948,43.786609]]]}},{"type":"Feature","properties":{"hex_id":"811efffffffffff","population":50991723,"population_year":2025,"area_km2":666617.1,"population_density":76.5,"all_players":3,"players_per_million":0.06,"player_ids":["ufc:ufcstats:38c626ca912c7bac","ufc:ufcstats:866fd7b1a6c90e7f","ufc:ufcstats:d7e40dca3ae125be"],"label":"Goražde","country":"Bosnia and Herzegovina"},"geometry":{"type":"Polygon","coordinates":[[[18.31474,44.47068],[18.32526,39.988178],[23.474781,37.630343],[28.846869,39.643311],[29.387082,44.107766],[24.013384,46.595885],[18.31474,44.47068]]]}},{"type":"Feature","properties":{"hex_id":"811f3ffffffffff","population":49754999,"population_year":2025,"area_km2":510516.1,"population_density":97.5,"all_players":3,"players_per_million":0.06,"player_ids":["ufc:ufcstats:54f64b5e283b0ce7","ufc:ufcstats:9d19d9e4aa2662e8","ufc:ufcstats:b7b84ccd221be298"],"label":"Halle","country":"Germany"},"geometry":{"type":"Polygon","coordinates":[[[5.523647,55.706768],[6.259687,51.96477],[12.345747,50.554275],[18.289963,52.819052],[18.275236,56.632953],[11.555978,58.130531],[5.523647,55.706768]]]}},{"type":"Feature","properties":{"hex_id":"811f7ffffffffff","population":25290714,"population_year":2025,"area_km2":523941.7,"population_density":48.3,"all_players":3,"players_per_million":0.12,"player_ids":["ufc:ufcstats:476fe566d2df676e","ufc:ufcstats:6370c1c1e12723d5","ufc:ufcstats:a78a87d8c2bbb1cb"],"label":"Warsaw","country":"Lithuania"},"geometry":{"type":"Polygon","coordinates":[[[18.275236,56.632953],[18.289963,52.819052],[24.329,50.776322],[30.654128,52.413789],[31.017704,54.340219],[31.095814,56.470005],[25.082722,58.401545],[18.275236,56.632953]]]}},{"type":"Feature","properties":{"hex_id":"811fbffffffffff","population":119418410,"population_year":2025,"area_km2":565620.1,"population_density":211.1,"all_players":2,"players_per_million":0.02,"player_ids":["ufc:ufcstats:1e4f273069fb9e85","ufc:ufcstats:7acbb0972e75281a"],"label":"Vénissieux","country":"France"},"geometry":{"type":"Polygon","coordinates":[[[1.18851,49.470279],[2.026569,45.184249],[7.509948,43.786609],[12.677318,46.406957],[12.345747,50.554275],[6.259687,51.96477],[3.630009,50.610463],[1.18851,49.470279]]]}},{"type":"Feature","properties":{"hex_id":"81203ffffffffff","population":7957080,"population_year":2025,"area_km2":729486.9,"population_density":10.9,"all_players":4,"players_per_million":0.5,"player_ids":["ufc:ufcstats:132deb59abae64b1","ufc:ufcstats:8d3273573b85be09","ufc:ufcstats:a4dc0f2b95df4cc1","ufc:ufcstats:c814b4c899793af6"],"label":"Sarysu District","country":"Kazakhstan"},"geometry":{"type":"Polygon","coordinates":[[[64.65954,46.076794],[68.048608,41.985775],[74.436338,41.761837],[78.337155,45.598111],[75.550129,49.975877],[68.13563,50.235864],[64.65954,46.076794]]]}},{"type":"Feature","properties":{"hex_id":"8120bffffffffff","population":103642617,"population_year":2025,"area_km2":707475.0,"population_density":146.5,"all_players":4,"players_per_million":0.04,"player_ids":["ufc:ufcstats:49d2a08964c5eb11","ufc:ufcstats:8d11d9c13e2ccdf7","ufc:ufcstats:bf2c8e01b07d3eb1","ufc:ufcstats:ef5dcb10d2bd4b0f"],"label":"Angren","country":"Uzbekistan"},"geometry":{"type":"Polygon","coordinates":[[[65.030331,37.894404],[67.98289,33.902397],[73.592618,33.705753],[76.945351,37.477284],[74.436338,41.761837],[68.048608,41.985775],[65.030331,37.894404]]]}},{"type":"Feature","properties":{"hex_id":"8124fffffffffff","population":30996370,"population_year":2025,"area_km2":523941.7,"population_density":59.2,"all_players":1,"players_per_million":0.03,"player_ids":["ufc:ufcstats:1897b7b913736a7c"],"label":"Alxa League","country":"People's Republic of China"},"geometry":{"type":"Polygon","coordinates":[[[101.933828,40.61512],[102.303253,36.369976],[104.504316,35.604157],[106.967721,34.902991],[110.694611,37.163896],[110.981139,41.216599],[106.535601,43.139813],[101.933828,40.61512]]]}},{"type":"Feature","properties":{"hex_id":"81263ffffffffff","population":10240947,"population_year":2025,"area_km2":614937.0,"population_density":16.7,"all_players":2,"players_per_million":0.2,"player_ids":["ufc:ufcstats:519e4fe37ce9ff75","ufc:ufcstats:99bd51917728c25d"],"label":"Omaha","country":"United States"},"geometry":{"type":"Polygon","coordinates":[[[-99.917049,47.471519],[-102.323756,45.197628],[-103.535954,44.08338],[-101.04033,40.088597],[-95.246862,39.326803],[-92.81941,41.451207],[-91.476262,42.44496],[-93.395849,46.63002],[-99.917049,47.471519]]]}},{"type":"Feature","properties":{"hex_id":"81267ffffffffff","population":25791718,"population_year":2025,"area_km2":602082.0,"population_density":42.8,"all_players":12,"players_per_million":0.47,"player_ids":["ufc:ufcstats:1a9480fc288e55d7","ufc:ufcstats:262a7d06203657e6","ufc:ufcstats:4682bc59d5f55145","ufc:ufcstats:4b93a88f3b1de35b","ufc:ufcstats:511e82663651438d","ufc:ufcstats:92a9aa9c93192871","ufc:ufcstats:a67f5afa8d6a1b80","ufc:ufcstats:b9437600497350f3","ufc:ufcstats:d0e1b42d41dab603","ufc:ufcstats:d2cd7a69cc55e7ed","ufc:ufcstats:d9c6f19f958643e9","ufc:ufcstats:fa6796c55d6c5440"],"label":"St. Louis","country":"United States"},"geometry":{"type":"Polygon","coordinates":[[[-88.065886,34.059836],[-84.585167,37.099589],[-85.703199,41.161269],[-91.476262,42.44496],[-92.81941,41.451207],[-95.246862,39.326803],[-93.265212,35.090108],[-88.065886,34.059836]]]}},{"type":"Feature","properties":{"hex_id":"8126bffffffffff","population":8947665,"population_year":2025,"area_km2":647632.6,"population_density":13.8,"all_players":8,"players_per_million":0.89,"player_ids":["ufc:ufcstats:35673bf5204524ee","ufc:ufcstats:523fa774700d7d3f","ufc:ufcstats:65f09bacd3957381","ufc:ufcstats:6a740daf1b279661","ufc:ufcstats:6e15f63b6c2e2c15","ufc:ufcstats:6fd953151d981979","ufc:ufcstats:c58f51dedb310998","ufc:ufcstats:e4277e87a789d687"],"label":"Denver","country":"United States"},"geometry":{"type":"Polygon","coordinates":[[[-104.454816,36.494369],[-101.04033,40.088597],[-103.535954,44.08338],[-109.788387,44.413071],[-113.046271,40.72062],[-110.257485,36.800197],[-104.454816,36.494369]]]}},{"type":"Feature","properties":{"hex_id":"8126fffffffffff","population":17160726,"population_year":2025,"area_km2":666617.1,"population_density":25.7,"all_players":8,"players_per_million":0.47,"player_ids":["ufc:ufcstats:13a0275fa13c4d26","ufc:ufcstats:45f0cc9d18f35137","ufc:ufcstats:46e0d677f91bacc0","ufc:ufcstats:700a674c042b7a96","ufc:ufcstats:814e5233e2acf2ee","ufc:ufcstats:c68c68efaa5ca6ef","ufc:ufcstats:c96d9178c9ed9e62","ufc:ufcstats:fe2babf95de24fb1"],"label":"Dallas","country":"United States"},"geometry":{"type":"Polygon","coordinates":[[[-96.66289,31.619531],[-93.265212,35.090108],[-95.246862,39.326803],[-101.04033,40.088597],[-104.454816,36.494369],[-102.093235,32.268747],[-96.66289,31.619531]]]}},{"type":"Feature","properties":{"hex_id":"81273ffffffffff","population":1973811,"population_year":2025,"area_km2":666617.1,"population_density":3.0,"all_players":1,"players_per_million":0.51,"player_ids":["ufc:ufcstats:7b433309b0fd12aa"],"label":"Winnipeg","country":"Canada"},"geometry":{"type":"Polygon","coordinates":[[[-98.561848,55.218551],[-102.902298,51.556776],[-99.917049,47.471519],[-93.395849,46.63002],[-88.654124,49.812423],[-90.651446,54.300916],[-98.561848,55.218551]]]}},{"type":"Feature","properties":{"hex_id":"81277ffffffffff","population":23070026,"population_year":2025,"area_km2":647632.6,"population_density":35.6,"all_players":8,"players_per_million":0.35,"player_ids":["ufc:ufcstats:2558ae2e5671e318","ufc:ufcstats:47b63240018d5d86","ufc:ufcstats:5444c5a201d3ee5a","ufc:ufcstats:6ac9bc2953c47345","ufc:ufcstats:6d68c1afe954f121","ufc:ufcstats:7cbf7c78d3b34218","ufc:ufcstats:b1b0729d27936f2f","ufc:ufcstats:be9bdec19b7e9ffe"],"label":"Chicago","country":"United States"},"geometry":{"type":"Polygon","coordinates":[[[-88.654124,49.812423],[-93.395849,46.63002],[-91.476262,42.44496],[-85.703199,41.161269],[-80.982253,43.86012],[-81.919627,48.295316],[-88.654124,49.812423]]]}},{"type":"Feature","properties":{"hex_id":"81283ffffffffff","population":15759816,"population_year":2025,"area_km2":595741.2,"population_density":26.5,"all_players":3,"players_per_million":0.19,"player_ids":["ufc:ufcstats:093e1f5bb73850be","ufc:ufcstats:32c3ee378671a5d9","ufc:ufcstats:8c0580d4fff106c1"],"label":"Dunnigan","country":"United States"},"geometry":{"type":"Polygon","coordinates":[[[-121.707157,36.574218],[-119.002282,40.570572],[-122.134831,44.057691],[-127.958662,43.419208],[-130.222638,39.442424],[-127.138101,36.079796],[-121.707157,36.574218]]]}},{"type":"Feature","properties":{"hex_id":"8128bffffffffff","population":4004885,"population_year":2025,"area_km2":595741.2,"population_density":6.7,"all_players":5,"players_per_million":1.25,"player_ids":["ufc:ufcstats:3253b16d38ae087d","ufc:ufcstats:37098a6e6c27fb66","ufc:ufcstats:809bd1a871491508","ufc:ufcstats:b50a426a33da0012","ufc:ufcstats:bc711b6dd95c1af6"],"label":"Spokane","country":"United States"},"geometry":{"type":"Polygon","coordinates":[[[-113.046271,40.72062],[-109.788387,44.413071],[-112.788004,48.011188],[-119.232215,47.804097],[-122.134831,44.057691],[-119.002282,40.570572],[-113.046271,40.72062]]]}},{"type":"Feature","properties":{"hex_id":"8128fffffffffff","population":14259378,"population_year":2025,"area_km2":523941.7,"population_density":27.2,"all_players":5,"players_per_million":0.35,"player_ids":["ufc:ufcstats:5987b2458f4b5290","ufc:ufcstats:8fd808923cffff82","ufc:ufcstats:902ec2cc48c8ae8a","ufc:ufcstats:971246648e162f0d","ufc:ufcstats:b96619b3acd7d9da"],"label":"Federal Way","country":"United States"},"geometry":{"type":"Polygon","coordinates":[[[-122.134831,44.057691],[-119.232215,47.804097],[-120.907545,49.395034],[-123.122866,50.984711],[-128.909854,50.154512],[-131.290159,46.416948],[-127.958662,43.419208],[-122.134831,44.057691]]]}},{"type":"Feature","properties":{"hex_id":"8129bffffffffff","population":31485482,"population_year":2025,"area_km2":666617.1,"population_density":47.2,"all_players":21,"players_per_million":0.67,"player_ids":["ufc:ufcstats:056c493bbd76a918","ufc:ufcstats:07a74004d964c7f4","ufc:ufcstats:0d8011111be000b2","ufc:ufcstats:2e19380f34871c6a","ufc:ufcstats:2fe9032955c2e013","ufc:ufcstats:3a46b268013afede","ufc:ufcstats:4144798612ef96e5","ufc:ufcstats:4d8fa64202cee4c1","ufc:ufcstats:5537efc6e496dd84","ufc:ufcstats:5eb50529a8418b77","ufc:ufcstats:60425d07ef4b91a7","ufc:ufcstats:749f572d1d3161fb","ufc:ufcstats:887961364be5ceb3","ufc:ufcstats:8a1f3b5c526cd6e6","ufc:ufcstats:955da1675ad58a50","ufc:ufcstats:a495f599e787614f","ufc:ufcstats:ab2b4ff41d6ebe0f","ufc:ufcstats:b08012bbe542592a","ufc:ufcstats:b0d6a1d8ac3d563d","ufc:ufcstats:c77a953488e5607d","ufc:ufcstats:def8166ff24bd237"],"label":"Los Angeles","country":"United States"},"geometry":{"type":"Polygon","coordinates":[[[-113.268008,32.856905],[-110.257485,36.800197],[-113.046271,40.72062],[-119.002282,40.570572],[-121.707157,36.574218],[-118.804528,32.779438],[-113.268008,32.856905]]]}},{"type":"Feature","properties":{"hex_id":"812a3ffffffffff","population":39671228,"population_year":2025,"area_km2":595741.2,"population_density":66.6,"all_players":15,"players_per_million":0.38,"player_ids":["ufc:ufcstats:05339613bf8e9808","ufc:ufcstats:31ef8b67e13495b3","ufc:ufcstats:45f7cb591c3ab00b","ufc:ufcstats:6d4b63c767106d3a","ufc:ufcstats:7026eca45f65377b","ufc:ufcstats:751de04455cfaac0","ufc:ufcstats:84b3e7d38f2d2ec5","ufc:ufcstats:af65aa688d13eedf","ufc:ufcstats:c1085e1701b13eca","ufc:ufcstats:c6aee362c7a7d482","ufc:ufcstats:cb696ebfb6598724","ufc:ufcstats:d1941565abf50b16","ufc:ufcstats:d6c0cdd7e467c440","ufc:ufcstats:dccb63727f2f5f74","ufc:ufcstats:fb3e61720be4690c"],"label":"Philadelphia","country":"United States"},"geometry":{"type":"Polygon","coordinates":[[[-69.955068,44.277849],[-75.333452,42.029564],[-75.063317,37.849069],[-70.311412,35.933887],[-65.448142,37.822091],[-64.835193,41.948534],[-69.955068,44.277849]]]}},{"type":"Feature","properties":{"hex_id":"812abffffffffff","population":54889027,"population_year":2025,"area_km2":595741.2,"population_density":92.1,"all_players":9,"players_per_million":0.16,"player_ids":["ufc:ufcstats:1af1170ed937cba7","ufc:ufcstats:2cfba6c837c03ed0","ufc:ufcstats:38c7f72747f4f712","ufc:ufcstats:5442f1bc4b47eaf3","ufc:ufcstats:5f61780fe5e9b6d0","ufc:ufcstats:71505842fb6455c3","ufc:ufcstats:873626e5547b5235","ufc:ufcstats:d8c7c61b176e3994","ufc:ufcstats:dd6103dd7127db1d"],"label":"Springfield Township","country":"United States"},"geometry":{"type":"Polygon","coordinates":[[[-80.982253,43.86012],[-85.703199,41.161269],[-84.585167,37.099589],[-79.557618,35.583567],[-75.063317,37.849069],[-75.333452,42.029564],[-80.982253,43.86012]]]}},{"type":"Feature","properties":{"hex_id":"812bbffffffffff","population":23927662,"population_year":2025,"area_km2":666617.1,"population_density":35.9,"all_players":4,"players_per_million":0.17,"player_ids":["ufc:ufcstats:24656ef4d605c96f","ufc:ufcstats:31f8081c7600da93","ufc:ufcstats:8e9eb3fc86db0f7d","ufc:ufcstats:f1d64ae34e088832"],"label":"Laval","country":"Canada"},"geometry":{"type":"Polygon","coordinates":[[[-76.057729,50.990211],[-81.919627,48.295316],[-80.982253,43.86012],[-75.333452,42.029564],[-69.955068,44.277849],[-69.719479,48.757432],[-76.057729,50.990211]]]}},{"type":"Feature","properties":{"hex_id":"812c3ffffffffff","population":48394646,"population_year":2025,"area_km2":614937.0,"population_density":78.7,"all_players":13,"players_per_million":0.27,"player_ids":["ufc:ufcstats:08af939f41b5a57b","ufc:ufcstats:327d5f279895110d","ufc:ufcstats:3bc3f60b21cddc6a","ufc:ufcstats:6a96ad1bc34fb113","ufc:ufcstats:767755fd74662dbf","ufc:ufcstats:7772b283d288dbe2","ufc:ufcstats:9560ff14eb3129f7","ufc:ufcstats:a52bc1e62cf0b7c6","ufc:ufcstats:b07aed698fba8624","ufc:ufcstats:c03520b5c88ed6b4","ufc:ufcstats:d802174b0c0c1f4e","ufc:ufcstats:e803242fb2e41112","ufc:ufcstats:eae48ff31db420c2"],"label":"Tbilisi","country":"Russia"},"geometry":{"type":"Polygon","coordinates":[[[38.930218,38.400687],[43.074401,35.326156],[46.40451,36.114445],[48.114436,36.404919],[49.670644,40.636123],[45.504839,43.945519],[41.788831,43.124283],[39.938746,42.736298],[38.930218,38.400687]]]}},{"type":"Feature","properties":{"hex_id":"812c7ffffffffff","population":5336968,"population_year":2025,"area_km2":666617.1,"population_density":8.0,"all_players":6,"players_per_million":1.12,"player_ids":["ufc:ufcstats:0fd5f4b838e890cc","ufc:ufcstats:275aca31f61ba28c","ufc:ufcstats:2b6fc1c02736833d","ufc:ufcstats:36b8f265bcd1b7a4","ufc:ufcstats:447f9858ae78f921","ufc:ufcstats:881bf86d4cba8578"],"label":"Makhachkala","country":"Russia"},"geometry":{"type":"Polygon","coordinates":[[[45.504839,43.945519],[49.670644,40.636123],[55.527294,41.39291],[57.92568,45.709642],[53.670494,49.372118],[47.038223,48.339942],[45.504839,43.945519]]]}},{"type":"Feature","properties":{"hex_id":"812cfffffffffff","population":40779359,"population_year":2025,"area_km2":647632.6,"population_density":63.0,"all_players":1,"players_per_million":0.02,"player_ids":["ufc:ufcstats:ae81a3ac7b260411"],"label":"Sahil","country":"Azerbaijan"},"geometry":{"type":"Polygon","coordinates":[[[48.114436,36.404919],[51.71868,33.03025],[56.949853,33.546049],[59.150327,37.656443],[55.527294,41.39291],[49.670644,40.636123],[48.114436,36.404919]]]}},{"type":"Feature","properties":{"hex_id":"812d3ffffffffff","population":35376976,"population_year":2025,"area_km2":647632.6,"population_density":54.6,"all_players":1,"players_per_million":0.03,"player_ids":["ufc:ufcstats:6e8f1bcdda94ff45"],"label":"Niğde","country":"Turkey"},"geometry":{"type":"Polygon","coordinates":[[[29.387082,44.107766],[28.846869,39.643311],[33.614584,36.858664],[38.930218,38.400687],[39.938746,42.736298],[35.197789,45.672385],[29.387082,44.107766]]]}},{"type":"Feature","properties":{"hex_id":"812d7ffffffffff","population":24372623,"population_year":2025,"area_km2":602082.0,"population_density":40.5,"all_players":3,"players_per_million":0.12,"player_ids":["ufc:ufcstats:1091d4d957141094","ufc:ufcstats:e90a2f22417af68e","ufc:ufcstats:f14cf73e51b29254"],"label":"Dygulybgey","country":"Russia"},"geometry":{"type":"Polygon","coordinates":[[[35.197789,45.672385],[39.938746,42.736298],[41.788831,43.124283],[45.504839,43.945519],[47.038223,48.339942],[42.136829,51.409437],[36.116724,49.779343],[35.197789,45.672385]]]}},{"type":"Feature","properties":{"hex_id":"812e7ffffffffff","population":52072688,"population_year":2025,"area_km2":510516.1,"population_density":102.0,"all_players":2,"players_per_million":0.04,"player_ids":["ufc:ufcstats:98aa60cf58071fd6","ufc:ufcstats:d33da8a3d82bdb62"],"label":"Toyohashi","country":"Japan"},"geometry":{"type":"Polygon","coordinates":[[[139.948213,36.441778],[138.515018,40.617501],[133.570126,41.410447],[130.657533,38.194564],[132.308377,34.331159],[136.697641,33.378798],[139.948213,36.441778]]]}},{"type":"Feature","properties":{"hex_id":"812f7ffffffffff","population":38419612,"population_year":2025,"area_km2":565620.1,"population_density":67.9,"all_players":1,"players_per_million":0.03,"player_ids":["ufc:ufcstats:d8c811df0386d5e8"],"label":"Saitama Prefecture","country":"Japan"},"geometry":{"type":"Polygon","coordinates":[[[145.91104,30.789834],[144.831325,35.18743],[139.948213,36.441778],[136.697641,33.378798],[137.3956,31.331749],[137.800087,29.424814],[142.433222,27.949606],[145.91104,30.789834]]]}},{"type":"Feature","properties":{"hex_id":"81313ffffffffff","population":23213423,"population_year":2025,"area_km2":447684.2,"population_density":51.9,"all_players":1,"players_per_million":0.04,"player_ids":["ufc:ufcstats:7d420039bbfe7c1a"],"label":"Xilingol League","country":"People's Republic of China"},"geometry":{"type":"Polygon","coordinates":[[[115.501139,43.254142],[119.13691,41.148271],[120.555881,41.717194],[123.984121,41.999374],[125.981142,45.096434],[122.152595,47.997963],[116.212896,47.309451],[115.501139,43.254142]]]}},{"type":"Feature","properties":{"hex_id":"8131bffffffffff","population":167852256,"population_year":2025,"area_km2":447684.2,"population_density":374.9,"all_players":1,"players_per_million":0.01,"player_ids":["ufc:ufcstats:1ebe20ebbfa15e29"],"label":"Handan","country":"People's Republic of China"},"geometry":{"type":"Polygon","coordinates":[[[110.981139,41.216599],[110.694611,37.163896],[115.340961,35.522424],[118.869299,37.429854],[118.582885,38.614967],[119.13691,41.148271],[115.501139,43.254142],[110.981139,41.216599]]]}},{"type":"Feature","properties":{"hex_id":"81397ffffffffff","population":31465600,"population_year":2025,"area_km2":602082.0,"population_density":52.3,"all_players":4,"players_per_million":0.13,"player_ids":["ufc:ufcstats:1d2d98ddd05b38fb","ufc:ufcstats:34ff304266360297","ufc:ufcstats:7a5e8c94a86f9895","ufc:ufcstats:c2299ec916bc7c56"],"label":"Nice","country":"France"},"geometry":{"type":"Polygon","coordinates":[[[-2.417796,42.54048],[-1.416234,38.115997],[0.238716,37.588846],[3.543589,36.597898],[8.045142,39.402136],[7.509948,43.786609],[2.026569,45.184249],[-2.417796,42.54048]]]}},{"type":"Feature","properties":{"hex_id":"8139bffffffffff","population":29060879,"population_year":2025,"area_km2":666617.1,"population_density":43.6,"all_players":1,"players_per_million":0.03,"player_ids":["ufc:ufcstats:52c2ae6d2f2d2613"],"label":"Casablanca","country":"Morocco"},"geometry":{"type":"Polygon","coordinates":[[[-10.744488,36.38323],[-14.570452,32.954386],[-12.948555,28.514936],[-8.002014,27.502909],[-4.341769,30.698974],[-5.442348,35.124424],[-10.744488,36.38323]]]}},{"type":"Feature","properties":{"hex_id":"813cfffffffffff","population":285984465,"population_year":2025,"area_km2":666617.1,"population_density":429.0,"all_players":1,"players_per_million":0.0,"player_ids":["ufc:ufcstats:17e97649403ba428"],"label":"Hakha","country":"Myanmar"},"geometry":{"type":"Polygon","coordinates":[[[97.148502,22.297036],[95.855137,26.622305],[90.911168,27.664083],[87.416541,24.410902],[88.797306,20.114256],[93.60132,19.035204],[97.148502,22.297036]]]}},{"type":"Feature","properties":{"hex_id":"813d3ffffffffff","population":80376689,"population_year":2025,"area_km2":666617.1,"population_density":120.6,"all_players":1,"players_per_million":0.01,"player_ids":["ufc:ufcstats:a72a2a769fa5a2be"],"label":"Dehradun","country":"India"},"geometry":{"type":"Polygon","coordinates":[[[73.592618,33.705753],[75.868402,29.662739],[81.028378,29.173754],[84.479601,32.589943],[82.728687,36.835377],[76.945351,37.477284],[73.592618,33.705753]]]}},{"type":"Feature","properties":{"hex_id":"8140fffffffffff","population":91641032,"population_year":2025,"area_km2":565620.1,"population_density":162.0,"all_players":1,"players_per_million":0.01,"player_ids":["ufc:ufcstats:3cf18e01cb6cbde3"],"label":"Sichuan","country":"People's Republic of China"},"geometry":{"type":"Polygon","coordinates":[[[108.088674,30.953537],[106.967721,34.902991],[104.504316,35.604157],[102.303253,36.369976],[98.228504,33.62107],[99.516939,29.61536],[104.42056,28.291742],[108.088674,30.953537]]]}},{"type":"Feature","properties":{"hex_id":"81427ffffffffff","population":198959790,"population_year":2025,"area_km2":647632.6,"population_density":307.2,"all_players":2,"players_per_million":0.01,"player_ids":["ufc:ufcstats:a09ed60aa67a3f67","ufc:ufcstats:bbab3baf66128ae2"],"label":"Paktia Province","country":"Afghanistan"},"geometry":{"type":"Polygon","coordinates":[[[65.31585,30.032245],[67.931507,26.281366],[72.931624,26.106099],[75.868402,29.662739],[73.592618,33.705753],[67.98289,33.902397],[65.31585,30.032245]]]}},{"type":"Feature","properties":{"hex_id":"81443ffffffffff","population":10265740,"population_year":2025,"area_km2":595741.2,"population_density":17.2,"all_players":1,"players_per_million":0.1,"player_ids":["ufc:ufcstats:d8da10db80131bec"],"label":"Cape Coral","country":"United States"},"geometry":{"type":"Polygon","coordinates":[[[-83.891248,21.244199],[-80.82969,24.429618],[-81.966494,28.631807],[-86.545778,29.759287],[-89.807712,26.426478],[-88.2959,22.120731],[-83.891248,21.244199]]]}},{"type":"Feature","properties":{"hex_id":"81447ffffffffff","population":18780862,"population_year":2025,"area_km2":647632.6,"population_density":29.0,"all_players":7,"players_per_million":0.37,"player_ids":["ufc:ufcstats:029eaff01e6bb8f0","ufc:ufcstats:05fa626cb33d15b8","ufc:ufcstats:67c1d46f4ed16f9e","ufc:ufcstats:9cdd2da1a9104a0b","ufc:ufcstats:a7151778b3381036","ufc:ufcstats:cdb96af67d096b1e","ufc:ufcstats:d3df1add9d9a7efb"],"label":"New Orleans","country":"United States"},"geometry":{"type":"Polygon","coordinates":[[[-89.807712,26.426478],[-86.545778,29.759287],[-88.065886,34.059836],[-93.265212,35.090108],[-96.66289,31.619531],[-94.743568,27.264006],[-89.807712,26.426478]]]}},{"type":"Feature","properties":{"hex_id":"8144bffffffffff","population":13618822,"population_year":2025,"area_km2":510516.1,"population_density":26.7,"all_players":1,"players_per_million":0.07,"player_ids":["ufc:ufcstats:e00a3dee329a51f7"],"label":"Miami","country":"United States"},"geometry":{"type":"Polygon","coordinates":[[[-76.831217,23.342863],[-73.868279,26.190449],[-74.640468,30.219492],[-78.735928,31.57726],[-81.966494,28.631807],[-80.82969,24.429618],[-76.831217,23.342863]]]}},{"type":"Feature","properties":{"hex_id":"8144fffffffffff","population":31558550,"population_year":2025,"area_km2":565620.1,"population_density":55.8,"all_players":4,"players_per_million":0.13,"player_ids":["ufc:ufcstats:2f181c0467965b98","ufc:ufcstats:4a28cb716c19157a","ufc:ufcstats:7f6ed67d3ed3c036","ufc:ufcstats:f14f644d41ade29f"],"label":"Beaufort","country":"United States"},"geometry":{"type":"Polygon","coordinates":[[[-81.966494,28.631807],[-78.735928,31.57726],[-79.270109,33.659462],[-79.557618,35.583567],[-84.585167,37.099589],[-88.065886,34.059836],[-86.545778,29.759287],[-81.966494,28.631807]]]}},{"type":"Feature","properties":{"hex_id":"81467ffffffffff","population":1069513,"population_year":2025,"area_km2":666617.1,"population_density":1.6,"all_players":4,"players_per_million":3.74,"player_ids":["ufc:ufcstats:0c6d9ea8306c029e","ufc:ufcstats:150ff4cc642270b9","ufc:ufcstats:64facb6cc564262d","ufc:ufcstats:82a5152216251682"],"label":"Kailua","country":"United States"},"geometry":{"type":"Polygon","coordinates":[[[-164.456478,26.673265],[-165.758017,22.310289],[-162.396941,19.114486],[-157.606849,20.259692],[-156.089989,24.696711],[-159.565972,27.919872],[-164.456478,26.673265]]]}},{"type":"Feature","properties":{"hex_id":"81483ffffffffff","population":7791173,"population_year":2025,"area_km2":729486.9,"population_density":10.7,"all_players":1,"players_per_million":0.13,"player_ids":["ufc:ufcstats:cbf5e6f231b55443"],"label":"Hidalgo del Parral","country":"Mexico"},"geometry":{"type":"Polygon","coordinates":[[[-105.946435,20.212679],[-103.011626,24.121727],[-105.250678,28.43866],[-110.662618,28.72381],[-113.460448,24.671634],[-111.016001,20.479742],[-105.946435,20.212679]]]}},{"type":"Feature","properties":{"hex_id":"81487ffffffffff","population":7407980,"population_year":2025,"area_km2":707475.0,"population_density":10.5,"all_players":2,"players_per_million":0.27,"player_ids":["ufc:ufcstats:5ef94841c4bc3f86","ufc:ufcstats:792be9a24df82ed6"],"label":"Tijuana","country":"Mexico"},"geometry":{"type":"Polygon","coordinates":[[[-113.460448,24.671634],[-110.662618,28.72381],[-113.268008,32.856905],[-118.804528,32.779438],[-121.336628,28.653019],[-118.632643,24.676155],[-113.460448,24.671634]]]}},{"type":"Feature","properties":{"hex_id":"8148bffffffffff","population":22495747,"population_year":2025,"area_km2":707475.0,"population_density":31.8,"all_players":3,"players_per_million":0.13,"player_ids":["ufc:ufcstats:077e3ace32b72be9","ufc:ufcstats:b997be68943010fc","ufc:ufcstats:d4c9dcd330403612"],"label":"Corpus Christi","country":"United States"},"geometry":{"type":"Polygon","coordinates":[[[-97.905634,23.589794],[-94.743568,27.264006],[-96.66289,31.619531],[-102.093235,32.268747],[-105.250678,28.43866],[-103.011626,24.121727],[-97.905634,23.589794]]]}},{"type":"Feature","properties":{"hex_id":"8148fffffffffff","population":14949273,"population_year":2025,"area_km2":707475.0,"population_density":21.1,"all_players":3,"players_per_million":0.2,"player_ids":["ufc:ufcstats:7447e9f28508106a","ufc:ufcstats:97cf1a2c7c5e7889","ufc:ufcstats:fba03cd6cc28dc41"],"label":"Phoenix","country":"United States"},"geometry":{"type":"Polygon","coordinates":[[[-105.250678,28.43866],[-102.093235,32.268747],[-104.454816,36.494369],[-110.257485,36.800197],[-113.268008,32.856905],[-110.662618,28.72381],[-105.250678,28.43866]]]}},{"type":"Feature","properties":{"hex_id":"8149bffffffffff","population":82320512,"population_year":2025,"area_km2":707475.0,"population_density":116.4,"all_players":3,"players_per_million":0.04,"player_ids":["ufc:ufcstats:4148802ae4a50768","ufc:ufcstats:9a97acbfd5a08bfa","ufc:ufcstats:e8b731feff72294b"],"label":"Mexico City","country":"Mexico"},"geometry":{"type":"Polygon","coordinates":[[[-99.004086,15.55132],[-96.05021,19.269007],[-97.905634,23.589794],[-103.011626,24.121727],[-105.946435,20.212679],[-103.819339,15.969878],[-99.004086,15.55132]]]}},{"type":"Feature","properties":{"hex_id":"814a3ffffffffff","population":1356428,"population_year":2025,"area_km2":595741.2,"population_density":2.3,"all_players":1,"players_per_million":0.74,"player_ids":["ufc:ufcstats:4461d7e47375a895"],"label":"Naha","country":"Japan"},"geometry":{"type":"Polygon","coordinates":[[[125.719882,25.218062],[126.560782,21.137466],[131.050919,19.835922],[134.795943,22.710396],[133.976139,26.829336],[129.381002,28.043997],[125.719882,25.218062]]]}},{"type":"Feature","properties":{"hex_id":"8158bffffffffff","population":107607985,"population_year":2025,"area_km2":510516.1,"population_density":210.8,"all_players":3,"players_per_million":0.03,"player_ids":["ufc:ufcstats:1338e2c7480bdf9e","ufc:ufcstats:94426bb170c88115","ufc:ufcstats:f1b2aa7853d1ed6e"],"label":"Lagos","country":"Nigeria"},"geometry":{"type":"Polygon","coordinates":[[[-0.319183,9.731837],[0.309804,5.864518],[3.943036,3.968797],[7.212915,5.860392],[6.801169,9.899743],[2.888108,11.881771],[-0.319183,9.731837]]]}},{"type":"Feature","properties":{"hex_id":"815f3ffffffffff","population":1690028,"population_year":2025,"area_km2":647632.6,"population_density":2.6,"all_players":2,"players_per_million":1.18,"player_ids":["ufc:ufcstats:2cd428e9606856fd","ufc:ufcstats:a53d30163304aa6e"],"label":"Skeldon","country":"Guyana"},"geometry":{"type":"Polygon","coordinates":[[[-53.682044,-0.170178],[-51.252816,3.813395],[-53.403819,7.752291],[-57.846431,7.694211],[-60.165868,3.84262],[-58.16364,-0.07918],[-53.682044,-0.170178]]]}},{"type":"Feature","properties":{"hex_id":"8166bffffffffff","population":5417626,"population_year":2025,"area_km2":647632.6,"population_density":8.4,"all_players":1,"players_per_million":0.18,"player_ids":["ufc:ufcstats:f9ab66e67240db7b"],"label":"Panama City","country":"Panama"},"geometry":{"type":"Polygon","coordinates":[[[-83.843685,10.069625],[-86.589994,6.605187],[-84.773307,2.504605],[-80.134859,1.975922],[-77.440699,5.563142],[-79.317401,9.553624],[-83.843685,10.069625]]]}},{"type":"Feature","properties":{"hex_id":"81673ffffffffff","population":8373126,"population_year":2025,"area_km2":510516.1,"population_density":16.4,"all_players":1,"players_per_million":0.12,"player_ids":["ufc:ufcstats:f1fac969a1d70b08"],"label":"Kingston","country":"Jamaica"},"geometry":{"type":"Polygon","coordinates":[[[-75.998548,19.358823],[-78.539302,16.469566],[-76.701678,12.819508],[-72.317998,12.204723],[-69.89993,15.209504],[-71.730136,18.713931],[-75.998548,19.358823]]]}},{"type":"Feature","properties":{"hex_id":"81697ffffffffff","population":61355356,"population_year":2025,"area_km2":602082.0,"population_density":101.9,"all_players":1,"players_per_million":0.02,"player_ids":["ufc:ufcstats:cad24459b28592ca"],"label":"Clark Air Base","country":"Philippines"},"geometry":{"type":"Polygon","coordinates":[[[115.517768,16.517912],[116.372319,12.105102],[117.720512,11.610617],[120.449366,10.736966],[123.854824,13.797501],[123.023555,18.12707],[118.803002,19.252195],[115.517768,16.517912]]]}},{"type":"Feature","properties":{"hex_id":"816afffffffffff","population":97315062,"population_year":2025,"area_km2":666617.1,"population_density":146.0,"all_players":1,"players_per_million":0.01,"player_ids":["ufc:ufcstats:ffe9703408fb5964"],"label":"Kyangwali Refugee Settlement","country":"Uganda"},"geometry":{"type":"Polygon","coordinates":[[[33.663619,-1.677295],[33.814945,2.80266],[29.961298,5.181923],[25.886011,3.202074],[25.586785,-1.270444],[29.508441,-3.781048],[33.663619,-1.677295]]]}},{"type":"Feature","properties":{"hex_id":"81753ffffffffff","population":54458211,"population_year":2025,"area_km2":447684.2,"population_density":121.6,"all_players":1,"players_per_million":0.02,"player_ids":["ufc:ufcstats:eae431e70064e046"],"label":"Accra","country":"Ghana"},"geometry":{"type":"Polygon","coordinates":[[[-6.957445,8.664197],[-6.064496,5.36274],[-4.862616,5.210611],[-2.579035,4.020024],[0.309804,5.864518],[-0.319183,9.731837],[-4.013998,11.545296],[-6.957445,8.664197]]]}},{"type":"Feature","properties":{"hex_id":"81803ffffffffff","population":18450764,"population_year":2025,"area_km2":729486.9,"population_density":25.3,"all_players":1,"players_per_million":0.05,"player_ids":["ufc:ufcstats:4126a78111c0855a"],"label":"São Luís","country":"Brazil"},"geometry":{"type":"Polygon","coordinates":[[[-39.695155,-8.696744],[-37.243135,-4.606029],[-39.563133,-0.447483],[-44.322949,-0.356209],[-46.800487,-4.422917],[-44.509635,-8.604422],[-39.695155,-8.696744]]]}},{"type":"Feature","properties":{"hex_id":"81807ffffffffff","population":6662960,"population_year":2025,"area_km2":707475.0,"population_density":9.4,"all_players":2,"players_per_million":0.3,"player_ids":["ufc:ufcstats:3df5493bb279226f","ufc:ufcstats:aa72b0f831d0bfe5"],"label":"Soure","country":"Brazil"},"geometry":{"type":"Polygon","coordinates":[[[-46.800487,-4.422917],[-44.322949,-0.356209],[-46.589943,3.761384],[-51.252816,3.813395],[-53.682044,-0.170178],[-51.511828,-4.287153],[-46.800487,-4.422917]]]}},{"type":"Feature","properties":{"hex_id":"81813ffffffffff","population":15238334,"population_year":2025,"area_km2":707475.0,"population_density":21.5,"all_players":2,"players_per_million":0.13,"player_ids":["ufc:ufcstats:7dda2cf308f24a02","ufc:ufcstats:b1f21ce050035d58"],"label":"Feira de Santana","country":"Brazil"},"geometry":{"type":"Polygon","coordinates":[[[-39.830275,-16.779215],[-37.348487,-12.792371],[-39.695155,-8.696744],[-44.509635,-8.604422],[-47.015769,-12.607157],[-44.70061,-16.685821],[-39.830275,-16.779215]]]}},{"type":"Feature","properties":{"hex_id":"81817ffffffffff","population":4224246,"population_year":2025,"area_km2":707475.0,"population_density":6.0,"all_players":1,"players_per_million":0.24,"player_ids":["ufc:ufcstats:9673a497a9da119a"],"label":"São Geraldo do Araguaia","country":"Brazil"},"geometry":{"type":"Polygon","coordinates":[[[-47.015769,-12.607157],[-44.509635,-8.604422],[-46.800487,-4.422917],[-51.511828,-4.287153],[-53.966092,-8.249606],[-51.776426,-12.387612],[-47.015769,-12.607157]]]}},{"type":"Feature","properties":{"hex_id":"8181bffffffffff","population":21939270,"population_year":2025,"area_km2":707475.0,"population_density":31.0,"all_players":2,"players_per_million":0.09,"player_ids":["ufc:ufcstats:12ebd7d157e91701","ufc:ufcstats:9c393e836a852f30"],"label":"Cajazeiras","country":"Brazil"},"geometry":{"type":"Polygon","coordinates":[[[-32.577536,-12.754155],[-30.225126,-8.70174],[-32.528268,-4.64962],[-37.243135,-4.606029],[-39.695155,-8.696744],[-37.348487,-12.792371],[-32.577536,-12.754155]]]}},{"type":"Feature","properties":{"hex_id":"8182fffffffffff","population":36110101,"population_year":2025,"area_km2":523941.7,"population_density":68.9,"all_players":2,"players_per_million":0.06,"player_ids":["ufc:ufcstats:2f815ed5f8278ba6","ufc:ufcstats:8667caa0451d245b"],"label":"Douala","country":"Cameroon"},"geometry":{"type":"Polygon","coordinates":[[[10.189894,-0.431885],[10.722778,3.789625],[9.102371,4.860812],[7.212915,5.860392],[3.943036,3.968797],[3.340666,-0.045101],[6.386374,-2.341804],[10.189894,-0.431885]]]}},{"type":"Feature","properties":{"hex_id":"81833ffffffffff","population":25074496,"population_year":2025,"area_km2":647632.6,"population_density":38.7,"all_players":1,"players_per_million":0.04,"player_ids":["ufc:ufcstats:5d1b7e3dd9e11074"],"label":"Luanda","country":"Angola"},"geometry":{"type":"Polygon","coordinates":[[[16.28544,-14.623075],[16.762979,-9.981512],[13.101649,-7.336896],[9.073557,-9.206516],[8.488704,-13.659571],[12.029259,-16.433715],[16.28544,-14.623075]]]}},{"type":"Feature","properties":{"hex_id":"818a3ffffffffff","population":1617341,"population_year":2025,"area_km2":614937.0,"population_density":2.6,"all_players":3,"players_per_million":1.85,"player_ids":["ufc:ufcstats:9256f591b30c073e","ufc:ufcstats:d1c65d2cf2925ddd","ufc:ufcstats:f53d4f21d1b5f2dc"],"label":"Amazonas","country":"Brazil"},"geometry":{"type":"Polygon","coordinates":[[[-60.846751,-11.739864],[-58.487095,-8.000708],[-60.503094,-3.948691],[-63.322767,-3.822102],[-64.728104,-3.684742],[-67.11855,-7.389407],[-65.150174,-11.472124],[-62.279488,-11.610617],[-60.846751,-11.739864]]]}},{"type":"Feature","properties":{"hex_id":"818afffffffffff","population":2617941,"population_year":2025,"area_km2":602082.0,"population_density":4.3,"all_players":3,"players_per_million":1.15,"player_ids":["ufc:ufcstats:b9706f80d005036c","ufc:ufcstats:d0f3959b4a9747e6","ufc:ufcstats:f166e93d04a8c274"],"label":"Manaus","country":"Brazil"},"geometry":{"type":"Polygon","coordinates":[[[-60.503094,-3.948691],[-58.16364,-0.07918],[-60.165868,3.84262],[-64.328272,3.824532],[-66.644556,0.376039],[-64.728104,-3.684742],[-63.322767,-3.822102],[-60.503094,-3.948691]]]}},{"type":"Feature","properties":{"hex_id":"818e7ffffffffff","population":16354493,"population_year":2025,"area_km2":707475.0,"population_density":23.1,"all_players":2,"players_per_million":0.12,"player_ids":["ufc:ufcstats:850266b3dc4e506e","ufc:ufcstats:d747eb273a40a920"],"label":"Lima","country":"Peru"},"geometry":{"type":"Polygon","coordinates":[[[-79.036844,-10.410684],[-81.898882,-14.26415],[-79.899742,-18.555033],[-75.001372,-18.920583],[-72.257376,-15.063301],[-74.275639,-10.846247],[-79.036844,-10.410684]]]}},{"type":"Feature","properties":{"hex_id":"818f3ffffffffff","population":13520599,"population_year":2025,"area_km2":707475.0,"population_density":19.1,"all_players":1,"players_per_million":0.07,"player_ids":["ufc:ufcstats:7c7332319c14094c"],"label":"Chone","country":"Ecuador"},"geometry":{"type":"Polygon","coordinates":[[[-84.773307,2.504605],[-87.594004,-1.196428],[-85.748308,-5.520061],[-80.994381,-6.061929],[-78.218164,-2.264143],[-80.134859,1.975922],[-84.773307,2.504605]]]}},{"type":"Feature","properties":{"hex_id":"81a73ffffffffff","population":2011346,"population_year":2025,"area_km2":447684.2,"population_density":4.5,"all_players":3,"players_per_million":1.49,"player_ids":["ufc:ufcstats:17734443a833cdf7","ufc:ufcstats:32ab52e5de93092d","ufc:ufcstats:6b453bc35a823c3f"],"label":"Perth","country":"Australia"},"geometry":{"type":"Polygon","coordinates":[[[118.588203,-27.826272],[115.570257,-25.722246],[114.395275,-26.30569],[111.552066,-26.654916],[110.054805,-29.808573],[113.256895,-32.609931],[117.977474,-31.877886],[118.588203,-27.826272]]]}},{"type":"Feature","properties":{"hex_id":"81a83ffffffffff","population":63293155,"population_year":2025,"area_km2":595741.2,"population_density":106.2,"all_players":14,"players_per_million":0.22,"player_ids":["ufc:ufcstats:07225ba28ae309b6","ufc:ufcstats:095854a135e6db55","ufc:ufcstats:1ae8f3c723aacff4","ufc:ufcstats:253076a23d03dcd0","ufc:ufcstats:294aa73dbf37d281","ufc:ufcstats:528b071cf3da7c56","ufc:ufcstats:64d47ef881a437a4","ufc:ufcstats:6551c64fbcd1a467","ufc:ufcstats:68d35296f566792b","ufc:ufcstats:6a1901c62ab3870f","ufc:ufcstats:8adcbd525fab8d9b","ufc:ufcstats:c0d5c0c95c59050b","ufc:ufcstats:d945aae53e3e54e6","ufc:ufcstats:e5549c82bfb5582d"],"label":"São Paulo","country":"Brazil"},"geometry":{"type":"Polygon","coordinates":[[[-47.461171,-27.760044],[-44.896021,-24.304788],[-47.235943,-20.470042],[-52.046783,-20.176039],[-54.552341,-23.657242],[-52.323074,-27.407025],[-47.461171,-27.760044]]]}},{"type":"Feature","properties":{"hex_id":"81a87ffffffffff","population":3352562,"population_year":2025,"area_km2":595741.2,"population_density":5.6,"all_players":1,"players_per_million":0.3,"player_ids":["ufc:ufcstats:9d62c2d8ee151f08"],"label":"Dourados","country":"Brazil"},"geometry":{"type":"Polygon","coordinates":[[[-54.552341,-23.657242],[-52.046783,-20.176039],[-54.256132,-16.171868],[-58.81696,-15.773842],[-61.196998,-19.252195],[-59.153405,-23.133384],[-54.552341,-23.657242]]]}},{"type":"Feature","properties":{"hex_id":"81a8bffffffffff","population":38630964,"population_year":2025,"area_km2":647632.6,"population_density":59.6,"all_players":14,"players_per_million":0.36,"player_ids":["ufc:ufcstats:23024fdfc966410a","ufc:ufcstats:260e9e0d4954aea6","ufc:ufcstats:2e5c2aa8e4ab9d82","ufc:ufcstats:351c4ec637380ad5","ufc:ufcstats:64a50dad704d1d49","ufc:ufcstats:71171fc96445bf65","ufc:ufcstats:7ee0fd831c0fe7c3","ufc:ufcstats:886264a0c9f4ea5e","ufc:ufcstats:a0f0004aadf10b71","ufc:ufcstats:b9f28e7045fdfce7","ufc:ufcstats:beecb672a279223e","ufc:ufcstats:c21f26bbde777573","ufc:ufcstats:d3f5d33d61cd00c9","ufc:ufcstats:f5779a2303ed76ec"],"label":"Rio de Janeiro","country":"Brazil"},"geometry":{"type":"Polygon","coordinates":[[[-39.968603,-24.399277],[-37.456339,-20.657406],[-39.830275,-16.779215],[-44.70061,-16.685821],[-47.235943,-20.470042],[-44.896021,-24.304788],[-39.968603,-24.399277]]]}},{"type":"Feature","properties":{"hex_id":"81a8fffffffffff","population":14363422,"population_year":2025,"area_km2":666617.1,"population_density":21.5,"all_players":5,"players_per_million":0.35,"player_ids":["ufc:ufcstats:01641ba5df0c69b0","ufc:ufcstats:36541f1e6c5d4955","ufc:ufcstats:ae7fe94f117f98cf","ufc:ufcstats:b67d6bacc68d4c92","ufc:ufcstats:cc8c623cca88f54f"],"label":"Uberlândia","country":"Brazil"},"geometry":{"type":"Polygon","coordinates":[[[-47.235943,-20.470042],[-44.70061,-16.685821],[-47.015769,-12.607157],[-51.776426,-12.387612],[-54.256132,-16.171868],[-52.046783,-20.176039],[-47.235943,-20.470042]]]}},{"type":"Feature","properties":{"hex_id":"81a93ffffffffff","population":11046986,"population_year":2025,"area_km2":510516.1,"population_density":21.6,"all_players":2,"players_per_million":0.18,"player_ids":["ufc:ufcstats:18d01f7f8338ae72","ufc:ufcstats:cd2c4d30c6e13b47"],"label":"Porto Alegre","country":"Brazil"},"geometry":{"type":"Polygon","coordinates":[[[-47.691623,-34.331159],[-45.096018,-31.259854],[-47.461171,-27.760044],[-52.323074,-27.407025],[-54.854902,-30.51203],[-52.605486,-33.936306],[-47.691623,-34.331159]]]}},{"type":"Feature","properties":{"hex_id":"81a97ffffffffff","population":13851468,"population_year":2025,"area_km2":523941.7,"population_density":26.4,"all_players":1,"players_per_million":0.07,"player_ids":["ufc:ufcstats:52ef95b5860fb28c"],"label":"Foz do Iguaçu","country":"Brazil"},"geometry":{"type":"Polygon","coordinates":[[[-54.854902,-30.51203],[-52.323074,-27.407025],[-54.552341,-23.657242],[-59.153405,-23.133384],[-60.358535,-24.728661],[-61.529913,-26.578843],[-59.496606,-29.892985],[-54.854902,-30.51203]]]}},{"type":"Feature","properties":{"hex_id":"81b37ffffffffff","population":4253214,"population_year":2025,"area_km2":565620.1,"population_density":7.5,"all_players":1,"players_per_million":0.24,"player_ids":["ufc:ufcstats:323d4ca260dfa0ba"],"label":"Salta","country":"Argentina"},"geometry":{"type":"Polygon","coordinates":[[[-65.596341,-19.258865],[-68.148935,-23.06606],[-66.068669,-26.766212],[-61.529913,-26.578843],[-60.358535,-24.728661],[-59.153405,-23.133384],[-61.196998,-19.252195],[-65.596341,-19.258865]]]}},{"type":"Feature","properties":{"hex_id":"81bb7ffffffffff","population":2835946,"population_year":2025,"area_km2":666617.1,"population_density":4.3,"all_players":4,"players_per_million":1.41,"player_ids":["ufc:ufcstats:193b9d1858bc4df3","ufc:ufcstats:9014c02eff8b3d62","ufc:ufcstats:c15fa95b9a12fde4","ufc:ufcstats:e13abac8089a801a"],"label":"Auckland","country":"New Zealand"},"geometry":{"type":"Polygon","coordinates":[[[176.688659,-37.499409],[174.332728,-33.405709],[169.018604,-32.862675],[165.511402,-36.515279],[167.615873,-40.869133],[173.535818,-41.30856],[176.688659,-37.499409]]]}},{"type":"Feature","properties":{"hex_id":"81bcfffffffffff","population":54771011,"population_year":2025,"area_km2":666617.1,"population_density":82.2,"all_players":2,"players_per_million":0.04,"player_ids":["ufc:ufcstats:0d7b51c9d2649a6e","ufc:ufcstats:3c8a5200436e19f3"],"label":"Pretoria","country":"South Africa"},"geometry":{"type":"Polygon","coordinates":[[[32.620327,-29.624454],[32.812319,-25.145186],[28.491882,-22.684204],[23.910011,-24.696711],[23.533518,-29.166646],[27.918941,-31.644147],[32.620327,-29.624454]]]}},{"type":"Feature","properties":{"hex_id":"81be3ffffffffff","population":7422285,"population_year":2025,"area_km2":729486.9,"population_density":10.2,"all_players":2,"players_per_million":0.27,"player_ids":["ufc:ufcstats:af9f42e6894047fc","ufc:ufcstats:e1248941344b3288"],"label":"Wollongong","country":"Australia"},"geometry":{"type":"Polygon","coordinates":[[[159.810679,-35.59178],[158.196039,-31.026208],[152.877292,-29.753699],[148.729494,-32.935272],[149.839959,-37.608844],[155.640338,-39.007712],[159.810679,-35.59178]]]}},{"type":"Feature","properties":{"hex_id":"81be7ffffffffff","population":7973734,"population_year":2025,"area_km2":707475.0,"population_density":11.3,"all_players":1,"players_per_million":0.13,"player_ids":["ufc:ufcstats:a845f0735bc67405"],"label":"Melbourne","country":"Australia"},"geometry":{"type":"Polygon","coordinates":[[[149.839959,-37.608844],[148.729494,-32.935272],[143.536871,-31.277795],[139.129671,-34.088237],[139.652226,-38.734209],[145.182884,-40.615783],[149.839959,-37.608844]]]}},{"type":"Feature","properties":{"hex_id":"81c23ffffffffff","population":1573459,"population_year":2025,"area_km2":328434.6,"population_density":4.8,"all_players":1,"players_per_million":0.64,"player_ids":["ufc:ufcstats:239d8e5359022f3b"],"label":"Mar del Plata","country":"Argentina"},"geometry":{"type":"Polygon","coordinates":[[[-57.995322,-42.261113],[-54.914171,-41.118552],[-53.849703,-40.222115],[-54.414766,-37.691245],[-55.164004,-36.642936],[-58.309846,-36.205283],[-59.788176,-36.394827],[-61.417115,-38.614967],[-61.702806,-39.800882],[-59.444119,-41.717194],[-57.995322,-42.261113]]]}},{"type":"Feature","properties":{"hex_id":"81c2fffffffffff","population":24752838,"population_year":2025,"area_km2":447684.2,"population_density":55.3,"all_players":1,"players_per_million":0.04,"player_ids":["ufc:ufcstats:6d1bffff14897645"],"label":"La Plata","country":"Argentina"},"geometry":{"type":"Polygon","coordinates":[[[-55.164004,-36.642936],[-52.605486,-33.936306],[-54.854902,-30.51203],[-59.496606,-29.892985],[-61.882735,-33.439024],[-59.788176,-36.394827],[-58.309846,-36.205283],[-55.164004,-36.642936]]]}},{"type":"Feature","properties":{"hex_id":"81cebffffffffff","population":4208885,"population_year":2025,"area_km2":510516.1,"population_density":8.2,"all_players":1,"players_per_million":0.24,"player_ids":["ufc:ufcstats:9e8f6c728eb01124"],"label":"Temucuicui","country":"Chile"},"geometry":{"type":"Polygon","coordinates":[[[-67.492505,-44.179727],[-66.103092,-40.399611],[-69.305389,-37.163896],[-74.031951,-37.379975],[-76.084187,-41.116232],[-72.784934,-44.702354],[-67.492505,-44.179727]]]}}]}