{"type":"FeatureCollection","metadata":{"population_source":"WorldPop Global 2 R2025A","population_source_url":"https://hub.worldpop.org/project/categories?id=3","population_license":"CC BY 4.0","population_year":2025,"raster_resolution":"1km","h3_resolution":3,"population_method":"official_country_rasters","occupied_cells":70,"mapped_players":86},"features":[{"type":"Feature","properties":{"hex_id":"830899fffffffff","population":659304,"population_year":2025,"area_km2":9415.5,"population_density":70.0,"all_players":1,"players_per_million":1.52,"player_ids":["formula:tuukkataponen"],"label":"Lohja","country":"Finland"},"geometry":{"type":"Polygon","coordinates":[[[23.118061,60.034583],[24.02802,59.807888],[24.856526,60.156524],[24.776007,60.739129],[23.838471,60.96689],[23.009481,60.610921],[23.118061,60.034583]]]}},{"type":"Feature","properties":{"hex_id":"8308b3fffffffff","population":468401,"population_year":2025,"area_km2":9468.7,"population_density":49.5,"all_players":1,"players_per_million":2.13,"player_ids":["formula:dinobeganovic"],"label":"Linköping","country":"Sweden"},"geometry":{"type":"Polygon","coordinates":[[[15.337944,58.85726],[15.367369,58.352457],[16.341003,58.135723],[17.297675,58.420875],[17.2862,58.926343],[16.300028,59.146064],[15.337944,58.85726]]]}},{"type":"Feature","properties":{"hex_id":"830999fffffffff","population":1719569,"population_year":2025,"area_km2":8885.6,"population_density":193.5,"all_players":1,"players_per_million":0.58,"player_ids":["formula:martiniusstenshorne"],"label":"Hokksund","country":"Norway"},"geometry":{"type":"Polygon","coordinates":[[[9.350687,59.952276],[9.435996,59.466549],[10.432407,59.303039],[11.359873,59.622978],[11.292042,60.110099],[10.279089,60.275949],[9.350687,59.952276]]]}},{"type":"Feature","properties":{"hex_id":"831196fffffffff","population":2285765,"population_year":2025,"area_km2":11481.1,"population_density":199.1,"all_players":1,"players_per_million":0.44,"player_ids":["formula:nikitabedrin"],"label":"Belgorod","country":"Russia"},"geometry":{"type":"Polygon","coordinates":[[[35.368851,50.173554],[36.116724,49.779343],[36.931433,50.025114],[37.034158,50.647341],[36.300322,51.020528],[35.476624,50.766895],[35.435884,50.45735],[35.368851,50.173554]]]}},{"type":"Feature","properties":{"hex_id":"83182efffffffff","population":649153,"population_year":2025,"area_km2":11792.7,"population_density":55.0,"all_players":1,"players_per_million":1.54,"player_ids":["formula:alexdunne"],"label":"County Offaly","country":"Ireland"},"geometry":{"type":"Polygon","coordinates":[[[-8.435871,53.677083],[-9.166993,53.289084],[-8.906839,52.6944],[-7.935083,52.487974],[-7.210985,52.872185],[-7.451495,53.466543],[-8.435871,53.677083]]]}},{"type":"Feature","properties":{"hex_id":"83185bfffffffff","population":755918,"population_year":2025,"area_km2":12945.1,"population_density":58.4,"all_players":1,"players_per_million":1.32,"player_ids":["formula:fernandoalonso"],"label":"Oviedo","country":"Spain"},"geometry":{"type":"Polygon","coordinates":[[[-6.626676,44.274787],[-7.25963,43.849202],[-7.054985,43.215758],[-6.231988,43.009176],[-5.605093,43.431163],[-5.795078,44.06328],[-6.626676,44.274787]]]}},{"type":"Feature","properties":{"hex_id":"831865fffffffff","population":1601186,"population_year":2025,"area_km2":11308.9,"population_density":141.6,"all_players":2,"players_per_million":1.25,"player_ids":["formula:estebanocon","formula:pierregasly"],"label":"Évreux","country":"France"},"geometry":{"type":"Polygon","coordinates":[[[0.360856,49.735742],[-0.333038,49.389078],[-0.188757,48.779293],[0.632478,48.518882],[1.315872,48.863254],[1.18851,49.470279],[0.360856,49.735742]]]}},{"type":"Feature","properties":{"hex_id":"831909fffffffff","population":1893258,"population_year":2025,"area_km2":10857.3,"population_density":174.4,"all_players":1,"players_per_million":0.53,"player_ids":["formula:cianshields"],"label":"Glasgow","country":"United Kingdom"},"geometry":{"type":"Polygon","coordinates":[[[-5.121114,56.653173],[-5.903325,56.308916],[-5.669297,55.731906],[-4.675173,55.499857],[-3.903181,55.840606],[-4.115017,56.416836],[-5.121114,56.653173]]]}},{"type":"Feature","properties":{"hex_id":"831942fffffffff","population":7293042,"population_year":2025,"area_km2":10924.8,"population_density":667.6,"all_players":1,"players_per_million":0.14,"player_ids":["formula:alishapalmowski"],"label":"Glossop","country":"United Kingdom"},"geometry":{"type":"Polygon","coordinates":[[[-1.609057,54.177066],[-2.359345,53.842543],[-2.178886,53.251551],[-1.268165,52.996914],[-0.529171,53.3287],[-0.689598,53.917795],[-1.609057,54.177066]]]}},{"type":"Feature","properties":{"hex_id":"831943fffffffff","population":3138363,"population_year":2025,"area_km2":10924.8,"population_density":287.3,"all_players":2,"players_per_million":0.64,"player_ids":["formula:georgerussell","formula:louissharp"],"label":"King's Lynn","country":"United Kingdom"},"geometry":{"type":"Polygon","coordinates":[[[-0.529171,53.3287],[-1.268165,52.996914],[-1.103494,52.402317],[-0.219137,52.141681],[0.508374,52.470966],[0.362999,53.063327],[-0.529171,53.3287]]]}},{"type":"Feature","properties":{"hex_id":"83194afffffffff","population":6871941,"population_year":2025,"area_km2":11131.6,"population_density":617.3,"all_players":3,"players_per_million":0.44,"player_ids":["formula:arvidlindblad","formula:meganbruce","formula:olivergoethe"],"label":"London","country":"United Kingdom"},"geometry":{"type":"Polygon","coordinates":[[[-0.069294,51.543996],[-0.785076,51.204689],[-0.631095,50.601911],[0.220599,50.340898],[0.925401,50.677831],[0.789471,51.278095],[-0.069294,51.543996]]]}},{"type":"Feature","properties":{"hex_id":"83194bfffffffff","population":467679,"population_year":2025,"area_km2":11102.5,"population_density":42.1,"all_players":1,"players_per_million":2.14,"player_ids":["formula:lisabillard"],"label":"Seine-Maritime","country":"France"},"geometry":{"type":"Polygon","coordinates":[[[0.925401,50.677831],[0.220599,50.340898],[0.360856,49.735742],[1.18851,49.470279],[1.882244,49.805032],[1.759362,50.407376],[0.925401,50.677831]]]}},{"type":"Feature","properties":{"hex_id":"83194efffffffff","population":5747074,"population_year":2025,"area_km2":10913.5,"population_density":526.6,"all_players":1,"players_per_million":0.17,"player_ids":["formula:oliverbearman"],"label":"Chelmsford","country":"United Kingdom"},"geometry":{"type":"Polygon","coordinates":[[[0.508374,52.470966],[-0.219137,52.141681],[-0.069294,51.543996],[0.789471,51.278095],[1.505381,51.605101],[1.3741,52.20023],[0.508374,52.470966]]]}},{"type":"Feature","properties":{"hex_id":"831951fffffffff","population":5457858,"population_year":2025,"area_km2":11149.1,"population_density":489.5,"all_players":1,"players_per_million":0.18,"player_ids":["formula:lukebrowning"],"label":"Kingsley","country":"United Kingdom"},"geometry":{"type":"Polygon","coordinates":[[[-3.297175,54.090428],[-4.044754,53.742706],[-3.844199,53.150199],[-2.916127,52.906861],[-2.178886,53.251551],[-2.359345,53.842543],[-3.297175,54.090428]]]}},{"type":"Feature","properties":{"hex_id":"831958fffffffff","population":4033735,"population_year":2025,"area_km2":11381.2,"population_density":354.4,"all_players":3,"players_per_million":0.74,"player_ids":["formula:callumvoisin","formula:ellalloyd","formula:landonorris"],"label":"Bath","country":"United Kingdom"},"geometry":{"type":"Polygon","coordinates":[[[-2.732038,52.310399],[-3.456535,51.955725],[-3.269136,51.354012],[-2.376039,51.108741],[-1.661533,51.460545],[-1.830112,52.060429],[-2.732038,52.310399]]]}},{"type":"Feature","properties":{"hex_id":"831959fffffffff","population":2822038,"population_year":2025,"area_km2":11369.1,"population_density":248.2,"all_players":1,"players_per_million":0.35,"player_ids":["formula:jameshedley"],"label":"Poole","country":"United Kingdom"},"geometry":{"type":"Polygon","coordinates":[[[-1.661533,51.460545],[-2.376039,51.108741],[-2.20387,50.503806],[-1.335378,50.252773],[-0.631095,50.601911],[-0.785076,51.204689],[-1.661533,51.460545]]]}},{"type":"Feature","properties":{"hex_id":"83195dfffffffff","population":9049238,"population_year":2025,"area_km2":11149.1,"population_density":811.7,"all_players":3,"players_per_million":0.33,"player_ids":["formula:alexanderalbon","formula:lewishamilton","formula:romanbilinski"],"label":"Portland Hospital","country":"United Kingdom"},"geometry":{"type":"Polygon","coordinates":[[[-1.103494,52.402317],[-1.830112,52.060429],[-1.661533,51.460545],[-0.785076,51.204689],[-0.069294,51.543996],[-0.219137,52.141681],[-1.103494,52.402317]]]}},{"type":"Feature","properties":{"hex_id":"831969fffffffff","population":7268023,"population_year":2025,"area_km2":10482.3,"population_density":693.4,"all_players":2,"players_per_million":0.28,"player_ids":["formula:esmeekosterman","formula:richardverschoor"],"label":"Wijk bij Duurstede","country":"Netherlands"},"geometry":{"type":"Polygon","coordinates":[[[4.515848,52.296999],[4.628032,51.750066],[5.492877,51.584097],[6.259687,51.96477],[6.159603,52.514255],[5.280448,52.68056],[4.515848,52.296999]]]}},{"type":"Feature","properties":{"hex_id":"83196bfffffffff","population":3269727,"population_year":2025,"area_km2":10449.9,"population_density":312.9,"all_players":1,"players_per_million":0.31,"player_ids":["formula:laurensvanhoepen"],"label":"Wassenaar","country":"Netherlands"},"geometry":{"type":"Polygon","coordinates":[[[3.67324,52.541669],[2.947471,52.236888],[3.060444,51.644656],[3.881134,51.360376],[4.628032,51.750066],[4.515848,52.296999],[4.225481,52.349359],[3.67324,52.541669]]]}},{"type":"Feature","properties":{"hex_id":"83196dfffffffff","population":1707984,"population_year":2025,"area_km2":10331.1,"population_density":165.3,"all_players":1,"players_per_million":0.59,"player_ids":["formula:ninagademan"],"label":"Wijster","country":"Netherlands"},"geometry":{"type":"Polygon","coordinates":[[[5.171662,53.221433],[5.280448,52.68056],[6.159603,52.514255],[6.944351,52.888298],[6.848229,53.43156],[5.954532,53.598437],[5.171662,53.221433]]]}},{"type":"Feature","properties":{"hex_id":"831e04fffffffff","population":1817549,"population_year":2025,"area_km2":11948.5,"population_density":152.1,"all_players":1,"players_per_million":0.55,"player_ids":["formula:romanstanek"],"label":"Valašské Meziříčí","country":"Czech Republic"},"geometry":{"type":"Polygon","coordinates":[[[16.606047,49.899182],[16.621447,49.310134],[17.464633,49.038043],[18.301266,49.352938],[18.299459,49.942801],[17.447388,50.217015],[16.606047,49.899182]]]}},{"type":"Feature","properties":{"hex_id":"831e14fffffffff","population":918722,"population_year":2025,"area_km2":12236.4,"population_density":75.1,"all_players":1,"players_per_million":1.09,"player_ids":["formula:emmafelbermayr"],"label":"Wels","country":"Austria"},"geometry":{"type":"Polygon","coordinates":[[[13.374348,47.965938],[13.414399,47.365675],[14.239654,47.109297],[15.034644,47.451699],[15.007166,48.053459],[14.172058,48.311376],[13.374348,47.965938]]]}},{"type":"Feature","properties":{"hex_id":"831e84fffffffff","population":1240283,"population_year":2025,"area_km2":13035.7,"population_density":95.1,"all_players":1,"players_per_million":0.81,"player_ids":["formula:nicolamarinangeli"],"label":"Foligno","country":"Italy"},"geometry":{"type":"Polygon","coordinates":[[[11.369193,43.208977],[11.421367,42.580966],[12.199341,42.319259],[12.934527,42.684579],[12.893237,43.314735],[12.105806,43.577473],[11.369193,43.208977]]]}},{"type":"Feature","properties":{"hex_id":"831e9afffffffff","population":1406199,"population_year":2025,"area_km2":13841.6,"population_density":101.6,"all_players":1,"players_per_million":0.71,"player_ids":["formula:gabrielemini"],"label":"Palermo","country":"Italy"},"geometry":{"type":"Polygon","coordinates":[[[12.464332,38.463476],[12.506362,37.810465],[13.244313,37.523712],[13.948364,37.888752],[13.916255,38.543908],[13.170122,38.831924],[12.464332,38.463476]]]}},{"type":"Feature","properties":{"hex_id":"831ea0fffffffff","population":2317839,"population_year":2025,"area_km2":12679.7,"population_density":182.8,"all_players":1,"players_per_million":0.43,"player_ids":["formula:kimiantonelli"],"label":"Bologna","country":"Italy"},"geometry":{"type":"Polygon","coordinates":[[[11.207993,45.07018],[11.262523,44.453696],[12.057997,44.200939],[12.808805,44.563667],[12.765636,45.182217],[11.960221,45.436022],[11.207993,45.07018]]]}},{"type":"Feature","properties":{"hex_id":"831ec4fffffffff","population":1259329,"population_year":2025,"area_km2":13472.5,"population_density":93.5,"all_players":1,"players_per_million":0.79,"player_ids":["formula:nikolatsolov"],"label":"Sofia","country":"Bulgaria"},"geometry":{"type":"Polygon","coordinates":[[[22.238177,43.517311],[22.210569,42.881199],[22.973375,42.544131],[23.768882,42.840643],[23.808112,43.476547],[23.040234,43.816203],[22.238177,43.517311]]]}},{"type":"Feature","properties":{"hex_id":"831f15fffffffff","population":4282236,"population_year":2025,"area_km2":10530.0,"population_density":406.7,"all_players":1,"players_per_million":0.23,"player_ids":["formula:timtramnitz"],"label":"Hamburg","country":"Germany"},"geometry":{"type":"Polygon","coordinates":[[[8.551833,53.61915],[8.634702,53.073729],[9.526612,52.882702],[10.349128,53.235917],[10.280052,53.783253],[9.374531,53.975514],[8.551833,53.61915]]]}},{"type":"Feature","properties":{"hex_id":"831f23fffffffff","population":869269,"population_year":2025,"area_km2":9995.4,"population_density":87.0,"all_players":1,"players_per_million":1.15,"player_ids":["formula:albahuruplarsen"],"label":"Roskilde","country":"Denmark"},"geometry":{"type":"Polygon","coordinates":[[[10.860149,56.260141],[10.927107,55.734903],[11.860105,55.539449],[12.739823,55.867327],[12.688484,56.393983],[11.741681,56.591404],[10.860149,56.260141]]]}},{"type":"Feature","properties":{"hex_id":"831f83fffffffff","population":4695898,"population_year":2025,"area_km2":11812.0,"population_density":397.6,"all_players":1,"players_per_million":0.21,"player_ids":["formula:tinahausmann"],"label":"Zurich","country":"Switzerland"},"geometry":{"type":"Polygon","coordinates":[[[7.006321,47.39767],[7.093391,46.806293],[7.907014,46.596156],[8.645314,46.977068],[8.569415,47.571079],[7.743929,47.781588],[7.006321,47.39767]]]}},{"type":"Feature","properties":{"hex_id":"831f99fffffffff","population":8499702,"population_year":2025,"area_km2":12318.9,"population_density":690.0,"all_players":1,"players_per_million":0.12,"player_ids":["formula:leonardofornaroli"],"label":"Piacenza","country":"Italy"},"geometry":{"type":"Polygon","coordinates":[[[8.793725,45.776109],[8.866286,45.169339],[9.666362,44.937924],[10.404667,45.312696],[10.343213,45.921928],[9.53225,46.153971],[8.793725,45.776109]]]}},{"type":"Feature","properties":{"hex_id":"831fa1fffffffff","population":5025928,"population_year":2025,"area_km2":11010.2,"population_density":456.5,"all_players":1,"players_per_million":0.2,"player_ids":["formula:mathildapaatz"],"label":"Cologne","country":"Germany"},"geometry":{"type":"Polygon","coordinates":[[[6.455143,50.851215],[6.550588,50.287239],[7.402448,50.098529],[8.171926,50.473294],[8.088631,51.039696],[7.223571,51.228954],[6.455143,50.851215]]]}},{"type":"Feature","properties":{"hex_id":"831fa4fffffffff","population":7133777,"population_year":2025,"area_km2":10626.5,"population_density":671.3,"all_players":2,"players_per_million":0.28,"player_ids":["formula:amaurycordeel","formula:maxverstappen"],"label":"Hasselt","country":"Belgium"},"geometry":{"type":"Polygon","coordinates":[[[3.881134,51.360376],[3.996418,50.807584],[4.847197,50.641723],[5.5966,51.028589],[5.492877,51.584097],[4.628032,51.750066],[3.881134,51.360376]]]}},{"type":"Feature","properties":{"hex_id":"831fa5fffffffff","population":7783236,"population_year":2025,"area_km2":10746.4,"population_density":724.3,"all_players":1,"players_per_million":0.13,"player_ids":["formula:nicohulkenberg"],"label":"Emmerich am Rhein","country":"Germany"},"geometry":{"type":"Polygon","coordinates":[[[5.492877,51.584097],[5.5966,51.028589],[6.455143,50.851215],[7.223571,51.228954],[7.131986,51.786954],[6.259687,51.96477],[5.492877,51.584097]]]}},{"type":"Feature","properties":{"hex_id":"831fb0fffffffff","population":2519655,"population_year":2025,"area_km2":11057.7,"population_density":227.9,"all_players":1,"players_per_million":0.4,"player_ids":["formula:victormartins"],"label":"Varennes-Jarcy","country":"France"},"geometry":{"type":"Polygon","coordinates":[[[2.120222,48.594025],[2.235478,47.985628],[2.758126,47.804469],[3.028335,47.748075],[3.728605,48.150804],[3.615703,48.72301],[3.06661,48.834678],[2.802853,48.926779],[2.120222,48.594025]]]}},{"type":"Feature","properties":{"hex_id":"831fb4fffffffff","population":10916515,"population_year":2025,"area_km2":11061.9,"population_density":986.9,"all_players":2,"players_per_million":0.18,"player_ids":["formula:dorianepin","formula:isackhadjar"],"label":"Ivry-sur-Seine","country":"France"},"geometry":{"type":"Polygon","coordinates":[[[1.882244,49.805032],[1.18851,49.470279],[1.315872,48.863254],[2.120222,48.594025],[2.802853,48.926779],[2.692197,49.530714],[1.882244,49.805032]]]}},{"type":"Feature","properties":{"hex_id":"832696fffffffff","population":2210821,"population_year":2025,"area_km2":13165.8,"population_density":167.9,"all_players":1,"players_per_million":0.45,"player_ids":["formula:liablock"],"label":"Park City","country":"United States"},"geometry":{"type":"Polygon","coordinates":[[[-111.779687,40.167177],[-111.325006,40.706905],[-111.731524,41.255312],[-112.596923,41.261888],[-113.046271,40.72062],[-112.6357,40.174318],[-111.779687,40.167177]]]}},{"type":"Feature","properties":{"hex_id":"8328d8fffffffff","population":141546,"population_year":2025,"area_km2":10260.8,"population_density":13.8,"all_players":1,"players_per_million":7.06,"player_ids":["formula:nicolehavrda"],"label":"Courtenay","country":"Canada"},"geometry":{"type":"Polygon","coordinates":[[[-123.874258,49.369796],[-123.603627,49.715402],[-123.537049,49.895381],[-124.180193,50.335605],[-125.016026,50.228034],[-125.133766,49.867764],[-125.265012,49.694654],[-124.768177,49.274379],[-123.874258,49.369796]]]}},{"type":"Feature","properties":{"hex_id":"8329a0fffffffff","population":7767902,"population_year":2025,"area_km2":13942.8,"population_density":557.1,"all_players":1,"players_per_million":0.13,"player_ids":["formula:courtneycrone"],"label":"Riverside","country":"United States"},"geometry":{"type":"Polygon","coordinates":[[[-116.844972,33.407616],[-116.449556,33.986961],[-116.851778,34.547853],[-117.651276,34.526528],[-118.040386,33.946172],[-117.636417,33.388145],[-116.844972,33.407616]]]}},{"type":"Feature","properties":{"hex_id":"832a10fffffffff","population":17834994,"population_year":2025,"area_km2":12479.4,"population_density":1429.2,"all_players":1,"players_per_million":0.06,"player_ids":["formula:ugougochukwu"],"label":"New York City","country":"United States"},"geometry":{"type":"Polygon","coordinates":[[[-73.803296,41.465407],[-74.532183,41.140409],[-74.501617,40.535843],[-73.761104,40.255982],[-73.041153,40.572801],[-73.052763,41.177546],[-73.803296,41.465407]]]}},{"type":"Feature","properties":{"hex_id":"832a30fffffffff","population":4186461,"population_year":2025,"area_km2":12833.4,"population_density":326.2,"all_players":1,"players_per_million":0.24,"player_ids":["formula:aurelianobels"],"label":"Boston","country":"United States"},"geometry":{"type":"Polygon","coordinates":[[[-70.772624,43.346551],[-71.550529,43.03556],[-71.558483,42.417927],[-70.809006,42.112129],[-70.042602,42.41534],[-70.014211,43.03201],[-70.772624,43.346551]]]}},{"type":"Feature","properties":{"hex_id":"832baafffffffff","population":4993353,"population_year":2025,"area_km2":13456.5,"population_density":371.1,"all_players":1,"players_per_million":0.2,"player_ids":["formula:lancestroll"],"label":"Montreal","country":"Canada"},"geometry":{"type":"Polygon","coordinates":[[[-73.157758,46.169919],[-73.970085,45.834008],[-73.944231,45.197835],[-73.129291,44.897538],[-72.328377,45.224875],[-72.330983,45.860952],[-73.157758,46.169919]]]}},{"type":"Feature","properties":{"hex_id":"832f58fffffffff","population":951972,"population_year":2025,"area_km2":11381.2,"population_density":83.6,"all_players":1,"players_per_million":1.05,"player_ids":["formula:ritomomiyata"],"label":"Zushi","country":"Japan"},"geometry":{"type":"Polygon","coordinates":[[[140.520831,34.62949],[140.332575,35.234652],[139.653549,35.399825],[139.174011,34.961977],[139.368009,34.363069],[140.035927,34.195767],[140.520831,34.62949]]]}},{"type":"Feature","properties":{"hex_id":"832f5bfffffffff","population":13410110,"population_year":2025,"area_km2":11219.7,"population_density":1195.2,"all_players":1,"players_per_million":0.07,"player_ids":["formula:yukitsunoda"],"label":"Sagamihara","country":"Japan"},"geometry":{"type":"Polygon","coordinates":[[[139.653549,35.399825],[139.458427,36.000295],[138.778095,36.156603],[138.304265,35.714832],[138.504933,35.120661],[139.174011,34.961977],[139.653549,35.399825]]]}},{"type":"Feature","properties":{"hex_id":"83390cfffffffff","population":6740566,"population_year":2025,"area_km2":12803.9,"population_density":526.4,"all_players":1,"players_per_million":0.15,"player_ids":["formula:carlossainzjr"],"label":"Madrid","country":"Spain"},"geometry":{"type":"Polygon","coordinates":[[[-4.103433,40.678157],[-4.708227,40.256026],[-4.538804,39.619302],[-3.777805,39.406656],[-3.179494,39.825314],[-3.335672,40.460048],[-4.103433,40.678157]]]}},{"type":"Feature","properties":{"hex_id":"833944fffffffff","population":5820367,"population_year":2025,"area_km2":11948.5,"population_density":487.1,"all_players":1,"players_per_million":0.17,"player_ids":["formula:pepemarti"],"label":"Barcelona","country":"Spain"},"geometry":{"type":"Polygon","coordinates":[[[1.216871,41.967575],[1.335479,41.362336],[2.07735,41.170004],[2.711858,41.583975],[2.601521,42.193196],[1.848287,42.384487],[1.216871,41.967575]]]}},{"type":"Feature","properties":{"hex_id":"833945fffffffff","population":709742,"population_year":2025,"area_km2":12134.7,"population_density":58.5,"all_players":1,"players_per_million":1.41,"player_ids":["formula:javiersagrera"],"label":"Torroella de Montgrí","country":"Spain"},"geometry":{"type":"Polygon","coordinates":[[[2.601521,42.193196],[2.711858,41.583975],[3.46143,41.382558],[4.111804,41.791133],[4.010176,42.404119],[3.24935,42.604792],[2.601521,42.193196]]]}},{"type":"Feature","properties":{"hex_id":"833950fffffffff","population":394276,"population_year":2025,"area_km2":12102.9,"population_density":32.6,"all_players":1,"players_per_million":2.54,"player_ids":["formula:mayaweug"],"label":"Pedreguer","country":"Spain"},"geometry":{"type":"Polygon","coordinates":[[[-0.237765,38.923477],[-0.115046,38.294034],[0.355185,38.140278],[0.591769,38.074249],[1.188594,38.492342],[1.073008,39.109644],[0.592929,39.240155],[0.35567,39.31886],[-0.237765,38.923477]]]}},{"type":"Feature","properties":{"hex_id":"833962fffffffff","population":165903,"population_year":2025,"area_km2":11810.9,"population_density":14.0,"all_players":1,"players_per_million":6.03,"player_ids":["formula:mariboya"],"label":"Les","country":"Spain"},"geometry":{"type":"Polygon","coordinates":[[[0.983681,43.215794],[0.357223,42.840548],[0.480702,42.214859],[1.216871,41.967575],[1.848287,42.384487],[1.731415,42.986442],[1.479021,43.047512],[0.983681,43.215794]]]}},{"type":"Feature","properties":{"hex_id":"833968fffffffff","population":2544994,"population_year":2025,"area_km2":12236.4,"population_density":208.0,"all_players":1,"players_per_million":0.39,"player_ids":["formula:samimeguetounif"],"label":"Marseille","country":"France"},"geometry":{"type":"Polygon","coordinates":[[[4.574932,43.41921],[4.674096,42.809849],[5.441717,42.599473],[6.121326,42.998792],[6.03167,43.611509],[5.252785,43.821585],[4.574932,43.41921]]]}},{"type":"Feature","properties":{"hex_id":"833969fffffffff","population":1583636,"population_year":2025,"area_km2":12395.2,"population_density":127.8,"all_players":2,"players_per_million":1.26,"player_ids":["formula:charlesleclerc","formula:charliewurz"],"label":"Monte Carlo","country":"Monaco"},"geometry":{"type":"Polygon","coordinates":[[[6.03167,43.611509],[6.121326,42.998792],[6.894879,42.778417],[7.589687,43.17079],[7.509948,43.786609],[6.725378,44.00699],[6.03167,43.611509]]]}},{"type":"Feature","properties":{"hex_id":"834118fffffffff","population":16587626,"population_year":2025,"area_km2":12047.7,"population_density":1376.8,"all_players":1,"players_per_million":0.06,"player_ids":["formula:chloechambers"],"label":"Guangdong","country":"People's Republic of China"},"geometry":{"type":"Polygon","coordinates":[[[114.10474,23.370163],[113.971845,23.982285],[113.343031,24.2175],[112.846744,23.838321],[112.983522,23.223058],[113.612713,22.990107],[114.10474,23.370163]]]}},{"type":"Feature","properties":{"hex_id":"83411cfffffffff","population":32618370,"population_year":2025,"area_km2":12027.7,"population_density":2711.9,"all_players":1,"players_per_million":0.03,"player_ids":["formula:gerrardxie"],"label":"Hong Kong","country":"People's Republic of China"},"geometry":{"type":"Polygon","coordinates":[[[114.855932,22.520124],[114.726111,23.133955],[114.10474,23.370163],[113.612713,22.990107],[113.74641,22.372984],[114.368265,22.139203],[114.855932,22.520124]]]}},{"type":"Feature","properties":{"hex_id":"8344a1fffffffff","population":5763886,"population_year":2025,"area_km2":11010.2,"population_density":523.5,"all_players":1,"players_per_million":0.17,"player_ids":["formula:sebastianmontoya"],"label":"Miami","country":"United States"},"geometry":{"type":"Polygon","coordinates":[[[-79.949065,25.306967],[-79.508022,25.739732],[-79.655984,26.333663],[-80.252477,26.497928],[-80.698565,26.062694],[-80.543111,25.465679],[-79.949065,25.306967]]]}},{"type":"Feature","properties":{"hex_id":"8344acfffffffff","population":115428,"population_year":2025,"area_km2":11202.0,"population_density":10.3,"all_players":1,"players_per_million":8.66,"player_ids":["formula:bradbenavides"],"label":"South Florida","country":"United States"},"geometry":{"type":"Polygon","coordinates":[[[-80.698565,26.062694],[-80.252477,26.497928],[-80.407147,27.095513],[-81.015558,27.260891],[-81.466649,26.823209],[-81.304324,26.222612],[-80.698565,26.062694]]]}},{"type":"Feature","properties":{"hex_id":"8344d8fffffffff","population":1822560,"population_year":2025,"area_km2":11057.7,"population_density":164.8,"all_players":1,"players_per_million":0.55,"player_ids":["formula:jakcrawford"],"label":"Charlotte","country":"United States"},"geometry":{"type":"Polygon","coordinates":[[[-81.285062,34.542036],[-80.962413,34.812203],[-80.764551,34.92272],[-80.863541,35.476502],[-81.56765,35.695929],[-81.964648,35.469269],[-82.12783,35.333393],[-81.94686,34.733211],[-81.285062,34.542036]]]}},{"type":"Feature","properties":{"hex_id":"8348a2fffffffff","population":5717279,"population_year":2025,"area_km2":14586.4,"population_density":392.0,"all_players":1,"players_per_million":0.17,"player_ids":["formula:noelleon"],"label":"Monterrey","country":"Mexico"},"geometry":{"type":"Polygon","coordinates":[[[-99.925962,25.00053],[-99.481569,25.540781],[-99.773444,26.162949],[-100.516047,26.243876],[-100.960274,25.700209],[-100.662145,25.079051],[-99.925962,25.00053]]]}},{"type":"Feature","properties":{"hex_id":"83498cfffffffff","population":3417141,"population_year":2025,"area_km2":14715.5,"population_density":232.2,"all_players":1,"players_per_million":0.29,"player_ids":["formula:santiagoramos"],"label":"Zapopan","country":"Mexico"},"geometry":{"type":"Polygon","coordinates":[[[-102.651462,20.548282],[-102.229831,21.099852],[-102.527823,21.715825],[-103.252796,21.778355],[-103.673415,21.223091],[-103.370154,20.609007],[-102.651462,20.548282]]]}},{"type":"Feature","properties":{"hex_id":"83498efffffffff","population":3390934,"population_year":2025,"area_km2":14659.9,"population_density":231.3,"all_players":1,"players_per_million":0.29,"player_ids":["formula:rafaelvillagomez"],"label":"León de Los Aldama","country":"Mexico"},"geometry":{"type":"Polygon","coordinates":[[[-101.511436,21.033885],[-101.084901,21.581818],[-101.377338,22.199419],[-102.101944,22.267477],[-102.527823,21.715825],[-102.229831,21.099852],[-101.511436,21.033885]]]}},{"type":"Feature","properties":{"hex_id":"836014fffffffff","population":9179346,"population_year":2025,"area_km2":12679.7,"population_density":723.9,"all_players":1,"players_per_million":0.11,"player_ids":["formula:kushmaini"],"label":"Bengaluru","country":"India"},"geometry":{"type":"Polygon","coordinates":[[[77.770981,12.450864],[77.57497,13.063332],[76.959659,13.186075],[76.544056,12.699746],[76.739552,12.090965],[77.351197,11.964827],[77.770981,12.450864]]]}},{"type":"Feature","properties":{"hex_id":"8364a4fffffffff","population":21602692,"population_year":2025,"area_km2":14696.9,"population_density":1469.9,"all_players":1,"players_per_million":0.05,"player_ids":["formula:tasanapolinthraphuvasak"],"label":"Bangkok","country":"Thailand"},"geometry":{"type":"Polygon","coordinates":[[[101.291897,13.985209],[101.123991,14.642076],[100.45249,14.832364],[99.950498,14.364493],[100.121173,13.70703],[100.791105,13.518015],[101.291897,13.985209]]]}},{"type":"Feature","properties":{"hex_id":"836520fffffffff","population":2095333,"population_year":2025,"area_km2":14123.1,"population_density":148.4,"all_players":1,"players_per_million":0.48,"player_ids":["formula:christianho"],"label":"Singapore","country":"Singapore"},"geometry":{"type":"Polygon","coordinates":[[[103.858047,1.093918],[103.70324,1.733964],[103.065132,1.910322],[102.582945,1.4441],[102.740558,0.803667],[103.377579,0.62982],[103.858047,1.093918]]]}},{"type":"Feature","properties":{"hex_id":"838183fffffffff","population":5247099,"population_year":2025,"area_km2":14549.9,"population_density":360.6,"all_players":1,"players_per_million":0.19,"player_ids":["formula:rafaelcamara"],"label":"Recife","country":"Brazil"},"geometry":{"type":"Polygon","coordinates":[[[-34.568125,-8.145351],[-34.225299,-7.561978],[-34.55771,-6.976818],[-35.233892,-6.974007],[-35.57876,-7.558052],[-35.24545,-8.144235],[-34.568125,-8.145351]]]}},{"type":"Feature","properties":{"hex_id":"838e62fffffffff","population":11162205,"population_year":2025,"area_km2":14586.4,"population_density":765.2,"all_players":1,"players_per_million":0.09,"player_ids":["formula:matiaszagazeta"],"label":"Lima","country":"Peru"},"geometry":{"type":"Polygon","coordinates":[[[-77.098584,-11.775261],[-77.498036,-12.328229],[-77.211806,-12.942278],[-76.525741,-13.00159],[-76.128726,-12.448314],[-76.415289,-11.836039],[-77.098584,-11.775261]]]}},{"type":"Feature","properties":{"hex_id":"83a810fffffffff","population":24232036,"population_year":2025,"area_km2":12479.4,"population_density":1941.8,"all_players":2,"players_per_million":0.08,"player_ids":["formula:fernandobarrichello","formula:gabrielbortoleto"],"label":"São Paulo","country":"Brazil"},"geometry":{"type":"Polygon","coordinates":[[[-46.29901,-24.248724],[-45.933728,-23.740374],[-46.268552,-23.19855],[-46.967078,-23.166485],[-47.331841,-23.675521],[-46.998649,-24.215936],[-46.29901,-24.248724]]]}},{"type":"Feature","properties":{"hex_id":"83a918fffffffff","population":846860,"population_year":2025,"area_km2":11131.6,"population_density":76.1,"all_players":1,"players_per_million":1.18,"player_ids":["formula:rafaelaferreira"],"label":"Criciúma","country":"Brazil"},"geometry":{"type":"Polygon","coordinates":[[[-48.563609,-29.168139],[-48.196014,-28.703784],[-48.529304,-28.191965],[-49.228108,-28.146055],[-49.594653,-28.611118],[-49.263495,-29.121384],[-48.563609,-29.168139]]]}},{"type":"Feature","properties":{"hex_id":"83a94efffffffff","population":2779546,"population_year":2025,"area_km2":10913.5,"population_density":254.7,"all_players":1,"players_per_million":0.36,"player_ids":["formula:joshuadurksen"],"label":"Asunción","country":"Paraguay"},"geometry":{"type":"Polygon","coordinates":[[[-57.649991,-25.83818],[-57.298468,-25.384508],[-57.60311,-24.846261],[-58.255673,-24.764298],[-58.604355,-25.218365],[-58.303347,-25.754005],[-57.649991,-25.83818]]]}},{"type":"Feature","properties":{"hex_id":"83bb08fffffffff","population":166592,"population_year":2025,"area_km2":12679.7,"population_density":13.1,"all_players":1,"players_per_million":6.0,"player_ids":["formula:liamlawson"],"label":"Hastings","country":"New Zealand"},"geometry":{"type":"Polygon","coordinates":[[[177.75966,-39.210775],[177.398429,-38.643671],[176.616053,-38.618824],[176.182758,-39.164654],[176.541203,-39.737336],[177.335885,-39.758591],[177.75966,-39.210775]]]}},{"type":"Feature","properties":{"hex_id":"83be63fffffffff","population":5389912,"population_year":2025,"area_km2":14468.2,"population_density":372.5,"all_players":4,"players_per_million":0.74,"player_ids":["formula:aivaanagnostiadis","formula:jameswharton","formula:joanneciconte","formula:oscarpiastri"],"label":"Melbourne","country":"Australia"},"geometry":{"type":"Polygon","coordinates":[[[145.46356,-38.204698],[145.333886,-37.53716],[144.549504,-37.286204],[143.887418,-37.698406],[144.004411,-38.36545],[144.796215,-38.620841],[145.46356,-38.204698]]]}},{"type":"Feature","properties":{"hex_id":"83beabfffffffff","population":784032,"population_year":2025,"area_km2":14687.7,"population_density":53.4,"all_players":1,"players_per_million":1.28,"player_ids":["formula:jackdoohan"],"label":"Gold Coast","country":"Australia"},"geometry":{"type":"Polygon","coordinates":[[[154.567848,-28.355976],[154.382852,-27.701877],[153.649162,-27.512988],[153.092109,-27.975349],[153.268079,-28.631768],[154.010216,-28.823548],[154.567848,-28.355976]]]}},{"type":"Feature","properties":{"hex_id":"83c2e3fffffffff","population":14955631,"population_year":2025,"area_km2":8646.0,"population_density":1729.8,"all_players":1,"players_per_million":0.07,"player_ids":["formula:francocolapinto"],"label":"Pilar","country":"Argentina"},"geometry":{"type":"Polygon","coordinates":[[[-58.126426,-34.977792],[-57.770125,-34.604602],[-58.07815,-34.129709],[-58.738685,-34.029993],[-59.071246,-34.523027],[-58.77656,-34.937002],[-58.567821,-34.91082],[-58.126426,-34.977792]]]}}]}