{"type":"FeatureCollection","metadata":{"population_source":"WorldPop Global 2 R2025A","population_source_url":"https://hub.worldpop.org/project/categories?id=3","population_license":"CC BY 4.0","population_year":2025,"raster_resolution":"1km","h3_resolution":2,"population_method":"official_country_rasters","occupied_cells":57,"mapped_players":86},"features":[{"type":"Feature","properties":{"hex_id":"82089ffffffffff","population":2635076,"population_year":2025,"area_km2":65980.3,"population_density":39.9,"all_players":1,"players_per_million":0.38,"player_ids":["formula:tuukkataponen"],"label":"Lohja","country":"Finland"},"geometry":{"type":"Polygon","coordinates":[[[20.235913,59.22587],[22.144282,58.209221],[25.082722,58.401545],[25.77412,59.916287],[23.838471,60.96689],[21.289182,60.46251],[20.235913,59.22587]]]}},{"type":"Feature","properties":{"hex_id":"8208b7fffffffff","population":2250279,"population_year":2025,"area_km2":65961.6,"population_density":34.1,"all_players":1,"players_per_million":0.44,"player_ids":["formula:dinobeganovic"],"label":"Linköping","country":"Sweden"},"geometry":{"type":"Polygon","coordinates":[[[12.360313,59.444957],[11.555978,58.130531],[13.543636,57.232114],[16.36093,57.622703],[17.2862,58.926343],[15.277419,59.851205],[12.360313,59.444957]]]}},{"type":"Feature","properties":{"hex_id":"82099ffffffffff","population":2587703,"population_year":2025,"area_km2":63447.1,"population_density":40.8,"all_players":1,"players_per_million":0.39,"player_ids":["formula:martiniusstenshorne"],"label":"Hokksund","country":"Norway"},"geometry":{"type":"Polygon","coordinates":[[[7.438464,59.76718],[6.766113,58.447096],[8.799628,57.640256],[11.555978,58.130531],[12.360313,59.444957],[10.279089,60.275949],[7.438464,59.76718]]]}},{"type":"Feature","properties":{"hex_id":"821197fffffffff","population":5411512,"population_year":2025,"area_km2":81458.9,"population_density":66.4,"all_players":1,"players_per_million":0.18,"player_ids":["formula:nikitabedrin"],"label":"Belgorod","country":"Russia"},"geometry":{"type":"Polygon","coordinates":[[[34.739692,51.127123],[36.116724,49.779343],[38.481259,49.879789],[39.607695,51.365697],[38.242666,52.766684],[35.733455,52.627433],[34.739692,51.127123]]]}},{"type":"Feature","properties":{"hex_id":"82182ffffffffff","population":4166502,"population_year":2025,"area_km2":82705.0,"population_density":50.4,"all_players":1,"players_per_million":0.24,"player_ids":["formula:alexdunne"],"label":"County Offaly","country":"Ireland"},"geometry":{"type":"Polygon","coordinates":[[[-6.713499,53.841054],[-9.166993,53.289084],[-9.362891,51.696863],[-7.224494,50.679047],[-4.88976,51.223728],[-4.578382,52.792439],[-6.713499,53.841054]]]}},{"type":"Feature","properties":{"hex_id":"82185ffffffffff","population":956632,"population_year":2025,"area_km2":89440.6,"population_density":10.7,"all_players":1,"players_per_million":1.05,"player_ids":["formula:fernandoalonso"],"label":"Oviedo","country":"Spain"},"geometry":{"type":"Polygon","coordinates":[[[-5.733942,46.36037],[-7.898252,45.74022],[-8.101589,44.050631],[-6.231988,43.009176],[-4.162635,43.625899],[-3.870647,45.286766],[-5.733942,46.36037]]]}},{"type":"Feature","properties":{"hex_id":"821867fffffffff","population":5245763,"population_year":2025,"area_km2":80847.5,"population_density":64.9,"all_players":2,"players_per_million":0.38,"player_ids":["formula:lisabillard","formula:pierregasly"],"label":"Seine-Maritime","country":"France"},"geometry":{"type":"Polygon","coordinates":[[[-0.631095,50.601911],[-2.906528,50.142292],[-3.243656,48.547301],[-1.396608,47.443512],[0.764026,47.90745],[1.18851,49.470279],[-0.631095,50.601911]]]}},{"type":"Feature","properties":{"hex_id":"82190ffffffffff","population":1891088,"population_year":2025,"area_km2":75672.4,"population_density":25.0,"all_players":1,"players_per_million":0.53,"player_ids":["formula:cianshields"],"label":"Glasgow","country":"United Kingdom"},"geometry":{"type":"Polygon","coordinates":[[[-5.83227,58.353838],[-8.508655,57.881131],[-8.7409,56.382588],[-6.436337,55.37739],[-3.903181,55.840606],[-3.536381,57.317288],[-5.83227,58.353838]]]}},{"type":"Feature","properties":{"hex_id":"821947fffffffff","population":12519310,"population_year":2025,"area_km2":74863.4,"population_density":167.2,"all_players":3,"players_per_million":0.24,"player_ids":["formula:alishapalmowski","formula:georgerussell","formula:louissharp"],"label":"Glossop","country":"United Kingdom"},"geometry":{"type":"Polygon","coordinates":[[[0.670759,55.133806],[-1.785543,54.762388],[-2.178886,53.251551],[-0.219137,52.141681],[2.101314,52.517134],[2.592789,53.997752],[0.670759,55.133806]]]}},{"type":"Feature","properties":{"hex_id":"82194ffffffffff","population":23325550,"population_year":2025,"area_km2":76219.8,"population_density":306.0,"all_players":6,"players_per_million":0.26,"player_ids":["formula:alexanderalbon","formula:arvidlindblad","formula:lewishamilton","formula:meganbruce","formula:oliverbearman","formula:olivergoethe"],"label":"London","country":"United Kingdom"},"geometry":{"type":"Polygon","coordinates":[[[2.101314,52.517134],[-0.219137,52.141681],[-0.631095,50.601911],[1.18851,49.470279],[3.384772,49.85377],[3.881134,51.360376],[2.101314,52.517134]]]}},{"type":"Feature","properties":{"hex_id":"821957fffffffff","population":9970811,"population_year":2025,"area_km2":77902.3,"population_density":128.0,"all_players":1,"players_per_million":0.1,"player_ids":["formula:lukebrowning"],"label":"Kingsley","country":"United Kingdom"},"geometry":{"type":"Polygon","coordinates":[[[-3.903181,55.840606],[-6.436337,55.37739],[-6.713499,53.841054],[-4.578382,52.792439],[-2.178886,53.251551],[-1.785543,54.762388],[-3.903181,55.840606]]]}},{"type":"Feature","properties":{"hex_id":"82195ffffffffff","population":22721748,"population_year":2025,"area_km2":79647.5,"population_density":285.3,"all_players":5,"players_per_million":0.22,"player_ids":["formula:callumvoisin","formula:ellalloyd","formula:jameshedley","formula:landonorris","formula:romanbilinski"],"label":"Bath","country":"United Kingdom"},"geometry":{"type":"Polygon","coordinates":[[[-2.178886,53.251551],[-4.578382,52.792439],[-4.88976,51.223728],[-2.906528,50.142292],[-0.631095,50.601911],[-0.219137,52.141681],[-2.178886,53.251551]]]}},{"type":"Feature","properties":{"hex_id":"82196ffffffffff","population":13271725,"population_year":2025,"area_km2":72289.7,"population_density":183.6,"all_players":4,"players_per_million":0.3,"player_ids":["formula:esmeekosterman","formula:laurensvanhoepen","formula:ninagademan","formula:richardverschoor"],"label":"Wijk bij Duurstede","country":"Netherlands"},"geometry":{"type":"Polygon","coordinates":[[[4.948742,54.288287],[2.592789,53.997752],[2.101314,52.517134],[3.881134,51.360376],[6.259687,51.96477],[6.848229,53.43156],[4.948742,54.288287]]]}},{"type":"Feature","properties":{"hex_id":"821e07fffffffff","population":15880792,"population_year":2025,"area_km2":85294.5,"population_density":186.2,"all_players":1,"players_per_million":0.06,"player_ids":["formula:romanstanek"],"label":"Valašské Meziříčí","country":"Czech Republic"},"geometry":{"type":"Polygon","coordinates":[[[16.606047,49.899182],[15.817384,48.388123],[17.489488,47.234679],[19.952961,47.57214],[20.822886,49.074367],[19.15135,50.248654],[16.606047,49.899182]]]}},{"type":"Feature","properties":{"hex_id":"821e37fffffffff","population":10279073,"population_year":2025,"area_km2":82705.0,"population_density":124.3,"all_players":1,"players_per_million":0.1,"player_ids":["formula:emmafelbermayr"],"label":"Wels","country":"Austria"},"geometry":{"type":"Polygon","coordinates":[[[12.345747,50.554275],[11.648396,49.039345],[13.374348,47.965938],[15.817384,48.388123],[16.606047,49.899182],[14.863027,50.992748],[12.345747,50.554275]]]}},{"type":"Feature","properties":{"hex_id":"821e87fffffffff","population":12834722,"population_year":2025,"area_km2":92775.6,"population_density":138.3,"all_players":1,"players_per_million":0.08,"player_ids":["formula:nicolamarinangeli"],"label":"Foligno","country":"Italy"},"geometry":{"type":"Polygon","coordinates":[[[11.369193,43.208977],[10.754951,41.575053],[12.334661,40.405578],[14.548451,40.851244],[15.239936,42.485371],[13.642239,43.674337],[11.369193,43.208977]]]}},{"type":"Feature","properties":{"hex_id":"821e9ffffffffff","population":2800256,"population_year":2025,"area_km2":96323.1,"population_density":29.1,"all_players":1,"players_per_million":0.36,"player_ids":["formula:gabrielemini"],"label":"Palermo","country":"Italy"},"geometry":{"type":"Polygon","coordinates":[[[12.334661,40.405578],[11.719175,38.741667],[13.244313,37.523712],[15.400739,37.949689],[16.087589,39.612646],[14.548451,40.851244],[12.334661,40.405578]]]}},{"type":"Feature","properties":{"hex_id":"821ea7fffffffff","population":14372848,"population_year":2025,"area_km2":88726.5,"population_density":162.0,"all_players":1,"players_per_million":0.07,"player_ids":["formula:kimiantonelli"],"label":"Bologna","country":"Italy"},"geometry":{"type":"Polygon","coordinates":[[[10.343213,45.921928],[9.731941,44.323805],[11.369193,43.208977],[13.642239,43.674337],[14.337206,45.273432],[12.677318,46.406957],[10.343213,45.921928]]]}},{"type":"Feature","properties":{"hex_id":"821ec7fffffffff","population":6669519,"population_year":2025,"area_km2":95515.4,"population_density":69.8,"all_players":1,"players_per_million":0.15,"player_ids":["formula:nikolatsolov"],"label":"Sofia","country":"Bulgaria"},"geometry":{"type":"Polygon","coordinates":[[[22.238177,43.517311],[21.399102,41.932468],[22.87671,40.608844],[25.176743,40.851016],[26.072885,42.421413],[24.614981,43.76451],[22.238177,43.517311]]]}},{"type":"Feature","properties":{"hex_id":"821f07fffffffff","population":6981829,"population_year":2025,"area_km2":73030.9,"population_density":95.6,"all_players":1,"players_per_million":0.14,"player_ids":["formula:albahuruplarsen"],"label":"Roskilde","country":"Denmark"},"geometry":{"type":"Polygon","coordinates":[[[10.065692,55.394879],[9.374531,53.975514],[11.24517,53.03204],[13.839529,53.487245],[14.640207,54.902182],[12.739823,55.867327],[10.065692,55.394879]]]}},{"type":"Feature","properties":{"hex_id":"821f17fffffffff","population":19193666,"population_year":2025,"area_km2":74863.4,"population_density":256.4,"all_players":1,"players_per_million":0.05,"player_ids":["formula:timtramnitz"],"label":"Hamburg","country":"Germany"},"geometry":{"type":"Polygon","coordinates":[[[6.848229,53.43156],[6.259687,51.96477],[8.088631,51.039696],[10.549623,51.56399],[11.24517,53.03204],[9.374531,53.975514],[6.848229,53.43156]]]}},{"type":"Feature","properties":{"hex_id":"821f87fffffffff","population":16111686,"population_year":2025,"area_km2":80847.5,"population_density":199.3,"all_players":1,"players_per_million":0.06,"player_ids":["formula:tinahausmann"],"label":"Zurich","country":"Switzerland"},"geometry":{"type":"Polygon","coordinates":[[[5.163511,48.943764],[4.652435,47.393027],[6.371339,46.417017],[8.645314,46.977068],[9.251571,48.534678],[7.489806,49.526212],[5.163511,48.943764]]]}},{"type":"Feature","properties":{"hex_id":"821f9ffffffffff","population":16398717,"population_year":2025,"area_km2":85294.5,"population_density":192.3,"all_players":1,"players_per_million":0.06,"player_ids":["formula:leonardofornaroli"],"label":"Piacenza","country":"Italy"},"geometry":{"type":"Polygon","coordinates":[[[6.371339,46.417017],[5.848477,44.82547],[7.509948,43.786609],[9.731941,44.323805],[10.343213,45.921928],[8.645314,46.977068],[6.371339,46.417017]]]}},{"type":"Feature","properties":{"hex_id":"821fa7fffffffff","population":28149582,"population_year":2025,"area_km2":76219.8,"population_density":369.3,"all_players":4,"players_per_million":0.14,"player_ids":["formula:amaurycordeel","formula:mathildapaatz","formula:maxverstappen","formula:nicohulkenberg"],"label":"Cologne","country":"Belgium"},"geometry":{"type":"Polygon","coordinates":[[[3.881134,51.360376],[3.384772,49.85377],[5.163511,48.943764],[7.489806,49.526212],[8.088631,51.039696],[6.259687,51.96477],[3.881134,51.360376]]]}},{"type":"Feature","properties":{"hex_id":"821fb7fffffffff","population":17326098,"population_year":2025,"area_km2":77926.1,"population_density":222.3,"all_players":4,"players_per_million":0.23,"player_ids":["formula:dorianepin","formula:estebanocon","formula:isackhadjar","formula:victormartins"],"label":"Ivry-sur-Seine","country":"France"},"geometry":{"type":"Polygon","coordinates":[[[1.18851,49.470279],[0.764026,47.90745],[2.458902,46.763731],[4.652435,47.393027],[5.163511,48.943764],[3.384772,49.85377],[1.18851,49.470279]]]}},{"type":"Feature","properties":{"hex_id":"822697fffffffff","population":2718995,"population_year":2025,"area_km2":93159.0,"population_density":29.2,"all_players":1,"players_per_million":0.37,"player_ids":["formula:liablock"],"label":"Park City","country":"United States"},"geometry":{"type":"Polygon","coordinates":[[[-110.584833,38.489935],[-108.818288,39.54349],[-109.131063,41.19652],[-111.27157,41.789209],[-113.046271,40.72062],[-112.673648,39.075149],[-110.584833,38.489935]]]}},{"type":"Feature","properties":{"hex_id":"8228dffffffffff","population":3121728,"population_year":2025,"area_km2":72289.7,"population_density":43.2,"all_players":1,"players_per_million":0.32,"player_ids":["formula:nicolehavrda"],"label":"Courtenay","country":"Canada"},"geometry":{"type":"Polygon","coordinates":[[[-123.785414,48.414997],[-122.065326,49.540804],[-123.122866,50.984711],[-125.501019,51.20399],[-126.653646,49.99834],[-126.038043,48.646404],[-123.785414,48.414997]]]}},{"type":"Feature","properties":{"hex_id":"8229a7fffffffff","population":26139253,"population_year":2025,"area_km2":97556.0,"population_density":267.9,"all_players":1,"players_per_million":0.04,"player_ids":["formula:courtneycrone"],"label":"Riverside","country":"United States"},"geometry":{"type":"Polygon","coordinates":[[[-116.838302,32.260383],[-115.254005,33.431536],[-115.644549,35.13856],[-117.666441,35.65712],[-119.240554,34.468622],[-118.804528,32.779438],[-116.838302,32.260383]]]}},{"type":"Feature","properties":{"hex_id":"822a17fffffffff","population":30364242,"population_year":2025,"area_km2":87326.6,"population_density":347.7,"all_players":1,"players_per_million":0.03,"player_ids":["formula:ugougochukwu"],"label":"New York City","country":"United States"},"geometry":{"type":"Polygon","coordinates":[[[-73.076912,42.400493],[-75.333452,42.029564],[-75.960619,40.480497],[-74.442775,39.340569],[-72.307877,39.686062],[-71.573772,41.195725],[-73.076912,42.400493]]]}},{"type":"Feature","properties":{"hex_id":"822a37fffffffff","population":10409321,"population_year":2025,"area_km2":89801.2,"population_density":115.9,"all_players":1,"players_per_million":0.1,"player_ids":["formula:aurelianobels"],"label":"Boston","country":"United States"},"geometry":{"type":"Polygon","coordinates":[[[-69.955068,44.277849],[-72.323382,43.964363],[-73.076912,42.400493],[-71.573772,41.195725],[-69.342223,41.490681],[-68.482715,43.008011],[-69.955068,44.277849]]]}},{"type":"Feature","properties":{"hex_id":"822baffffffffff","population":6643169,"population_year":2025,"area_km2":93933.6,"population_density":70.7,"all_players":1,"players_per_million":0.15,"player_ids":["formula:lancestroll"],"label":"Montreal","country":"Canada"},"geometry":{"type":"Polygon","coordinates":[[[-70.65056,47.146099],[-73.17262,46.811656],[-73.944231,45.197835],[-72.323382,43.964363],[-69.955068,44.277849],[-69.060562,45.844655],[-70.65056,47.146099]]]}},{"type":"Feature","properties":{"hex_id":"822f5ffffffffff","population":40494200,"population_year":2025,"area_km2":79647.5,"population_density":508.4,"all_players":2,"players_per_million":0.05,"player_ids":["formula:ritomomiyata","formula:yukitsunoda"],"label":"Zushi","country":"Japan"},"geometry":{"type":"Polygon","coordinates":[[[141.379662,33.846135],[141.516472,35.500079],[139.948213,36.441778],[138.304265,35.714832],[138.240188,34.090249],[139.748325,33.162808],[141.379662,33.846135]]]}},{"type":"Feature","properties":{"hex_id":"82390ffffffffff","population":8669237,"population_year":2025,"area_km2":88726.5,"population_density":97.7,"all_players":1,"players_per_million":0.12,"player_ids":["formula:carlossainzjr"],"label":"Madrid","country":"Spain"},"geometry":{"type":"Polygon","coordinates":[[[-2.728618,40.871785],[-4.708227,40.256026],[-4.963456,38.552712],[-3.311341,37.499409],[-1.416234,38.115997],[-1.091146,39.784657],[-2.728618,40.871785]]]}},{"type":"Feature","properties":{"hex_id":"823947fffffffff","population":8221573,"population_year":2025,"area_km2":85294.5,"population_density":96.4,"all_players":2,"players_per_million":0.24,"player_ids":["formula:javiersagrera","formula:pepemarti"],"label":"Torroella de Montgrí","country":"Spain"},"geometry":{"type":"Polygon","coordinates":[[[1.216871,41.967575],[0.837298,40.335353],[2.409691,39.323588],[4.408495,39.931959],[4.868332,41.580315],[3.24935,42.604792],[1.216871,41.967575]]]}},{"type":"Feature","properties":{"hex_id":"823957fffffffff","population":5978276,"population_year":2025,"area_km2":85321.7,"population_density":70.1,"all_players":1,"players_per_million":0.17,"player_ids":["formula:mayaweug"],"label":"Pedreguer","country":"Spain"},"geometry":{"type":"Polygon","coordinates":[[[-1.091146,39.784657],[-1.416234,38.115997],[0.123807,37.036562],[2.015255,37.664358],[2.409691,39.323588],[0.837298,40.335353],[-1.091146,39.784657]]]}},{"type":"Feature","properties":{"hex_id":"823967fffffffff","population":5102029,"population_year":2025,"area_km2":82416.4,"population_density":61.9,"all_players":1,"players_per_million":0.2,"player_ids":["formula:mariboya"],"label":"Les","country":"Spain"},"geometry":{"type":"Polygon","coordinates":[[[-0.028005,44.712978],[-0.397973,43.08589],[1.216871,41.967575],[3.24935,42.604792],[3.696702,44.221235],[2.026569,45.184249],[-0.028005,44.712978]]]}},{"type":"Feature","properties":{"hex_id":"82396ffffffffff","population":6845595,"population_year":2025,"area_km2":85627.7,"population_density":79.9,"all_players":3,"players_per_million":0.44,"player_ids":["formula:charlesleclerc","formula:charliewurz","formula:samimeguetounif"],"label":"Monte Carlo","country":"Monaco"},"geometry":{"type":"Polygon","coordinates":[[[3.696702,44.221235],[3.24935,42.604792],[4.868332,41.580315],[6.97784,42.158616],[7.509948,43.786609],[5.848477,44.82547],[3.696702,44.221235]]]}},{"type":"Feature","properties":{"hex_id":"824107fffffffff","population":18413,"population_year":2025,"area_km2":85294.5,"population_density":0.2,"all_players":1,"players_per_million":54.31,"player_ids":["formula:gerrardxie"],"label":"Hong Kong","country":"People's Republic of China"},"geometry":{"type":"Polygon","coordinates":[[[115.972568,19.8125],[116.202872,21.431221],[114.855932,22.520124],[113.254772,21.985685],[113.0333,20.343332],[114.403659,19.258865],[115.972568,19.8125]]]}},{"type":"Feature","properties":{"hex_id":"82411ffffffffff","population":84435088,"population_year":2025,"area_km2":84307.8,"population_density":1001.5,"all_players":1,"players_per_million":0.01,"player_ids":["formula:chloechambers"],"label":"Guangdong","country":"People's Republic of China"},"geometry":{"type":"Polygon","coordinates":[[[114.855932,22.520124],[115.085055,24.116355],[113.703767,25.199133],[112.070422,24.683011],[111.851065,23.06606],[113.254772,21.985685],[114.855932,22.520124]]]}},{"type":"Feature","properties":{"hex_id":"8244a7fffffffff","population":5328381,"population_year":2025,"area_km2":75672.4,"population_density":70.4,"all_players":1,"players_per_million":0.19,"player_ids":["formula:sebastianmontoya"],"label":"Miami","country":"United States"},"geometry":{"type":"Polygon","coordinates":[[[-79.508242,23.533066],[-78.073265,24.24011],[-77.908907,25.835601],[-79.211732,26.761492],[-80.698565,26.062694],[-80.82969,24.429618],[-79.508242,23.533066]]]}},{"type":"Feature","properties":{"hex_id":"8244affffffffff","population":7848067,"population_year":2025,"area_km2":77902.3,"population_density":100.7,"all_players":1,"players_per_million":0.13,"player_ids":["formula:bradbenavides"],"label":"South Florida","country":"United States"},"geometry":{"type":"Polygon","coordinates":[[[-80.698565,26.062694],[-79.211732,26.761492],[-79.057436,28.372892],[-80.425375,29.321821],[-81.966494,28.631807],[-82.084301,26.984013],[-80.698565,26.062694]]]}},{"type":"Feature","properties":{"hex_id":"8244dffffffffff","population":7412190,"population_year":2025,"area_km2":77926.1,"population_density":95.1,"all_players":1,"players_per_million":0.13,"player_ids":["formula:jakcrawford"],"label":"Charlotte","country":"United States"},"geometry":{"type":"Polygon","coordinates":[[[-81.592393,33.531156],[-79.985888,34.15372],[-79.557618,35.583567],[-81.068449,36.598719],[-82.992984,36.123996],[-83.104736,34.505705],[-81.592393,33.531156]]]}},{"type":"Feature","properties":{"hex_id":"8248a7fffffffff","population":7182232,"population_year":2025,"area_km2":102761.2,"population_density":69.9,"all_players":1,"players_per_million":0.14,"player_ids":["formula:noelleon"],"label":"Monterrey","country":"Mexico"},"geometry":{"type":"Polygon","coordinates":[[[-101.240822,23.36631],[-99.635856,24.378944],[-99.773444,26.162949],[-101.566584,26.941793],[-103.199651,25.912525],[-103.011626,24.121727],[-101.240822,23.36631]]]}},{"type":"Feature","properties":{"hex_id":"824987fffffffff","population":19671826,"population_year":2025,"area_km2":101417.2,"population_density":194.0,"all_players":1,"players_per_million":0.05,"player_ids":["formula:rafaelvillagomez"],"label":"León de Los Aldama","country":"Mexico"},"geometry":{"type":"Polygon","coordinates":[[[-100.786028,18.036674],[-99.246183,19.050422],[-99.372387,20.819245],[-101.084901,21.581818],[-102.651462,20.548282],[-102.478889,18.772634],[-100.786028,18.036674]]]}},{"type":"Feature","properties":{"hex_id":"8249affffffffff","population":8625037,"population_year":2025,"area_km2":102761.2,"population_density":83.9,"all_players":1,"players_per_million":0.12,"player_ids":["formula:santiagoramos"],"label":"Zapopan","country":"Mexico"},"geometry":{"type":"Polygon","coordinates":[[[-104.006979,17.727556],[-102.478889,18.772634],[-102.651462,20.548282],[-104.398166,21.280266],[-105.946435,20.212679],[-105.728157,18.436308],[-104.006979,17.727556]]]}},{"type":"Feature","properties":{"hex_id":"826017fffffffff","population":39917928,"population_year":2025,"area_km2":87326.6,"population_density":457.1,"all_players":1,"players_per_million":0.03,"player_ids":["formula:kushmaini"],"label":"Bengaluru","country":"India"},"geometry":{"type":"Polygon","coordinates":[[[77.770981,12.450864],[77.800917,14.162484],[76.369883,15.001448],[74.941776,14.138667],[74.928421,12.455892],[76.326846,11.607008],[77.770981,12.450864]]]}},{"type":"Feature","properties":{"hex_id":"8264a7fffffffff","population":26373493,"population_year":2025,"area_km2":102761.2,"population_density":256.6,"all_players":1,"players_per_million":0.04,"player_ids":["formula:tasanapolinthraphuvasak"],"label":"Bangkok","country":"Thailand"},"geometry":{"type":"Polygon","coordinates":[[[101.291897,13.985209],[101.458892,15.760959],[99.938788,16.794916],[98.251544,16.046518],[98.101118,14.26415],[99.621042,13.236333],[101.291897,13.985209]]]}},{"type":"Feature","properties":{"hex_id":"826527fffffffff","population":8679760,"population_year":2025,"area_km2":98815.5,"population_density":87.8,"all_players":1,"players_per_million":0.12,"player_ids":["formula:christianho"],"label":"Singapore","country":"Singapore"},"geometry":{"type":"Polygon","coordinates":[[[104.644094,0.283939],[104.819754,2.022102],[103.391464,3.021473],[101.781836,2.264143],[101.620024,0.512277],[103.053645,-0.468955],[104.644094,0.283939]]]}},{"type":"Feature","properties":{"hex_id":"828187fffffffff","population":10223616,"population_year":2025,"area_km2":101417.2,"population_density":100.8,"all_players":1,"players_per_million":0.1,"player_ids":["formula:rafaelcamara"],"label":"Recife","country":"Brazil"},"geometry":{"type":"Polygon","coordinates":[[[-34.589059,-10.472717],[-33.228016,-9.306023],[-33.551706,-7.562377],[-35.233892,-6.974007],[-36.605565,-8.138603],[-36.284909,-9.893325],[-34.589059,-10.472717]]]}},{"type":"Feature","properties":{"hex_id":"828e67fffffffff","population":14012104,"population_year":2025,"area_km2":101417.2,"population_density":138.2,"all_players":1,"players_per_million":0.07,"player_ids":["formula:matiaszagazeta"],"label":"Lima","country":"Peru"},"geometry":{"type":"Polygon","coordinates":[[[-75.91228,-10.117015],[-77.383874,-11.159905],[-77.211806,-12.942278],[-75.553473,-13.6677],[-74.089299,-12.614189],[-74.275639,-10.846247],[-75.91228,-10.117015]]]}},{"type":"Feature","properties":{"hex_id":"82a817fffffffff","population":35227396,"population_year":2025,"area_km2":87326.6,"population_density":403.4,"all_players":2,"players_per_million":0.06,"player_ids":["formula:fernandobarrichello","formula:gabrielbortoleto"],"label":"São Paulo","country":"Brazil"},"geometry":{"type":"Polygon","coordinates":[[[-46.329568,-25.285204],[-44.896021,-24.304788],[-45.204057,-22.710396],[-46.93561,-22.103817],[-48.35944,-23.093332],[-48.061859,-24.679886],[-46.329568,-25.285204]]]}},{"type":"Feature","properties":{"hex_id":"82a91ffffffffff","population":2751227,"population_year":2025,"area_km2":77902.3,"population_density":35.3,"all_players":1,"players_per_million":0.36,"player_ids":["formula:rafaelaferreira"],"label":"Criciúma","country":"Brazil"},"geometry":{"type":"Polygon","coordinates":[[[-48.598026,-30.12918],[-47.158063,-29.25093],[-47.461171,-27.760044],[-49.192836,-27.155857],[-50.618998,-28.043997],[-50.327685,-29.525999],[-48.598026,-30.12918]]]}},{"type":"Feature","properties":{"hex_id":"82a94ffffffffff","population":2872917,"population_year":2025,"area_km2":76219.8,"population_density":37.7,"all_players":1,"players_per_million":0.35,"player_ids":["formula:joshuadurksen"],"label":"Asunción","country":"Paraguay"},"geometry":{"type":"Polygon","coordinates":[[[-58.652486,-26.200276],[-57.298468,-25.384508],[-57.556366,-23.841124],[-59.153405,-23.133384],[-60.479738,-23.963809],[-60.236852,-25.487093],[-58.652486,-26.200276]]]}},{"type":"Feature","properties":{"hex_id":"82bb0ffffffffff","population":580554,"population_year":2025,"area_km2":88726.5,"population_density":6.5,"all_players":1,"players_per_million":1.72,"player_ids":["formula:liamlawson"],"label":"Hastings","country":"New Zealand"},"geometry":{"type":"Polygon","coordinates":[[[178.908854,-39.784657],[178.583766,-38.115997],[176.688659,-37.499409],[175.036544,-38.552712],[175.291773,-40.256026],[177.271382,-40.871785],[178.908854,-39.784657]]]}},{"type":"Feature","properties":{"hex_id":"82be67fffffffff","population":5799918,"population_year":2025,"area_km2":101417.2,"population_density":57.2,"all_players":4,"players_per_million":0.69,"player_ids":["formula:aivaanagnostiadis","formula:jameswharton","formula:joanneciconte","formula:oscarpiastri"],"label":"Melbourne","country":"Australia"},"geometry":{"type":"Polygon","coordinates":[[[147.365513,-40.022078],[147.728894,-38.261419],[145.990588,-37.115507],[143.887418,-37.698406],[143.445429,-39.437203],[145.182884,-40.615783],[147.365513,-40.022078]]]}},{"type":"Feature","properties":{"hex_id":"82beaffffffffff","population":860278,"population_year":2025,"area_km2":103215.8,"population_density":8.3,"all_players":1,"players_per_million":1.16,"player_ids":["formula:jackdoohan"],"label":"Gold Coast","country":"Australia"},"geometry":{"type":"Polygon","coordinates":[[[156.457483,-30.029487],[156.601213,-28.245627],[154.931553,-27.234921],[153.092109,-27.975349],[152.877292,-29.753699],[154.572365,-30.798114],[156.457483,-30.029487]]]}},{"type":"Feature","properties":{"hex_id":"82c2e7fffffffff","population":16637306,"population_year":2025,"area_km2":59429.4,"population_density":280.0,"all_players":1,"players_per_million":0.06,"player_ids":["formula:francocolapinto"],"label":"Pilar","country":"Argentina"},"geometry":{"type":"Polygon","coordinates":[[[-58.223405,-36.629598],[-56.837235,-36.005614],[-57.102564,-34.700194],[-58.738685,-34.029993],[-60.04313,-35.087873],[-59.788176,-36.394827],[-58.223405,-36.629598]]]}}]}