{"type":"FeatureCollection","metadata":{"population_source":"WorldPop Global 2 R2025A","population_source_url":"https://hub.worldpop.org/project/categories?id=3","population_license":"CC BY 4.0","population_year":2025,"raster_resolution":"1km","h3_resolution":1,"population_method":"official_country_rasters","occupied_cells":36,"mapped_players":86},"features":[{"type":"Feature","properties":{"hex_id":"8108bffffffffff","population":9413392,"population_year":2025,"area_km2":447684.2,"population_density":21.0,"all_players":2,"players_per_million":0.21,"player_ids":["formula:dinobeganovic","formula:tuukkataponen"],"label":"Linköping","country":"Sweden"},"geometry":{"type":"Polygon","coordinates":[[[11.08066,61.540515],[11.555978,58.130531],[18.275236,56.632953],[25.082722,58.401545],[24.517172,62.478113],[17.535446,63.800793],[15.771774,62.889968],[11.08066,61.540515]]]}},{"type":"Feature","properties":{"hex_id":"8109bffffffffff","population":4354591,"population_year":2025,"area_km2":447684.2,"population_density":9.7,"all_players":1,"players_per_million":0.23,"player_ids":["formula:martiniusstenshorne"],"label":"Hokksund","country":"Norway"},"geometry":{"type":"Polygon","coordinates":[[[4.012621,63.327061],[-2.297526,61.54551],[-0.931587,57.689497],[5.523647,55.706768],[11.555978,58.130531],[11.08066,61.540515],[8.644221,61.890838],[4.012621,63.327061]]]}},{"type":"Feature","properties":{"hex_id":"8111bffffffffff","population":41364282,"population_year":2025,"area_km2":565620.1,"population_density":73.1,"all_players":1,"players_per_million":0.02,"player_ids":["formula:nikitabedrin"],"label":"Belgorod","country":"Russia"},"geometry":{"type":"Polygon","coordinates":[[[30.654128,52.413789],[36.116724,49.779343],[42.136829,51.409437],[43.547482,55.820804],[37.661108,58.480663],[31.095814,56.470005],[31.017704,54.340219],[30.654128,52.413789]]]}},{"type":"Feature","properties":{"hex_id":"81183ffffffffff","population":6292474,"population_year":2025,"area_km2":595741.2,"population_density":10.6,"all_players":1,"players_per_million":0.16,"player_ids":["formula:alexdunne"],"label":"County Offaly","country":"Ireland"},"geometry":{"type":"Polygon","coordinates":[[[-13.791647,56.736324],[-18.841172,53.740207],[-16.382341,49.609269],[-9.724736,48.430094],[-4.88976,51.223728],[-6.436337,55.37739],[-13.791647,56.736324]]]}},{"type":"Feature","properties":{"hex_id":"81187ffffffffff","population":21776966,"population_year":2025,"area_km2":595741.2,"population_density":36.6,"all_players":2,"players_per_million":0.09,"player_ids":["formula:estebanocon","formula:pierregasly"],"label":"Évreux","country":"France"},"geometry":{"type":"Polygon","coordinates":[[[-4.88976,51.223728],[-9.724736,48.430094],[-8.101589,44.050631],[-2.417796,42.54048],[2.026569,45.184249],[1.18851,49.470279],[-4.88976,51.223728]]]}},{"type":"Feature","properties":{"hex_id":"81197ffffffffff","population":88036357,"population_year":2025,"area_km2":523941.7,"population_density":168.0,"all_players":21,"players_per_million":0.24,"player_ids":["formula:alexanderalbon","formula:alishapalmowski","formula:amaurycordeel","formula:arvidlindblad","formula:callumvoisin","formula:cianshields","formula:ellalloyd","formula:esmeekosterman","formula:georgerussell","formula:jameshedley","formula:landonorris","formula:laurensvanhoepen","formula:lewishamilton","formula:lisabillard","formula:louissharp","formula:lukebrowning","formula:meganbruce","formula:oliverbearman","formula:olivergoethe","formula:richardverschoor","formula:romanbilinski"],"label":"London","country":"United Kingdom"},"geometry":{"type":"Polygon","coordinates":[[[-0.931587,57.689497],[-6.436337,55.37739],[-4.88976,51.223728],[1.18851,49.470279],[3.630009,50.610463],[6.259687,51.96477],[5.523647,55.706768],[-0.931587,57.689497]]]}},{"type":"Feature","properties":{"hex_id":"811e3ffffffffff","population":71057199,"population_year":2025,"area_km2":595741.2,"population_density":119.3,"all_players":2,"players_per_million":0.03,"player_ids":["formula:emmafelbermayr","formula:romanstanek"],"label":"Wels","country":"Austria"},"geometry":{"type":"Polygon","coordinates":[[[12.345747,50.554275],[12.677318,46.406957],[18.31474,44.47068],[24.013384,46.595885],[24.329,50.776322],[18.289963,52.819052],[12.345747,50.554275]]]}},{"type":"Feature","properties":{"hex_id":"811ebffffffffff","population":42059136,"population_year":2025,"area_km2":647632.6,"population_density":64.9,"all_players":3,"players_per_million":0.07,"player_ids":["formula:gabrielemini","formula:kimiantonelli","formula:nicolamarinangeli"],"label":"Palermo","country":"Italy"},"geometry":{"type":"Polygon","coordinates":[[[7.509948,43.786609],[8.045142,39.402136],[13.244313,37.523712],[18.32526,39.988178],[18.31474,44.47068],[12.677318,46.406957],[7.509948,43.786609]]]}},{"type":"Feature","properties":{"hex_id":"811efffffffffff","population":50991723,"population_year":2025,"area_km2":666617.1,"population_density":76.5,"all_players":1,"players_per_million":0.02,"player_ids":["formula:nikolatsolov"],"label":"Sofia","country":"Bulgaria"},"geometry":{"type":"Polygon","coordinates":[[[18.31474,44.47068],[18.32526,39.988178],[23.474781,37.630343],[28.846869,39.643311],[29.387082,44.107766],[24.013384,46.595885],[18.31474,44.47068]]]}},{"type":"Feature","properties":{"hex_id":"811f3ffffffffff","population":49754999,"population_year":2025,"area_km2":510516.1,"population_density":97.5,"all_players":3,"players_per_million":0.06,"player_ids":["formula:albahuruplarsen","formula:ninagademan","formula:timtramnitz"],"label":"Roskilde","country":"Denmark"},"geometry":{"type":"Polygon","coordinates":[[[5.523647,55.706768],[6.259687,51.96477],[12.345747,50.554275],[18.289963,52.819052],[18.275236,56.632953],[11.555978,58.130531],[5.523647,55.706768]]]}},{"type":"Feature","properties":{"hex_id":"811fbffffffffff","population":119418410,"population_year":2025,"area_km2":565620.1,"population_density":211.1,"all_players":8,"players_per_million":0.07,"player_ids":["formula:dorianepin","formula:isackhadjar","formula:leonardofornaroli","formula:mathildapaatz","formula:maxverstappen","formula:nicohulkenberg","formula:tinahausmann","formula:victormartins"],"label":"Ivry-sur-Seine","country":"France"},"geometry":{"type":"Polygon","coordinates":[[[1.18851,49.470279],[2.026569,45.184249],[7.509948,43.786609],[12.677318,46.406957],[12.345747,50.554275],[6.259687,51.96477],[3.630009,50.610463],[1.18851,49.470279]]]}},{"type":"Feature","properties":{"hex_id":"8126bffffffffff","population":8947665,"population_year":2025,"area_km2":647632.6,"population_density":13.8,"all_players":1,"players_per_million":0.11,"player_ids":["formula:liablock"],"label":"Park City","country":"United States"},"geometry":{"type":"Polygon","coordinates":[[[-104.454816,36.494369],[-101.04033,40.088597],[-103.535954,44.08338],[-109.788387,44.413071],[-113.046271,40.72062],[-110.257485,36.800197],[-104.454816,36.494369]]]}},{"type":"Feature","properties":{"hex_id":"8128fffffffffff","population":14259378,"population_year":2025,"area_km2":523941.7,"population_density":27.2,"all_players":1,"players_per_million":0.07,"player_ids":["formula:nicolehavrda"],"label":"Courtenay","country":"Canada"},"geometry":{"type":"Polygon","coordinates":[[[-122.134831,44.057691],[-119.232215,47.804097],[-120.907545,49.395034],[-123.122866,50.984711],[-128.909854,50.154512],[-131.290159,46.416948],[-127.958662,43.419208],[-122.134831,44.057691]]]}},{"type":"Feature","properties":{"hex_id":"8129bffffffffff","population":31485482,"population_year":2025,"area_km2":666617.1,"population_density":47.2,"all_players":1,"players_per_million":0.03,"player_ids":["formula:courtneycrone"],"label":"Riverside","country":"United States"},"geometry":{"type":"Polygon","coordinates":[[[-113.268008,32.856905],[-110.257485,36.800197],[-113.046271,40.72062],[-119.002282,40.570572],[-121.707157,36.574218],[-118.804528,32.779438],[-113.268008,32.856905]]]}},{"type":"Feature","properties":{"hex_id":"812a3ffffffffff","population":39671228,"population_year":2025,"area_km2":595741.2,"population_density":66.6,"all_players":2,"players_per_million":0.05,"player_ids":["formula:aurelianobels","formula:ugougochukwu"],"label":"Boston","country":"United States"},"geometry":{"type":"Polygon","coordinates":[[[-69.955068,44.277849],[-75.333452,42.029564],[-75.063317,37.849069],[-70.311412,35.933887],[-65.448142,37.822091],[-64.835193,41.948534],[-69.955068,44.277849]]]}},{"type":"Feature","properties":{"hex_id":"812bbffffffffff","population":23927662,"population_year":2025,"area_km2":666617.1,"population_density":35.9,"all_players":1,"players_per_million":0.04,"player_ids":["formula:lancestroll"],"label":"Montreal","country":"Canada"},"geometry":{"type":"Polygon","coordinates":[[[-76.057729,50.990211],[-81.919627,48.295316],[-80.982253,43.86012],[-75.333452,42.029564],[-69.955068,44.277849],[-69.719479,48.757432],[-76.057729,50.990211]]]}},{"type":"Feature","properties":{"hex_id":"812f7ffffffffff","population":38419612,"population_year":2025,"area_km2":565620.1,"population_density":67.9,"all_players":2,"players_per_million":0.05,"player_ids":["formula:ritomomiyata","formula:yukitsunoda"],"label":"Zushi","country":"Japan"},"geometry":{"type":"Polygon","coordinates":[[[145.91104,30.789834],[144.831325,35.18743],[139.948213,36.441778],[136.697641,33.378798],[137.3956,31.331749],[137.800087,29.424814],[142.433222,27.949606],[145.91104,30.789834]]]}},{"type":"Feature","properties":{"hex_id":"81393ffffffffff","population":34532782,"population_year":2025,"area_km2":647632.6,"population_density":53.3,"all_players":2,"players_per_million":0.06,"player_ids":["formula:carlossainzjr","formula:fernandoalonso"],"label":"Madrid","country":"Spain"},"geometry":{"type":"Polygon","coordinates":[[[-8.101589,44.050631],[-12.384127,40.869133],[-10.744488,36.38323],[-5.442348,35.124424],[-1.416234,38.115997],[-2.417796,42.54048],[-8.101589,44.050631]]]}},{"type":"Feature","properties":{"hex_id":"81397ffffffffff","population":31465600,"population_year":2025,"area_km2":602082.0,"population_density":52.3,"all_players":7,"players_per_million":0.22,"player_ids":["formula:charlesleclerc","formula:charliewurz","formula:javiersagrera","formula:mariboya","formula:mayaweug","formula:pepemarti","formula:samimeguetounif"],"label":"Monte Carlo","country":"Spain"},"geometry":{"type":"Polygon","coordinates":[[[-2.417796,42.54048],[-1.416234,38.115997],[0.238716,37.588846],[3.543589,36.597898],[8.045142,39.402136],[7.509948,43.786609],[2.026569,45.184249],[-2.417796,42.54048]]]}},{"type":"Feature","properties":{"hex_id":"81413ffffffffff","population":120800976,"population_year":2025,"area_km2":595741.2,"population_density":202.8,"all_players":2,"players_per_million":0.02,"player_ids":["formula:chloechambers","formula:gerrardxie"],"label":"Guangdong","country":"People's Republic of China"},"geometry":{"type":"Polygon","coordinates":[[[118.803002,19.252195],[117.990477,23.508952],[113.703767,25.199133],[110.205767,22.499632],[111.205113,18.077041],[115.517768,16.517912],[118.803002,19.252195]]]}},{"type":"Feature","properties":{"hex_id":"8144bffffffffff","population":13618822,"population_year":2025,"area_km2":510516.1,"population_density":26.7,"all_players":2,"players_per_million":0.15,"player_ids":["formula:bradbenavides","formula:sebastianmontoya"],"label":"South Florida","country":"United States"},"geometry":{"type":"Polygon","coordinates":[[[-76.831217,23.342863],[-73.868279,26.190449],[-74.640468,30.219492],[-78.735928,31.57726],[-81.966494,28.631807],[-80.82969,24.429618],[-76.831217,23.342863]]]}},{"type":"Feature","properties":{"hex_id":"8144fffffffffff","population":31558550,"population_year":2025,"area_km2":565620.1,"population_density":55.8,"all_players":1,"players_per_million":0.03,"player_ids":["formula:jakcrawford"],"label":"Charlotte","country":"United States"},"geometry":{"type":"Polygon","coordinates":[[[-81.966494,28.631807],[-78.735928,31.57726],[-79.270109,33.659462],[-79.557618,35.583567],[-84.585167,37.099589],[-88.065886,34.059836],[-86.545778,29.759287],[-81.966494,28.631807]]]}},{"type":"Feature","properties":{"hex_id":"8148bffffffffff","population":22495747,"population_year":2025,"area_km2":707475.0,"population_density":31.8,"all_players":1,"players_per_million":0.04,"player_ids":["formula:noelleon"],"label":"Monterrey","country":"Mexico"},"geometry":{"type":"Polygon","coordinates":[[[-97.905634,23.589794],[-94.743568,27.264006],[-96.66289,31.619531],[-102.093235,32.268747],[-105.250678,28.43866],[-103.011626,24.121727],[-97.905634,23.589794]]]}},{"type":"Feature","properties":{"hex_id":"8149bffffffffff","population":82320512,"population_year":2025,"area_km2":707475.0,"population_density":116.4,"all_players":2,"players_per_million":0.02,"player_ids":["formula:rafaelvillagomez","formula:santiagoramos"],"label":"León de Los Aldama","country":"Mexico"},"geometry":{"type":"Polygon","coordinates":[[[-99.004086,15.55132],[-96.05021,19.269007],[-97.905634,23.589794],[-103.011626,24.121727],[-105.946435,20.212679],[-103.819339,15.969878],[-99.004086,15.55132]]]}},{"type":"Feature","properties":{"hex_id":"81603ffffffffff","population":130572120,"population_year":2025,"area_km2":595741.2,"population_density":219.2,"all_players":1,"players_per_million":0.01,"player_ids":["formula:kushmaini"],"label":"Bengaluru","country":"India"},"geometry":{"type":"Polygon","coordinates":[[[79.170565,9.844673],[77.800917,14.162484],[73.552971,14.946524],[70.86173,11.593032],[72.193634,7.473864],[76.264085,6.511601],[79.170565,9.844673]]]}},{"type":"Feature","properties":{"hex_id":"81653ffffffffff","population":56430944,"population_year":2025,"area_km2":707475.0,"population_density":79.8,"all_players":1,"players_per_million":0.02,"player_ids":["formula:christianho"],"label":"Singapore","country":"Singapore"},"geometry":{"type":"Polygon","coordinates":[[[106.411683,2.770303],[105.357168,7.303219],[100.801361,8.618891],[97.373041,5.289412],[98.560859,0.741795],[103.053645,-0.468955],[106.411683,2.770303]]]}},{"type":"Feature","properties":{"hex_id":"8165bffffffffff","population":97524895,"population_year":2025,"area_km2":707475.0,"population_density":137.8,"all_players":1,"players_per_million":0.01,"player_ids":["formula:tasanapolinthraphuvasak"],"label":"Bangkok","country":"Thailand"},"geometry":{"type":"Polygon","coordinates":[[[108.772478,10.507688],[107.742624,15.063301],[103.137733,16.48245],[99.621042,13.236333],[100.801361,8.618891],[105.357168,7.303219],[108.772478,10.507688]]]}},{"type":"Feature","properties":{"hex_id":"8181bffffffffff","population":21939270,"population_year":2025,"area_km2":707475.0,"population_density":31.0,"all_players":1,"players_per_million":0.05,"player_ids":["formula:rafaelcamara"],"label":"Recife","country":"Brazil"},"geometry":{"type":"Polygon","coordinates":[[[-32.577536,-12.754155],[-30.225126,-8.70174],[-32.528268,-4.64962],[-37.243135,-4.606029],[-39.695155,-8.696744],[-37.348487,-12.792371],[-32.577536,-12.754155]]]}},{"type":"Feature","properties":{"hex_id":"818e7ffffffffff","population":16354493,"population_year":2025,"area_km2":707475.0,"population_density":23.1,"all_players":1,"players_per_million":0.06,"player_ids":["formula:matiaszagazeta"],"label":"Lima","country":"Peru"},"geometry":{"type":"Polygon","coordinates":[[[-79.036844,-10.410684],[-81.898882,-14.26415],[-79.899742,-18.555033],[-75.001372,-18.920583],[-72.257376,-15.063301],[-74.275639,-10.846247],[-79.036844,-10.410684]]]}},{"type":"Feature","properties":{"hex_id":"81a83ffffffffff","population":63293155,"population_year":2025,"area_km2":595741.2,"population_density":106.2,"all_players":2,"players_per_million":0.03,"player_ids":["formula:fernandobarrichello","formula:gabrielbortoleto"],"label":"São Paulo","country":"Brazil"},"geometry":{"type":"Polygon","coordinates":[[[-47.461171,-27.760044],[-44.896021,-24.304788],[-47.235943,-20.470042],[-52.046783,-20.176039],[-54.552341,-23.657242],[-52.323074,-27.407025],[-47.461171,-27.760044]]]}},{"type":"Feature","properties":{"hex_id":"81a93ffffffffff","population":11046986,"population_year":2025,"area_km2":510516.1,"population_density":21.6,"all_players":1,"players_per_million":0.09,"player_ids":["formula:rafaelaferreira"],"label":"Criciúma","country":"Brazil"},"geometry":{"type":"Polygon","coordinates":[[[-47.691623,-34.331159],[-45.096018,-31.259854],[-47.461171,-27.760044],[-52.323074,-27.407025],[-54.854902,-30.51203],[-52.605486,-33.936306],[-47.691623,-34.331159]]]}},{"type":"Feature","properties":{"hex_id":"81a97ffffffffff","population":13851468,"population_year":2025,"area_km2":523941.7,"population_density":26.4,"all_players":1,"players_per_million":0.07,"player_ids":["formula:joshuadurksen"],"label":"Asunción","country":"Paraguay"},"geometry":{"type":"Polygon","coordinates":[[[-54.854902,-30.51203],[-52.323074,-27.407025],[-54.552341,-23.657242],[-59.153405,-23.133384],[-60.358535,-24.728661],[-61.529913,-26.578843],[-59.496606,-29.892985],[-54.854902,-30.51203]]]}},{"type":"Feature","properties":{"hex_id":"81bb3ffffffffff","population":1275828,"population_year":2025,"area_km2":602082.0,"population_density":2.1,"all_players":1,"players_per_million":0.78,"player_ids":["formula:liamlawson"],"label":"Hastings","country":"New Zealand"},"geometry":{"type":"MultiPolygon","coordinates":[[[[-180.0,-37.582832],[-179.761284,-37.588846],[-177.984745,-37.664358],[-175.131668,-41.580315],[-177.973431,-45.184249],[-180.0,-45.219479],[-180.0,-37.582832]]],[[[180.0,-45.219479],[176.129353,-45.286766],[173.535818,-41.30856],[176.688659,-37.499409],[180.0,-37.582832],[180.0,-45.219479]]]]}},{"type":"Feature","properties":{"hex_id":"81be7ffffffffff","population":7973734,"population_year":2025,"area_km2":707475.0,"population_density":11.3,"all_players":4,"players_per_million":0.5,"player_ids":["formula:aivaanagnostiadis","formula:jameswharton","formula:joanneciconte","formula:oscarpiastri"],"label":"Melbourne","country":"Australia"},"geometry":{"type":"Polygon","coordinates":[[[149.839959,-37.608844],[148.729494,-32.935272],[143.536871,-31.277795],[139.129671,-34.088237],[139.652226,-38.734209],[145.182884,-40.615783],[149.839959,-37.608844]]]}},{"type":"Feature","properties":{"hex_id":"81bebffffffffff","population":4369258,"population_year":2025,"area_km2":707475.0,"population_density":6.2,"all_players":1,"players_per_million":0.23,"player_ids":["formula:jackdoohan"],"label":"Gold Coast","country":"Australia"},"geometry":{"type":"Polygon","coordinates":[[[161.882144,-27.596488],[160.312535,-23.16469],[155.419957,-21.999746],[151.703594,-25.170738],[152.877292,-29.753699],[158.196039,-31.026208],[161.882144,-27.596488]]]}},{"type":"Feature","properties":{"hex_id":"81c2fffffffffff","population":24752838,"population_year":2025,"area_km2":447684.2,"population_density":55.3,"all_players":1,"players_per_million":0.04,"player_ids":["formula:francocolapinto"],"label":"Pilar","country":"Argentina"},"geometry":{"type":"Polygon","coordinates":[[[-55.164004,-36.642936],[-52.605486,-33.936306],[-54.854902,-30.51203],[-59.496606,-29.892985],[-61.882735,-33.439024],[-59.788176,-36.394827],[-58.309846,-36.205283],[-55.164004,-36.642936]]]}}]}